{"type":"FeatureCollection","features":[{"type":"Feature","geometry":null,"properties":{"source":"ua_mod","source_name":"Ministry of Defence of Ukraine","group":"official_ua","id":16258,"posted_utc":"2026-09-26T08:31:44+00:00","link":"https://t.me/ministry_of_defense_ua/16258","text":"💥 Уражено шість стратегічних НПЗ ворога на мільйони доларів на відстані від 200 до 1600 км від лінії фронту.\nТакого удару по паливно-енергетичному комплексу росії у відповідь на терор завдала Україна за цей тиждень. Це ключові об'єкти оборонки агресора, які живили пальним і електронікою російські окупаційні війська.\nСеред ключових цілей тижня:\n🔥 Московський НПЗ. Ураження заводу потужністю 12 млн тонн нафти на рік вкотре довело відсутність безпечних зон у рф. Виведено з ладу ключові установки переробки нафти.\n🔥 Пермський НПЗ. Високоточний удар по промисловому гіганту потужністю 13 млн тонн нафти на рік, що забезпечував пальним підрозділи агресора.\n🔥 Новошахтинський НПЗ. Уражено паливне підприємство потужністю 7,5 млн тонн нафти на рік.\n🔥 «Башнефть-УНПЗ». Завдано вогневого ураження по підприємству глибокої переробки нафти (7,5 млн тонн на рік).\n🔥 Куйбишевський НПЗ. Під атакою опинився один із ключових заводів «Роснефти» потужністю 7 млн тонн.\n🔥 Ільський НПЗ. Підприємство переробляє близько 6,6 млн тонн нафти на рік, а його продукція використовується для потреб російської армії.\n🔥 Завод «Іскра». Уражено підприємство, що виготовляє електронні компоненти для озброєння рф - зокрема елементи для керованих авіаракет та ЗРГК «Панцирь».\nПродовжуємо системно позбавляти Кремль матеріально-технічних ресурсів для ведення війни. Наші deep- та middle-страйки є закономірною і справедливою відповіддю на російський терор, щоденні обстріли українських міст, цивільної інфраструктури та нашої енергетики.\nросія буде позбавлена ресурсів для ведення війни проти України!","links":[]}},{"type":"Feature","geometry":null,"properties":{"source":"ua_mod","source_name":"Ministry of Defence of Ukraine","group":"official_ua","id":16259,"posted_utc":"2026-09-26T11:35:54+00:00","link":"https://t.me/ministry_of_defense_ua/16259","text":"✅ Кабінет Міністрів схвалив законопроєкт Міноборони, який визначає, як діяти військовослужбовцю, якщо під час виконання наказу виникає конфлікт інтересів.\nГоловне:\n▪️ Військовослужбовець має повідомити безпосереднього командира про конфлікт інтересів не пізніше наступного робочого дня.\n▪️ Командир, який віддав наказ, має вжити заходів для врегулювання конфлікту.\n▪️ Командири повинні забезпечувати дотримання антикорупційних правил підлеглими.\nДокумент також визначає перелік посадових осіб, на яких поширюються антикорупційні обмеження – щодо використання службового становища, одержання подарунків, сумісництва та спільної роботи близьких осіб.","links":["https://mod.gov.ua/news/skhvaleno-alhorytm-vrehuliuvannia-konfliktu-interesiv-dlia-viiskovosluzhbovtsiv?utm_source=mod-telegram&utm_medium=social"]}}]}