{"type":"FeatureCollection","features":[{"type":"Feature","geometry":null,"properties":{"source":"ua_mod","source_name":"Ministry of Defence of Ukraine","group":"official_ua","id":16159,"posted_utc":"2026-09-07T11:00:27+00:00","link":"https://t.me/ministry_of_defense_ua/16159","text":"🤝 Україна розраховує на посилення підтримки партнерів, щоб зменшувати здатність росії вести війну.\nМіністр оборони України Євгеній Хмара та Головнокомандувач ЗСУ Михайло Драпатий зустрілися з радниками з питань національної безпеки Франції, Німеччини та Великої Британії – Емманюелем Бонном, Гюнтером Зауттером і Джонатаном Пауеллом.\nРазом вони поінформували партнерів про ситуацію на полі бою, стратегію та дії Сил оборони, зокрема на сході України.\nЄвгеній Хмара підкреслив, що Україна готується до можливого оголошення росією нової хвилі мобілізації. Обговорили потенційні виклики та потреби в засобах, які дозволять зменшувати російський потенціал вести війну.\nВажливий напрям – deep strike. Це один із інструментів, щоб позбавляти росію можливості фінансувати агресію проти України. Водночас необхідною залишається комплексна робота з партнерами для посилення санкційного тиску на росію.\nТакож поінформували про пріоритети України щодо захисту неба. Фокус – на пришвидшенні реалізації антибалістичного проєкту FREYJA. Передали партнерам конкретний перелік потреб, необхідних для його завершення.\nОкремо говорили про потенціал співпраці в когнітивному домені.\nЄвгеній Хмара наголосив, що Україна готова розвивати взаємовигідні проєкти, які посилюватимуть обидві сторони.","links":[],"original_html":"<div class=\"tgme_widget_message_text js-message_text\" dir=\"auto\"><b><i class=\"emoji\" style=\"background-image:url('//telegram.org/img/emoji/40/F09FA49D.png')\"><b>🤝</b></i> Україна розраховує на посилення підтримки партнерів, щоб зменшувати здатність росії вести війну.</b><br/><br/>Міністр оборони України Євгеній Хмара та Головнокомандувач ЗСУ Михайло Драпатий зустрілися з радниками з питань національної безпеки Франції, Німеччини та Великої Британії – Емманюелем Бонном, Гюнтером Зауттером і Джонатаном Пауеллом.<br/><br/>Разом вони поінформували партнерів про ситуацію на полі бою, стратегію та дії Сил оборони, зокрема на сході України.<br/><br/>Євгеній Хмара підкреслив, що Україна готується до можливого оголошення росією нової хвилі мобілізації. Обговорили потенційні виклики та потреби в засобах, які дозволять зменшувати російський потенціал вести війну.<br/><br/>Важливий напрям – deep strike. Це один із інструментів, щоб позбавляти росію можливості фінансувати агресію проти України. Водночас необхідною залишається комплексна робота з партнерами для посилення санкційного тиску на росію.<br/><br/>Також поінформували про пріоритети України щодо захисту неба. Фокус – на пришвидшенні реалізації антибалістичного проєкту FREYJA. Передали партнерам конкретний перелік потреб, необхідних для його завершення.<br/><br/>Окремо говорили про потенціал співпраці в когнітивному домені.<br/><br/>Євгеній Хмара наголосив, що Україна готова розвивати взаємовигідні проєкти, які посилюватимуть обидві сторони."}},{"type":"Feature","geometry":null,"properties":{"source":"ua_mod","source_name":"Ministry of Defence of Ukraine","group":"official_ua","id":16163,"posted_utc":"2026-09-07T12:22:36+00:00","link":"https://t.me/ministry_of_defense_ua/16163","text":"✅ Понад 25 000 логістичних та евакуаційних місій виконали наземні роботизовані комплекси у серпні. Це у 3,3 раза більше, ніж у січні.\nНРК працюють на найнебезпечніших ділянках замість людей: доставляють боєприпаси, воду й харчування, а також евакуюють поранених. Від початку року в бойовій системі DELTA вже зафіксовано близько 112 000 таких місій. Їх кількість зростає щомісяця.\nПаралельно Міноборони масштабує закупівлі НРК: минулого місяця Агенція оборонних закупівель ДОТ вперше оголосила конкурентний тендер на такі комплекси.\nРеалізуємо технологічну перевагу над ворогом. Бережемо життя та здоровʼя українських військових.","links":["https://mod.gov.ua/news/pratsiuiut-roboty-syly-oborony-u-ponad-3-razy-zbilshyly-vykorystannia-nrk?utm_source=mod-telegram&utm_medium=social"],"original_html":"<b><i class=\"emoji\" style=\"background-image:url('//telegram.org/img/emoji/40/E29C85.png')\"><b>✅</b></i> Понад 25 000 логістичних та евакуаційних місій виконали наземні роботизовані комплекси у серпні. Це у 3,3 раза більше, ніж у січні.</b><br/><br/>НРК працюють на найнебезпечніших ділянках замість людей: доставляють боєприпаси, воду й харчування, а також евакуюють поранених. Від початку року в бойовій системі DELTA вже зафіксовано <a href=\"https://mod.gov.ua/news/pratsiuiut-roboty-syly-oborony-u-ponad-3-razy-zbilshyly-vykorystannia-nrk?utm_source=mod-telegram&amp;amp;utm_medium=social\" target=\"_blank\" rel=\"noopener\" onclick=\"return confirm('Open this link?\\n\\n'+this.href);\">близько 112 000 таких місій.</a> Їх кількість зростає щомісяця.<br/><br/>Паралельно Міноборони масштабує закупівлі НРК: минулого місяця Агенція оборонних закупівель ДОТ вперше оголосила конкурентний тендер на такі комплекси.<br/><br/>Реалізуємо технологічну перевагу над ворогом. Бережемо життя та здоровʼя українських військових."}},{"type":"Feature","geometry":null,"properties":{"source":"ua_mod","source_name":"Ministry of Defence of Ukraine","group":"official_ua","id":16164,"posted_utc":"2026-09-07T17:42:59+00:00","link":"https://t.me/ministry_of_defense_ua/16164","text":"🚫 Українська компанія увійшла до трійки переможців конкурсу НАТО з пошуку технологій для тривалого блокування аеродромів противника.\nЧелендж Persistent Airfield Denial Challenge проводить Командування НАТО з трансформації та Спільний центр НАТО-Україна з аналізу, підготовки та освіти (JATEC). Знайдені рішення мають обмежити використання ворогом аеродромної інфраструктури та авіації.\nОрганізатори отримали понад 60 заявок. До фіналу у Варшаві відібрали 9 команд. Українські розробники посіли третє місце з модулем штучного інтелекту для наведення на ціль, що має підвищувати автономність і точність систем ураження.\nВажливі умови конкурсу: автономність і масштабованість технологій, стійкість до РЕБ, здатність працювати за обмеженого доступу до навігації й зв’язку.\nНаступним етапом стане тестування конкурсних рішень.","links":["https://mod.gov.ua/news/ukrainska-kompaniia-sered-peremozhtsiv-konkursu-nato-blokuvannia-aerodromiv-protyvnyka?utm_source=mod-telegram&utm_medium=social"],"original_html":"<b><i class=\"emoji\" style=\"background-image:url('//telegram.org/img/emoji/40/F09F9AAB.png')\"><b>🚫</b></i> Українська компанія увійшла до трійки переможців конкурсу НАТО з пошуку технологій для тривалого блокування аеродромів противника. </b><br/><br/>Челендж <a href=\"https://mod.gov.ua/news/ukrainska-kompaniia-sered-peremozhtsiv-konkursu-nato-blokuvannia-aerodromiv-protyvnyka?utm_source=mod-telegram&amp;amp;utm_medium=social\" target=\"_blank\" rel=\"noopener\" onclick=\"return confirm('Open this link?\\n\\n'+this.href);\">Persistent Airfield Denial Challenge</a> проводить Командування НАТО з трансформації та Спільний центр НАТО-Україна з аналізу, підготовки та освіти (JATEC). Знайдені рішення мають обмежити використання ворогом аеродромної інфраструктури та авіації.<br/><br/>Організатори отримали понад 60 заявок. До фіналу у Варшаві відібрали 9 команд. Українські розробники посіли третє місце з модулем штучного інтелекту для наведення на ціль, що має підвищувати автономність і точність систем ураження.<br/><br/>Важливі умови конкурсу: автономність і масштабованість технологій, стійкість до РЕБ, здатність працювати за обмеженого доступу до навігації й зв’язку.<br/><br/>Наступним етапом стане тестування конкурсних рішень."}},{"type":"Feature","geometry":null,"properties":{"source":"ua_mod","source_name":"Ministry of Defence of Ukraine","group":"official_ua","id":16157,"posted_utc":"2026-09-07T06:34:39+00:00","link":"https://t.me/ministry_of_defense_ua/16157","text":"🦉 Міністр оборони України Євгеній Хмара привітав представників воєнної розвідки з професійним святом.\nВоїни-розвідники щодня здобувають інформацію, від якої залежать рішення на полі бою, завдають ворогу значних втрат та послаблюють здатність росії вести війну.\nЗа кожною успішною операцією часто стоїть робота, якої ніхто не бачить: години підготовки, спостереження, аналізу, холодного розрахунку та витримки. Саме це дає змогу Силам оборони діяти на випередження та змінювати хід бойових дій.\nЦя служба вимагає величезної відповідальності. За кожне рішення, за збереження життя побратимів і успіх бойових операцій.\nМіністр подякував кожному українському розвіднику за рішучість та професійність.\nШануємо пам’ять воїнів розвідки, які віддали життя під час виконання бойових завдань.\nСлава Україні!","links":[],"original_html":"<tg-emoji emoji-id=\"5253588732153436255\"><i class=\"emoji\" style=\"background-image:url('//telegram.org/img/emoji/40/F09FA689.png')\"><b>🦉</b></i></tg-emoji> <b>Міністр оборони України Євгеній Хмара привітав представників воєнної розвідки з професійним святом.</b><br/><br/>Воїни-розвідники щодня здобувають інформацію, від якої залежать рішення на полі бою, завдають ворогу значних втрат та послаблюють здатність росії вести війну.<br/><br/>За кожною успішною операцією часто стоїть робота, якої ніхто не бачить: години підготовки, спостереження, аналізу, холодного розрахунку та витримки. Саме це дає змогу Силам оборони діяти на випередження та змінювати хід бойових дій.<br/><br/>Ця служба вимагає величезної відповідальності. За кожне рішення, за збереження життя побратимів і успіх бойових операцій.  <br/><br/>Міністр подякував кожному українському розвіднику за рішучість та професійність.<br/><br/>Шануємо пам’ять воїнів розвідки, які віддали життя під час виконання бойових завдань.<br/><br/>Слава Україні&#33;"}},{"type":"Feature","geometry":null,"properties":{"source":"ua_mod","source_name":"Ministry of Defence of Ukraine","group":"official_ua","id":16158,"posted_utc":"2026-09-07T08:37:19+00:00","link":"https://t.me/ministry_of_defense_ua/16158","text":"❗️ Україна передала НАТО перелік нагальних потреб у протиповітряній та протиракетній обороні напередодні «Рамштайну».\nДля цього у штаб-квартирі НАТО в Брюсселі скликали позачергове засідання Ради Україна–НАТО під головуванням Генерального секретаря Альянсу Марка Рютте.\nУкраїнська сторона представила союзникам оцінку актуальних повітряних загроз і закликала швидше надавати додаткове озброєння.\n«Своєчасність наразі важливіша за обсяги. Дрони та засоби ППО визначать хід цієї зими», – наголосив заступник Міністра оборони Сергій Боєв.\nПосилення ППО та ПРО буде одним із ключових питань найближчого засідання у форматі «Рамштайн» 8 вересня.","links":["https://mod.gov.ua/news/ukrayina-zaklikala-nato-priskoriti-posilennya-ppo-ta-pro-naperedodni-ramshtajnu?utm_source=mod-telegram&utm_medium=social"],"original_html":"<b><i class=\"emoji\" style=\"background-image:url('//telegram.org/img/emoji/40/E29D97.png')\"><b>❗️</b></i> Україна передала НАТО перелік нагальних потреб у протиповітряній та протиракетній обороні напередодні «Рамштайну».</b><br/><br/>Для цього у штаб-квартирі НАТО в Брюсселі скликали <a href=\"https://mod.gov.ua/news/ukrayina-zaklikala-nato-priskoriti-posilennya-ppo-ta-pro-naperedodni-ramshtajnu?utm_source=mod-telegram&amp;amp;utm_medium=social\" target=\"_blank\" rel=\"noopener\" onclick=\"return confirm('Open this link?\\n\\n'+this.href);\">позачергове засідання Ради Україна–НАТО</a> під головуванням Генерального секретаря Альянсу Марка Рютте.<br/><br/>Українська сторона представила союзникам оцінку актуальних повітряних загроз і закликала швидше надавати додаткове озброєння.<br/><br/>«Своєчасність наразі важливіша за обсяги. Дрони та засоби ППО визначать хід цієї зими», – наголосив заступник Міністра оборони Сергій Боєв.<br/><br/>Посилення ППО та ПРО буде одним із ключових питань найближчого засідання у форматі «Рамштайн» 8 вересня."}}]}