{"type":"FeatureCollection","features":[{"type":"Feature","geometry":{"type":"Point","coordinates":[40.025891,44.675072]},"properties":{"original":{"id":47430,"type":"Airplanes","model":"Unknown fighter aircraft","status":"Destroyed","lost_by":"Russia","date":"2026-10-04","nearest_location":"Khanskaya airbase, Maykop urban okrug","geo":"44.675072,40.025891","unit":null,"tags":null},"source":"warspotting","source_name":"WarSpotting","source_url":"https://ukr.warspotting.net/","id":47430,"date":"2026-10-04","link":"https://ukr.warspotting.net/view/47430/","category":"Airplanes","side":"Lost by Russia","color":"#E00000","description":"Unknown fighter aircraft · Destroyed · near Khanskaya airbase, Maykop urban okrug","orbat":[]}},{"type":"Feature","geometry":{"type":"Point","coordinates":[40.023171,44.673169]},"properties":{"original":{"id":47431,"type":"Airplanes","model":"Unknown fighter aircraft","status":"Destroyed","lost_by":"Russia","date":"2026-10-04","nearest_location":"Khanskaya airbase, Maykop urban okrug","geo":"44.673169,40.023171","unit":null,"tags":null},"source":"warspotting","source_name":"WarSpotting","source_url":"https://ukr.warspotting.net/","id":47431,"date":"2026-10-04","link":"https://ukr.warspotting.net/view/47431/","category":"Airplanes","side":"Lost by Russia","color":"#E00000","description":"Unknown fighter aircraft · Destroyed · near Khanskaya airbase, Maykop urban okrug","orbat":[]}}]}