{"type":"FeatureCollection","features":[{"type":"Feature","geometry":{"type":"MultiPolygon","coordinates":[[[[37.64637,49.83221],[37.64868,49.83032],[37.64869,49.83031],[37.6563,49.82413],[37.66036,49.82506],[37.6634,49.82456],[37.66418,49.82151],[37.66243,49.82058],[37.66259,49.81802],[37.65781,49.81571],[37.64526,49.82048],[37.64148,49.82481],[37.63753,49.82559],[37.62938,49.82691],[37.64637,49.83221]]],[[[37.64552,49.84855],[37.64513,49.85082],[37.6444,49.85503],[37.63442,49.85758],[37.63857,49.86348],[37.64485,49.86019],[37.65373,49.85862],[37.66178,49.85443],[37.66182,49.85184],[37.66051,49.85096],[37.65127,49.84241],[37.64552,49.84855]]]]},"properties":{"source":"ukrdaily","source_name":"UkrDailyUpdate","source_url":"https://map.ukrdailyupdate.com/","category":"lost","category_label":"Ukrainian advance: became Ukrainian-held","period":"1d","compared_with":"2026-09-02","snapshot_time":"2026-09-03","area_km2_approx":3.8}},{"type":"Feature","geometry":{"type":"MultiPolygon","coordinates":[[[[37.93288,49.1948],[37.93403,49.19576],[37.9352,49.19214],[37.9352,49.19214],[37.93288,49.1948]]],[[[37.65373,49.85862],[37.64488,49.86018],[37.64962,49.86325],[37.65298,49.86327],[37.65442,49.86047],[37.65965,49.86018],[37.65878,49.85724],[37.65373,49.85862]]]]},"properties":{"source":"ukrdaily","source_name":"UkrDailyUpdate","source_url":"https://map.ukrdailyupdate.com/","category":"occupied_to_contested","category_label":"Occupied became contested","period":"1d","compared_with":"2026-09-02","snapshot_time":"2026-09-03","area_km2_approx":0.3}},{"type":"Feature","geometry":{"type":"MultiPolygon","coordinates":[[[[36.13512,47.82996],[36.13591,47.83142],[36.13608,47.83267],[36.14211,47.83293],[36.14274,47.8317],[36.14675,47.83045],[36.14674,47.83034],[36.13727,47.83006],[36.13512,47.82996]]],[[[35.90429,47.53364],[35.90521,47.53527],[35.90716,47.53693],[35.91461,47.53507],[35.91184,47.5322],[35.90429,47.53364]]]]},"properties":{"source":"ukrdaily","source_name":"UkrDailyUpdate","source_url":"https://map.ukrdailyupdate.com/","category":"ukrainian_to_contested","category_label":"Ukrainian-held became contested","period":"1d","compared_with":"2026-09-02","snapshot_time":"2026-09-03","area_km2_approx":0.4}}]}