{"type":"FeatureCollection","features":[{"type":"Feature","geometry":null,"properties":{"source":"ru_mod","source_name":"Ministry of Defence of Russia","group":"official_ru","id":67765,"posted_utc":"2026-09-30T02:06:01+00:00","link":"https://t.me/mod_russia/67765","text":"🌪 Стихия противника не щадит: «Торнадо» стерло скопление живой силы ВСУ под Красным Лиманом.\nОтработали артиллеристы 20-й гвардейской общевойсковой армии группировки войск «Запад».\n💥 Канал Минобороны России в MAКС – боевая работа 24/7. Присоединяйся!","links":["https://max.ru/morf"]}},{"type":"Feature","geometry":null,"properties":{"source":"ru_mod","source_name":"Ministry of Defence of Russia","group":"official_ru","id":67766,"posted_utc":"2026-09-30T03:32:01+00:00","link":"https://t.me/mod_russia/67766","text":"▫️ Яков дронов не боится\n▫️ Знакомьтесь: Яков, наводчик-оператор танка Т-80БВМ, служит в 10-м гвардейском танковом полку группировки «Южная». Танковые экипажи регулярно поддерживают пехоту, нанося удары с закрытых огневых позиций по живой силе и укреплениям врага. Корректировку огня при этом ведут операторы БПЛА.\n🤖 Работа танкистов усложнилась из-за массового применения дронов. Свою первую боевую задачу экипаж Т-80БВМ выполнял на одном из сложных участков фронта – тогда они уничтожили группу ВСУ, но позицию сразу же вскрыла воздушная разведка противника.\n«Мы наносили удар очень близко к \"воздушной трассе\", по которой постоянно летали дроны врага. Из-за этого после демаскировки по нам почти сразу отработали два \"камикадзе\"», — вспоминает Яков в интервью корреспонденту газеты «Военный вестник Юга России».\n❤️ «Мне моя работа нравится. Привык и даже полюбил я танковое дело», – признается гвардеец.\n#ИсторииСВОих\n💬 Канал Минобороны России в MAКС – только для своих!","links":["https://vk.ru/wall-201782243_23273","https://max.ru/morf"]}},{"type":"Feature","geometry":null,"properties":{"source":"ru_mod","source_name":"Ministry of Defence of Russia","group":"official_ru","id":67767,"posted_utc":"2026-09-30T05:18:21+00:00","link":"https://t.me/mod_russia/67767","text":"❗️ Сегодня ночью Вооруженными Силами Российской Федерации нанесен массированный удар высокоточным оружием наземного базирования и ударными беспилотными летательными аппаратами большой дальности, в результате которого поражены\n▫️ коммуникационный центр в Киеве,\n▫️ объекты энергетической системы Украины в Киевской области, обеспечивающие военное производство,\n▫️ инфраструктура порта Измаил.\n🔹 Минобороны России","links":["https://max.ru/morf"]}},{"type":"Feature","geometry":null,"properties":{"source":"ru_mod","source_name":"Ministry of Defence of Russia","group":"official_ru","id":67768,"posted_utc":"2026-09-30T05:26:53+00:00","link":"https://t.me/mod_russia/67768","text":"⚡️ В течение прошедшей ночи, с 20.00 мск 29 сентября до 8.00 мск 30 сентября, дежурными силами ПВО перехвачены и уничтожены 384 украинских беспилотных летательных аппарата самолетного типа над территориями Белгородской, Брянской, Волгоградской, Воронежской, Костромской, Курской, Орловской, Пензенской, Ростовской, Рязанской, Самарской, Саратовской, Ульяновской областей, Московского региона, Республики Башкортостан, Республики Крым, Республики Татарстан, Пермского края и над акваторией Черного моря.\n🔹 MAКС – территория СВОих","links":["https://max.ru/morf"]}},{"type":"Feature","geometry":null,"properties":{"source":"ru_mod","source_name":"Ministry of Defence of Russia","group":"official_ru","id":67769,"posted_utc":"2026-09-30T05:44:25+00:00","link":"https://t.me/mod_russia/67769","text":"На адреналине: марафон от наших дроноводов\n💥 Операторы БПЛА группировки «Центр» накрывают позиции ВСУ на Добропольском направлении.\n#ВойскаБПС\n▫️ Канал Минобороны России в MAКС – источник мощных новостей","links":["https://max.ru/morf"]}},{"type":"Feature","geometry":null,"properties":{"source":"ru_mod","source_name":"Ministry of Defence of Russia","group":"official_ru","id":67770,"posted_utc":"2026-09-30T06:37:58+00:00","link":"https://t.me/mod_russia/67770","text":"❗️ Сегодня ночью Вооруженными Силами Российской Федерации нанесен массированный удар высокоточным оружием наземного базирования и ударными беспилотными летательными аппаратами по коммуникационному центру в Киеве, объектам энергетической системы Украины в Киевской области, обеспечивающим военное производство, а также инфраструктуре порта Измаил.\nПоражены:\n📍 в Киеве – центр обработки данных «Де Ново», являющийся одной из основных точек обмена интернет-трафиком, обеспечивающей обработку, хранение и передачу информации в интересах ВСУ;\n📍 в Киевской области:\n▫️ электроподстанция Киевская (населенный пункт Наливайковка), обеспечивающая переток электроэнергии и ее распределение для объектов военно-промышленного комплекса в Киеве и Киевской области;\n▫️ гидроэлектростанция Киевская (населенный пункт Вышгород), обеспечивающая объекты военной промышленности в северной части Киевской области;\n▫️ тепловая электростанция Трипольская, обеспечивающая электроэнергией объекты военной промышленности в южной части Киевской области;\n▫️ аккумуляторный парк хранения энергии в населенном пункте Гореничи, использовавшийся для накопления электроэнергии в интересах бесперебойного функционирования военных объектов в Киеве и Киевской области;\n📍 в Одесской области – производственно-промышленный комплекс в порту Измаил, обеспечивавший прием, хранение\nи транспортировку военных грузов и топлива для нужд ВСУ.\n💥 Кроме того, на переходе морем в северо-западной части Черного моря поражено морское судно типа «сухогруз», доставлявшее в порт Одесса военное имущество и грузы двойного назначения для ВСУ.\n🔹 Канал Минобороны России в MAКС – боевая работа 24/7","links":["https://max.ru/morf"]}},{"type":"Feature","geometry":null,"properties":{"source":"ru_mod","source_name":"Ministry of Defence of Russia","group":"official_ru","id":67771,"posted_utc":"2026-09-30T07:35:36+00:00","link":"https://t.me/mod_russia/67771","text":"ФАБ все решает🔥\n✈️ Экипажи ВКС с применением многоцелевых управляемых ракет и фугасных авиабомб ФАБ-1500 поразили пункт управления БПЛА и пункт временной дислокации ВСУ в Харьковской области.\n🔹 Минобороны России","links":["https://max.ru/morf"]}},{"type":"Feature","geometry":null,"properties":{"source":"ru_mod","source_name":"Ministry of Defence of Russia","group":"official_ru","id":67772,"posted_utc":"2026-09-30T08:52:54+00:00","link":"https://t.me/mod_russia/67772","text":"⚡️ Подразделения группировки войск «Север» сжимают кольцо окружения формирований ВСУ на северо-востоке Харьковской области и расширяют внешнюю зону контроля.\n🚩 В кольце окружения освобожден населенный пункт Шабельное.\n▫️ Канал Минобороны России в MAКС – источник мощных новостей","links":["https://max.ru/morf"]}},{"type":"Feature","geometry":null,"properties":{"source":"ru_mod","source_name":"Ministry of Defence of Russia","group":"official_ru","id":67774,"posted_utc":"2026-09-30T08:54:07+00:00","link":"https://t.me/mod_russia/67774","text":"🚩 Подразделениями группировки войск «Север» освобожден населенный пункт Толстодубово в Сумской области.\n🔹 Канал Минобороны России в MAКС – боевая работа 24/7","links":["https://max.ru/morf"]}},{"type":"Feature","geometry":null,"properties":{"source":"ru_mod","source_name":"Ministry of Defence of Russia","group":"official_ru","id":67776,"posted_utc":"2026-09-30T08:54:16+00:00","link":"https://t.me/mod_russia/67776","text":"🚩 Подразделения группировки войск «Восток» продвинулись в глубину обороны противника и освободили населенный пункт Егоровка Запорожской области.\nПодробнее об успехах наших войск ➡️ в MAКС.","links":["https://max.ru/morf/AaDxjWcIaaM"]}},{"type":"Feature","geometry":null,"properties":{"source":"ru_mod","source_name":"Ministry of Defence of Russia","group":"official_ru","id":67778,"posted_utc":"2026-09-30T10:12:37+00:00","link":"https://t.me/mod_russia/67778","text":"«Птички» подставят крыло 🤝\n▫️ В ходе боев за населенный пункт Хижняково штурмовики 344-го мотострелкового полка 6-й гвардейской общевойсковой армии действовали под чутким контролем и поддержкой операторов БПЛА. Подробнее рассказал командир взвода беспилотных систем:\n«Мы выявили опорники противника, работали по ним, чтобы нашим штурмовикам было легче пройти. Заводили их под \"птичками\", всяко помогали. Били ТМками врага, очень хорошо разбили опорник и зашли спокойно, дозачистили весь населенный пункт. Были и разведчики, и «Баба-Яга» противника, – все сбивалось нашими \"птичками\". Союзники помогали, ПВОшники работали хорошо. Наши \"глазки\" постоянно наблюдают, также командир все передвижения наших подразделений видит, управляет ими».\n➡️ Каждый вылет приносит пользу: разведка, точные удары или поддержка СВОих. Узнай подробности на сайте Беспилотныевойска.рф и по телефону 117(доб.4).\n#ВойскаБПС\n▫️ Канал Минобороны России в MAКС – источник мощных новостей","links":["https://t.me/mod_russia/67595","http://%D0%91%D0%B5%D1%81%D0%BF%D0%B8%D0%BB%D0%BE%D1%82%D0%BD%D1%8B%D0%B5%D0%B2%D0%BE%D0%B9%D1%81%D0%BA%D0%B0.%D1%80%D1%84/","https://max.ru/morf"]}},{"type":"Feature","geometry":null,"properties":{"source":"ru_mod","source_name":"Ministry of Defence of Russia","group":"official_ru","id":67779,"posted_utc":"2026-09-30T11:01:05+00:00","link":"https://t.me/mod_russia/67779","text":"«Искандер» — такой позывной взял себе операционный медбрат отдельного медицинского отряда (аэромобильного) Ульяновского гвардейского соединения ВДВ.\nОн 15 лет отработал на гражданке, в медучреждениях Подмосковья. Опыт работы в травмпункте и челюстно-лицевой хирургии очень ценится на СВО, где нужно оказывать помощь раненым бойцам. Зная это, «Искандер» подписал контракт и ушел на СВО.\nНаш герой передает привет сыну Кириллу и бывшим коллегам из Сергиево-Посадской районной больницы.\nГерои в 📲 MAX,  📱 ВКонтакте и в 📱 Дзен","links":["https://max.ru/heroesofZ","https://vk.com/heroes0fz","http://dzen.ru/heroesofz"]}}]}