{"type":"FeatureCollection","features":[{"type":"Feature","geometry":null,"properties":{"source":"ua_mod","source_name":"Ministry of Defence of Ukraine","group":"official_ua","id":15986,"posted_utc":"2026-08-05T08:52:40+00:00","link":"https://t.me/ministry_of_defense_ua/15986","text":"📈 $1 мільярд – загальна вартість техніки та обладнання, які підрозділи Сил оборони замовили за єБали протягом першого року роботи Brave1 Market.\nПонад 400 підрозділів отримали близько 500 000 безпілотників, наземних роботизованих комплексів і засобів РЕБ/РЕР. Середній строк постачання наявних виробів скоротився до семи днів.\nВійськові отримують єБали за верифіковані бойові місії: розвідку, логістику, евакуацію поранених, ураження противника. Потім обмінюють їх на необхідну техніку.\nІнтеграція програми єБали з Brave1 Market дала бойовим командирам можливість самостійно обирати засоби відповідно до потреб. Більше виконаних місій – більше можливостей швидко посилити підрозділ.","links":[],"original_html":"<b><i class=\"emoji\" style=\"background-image:url('//telegram.org/img/emoji/40/F09F9388.png')\"><b>📈</b></i></b> <b>&#036;1 мільярд – загальна вартість техніки та обладнання, які підрозділи Сил оборони замовили за єБали протягом першого року роботи Brave1 Market.<br/></b><br/>Понад 400 підрозділів отримали близько 500 000 безпілотників, наземних роботизованих комплексів і засобів РЕБ/РЕР. Середній строк постачання наявних виробів скоротився до семи днів.<br/><br/>Військові отримують єБали за верифіковані бойові місії: розвідку, логістику, евакуацію поранених, ураження противника. Потім обмінюють їх на необхідну техніку.<br/><br/>Інтеграція програми єБали з Brave1 Market дала бойовим командирам можливість самостійно обирати засоби відповідно до потреб. Більше виконаних місій – більше можливостей швидко посилити підрозділ."}},{"type":"Feature","geometry":null,"properties":{"source":"ua_mod","source_name":"Ministry of Defence of Ukraine","group":"official_ua","id":15987,"posted_utc":"2026-08-05T10:23:16+00:00","link":"https://t.me/ministry_of_defense_ua/15987","text":"⚙️ Пільговий лізинг для оборонних підприємств: як масштабувати виробництво.\nІнструмент оренди дає змогу розподілити в часі витрати на нові верстати, технологічні лінії, транспорт, засоби автоматизації та виробничі приміщення.\n✔️Скористатися програмою лізингу можуть критично важливі підприємства ОПК.\n✔️Держава компенсує частину витрат, тому ставка для підприємства не перебільшує 5% річних.\n✔️Максимальна сума – 500 млн грн, строк – до 5 років.\n✔️ У лізинг можна отримати обладнання, транспорт або виробничі приміщення без сплати всієї суми одразу.\n🔗 Докладні умови програми","links":["https://mod.gov.ua/explanation/pilhovyi-lizynh-dlia-zbroiariv-yak-masshtabuvaty-vyrobnytstvo-ne-splachuiuchy-odrazu-povnu-vartist-obladnannia?utm_source=mod-telegram&utm_medium=social"],"original_html":"<i class=\"emoji\" style=\"background-image:url('//telegram.org/img/emoji/40/E29A99.png')\"><b>⚙️</b></i> <b>Пільговий лізинг для оборонних підприємств: як масштабувати виробництво.<br/></b><br/>Інструмент оренди дає змогу розподілити в часі витрати на нові верстати, технологічні лінії, транспорт, засоби автоматизації та виробничі приміщення.<br/><br/><i class=\"emoji\" style=\"background-image:url('//telegram.org/img/emoji/40/E29C94.png')\"><b>✔️</b></i>Скористатися програмою лізингу можуть критично важливі підприємства ОПК.<br/><i class=\"emoji\" style=\"background-image:url('//telegram.org/img/emoji/40/E29C94.png')\"><b>✔️</b></i>Держава компенсує частину витрат, тому ставка для підприємства не перебільшує 5% річних.<br/><i class=\"emoji\" style=\"background-image:url('//telegram.org/img/emoji/40/E29C94.png')\"><b>✔️</b></i>Максимальна сума – 500 млн грн, строк – до 5 років.<br/><i class=\"emoji\" style=\"background-image:url('//telegram.org/img/emoji/40/E29C94.png')\"><b>✔️</b></i> У лізинг можна отримати обладнання, транспорт або виробничі приміщення без сплати всієї суми одразу.<br/> <br/><i class=\"emoji\" style=\"background-image:url('//telegram.org/img/emoji/40/F09F9497.png')\"><b>🔗</b></i> <a href=\"https://mod.gov.ua/explanation/pilhovyi-lizynh-dlia-zbroiariv-yak-masshtabuvaty-vyrobnytstvo-ne-splachuiuchy-odrazu-povnu-vartist-obladnannia?utm_source=mod-telegram&amp;amp;utm_medium=social\" target=\"_blank\" rel=\"noopener\" onclick=\"return confirm('Open this link?\\n\\n'+this.href);\"><b>Докладні умови програми</b></a>"}}]}