{"type":"FeatureCollection","features":[{"type":"Feature","geometry":{"type":"MultiPolygon","coordinates":[[[[37.91637,48.81015],[37.91443,48.81359],[37.90959,48.83394],[37.91092,48.83561],[37.92071,48.84021],[37.92885,48.84052],[37.93253,48.81976],[37.93017,48.81688],[37.9312,48.81295],[37.93153,48.81126],[37.91637,48.81015]]],[[[37.82523,48.75642],[37.81845,48.76191],[37.83591,48.77845],[37.83682,48.77825],[37.84235,48.77777],[37.84849,48.77511],[37.87119,48.77641],[37.87226,48.78197],[37.88029,48.76967],[37.87951,48.76552],[37.8631,48.76199],[37.84636,48.76167],[37.8419,48.76326],[37.83769,48.76383],[37.83335,48.76157],[37.83141,48.76001],[37.83448,48.75188],[37.82523,48.75642]]],[[[37.80345,48.56436],[37.80315,48.56586],[37.80281,48.56976],[37.80319,48.57236],[37.80772,48.57297],[37.81141,48.5729],[37.81942,48.57537],[37.82127,48.57304],[37.81667,48.57154],[37.81456,48.56953],[37.81277,48.56732],[37.81094,48.5646],[37.80345,48.56436]]],[[[37.78567,48.6562],[37.78344,48.66596],[37.78224,48.67338],[37.785,48.67492],[37.79571,48.67999],[37.79708,48.67849],[37.80854,48.68064],[37.81091,48.66559],[37.79862,48.66385],[37.79672,48.66126],[37.79492,48.66044],[37.79414,48.65911],[37.79178,48.6581],[37.78719,48.655],[37.78567,48.6562]]],[[[37.79633,48.558],[37.79369,48.55914],[37.7894,48.5586],[37.78679,48.55898],[37.78706,48.56012],[37.78807,48.56073],[37.78942,48.56118],[37.79044,48.56176],[37.79029,48.56242],[37.79216,48.56282],[37.79176,48.56389],[37.79582,48.56406],[37.7964,48.56012],[37.79633,48.558]]],[[[37.61311,48.49609],[37.62108,48.49972],[37.62271,48.51866],[37.62405,48.52419],[37.63671,48.52569],[37.64568,48.52481],[37.64929,48.5106],[37.66187,48.50463],[37.64368,48.50287],[37.64252,48.50776],[37.62837,48.5067],[37.6302,48.49639],[37.61261,48.49474],[37.61311,48.49609]]],[[[37.60541,48.45234],[37.60683,48.45673],[37.6091,48.45721],[37.61,48.45919],[37.61125,48.45932],[37.61541,48.45727],[37.62318,48.45815],[37.62416,48.46191],[37.62712,48.46384],[37.62858,48.46677],[37.6268,48.47672],[37.61681,48.48763],[37.6217,48.48626],[37.62677,48.48177],[37.63355,48.47776],[37.63937,48.45358],[37.61597,48.44565],[37.613,48.45128],[37.60588,48.45079],[37.60348,48.45133],[37.60541,48.45234]]],[[[37.605,50.25353],[37.61307,50.25561],[37.62612,50.25575],[37.6264,50.23882],[37.60908,50.24051],[37.59706,50.24594],[37.5914,50.25094],[37.605,50.25353]]],[[[37.213,48.39606],[37.21839,48.40581],[37.20263,48.40506],[37.19962,48.40612],[37.19515,48.40479],[37.18845,48.41024],[37.18998,48.41406],[37.22282,48.41698],[37.22361,48.41961],[37.22516,48.41979],[37.23339,48.41903],[37.23559,48.41166],[37.24174,48.41143],[37.2432,48.39972],[37.22928,48.39794],[37.213,48.39606]]],[[[37.06078,48.31323],[37.06308,48.31791],[37.06523,48.31666],[37.09644,48.30781],[37.10531,48.30203],[37.113,48.29675],[37.11412,48.28725],[37.10579,48.28586],[37.06613,48.28157],[37.06078,48.31323]]],[[[37.03405,48.25961],[37.03622,48.25584],[37.04611,48.25121],[37.04626,48.24972],[37.03959,48.2464],[37.03471,48.24523],[37.02736,48.244],[37.01594,48.24258],[37.01211,48.25939],[37.01177,48.26197],[37.03405,48.25961]]],[[[36.20784,50.34212],[36.19805,50.33431],[36.19365,50.33327],[36.19003,50.33538],[36.18984,50.33902],[36.19411,50.34519],[36.20732,50.35729],[36.22126,50.36785],[36.21933,50.36412],[36.22237,50.35963],[36.22748,50.3572],[36.20784,50.34212]]]]},"properties":{"source":"ukrdaily","source_name":"UkrDailyUpdate","source_url":"https://map.ukrdailyupdate.com/","category":"gained","category_label":"Newly Russian-occupied","period":"7d","compared_with":"2026-09-06","snapshot_time":"2026-09-13","area_km2_approx":51.9}},{"type":"Feature","geometry":{"type":"MultiPolygon","coordinates":[[[[37.93288,49.1948],[37.93403,49.19576],[37.9352,49.19214],[37.93288,49.1948]]],[[[36.69353,47.96554],[36.70251,47.96667],[36.70141,47.97055],[36.72694,47.97377],[36.73686,47.97607],[36.73534,47.98958],[36.73744,47.99432],[36.73972,47.99387],[36.74075,47.9906],[36.74198,47.98934],[36.74231,47.98823],[36.74149,47.98598],[36.74202,47.98395],[36.74191,47.97896],[36.74122,47.97678],[36.74,47.97605],[36.73951,47.97553],[36.73495,47.96881],[36.7195,47.96674],[36.72226,47.95585],[36.68971,47.95097],[36.69353,47.96554]]]]},"properties":{"source":"ukrdaily","source_name":"UkrDailyUpdate","source_url":"https://map.ukrdailyupdate.com/","category":"lost","category_label":"No longer Russian-occupied","period":"7d","compared_with":"2026-09-06","snapshot_time":"2026-09-13","area_km2_approx":5.6}}]}