{"type":"FeatureCollection","features":[{"type":"Feature","geometry":{"type":"MultiPolygon","coordinates":[[[[37.85622,48.8197],[37.85779,48.82852],[37.8675,48.82773],[37.87055,48.83812],[37.87978,48.83903],[37.88402,48.83456],[37.89685,48.83507],[37.8892,48.8301],[37.85914,48.82128],[37.8598,48.81982],[37.85622,48.8197]]],[[[37.79663,48.67942],[37.78659,48.69076],[37.80335,48.69272],[37.80771,48.68895],[37.80546,48.68008],[37.79663,48.67942]]],[[[37.75681,48.51932],[37.74513,48.52361],[37.74238,48.52994],[37.74463,48.53194],[37.74127,48.54089],[37.76616,48.54321],[37.76622,48.54288],[37.75209,48.53896],[37.74737,48.53467],[37.7465,48.53244],[37.7599,48.53342],[37.77088,48.52236],[37.75681,48.51932]]],[[[37.58662,50.23036],[37.59439,50.23387],[37.586,50.23913],[37.5886,50.2456],[37.60019,50.24053],[37.6269,50.2405],[37.61484,50.22237],[37.59884,50.22137],[37.58662,50.23036]]],[[[37.19376,48.36777],[37.1894,48.36903],[37.18947,48.37186],[37.1921,48.37424],[37.20003,48.37198],[37.20288,48.37779],[37.21594,48.37573],[37.21652,48.38052],[37.22819,48.38171],[37.22973,48.38724],[37.23609,48.39807],[37.2423,48.39904],[37.2397,48.41129],[37.24531,48.41145],[37.25655,48.41334],[37.25694,48.41013],[37.24999,48.40807],[37.2502,48.39979],[37.23661,48.3963],[37.23222,48.38833],[37.23137,48.37567],[37.22107,48.3755],[37.21954,48.36809],[37.2088,48.36393],[37.20226,48.36799],[37.19957,48.36837],[37.19541,48.36503],[37.19399,48.36082],[37.19391,48.36084],[37.19376,48.36777]]],[[[37.16139,48.35141],[37.18283,48.35341],[37.20219,48.35379],[37.20094,48.34873],[37.16164,48.34428],[37.1568,48.34807],[37.16139,48.35141]]],[[[36.1589,47.64249],[36.15418,47.65087],[36.15938,47.65304],[36.17195,47.64508],[36.17729,47.64322],[36.18279,47.63314],[36.16259,47.64138],[36.144,47.63458],[36.14383,47.63498],[36.1589,47.64249]]],[[[35.39205,50.69877],[35.38762,50.70388],[35.38849,50.70752],[35.39631,50.70731],[35.40834,50.70317],[35.40655,50.70263],[35.40127,50.69855],[35.39205,50.69877]]]]},"properties":{"source":"deepstate","source_name":"DeepStateMap","source_url":"https://deepstatemap.live/en","category":"gained","category_label":"Russian advance: became occupied","period":"7d","compared_with":"2026-07-26","snapshot_time":"2026-08-02","area_km2_approx":20.9}},{"type":"Feature","geometry":{"type":"MultiPolygon","coordinates":[[[[37.83168,48.82673],[37.83723,48.82542],[37.8348,48.81857],[37.83168,48.82673]]],[[[37.71684,48.53217],[37.71637,48.53522],[37.73824,48.52465],[37.72989,48.51909],[37.71351,48.5249],[37.70367,48.52285],[37.71684,48.53217]]],[[[37.70318,48.54567],[37.70445,48.55264],[37.70999,48.54816],[37.70318,48.54567]]]]},"properties":{"source":"deepstate","source_name":"DeepStateMap","source_url":"https://deepstatemap.live/en","category":"lost","category_label":"Ukrainian advance: became Ukrainian-held","period":"7d","compared_with":"2026-07-26","snapshot_time":"2026-08-02","area_km2_approx":2.2}},{"type":"Feature","geometry":{"type":"MultiPolygon","coordinates":[[[[37.85769,48.86541],[37.88036,48.87198],[37.88653,48.86721],[37.89202,48.86223],[37.86918,48.85499],[37.85769,48.86541]]],[[[37.82781,48.82764],[37.82397,48.83442],[37.82849,48.8378],[37.82442,48.8395],[37.82325,48.84906],[37.82672,48.8511],[37.83546,48.84921],[37.83264,48.84755],[37.83541,48.83684],[37.83073,48.82923],[37.83168,48.82673],[37.82781,48.82764]]],[[[37.80674,48.55193],[37.79822,48.56116],[37.80137,48.56579],[37.80894,48.56775],[37.81633,48.5696],[37.8136,48.57748],[37.82079,48.57022],[37.81451,48.56718],[37.81553,48.5629],[37.82148,48.55321],[37.81592,48.55017],[37.8015,48.54536],[37.80674,48.55193]]],[[[37.79924,48.57904],[37.79091,48.5807],[37.8001,48.58296],[37.80769,48.57965],[37.79924,48.57904]]],[[[37.80181,48.71299],[37.79529,48.71744],[37.80593,48.71543],[37.79968,48.70377],[37.79945,48.70386],[37.80181,48.71299]]],[[[37.76227,48.73441],[37.75516,48.73734],[37.78078,48.74319],[37.80295,48.74202],[37.80297,48.74186],[37.794,48.73969],[37.7785,48.73644],[37.77917,48.73402],[37.76227,48.73441]]],[[[37.78091,48.68788],[37.78065,48.69582],[37.7992,48.70288],[37.79894,48.69401],[37.79871,48.69218],[37.78659,48.69076],[37.79501,48.68125],[37.78846,48.67536],[37.78091,48.68788]]],[[[37.7753,48.71493],[37.74248,48.71109],[37.74245,48.71201],[37.77277,48.71724],[37.77201,48.72182],[37.77212,48.72186],[37.77504,48.7164],[37.78866,48.7171],[37.7887,48.71661],[37.7753,48.71493]]],[[[37.70445,48.55264],[37.68999,48.556],[37.6875,48.56914],[37.6996,48.57933],[37.72939,48.58227],[37.74281,48.57536],[37.76001,48.55777],[37.77295,48.54713],[37.75314,48.54959],[37.74608,48.55877],[37.73797,48.56046],[37.72089,48.55548],[37.71325,48.56176],[37.70544,48.55804],[37.70445,48.55264]]],[[[37.70631,48.53086],[37.69281,48.53605],[37.69466,48.54256],[37.69918,48.54421],[37.69934,48.54382],[37.69775,48.54301],[37.70706,48.53912],[37.71637,48.53522],[37.70631,48.53086]]],[[[37.70367,48.52285],[37.68429,48.51976],[37.6836,48.52142],[37.69049,48.52729],[37.70367,48.52285]]],[[[37.65384,48.51527],[37.66077,48.51728],[37.65906,48.52318],[37.6715,48.52602],[37.67588,48.51704],[37.663,48.51455],[37.65521,48.51174],[37.64681,48.50796],[37.64679,48.50799],[37.65384,48.51527]]],[[[37.6269,50.2405],[37.60019,50.24053],[37.5886,50.2456],[37.586,50.23913],[37.59439,50.23387],[37.58662,50.23036],[37.59884,50.22137],[37.61484,50.22237],[37.61481,50.21698],[37.58768,50.20701],[37.57703,50.21114],[37.5614,50.22296],[37.52705,50.22227],[37.51347,50.23343],[37.51617,50.24588],[37.52843,50.25365],[37.57495,50.24681],[37.58746,50.25144],[37.60237,50.24808],[37.62638,50.25054],[37.6269,50.2405]]],[[[37.33268,48.48264],[37.33916,48.48938],[37.35248,48.49559],[37.35477,48.51148],[37.3789,48.51729],[37.39575,48.51399],[37.3841,48.5016],[37.36568,48.50228],[37.35854,48.49055],[37.3523,48.47863],[37.34718,48.47321],[37.33936,48.47212],[37.33273,48.47874],[37.33268,48.48264]]],[[[37.19166,48.39838],[37.18744,48.42202],[37.19264,48.42246],[37.19026,48.43646],[37.20431,48.4334],[37.20769,48.42293],[37.1987,48.41718],[37.20349,48.39419],[37.18864,48.39259],[37.19166,48.39838]]],[[[37.18977,48.37864],[37.18869,48.39194],[37.18887,48.39198],[37.19492,48.37596],[37.17731,48.3789],[37.17736,48.37933],[37.18977,48.37864]]],[[[35.39631,50.70731],[35.38849,50.70752],[35.38762,50.70388],[35.39205,50.69877],[35.39507,50.6987],[35.39215,50.69516],[35.3858,50.69364],[35.37482,50.70983],[35.37745,50.73046],[35.41069,50.70983],[35.40333,50.70489],[35.39631,50.70731]]]]},"properties":{"source":"deepstate","source_name":"DeepStateMap","source_url":"https://deepstatemap.live/en","category":"ukrainian_to_contested","category_label":"Ukrainian-held became contested","period":"7d","compared_with":"2026-07-26","snapshot_time":"2026-08-02","area_km2_approx":66.0}}]}