{"type":"FeatureCollection","features":[{"type":"Feature","geometry":{"type":"Polygon","coordinates":[[[36.73951,48.11032],[36.73799,48.11268],[36.73894,48.11855],[36.74067,48.12118],[36.74092,48.12268],[36.73938,48.1298],[36.74779,48.13479],[36.75508,48.13691],[36.76129,48.13703],[36.77715,48.13795],[36.78358,48.13881],[36.80204,48.13253],[36.82616,48.13798],[36.83295,48.1037],[36.85057,48.09594],[36.85057,48.09593],[36.82224,48.09641],[36.80978,48.09563],[36.79556,48.09421],[36.79568,48.08999],[36.79224,48.08983],[36.78908,48.09368],[36.7679,48.09276],[36.76569,48.09463],[36.76047,48.09604],[36.74214,48.09592],[36.73951,48.11032]]]},"properties":{"source":"ukrdaily","source_name":"UkrDailyUpdate","source_url":"https://map.ukrdailyupdate.com/","category":"lost","category_label":"Ukrainian advance: became Ukrainian-held","period":"1d","compared_with":"2026-08-11","snapshot_time":"2026-08-12","area_km2_approx":31.2}}]}