{"type":"FeatureCollection","features":[{"type":"Feature","geometry":{"type":"MultiPolygon","coordinates":[[[[37.93184,49.24305],[37.95266,49.24993],[37.95656,49.24829],[37.95003,49.24791],[37.95003,49.24668],[37.95382,49.24544],[37.95026,49.24415],[37.94917,49.24172],[37.95649,49.24029],[37.95101,49.23638],[37.93556,49.23931],[37.92944,49.2418],[37.93184,49.24305]]],[[[37.89339,48.78456],[37.88994,48.79496],[37.87937,48.79684],[37.88133,48.80302],[37.89038,48.80795],[37.89249,48.81586],[37.89699,48.81911],[37.89035,48.82677],[37.90716,48.83304],[37.91785,48.81009],[37.92891,48.81154],[37.93561,48.80185],[37.94044,48.79842],[37.93738,48.79601],[37.92941,48.79792],[37.92041,48.79508],[37.92267,48.78527],[37.91345,48.78343],[37.90042,48.77406],[37.89109,48.77829],[37.89339,48.78456]]],[[[37.17212,48.40083],[37.19362,48.40242],[37.17432,48.39103],[37.17212,48.40083]]],[[[37.04431,48.35651],[37.04205,48.36105],[37.05001,48.36868],[37.10022,48.39029],[37.09743,48.39635],[37.10001,48.39779],[37.10576,48.39494],[37.11252,48.38806],[37.12401,48.3831],[37.13538,48.37576],[37.14724,48.37222],[37.15207,48.37758],[37.15736,48.3815],[37.1679,48.38621],[37.17432,48.39103],[37.17039,48.37909],[37.16466,48.36998],[37.15679,48.36617],[37.15145,48.36863],[37.13237,48.36795],[37.11658,48.37973],[37.10765,48.37903],[37.10284,48.36528],[37.08477,48.36258],[37.06992,48.36156],[37.04792,48.35725],[37.04128,48.34973],[37.04113,48.34983],[37.04431,48.35651]]],[[[36.14878,47.66127],[36.14606,47.66863],[36.13929,47.69001],[36.14226,47.70203],[36.1671,47.69232],[36.17244,47.68045],[36.16607,47.67461],[36.16026,47.66886],[36.17061,47.65487],[36.16457,47.65167],[36.15938,47.65304],[36.14878,47.66127]]]]},"properties":{"source":"deepstate","source_name":"DeepStateMap","source_url":"https://deepstatemap.live/en","category":"gained","category_label":"Newly Russian-occupied","period":"7d","compared_with":"2026-09-24","snapshot_time":"2026-10-01","area_km2_approx":38.2}},{"type":"Feature","geometry":{"type":"MultiPolygon","coordinates":[[[[37.76149,49.16015],[37.76448,49.16318],[37.76385,49.16681],[37.75001,49.17449],[37.74905,49.17869],[37.75534,49.18157],[37.75991,49.18563],[37.77654,49.18291],[37.78056,49.18523],[37.78394,49.18813],[37.79455,49.18567],[37.79479,49.18388],[37.80597,49.18085],[37.81442,49.1858],[37.83922,49.18605],[37.84228,49.1906],[37.8839,49.19281],[37.89268,49.2004],[37.88074,49.20809],[37.88347,49.21358],[37.88415,49.22047],[37.8783,49.22161],[37.8764,49.2261],[37.88753,49.22646],[37.89511,49.22601],[37.89831,49.22446],[37.91873,49.22681],[37.91559,49.24275],[37.91948,49.24585],[37.92944,49.2418],[37.92331,49.2386],[37.92886,49.22648],[37.94946,49.20977],[37.90699,49.19104],[37.87843,49.18761],[37.87772,49.17272],[37.85429,49.16928],[37.85072,49.15631],[37.84652,49.14853],[37.84332,49.14825],[37.84081,49.15234],[37.81659,49.15706],[37.78545,49.15829],[37.78102,49.1603],[37.76149,49.16015]]],[[[37.61481,49.8001],[37.61492,49.80031],[37.6217,49.79765],[37.62938,49.79698],[37.63612,49.79469],[37.62936,49.78972],[37.61481,49.8001]]]]},"properties":{"source":"deepstate","source_name":"DeepStateMap","source_url":"https://deepstatemap.live/en","category":"lost","category_label":"No longer Russian-occupied","period":"7d","compared_with":"2026-09-24","snapshot_time":"2026-10-01","area_km2_approx":42.8}}]}