{"type":"FeatureCollection","features":[{"type":"Feature","geometry":{"type":"Polygon","coordinates":[[[36.16607,47.67461],[36.17244,47.68045],[36.1671,47.69232],[36.1529,47.70088],[36.15288,47.71101],[36.15822,47.70111],[36.18501,47.69755],[36.1913,47.69579],[36.20094,47.68472],[36.19783,47.67797],[36.17193,47.66943],[36.16607,47.67461]]]},"properties":{"source":"deepstate","source_name":"DeepStateMap","source_url":"https://deepstatemap.live/en","category":"gained","category_label":"Newly Russian-occupied","period":"1d","compared_with":"2026-08-17","snapshot_time":"2026-08-18","area_km2_approx":6.5}}]}