{"type":"FeatureCollection","features":[{"type":"Feature","geometry":{"type":"Polygon","coordinates":[[[37.17432,48.39103],[37.19362,48.40242],[37.18939,48.40997],[37.19619,48.40675],[37.20268,48.4079],[37.22274,48.40678],[37.22433,48.40423],[37.21319,48.40149],[37.20468,48.39768],[37.18673,48.39364],[37.18572,48.38035],[37.1781,48.37906],[37.17039,48.37909],[37.17432,48.39103]]]},"properties":{"source":"deepstate","source_name":"DeepStateMap","source_url":"https://deepstatemap.live/en","category":"gained","category_label":"Russian advance: became occupied","period":"1d","compared_with":"2026-09-15","snapshot_time":"2026-09-16","area_km2_approx":4.0}}]}