{"type":"FeatureCollection","features":[{"type":"Feature","geometry":{"type":"MultiPolygon","coordinates":[[[[37.60902,49.81395],[37.5969,49.81659],[37.59285,49.82224],[37.59721,49.82649],[37.60639,49.82611],[37.61064,49.82416],[37.61528,49.82721],[37.62917,49.82618],[37.63732,49.8296],[37.64176,49.82498],[37.64702,49.81832],[37.63729,49.81701],[37.62805,49.81377],[37.62007,49.80679],[37.61574,49.80709],[37.60902,49.81395]]],[[[37.58909,49.78972],[37.59415,49.79745],[37.60043,49.80242],[37.61235,49.8038],[37.6109,49.79433],[37.61912,49.7918],[37.6129,49.77702],[37.58909,49.78972]]],[[[37.38233,48.539],[37.38934,48.53502],[37.3891,48.53456],[37.38077,48.53873],[37.38233,48.539]]]]},"properties":{"source":"deepstate","source_name":"DeepStateMap","source_url":"https://deepstatemap.live/en","category":"lost","category_label":"Ukrainian advance: became Ukrainian-held","period":"1d","compared_with":"2026-09-20","snapshot_time":"2026-09-21","area_km2_approx":8.7}},{"type":"Feature","geometry":{"type":"Polygon","coordinates":[[[37.61503,49.80282],[37.61557,49.79956],[37.62936,49.78972],[37.62687,49.7829],[37.62327,49.77672],[37.61491,49.78179],[37.61912,49.7918],[37.6109,49.79433],[37.61206,49.80189],[37.61499,49.80308],[37.61499,49.80308],[37.61859,49.80455],[37.61996,49.8068],[37.62007,49.80679],[37.62805,49.81377],[37.63729,49.81701],[37.64004,49.81738],[37.64754,49.81439],[37.64735,49.81388],[37.64343,49.81527],[37.63699,49.80987],[37.63133,49.80181],[37.62847,49.80817],[37.62463,49.80695],[37.62674,49.80062],[37.61503,49.80282]]]},"properties":{"source":"deepstate","source_name":"DeepStateMap","source_url":"https://deepstatemap.live/en","category":"occupied_to_contested","category_label":"Occupied became contested","period":"1d","compared_with":"2026-09-20","snapshot_time":"2026-09-21","area_km2_approx":3.2}},{"type":"Feature","geometry":{"type":"Polygon","coordinates":[[[37.36314,48.5357],[37.36304,48.53621],[37.37876,48.53974],[37.38077,48.53873],[37.36314,48.5357]]]},"properties":{"source":"deepstate","source_name":"DeepStateMap","source_url":"https://deepstatemap.live/en","category":"ukrainian_to_contested","category_label":"Ukrainian-held became contested","period":"1d","compared_with":"2026-09-20","snapshot_time":"2026-09-21","area_km2_approx":0.1}}]}