{"type":"FeatureCollection","features":[{"type":"Feature","geometry":{"type":"Point","coordinates":[35.763015,47.555389]},"properties":{"original":{"Date":"2026-08-24","Name":"24 AUG 2026","Faction":"Russia","Origin":"UAV","Latitude":"47.555389","Longitude":"35.763015","PlusCode":"8GVQHQ47+56 Orikhiv, Zaporizhia Oblast, Ukraine","Description":"Russian artillery strikes a claimed Ukrainian position","Source":"https://x.com/franfran2424/status/2092161565520769351, https://t.me/polk1430_1429/8375","Geolocation":"https://x.com/richardzai38580/status/2091975217744949363","Equipment":"","EquipmentItems":"Artillery","Units":"","OrbatUnits":"1429th Motorized Rifle Regiment ","Id":"0d08e073-3d90-4689-a893-0dccd6bd30d1","icon":"/api/icons/E00000/False/template/10.png"},"source":"geoconfirmed","source_name":"GeoConfirmed","source_url":"https://geoconfirmed.org/map/ukraine","id":"0d08e073-3d90-4689-a893-0dccd6bd30d1","date":"2026-08-24","link":"https://geoconfirmed.org/map/ukraine/0d08e073-3d90-4689-a893-0dccd6bd30d1","category":"Shelling by artillery or aerial bombings - Location of the shelling, colour of who is shelling; Brown = UXO","side":"Russia","color":"#E00000","description":"Russian artillery strikes a claimed Ukrainian position","orbat":["1429th Motorized Rifle Regiment"],"geolocation":["https://x.com/richardzai38580/status/2091975217744949363"],"sources":["https://x.com/franfran2424/status/2092161565520769351","https://t.me/polk1430_1429/8375"]}},{"type":"Feature","geometry":{"type":"Point","coordinates":[38.020423,48.27158]},"properties":{"original":{"Date":"2026-08-24","Name":"24 AUG 2026","Faction":"Ukraine","Origin":"UAV","Latitude":"48.27158","Longitude":"38.020423","PlusCode":"8GWW72CC+J5 Horlivka, Donetsk Oblast, Ukraine","Description":"The Special Purpose Police Brigade \"KORD\" hit a DNR flag with an FPV drone, roughly 40km from the frontline.","Source":"https://x.com/AudaxonX/status/2093771346157220318, https://www.instagram.com/kord_npu/reel/Dca_p-Tt1jM, ","Geolocation":"https://x.com/AudaxonX/status/2093771360602333599","Equipment":"","EquipmentItems":"FPV (First Person View) OWAD (One Way Attack Drone)","Units":"","OrbatUnits":"Special Purpose Police Brigade \"KORD\"","Id":"3807d3f1-3c1f-4d5f-a874-1530825ee43d","icon":"/api/icons/0051CA/False/template/111.png"},"source":"geoconfirmed","source_name":"GeoConfirmed","source_url":"https://geoconfirmed.org/map/ukraine","id":"3807d3f1-3c1f-4d5f-a874-1530825ee43d","date":"2026-08-24","link":"https://geoconfirmed.org/map/ukraine/3807d3f1-3c1f-4d5f-a874-1530825ee43d","category":"Short Range (<50km) OWAD (One Way Attack Drone), mostly rotary wing, Flying OR Attacking a target without knowing the outcome: if something is damaged --> icon of the damaged equipment.","side":"Ukraine","color":"#0051CA","description":"The Special Purpose Police Brigade \"KORD\" hit a DNR flag with an FPV drone, roughly 40km from the frontline.","orbat":["Special Purpose Police Brigade \"KORD\""],"geolocation":["https://x.com/AudaxonX/status/2093771360602333599"],"sources":["https://x.com/AudaxonX/status/2093771346157220318","https://www.instagram.com/kord_npu/reel/Dca_p-Tt1jM"]}},{"type":"Feature","geometry":{"type":"Point","coordinates":[37.816641,49.198917]},"properties":{"original":{"Date":"2026-08-24","Name":"24 AUG 2026","Faction":"Russia","Origin":"UAV","Latitude":"49.198917","Longitude":"37.816641","PlusCode":"8GXV5RX8+HM Ridkodub, Donetsk Oblast, Ukraine","Description":"Vid1 0:00-0:05 & Vid2 0:41-0:47 - Russian fiber optic FPV strike on one of three APCs returning from an attack.","Source":"Vid1, https://x.com/moklasen/status/2091966040942968956, Vid2, https://t.me/endspiell/4262","Geolocation":"https://x.com/GeoConfirmed/status/2092275210804183433, https://x.com/moklasen/status/2091966037424062828","Equipment":"","EquipmentItems":"Fiber Optic (FO) FPV (First Person View) OWAD (One Way Attack Drone) | Armored Personnel Carrier (APC)","Units":"","OrbatUnits":"237th Guards Tank Regiment","Id":"324afb68-d4d7-490a-9d76-1b7da8d52b56","icon":"/api/icons/E00000/False/template/111.png"},"source":"geoconfirmed","source_name":"GeoConfirmed","source_url":"https://geoconfirmed.org/map/ukraine","id":"324afb68-d4d7-490a-9d76-1b7da8d52b56","date":"2026-08-24","link":"https://geoconfirmed.org/map/ukraine/324afb68-d4d7-490a-9d76-1b7da8d52b56","category":"Short Range (<50km) OWAD (One Way Attack Drone), mostly rotary wing, Flying OR Attacking a target without knowing the outcome: if something is damaged --> icon of the damaged equipment.","side":"Russia","color":"#E00000","description":"Vid1 0:00-0:05 & Vid2 0:41-0:47 - Russian fiber optic FPV strike on one of three APCs returning from an attack.","orbat":["237th Guards Tank Regiment"],"geolocation":["https://x.com/GeoConfirmed/status/2092275210804183433","https://x.com/moklasen/status/2091966037424062828"],"sources":["https://x.com/moklasen/status/2091966040942968956","https://t.me/endspiell/4262"]}},{"type":"Feature","geometry":{"type":"Point","coordinates":[31.306878,51.49885]},"properties":{"original":{"Date":"2026-08-24","Name":"24 AUG 2026","Faction":"Neutral","Origin":"VID","Latitude":"51.49885","Longitude":"31.306878","PlusCode":"9G3HF8X4+GQ Chernihiv, Chernihiv Oblast, Ukraine","Description":"A Russian drone struck a residential building in Chernihiv. The casualty count is at least 20 people wounded, including 3 children.","Source":"https://www.youtube.com/watch?v=UTVBlgF6B80, https://t.me/suspilnechernihiv/65608, , More Information: https://suspilne.media/chernihiv/1386204-bezpilotnik-rf-vluciv-u-bagatopoverhivku-u-cernigovi/","Geolocation":"https://bsky.app/profile/scaratlas.bsky.social/post/3mttqbyzib22y","Equipment":"","EquipmentItems":"Geran-5","Units":"","OrbatUnits":"","Id":"4166157b-9b41-42c7-9851-1d8ff90c9c73","icon":"/api/icons/AC7339/False/template/192.png"},"source":"geoconfirmed","source_name":"GeoConfirmed","source_url":"https://geoconfirmed.org/map/ukraine","id":"4166157b-9b41-42c7-9851-1d8ff90c9c73","date":"2026-08-24","link":"https://geoconfirmed.org/map/ukraine/4166157b-9b41-42c7-9851-1d8ff90c9c73","category":"Recently destroyed/Damaged[Visible in footage] or still burning infrastucture","side":"Neutral","color":"#AC7339","description":"A Russian drone struck a residential building in Chernihiv. The casualty count is at least 20 people wounded, including 3 children.","orbat":[],"geolocation":["https://bsky.app/profile/scaratlas.bsky.social/post/3mttqbyzib22y"],"sources":["https://www.youtube.com/watch?v=UTVBlgF6B80","https://t.me/suspilnechernihiv/65608","https://suspilne.media/chernihiv/1386204-bezpilotnik-rf-vluciv-u-bagatopoverhivku-u-cernigovi/"]}},{"type":"Feature","geometry":{"type":"Point","coordinates":[38.89722,44.95062]},"properties":{"original":{"Date":"2026-08-24","Name":"24 AUG 2026","Faction":"Neutral","Origin":"SAT","Latitude":"44.95062","Longitude":"38.89722","PlusCode":"8GPWXV2W+6V Druzhnyi, Adygea Republic, Russia","Description":"A damaged warehouse and smoke plumes were observed coming from it, following a reported Ukrainian attack. The warehouse was reportedly an OZON warehouse,","Source":"https://x.com/franfran2424/status/2092936813891530984, , More information, https://x.com/Exilenova_plus/status/2091657657807741434, https://www.themoscowtimes.com/2026/08/24/at-least-3-killed-as-ukrainian-drones-target-ozon-hubs-across-southern-russia-a93563","Geolocation":"https://browser.dataspace.copernicus.eu/?zoom=16&lat=44.95062&lng=38.89722&themeId=DEFAULT-THEME&visualizationUrl=U2FsdGVkX1%2FjBEZLoBZgtBUxpyllH5nuMOb%2FT%2BkIlj1p3NFBLW%2B2iAsZ%2FGq%2FYJ%2BO2CW74889qHEhK4%2Fc6c5LNvGz0dsdC4LjKsKtP7DaqNloaIHTv5%2FdQHlTJEa2an%2BI&datasetId=S2_L2A_CDAS&fromTime=2026-08-24T00%3A00%3A00.000Z&toTime=2026-08-24T23%3A59%3A59.999Z&layerId=1_TRUE_COLOR&demSource3D=%22MAPZEN%22&cloudCoverage=30&dateMode=SINGLE","Equipment":"","EquipmentItems":"","Units":"","OrbatUnits":"","Id":"b292dfc9-211b-4f57-9b91-1f26d8b36550","icon":"/api/icons/AC7339/False/template/192.png"},"source":"geoconfirmed","source_name":"GeoConfirmed","source_url":"https://geoconfirmed.org/map/ukraine","id":"b292dfc9-211b-4f57-9b91-1f26d8b36550","date":"2026-08-24","link":"https://geoconfirmed.org/map/ukraine/b292dfc9-211b-4f57-9b91-1f26d8b36550","category":"Recently destroyed/Damaged[Visible in footage] or still burning infrastucture","side":"Neutral","color":"#AC7339","description":"A damaged warehouse and smoke plumes were observed coming from it, following a reported Ukrainian attack. The warehouse was reportedly an OZON warehouse,","orbat":[],"geolocation":["https://browser.dataspace.copernicus.eu/?zoom=16&lat=44.95062&lng=38.89722&themeId=DEFAULT-THEME&visualizationUrl=U2FsdGVkX1%2FjBEZLoBZgtBUxpyllH5nuMOb%2FT%2BkIlj1p3NFBLW%2B2iAsZ%2FGq%2FYJ%2BO2CW74889qHEhK4%2Fc6c5LNvGz0dsdC4LjKsKtP7DaqNloaIHTv5%2FdQHlTJEa2an%2BI&datasetId=S2_L2A_CDAS&fromTime=2026-08-24T00%3A00%3A00.000Z&toTime=2026-08-24T23%3A59%3A59.999Z&layerId=1_TRUE_COLOR&demSource3D=%22MAPZEN%22&cloudCoverage=30&dateMode=SINGLE"],"sources":["https://x.com/franfran2424/status/2092936813891530984","https://x.com/Exilenova_plus/status/2091657657807741434","https://www.themoscowtimes.com/2026/08/24/at-least-3-killed-as-ukrainian-drones-target-ozon-hubs-across-southern-russia-a93563"]}},{"type":"Feature","geometry":{"type":"Point","coordinates":[35.788666,47.573868]},"properties":{"original":{"Date":"2026-08-24","Name":"24 AUG 2026","Faction":"Russia","Origin":"UAV","Latitude":"47.573868","Longitude":"35.788666","PlusCode":"8GVQHQFQ+GF Orikhiv, Zaporizhia Oblast, Ukraine","Description":"0:03-0:06 - Russian FPV targets a civilian in Orikhiv ","Source":"https://x.com/99Dominik_/status/2091917464233795586, https://t.me/ZaGorizont71/738","Geolocation":"https://x.com/99Dominik_/status/2091917048313937932","Equipment":"","EquipmentItems":"FPV (First Person View) OWAD (One Way Attack Drone)","Units":"","OrbatUnits":"2nd Motorized Rifle Battalion \"Predator\"","Id":"f078ac20-7328-48da-a3f2-252df745f7a2","icon":"/api/icons/E00000/False/template/111.png"},"source":"geoconfirmed","source_name":"GeoConfirmed","source_url":"https://geoconfirmed.org/map/ukraine","id":"f078ac20-7328-48da-a3f2-252df745f7a2","date":"2026-08-24","link":"https://geoconfirmed.org/map/ukraine/f078ac20-7328-48da-a3f2-252df745f7a2","category":"Short Range (<50km) OWAD (One Way Attack Drone), mostly rotary wing, Flying OR Attacking a target without knowing the outcome: if something is damaged --> icon of the damaged equipment.","side":"Russia","color":"#E00000","description":"0:03-0:06 - Russian FPV targets a civilian in Orikhiv","orbat":["2nd Motorized Rifle Battalion \"Predator\""],"geolocation":["https://x.com/99Dominik_/status/2091917048313937932"],"sources":["https://x.com/99Dominik_/status/2091917464233795586","https://t.me/ZaGorizont71/738"]}},{"type":"Feature","geometry":{"type":"Point","coordinates":[36.836035,47.837378]},"properties":{"original":{"Date":"2026-08-24","Name":"24 AUG 2026","Faction":"Russia","Origin":"UAV","Latitude":"47.837378","Longitude":"36.836035","PlusCode":"8GVRRRPP+XC Velyka Novosilka, Donetsk Oblast, Ukraine","Description":"A Russian BTR was set on fire in a warehouse after a Ukrainian drone strike, several disassembled ZIL-131 nearby.","Source":"https://x.com/giK1893/status/2091930777135071371, https://t.me/ptichii_rai/824","Geolocation":"https://x.com/giK1893/status/2091930782793163223","Equipment":"BTR, ZIL-131","EquipmentItems":"FPV (First Person View) OWAD (One Way Attack Drone)","Units":"","OrbatUnits":"","Id":"a0acbafa-9990-4816-a8d6-2f306745b57b","icon":"/api/icons/E00000/False/template/172.png"},"source":"geoconfirmed","source_name":"GeoConfirmed","source_url":"https://geoconfirmed.org/map/ukraine","id":"a0acbafa-9990-4816-a8d6-2f306745b57b","date":"2026-08-24","link":"https://geoconfirmed.org/map/ukraine/a0acbafa-9990-4816-a8d6-2f306745b57b","category":"Recently Destroyed/Damaged APC OR IFV / TRACKED or WHEELED / ARMOURED - Including vehicles like HUMVEE and similar","side":"Russia","color":"#E00000","description":"A Russian BTR was set on fire in a warehouse after a Ukrainian drone strike, several disassembled ZIL-131 nearby.","orbat":[],"geolocation":["https://x.com/giK1893/status/2091930782793163223"],"sources":["https://x.com/giK1893/status/2091930777135071371","https://t.me/ptichii_rai/824"]}},{"type":"Feature","geometry":{"type":"Point","coordinates":[30.809563,46.601507]},"properties":{"original":{"Date":"2026-08-24","Name":"24 AUG 2026","Faction":"Neutral","Origin":"VID","Latitude":"46.601507","Longitude":"30.809563","PlusCode":"8GRGJR25+G4 Ilichanka, Odesa Oblast, Ukraine","Description":"Fire at an \"Epicentr\" Shopping Centre. Reported following a reported Russian Russian Geran-4 strike.","Source":"Vid1, https://x.com/99Dominik_/status/2091801864303992985, https://t.me/now_odessa/107052, Vid2, From other angle, (2/2), https://x.com/AMK_Mapping_/status/2091788132392063468, Vid3, https://x.com/franfran2424/status/2092669381419393366, More information, https://intent.press/en/news/war/2026/in-odesa-a-drone-attack-caused-a-fire-at-the-epicenter-hypermarket/","Geolocation":"https://x.com/GeoConfirmed/status/2092276324823941298, Vid1, https://x.com/99Dominik_/status/2091801559025787244, Vid2, Geo, https://x.com/AMK_Mapping_/status/2091788132392063468, Proof, https://x.com/Zeldamices/status/2091801793516757428","Equipment":"(reported)","EquipmentItems":"Geran-4","Units":"","OrbatUnits":"","Id":"b251ea28-d12a-4eaf-9db0-2fc102b4d035","icon":"/api/icons/AC7339/False/template/192.png"},"source":"geoconfirmed","source_name":"GeoConfirmed","source_url":"https://geoconfirmed.org/map/ukraine","id":"b251ea28-d12a-4eaf-9db0-2fc102b4d035","date":"2026-08-24","link":"https://geoconfirmed.org/map/ukraine/b251ea28-d12a-4eaf-9db0-2fc102b4d035","category":"Recently destroyed/Damaged[Visible in footage] or still burning infrastucture","side":"Neutral","color":"#AC7339","description":"Fire at an \"Epicentr\" Shopping Centre. Reported following a reported Russian Russian Geran-4 strike.","orbat":[],"geolocation":["https://x.com/GeoConfirmed/status/2092276324823941298","https://x.com/99Dominik_/status/2091801559025787244","https://x.com/AMK_Mapping_/status/2091788132392063468","https://x.com/Zeldamices/status/2091801793516757428"],"sources":["https://x.com/99Dominik_/status/2091801864303992985","https://t.me/now_odessa/107052","https://x.com/AMK_Mapping_/status/2091788132392063468","https://x.com/franfran2424/status/2092669381419393366","https://intent.press/en/news/war/2026/in-odesa-a-drone-attack-caused-a-fire-at-the-epicenter-hypermarket/"]}},{"type":"Feature","geometry":{"type":"Point","coordinates":[32.519296,46.638641]},"properties":{"original":{"Date":"2026-08-24","Name":"24 AUG 2026","Faction":"Russia","Origin":"VID","Latitude":"46.638641","Longitude":"32.519296","PlusCode":"8GRJJGQ9+FP Komyshany, Kherson Oblast, Ukraine","Description":"A man and a woman were killed in a Russian attack.","Source":"https://xcancel.com/99Dominik_/status/2091867079234261173, https://www.instagram.com/reel/DcaJ5hphQLX/","Geolocation":"https://x.com/99Dominik_/status/2091866282224185688","Equipment":"","EquipmentItems":"","Units":"","OrbatUnits":"","Id":"d6af147e-4cc1-4077-8957-386d04dc6a9a","icon":"/api/icons/E00000/False/template/50.png"},"source":"geoconfirmed","source_name":"GeoConfirmed","source_url":"https://geoconfirmed.org/map/ukraine","id":"d6af147e-4cc1-4077-8957-386d04dc6a9a","date":"2026-08-24","link":"https://geoconfirmed.org/map/ukraine/d6af147e-4cc1-4077-8957-386d04dc6a9a","category":"Killed or wounded civilian. Potential Warcrime. In the colour of who is assessed as doing the attack/killing.","side":"Russia","color":"#E00000","description":"A man and a woman were killed in a Russian attack.","orbat":[],"geolocation":["https://x.com/99Dominik_/status/2091866282224185688"],"sources":["https://xcancel.com/99Dominik_/status/2091867079234261173","https://www.instagram.com/reel/DcaJ5hphQLX/"]}},{"type":"Feature","geometry":{"type":"Point","coordinates":[40.30761,48.95238]},"properties":{"original":{"Date":"2026-08-24","Name":"24 AUG 2026","Faction":"Ukraine","Origin":"UAV","Latitude":"48.95238","Longitude":"40.30761","PlusCode":"8HW2X825+X2 Dolotinka, Rostov Oblast, Russia","Description":"0:08-0:22 - A Russian MIG-29 was attacked with a drone by the 1st Unmanned Systems Center of Ukraine on the premises of the Millerovo air base.","Source":"https://x.com/414magyarbirds/status/2091861267652792714, https://x.com/Maks_NAFO_FELLA/status/2091851358034923890, https://t.me/robert_magyar/2760","Geolocation":"https://x.com/GeoConfirmed/status/2092272770503581994, https://x.com/zarGEOINT/status/2091857867531866115","Equipment":"","EquipmentItems":"Fixed Wing OWAD (One Way Attack Drone) | MiG-29","Units":"","OrbatUnits":"1st Seperate SBS Center","Id":"f8d316b7-8903-4f83-b543-44ebb3cbdf00","icon":"/api/icons/0051CA/False/template/181.png"},"source":"geoconfirmed","source_name":"GeoConfirmed","source_url":"https://geoconfirmed.org/map/ukraine","id":"f8d316b7-8903-4f83-b543-44ebb3cbdf00","date":"2026-08-24","link":"https://geoconfirmed.org/map/ukraine/f8d316b7-8903-4f83-b543-44ebb3cbdf00","category":"Longe Range (>50km) OWAD (One Way Attack Drone) or Loitering munition, mostly fixed wing, Flying OR Attacking a target without knowing the outcome: if something is damaged --> icon of the damaged equipment.","side":"Ukraine","color":"#0051CA","description":"0:08-0:22 - A Russian MIG-29 was attacked with a drone by the 1st Unmanned Systems Center of Ukraine on the premises of the Millerovo air base.","orbat":["1st Seperate SBS Center"],"geolocation":["https://x.com/GeoConfirmed/status/2092272770503581994","https://x.com/zarGEOINT/status/2091857867531866115"],"sources":["https://x.com/414magyarbirds/status/2091861267652792714","https://x.com/Maks_NAFO_FELLA/status/2091851358034923890","https://t.me/robert_magyar/2760"]}},{"type":"Feature","geometry":{"type":"Point","coordinates":[37.8054,48.00237]},"properties":{"original":{"Date":"2026-08-24","Name":"24 AUG 2026","Faction":"Neutral","Origin":"UAV","Latitude":"48.00237","Longitude":"37.8054","PlusCode":"8GWV2R24+W5 Donetsk, Donetsk Oblast, Ukraine","Description":"A Ukrainian drone struck a monument in Lenin Square in occupied Donetsk. Fragments and debris are visible.","Source":"Vid, https://x.com/Maks_NAFO_FELLA/status/2092193717977284661, Pic, https://x.com/666_mancer/status/2091844941483769919, https://t.me/kulemzin_donetsk/69209","Geolocation":"https://x.com/zarGEOINT/status/2092200443640172566","Equipment":"","EquipmentItems":"","Units":"","OrbatUnits":"","Id":"1c938438-bc2b-406e-ac4f-6222369a67ae","icon":"/api/icons/AC7339/False/template/192.png"},"source":"geoconfirmed","source_name":"GeoConfirmed","source_url":"https://geoconfirmed.org/map/ukraine","id":"1c938438-bc2b-406e-ac4f-6222369a67ae","date":"2026-08-24","link":"https://geoconfirmed.org/map/ukraine/1c938438-bc2b-406e-ac4f-6222369a67ae","category":"Recently destroyed/Damaged[Visible in footage] or still burning infrastucture","side":"Neutral","color":"#AC7339","description":"A Ukrainian drone struck a monument in Lenin Square in occupied Donetsk. Fragments and debris are visible.","orbat":[],"geolocation":["https://x.com/zarGEOINT/status/2092200443640172566"],"sources":["https://x.com/Maks_NAFO_FELLA/status/2092193717977284661","https://x.com/666_mancer/status/2091844941483769919","https://t.me/kulemzin_donetsk/69209"]}},{"type":"Feature","geometry":{"type":"Point","coordinates":[37.803364,48.812955]},"properties":{"original":{"Date":"2026-08-24","Name":"24 AUG 2026","Faction":"Russia","Origin":"UAV","Latitude":"48.812955","Longitude":"37.803364","PlusCode":"8GWVRR73+58 Rai-Oleksandrivka, Donetsk Oblast, Ukraine","Description":"0:43 - Reconnaissance unit of the 123rd Separate Motorized Rifle Brigade \"AVANGARD\" strikes presumed Ukrainian position near Rai-Oleksandrivka, Donetsk Oblast, Ukraine. ","Source":"https://x.com/ukrgeonews/status/2091993965046157630, https://t.me/TeamAvangard123/203","Geolocation":"https://x.com/ukrgeonews/status/2091993965046157630","Equipment":"","EquipmentItems":"","Units":"","OrbatUnits":"Reconnaissance unit \"AVANGARD\" / \"АВАНГАРД\"","Id":"b3b3d36d-fb34-4d51-adce-653a874932fa","icon":"/api/icons/E00000/False/template/10.png"},"source":"geoconfirmed","source_name":"GeoConfirmed","source_url":"https://geoconfirmed.org/map/ukraine","id":"b3b3d36d-fb34-4d51-adce-653a874932fa","date":"2026-08-24","link":"https://geoconfirmed.org/map/ukraine/b3b3d36d-fb34-4d51-adce-653a874932fa","category":"Shelling by artillery or aerial bombings - Location of the shelling, colour of who is shelling; Brown = UXO","side":"Russia","color":"#E00000","description":"0:43 - Reconnaissance unit of the 123rd Separate Motorized Rifle Brigade \"AVANGARD\" strikes presumed Ukrainian position near Rai-Oleksandrivka, Donetsk Oblast, Ukraine.","orbat":["Reconnaissance unit \"AVANGARD\" / \"АВАНГАРД\""],"geolocation":["https://x.com/ukrgeonews/status/2091993965046157630"],"sources":["https://x.com/ukrgeonews/status/2091993965046157630","https://t.me/TeamAvangard123/203"]}},{"type":"Feature","geometry":{"type":"Point","coordinates":[40.29542,48.30517]},"properties":{"original":{"Date":"2026-08-24","Name":"24 AUG 2026","Faction":"Ukraine","Origin":"PIC","Latitude":"48.30517","Longitude":"40.29542","PlusCode":"8HW2874W+35 Kamensk-Shakhtinsky, Rostov Oblast, Russia","Description":"Point of view - Smoke rises south of Kamensk-Shakhtinsky. This is not near the rocket fuel factory but in direction of a military depot and S-300/S-400 air defense position.","Source":"https://x.com/Exilenova_plus/status/2091726235168829619, https://t.me/exilenova_plus/29596","Geolocation":"https://x.com/GeoConfirmed/status/2092275993171902714, https://x.com/blinzka/status/2091828386268155988","Equipment":"UNK","EquipmentItems":"","Units":"UNK","OrbatUnits":"","Id":"e04e1efa-c312-4e92-b2d1-7c54f372b618","icon":"/api/icons/0051CA/False/template/20.png"},"source":"geoconfirmed","source_name":"GeoConfirmed","source_url":"https://geoconfirmed.org/map/ukraine","id":"e04e1efa-c312-4e92-b2d1-7c54f372b618","date":"2026-08-24","link":"https://geoconfirmed.org/map/ukraine/e04e1efa-c312-4e92-b2d1-7c54f372b618","category":"Picture - Always Point of View in description - - In the colour of who is doing the attack or is responsable for the incident in the picture.","side":"Ukraine","color":"#0051CA","description":"Point of view - Smoke rises south of Kamensk-Shakhtinsky. This is not near the rocket fuel factory but in direction of a military depot and S-300/S-400 air defense position.","orbat":["UNK"],"geolocation":["https://x.com/GeoConfirmed/status/2092275993171902714","https://x.com/blinzka/status/2091828386268155988"],"sources":["https://x.com/Exilenova_plus/status/2091726235168829619","https://t.me/exilenova_plus/29596"]}},{"type":"Feature","geometry":{"type":"Point","coordinates":[32.519208,46.638688]},"properties":{"original":{"Date":"2026-08-24","Name":"24 AUG 2026","Faction":"Russia","Origin":"VID","Latitude":"46.638688","Longitude":"32.519208","PlusCode":"8GRJJGQ9+FP Komyshany, Kherson Oblast, Ukraine","Description":"A man and a woman were killed in a Russian attack.","Source":"https://xcancel.com/99Dominik_/status/2091867079234261173, https://www.instagram.com/reel/DcaJ5hphQLX/","Geolocation":"https://x.com/99Dominik_/status/2091866282224185688","Equipment":"","EquipmentItems":"","Units":"","OrbatUnits":"","Id":"09778723-7444-4771-866b-7ea2da7c40d6","icon":"/api/icons/E00000/False/template/50.png"},"source":"geoconfirmed","source_name":"GeoConfirmed","source_url":"https://geoconfirmed.org/map/ukraine","id":"09778723-7444-4771-866b-7ea2da7c40d6","date":"2026-08-24","link":"https://geoconfirmed.org/map/ukraine/09778723-7444-4771-866b-7ea2da7c40d6","category":"Killed or wounded civilian. Potential Warcrime. In the colour of who is assessed as doing the attack/killing.","side":"Russia","color":"#E00000","description":"A man and a woman were killed in a Russian attack.","orbat":[],"geolocation":["https://x.com/99Dominik_/status/2091866282224185688"],"sources":["https://xcancel.com/99Dominik_/status/2091867079234261173","https://www.instagram.com/reel/DcaJ5hphQLX/"]}},{"type":"Feature","geometry":{"type":"Point","coordinates":[35.375404,46.847427]},"properties":{"original":{"Date":"2026-08-24","Name":"24 AUG 2026","Faction":"Ukraine","Origin":"UAV","Latitude":"46.847427","Longitude":"35.375404","PlusCode":"8GRQR9WG+X5 Melitopol', Zaporizhia Oblast, Ukraine","Description":"Ukrainian drone strike on the reported regional headquarters of the 'United Russia' party.","Source":"Vid1, https://x.com/MikiValbuena/status/2092197539378266595, https://t.me/riamelitopolua/92790, Pic, reported aftermath, https://x.com/MikiValbuena/status/2092197542817644603, https://t.me/BalitskyEV/8877, , More information, https://ua.news/en/war-vs-rf/sili-oboroni-urazili-shtab-edinoyi-rosiyi-v-okupovanomu-melitopoli","Geolocation":"https://x.com/GeoConfirmed/status/2092275645975785963, https://x.com/MikiValbuena/status/2092197534781358418","Equipment":"","EquipmentItems":"Fixed Wing OWAD (One Way Attack Drone)","Units":"","OrbatUnits":"","Id":"725837d6-c9e5-413a-8995-96b39194a1f5","icon":"/api/icons/0051CA/False/template/181.png"},"source":"geoconfirmed","source_name":"GeoConfirmed","source_url":"https://geoconfirmed.org/map/ukraine","id":"725837d6-c9e5-413a-8995-96b39194a1f5","date":"2026-08-24","link":"https://geoconfirmed.org/map/ukraine/725837d6-c9e5-413a-8995-96b39194a1f5","category":"Longe Range (>50km) OWAD (One Way Attack Drone) or Loitering munition, mostly fixed wing, Flying OR Attacking a target without knowing the outcome: if something is damaged --> icon of the damaged equipment.","side":"Ukraine","color":"#0051CA","description":"Ukrainian drone strike on the reported regional headquarters of the 'United Russia' party.","orbat":[],"geolocation":["https://x.com/GeoConfirmed/status/2092275645975785963","https://x.com/MikiValbuena/status/2092197534781358418"],"sources":["https://x.com/MikiValbuena/status/2092197539378266595","https://t.me/riamelitopolua/92790","https://x.com/MikiValbuena/status/2092197542817644603","https://t.me/BalitskyEV/8877","https://ua.news/en/war-vs-rf/sili-oboroni-urazili-shtab-edinoyi-rosiyi-v-okupovanomu-melitopoli"]}},{"type":"Feature","geometry":{"type":"Point","coordinates":[37.5478,47.57791]},"properties":{"original":{"Date":"2026-08-24","Name":"24 AUG 2026","Faction":"Ukraine","Origin":"UAV","Latitude":"47.57791","Longitude":"37.5478","PlusCode":"8GVVHGHX+54 Volnovakha, Donetsk Oblast, Ukraine","Description":"0:01-0:18 - Two locomotives of a Russian cargo train are hit with drones by the Signum unmanned systems battalion of the 59th assault brigade of Ukraine.","Source":"https://bsky.app/profile/noelreports.com/post/3mtvimjukrs2d, https://x.com/NOELreports/status/2092180905863287194, https://t.me/umftteam/1091","Geolocation":"https://x.com/GeoConfirmed/status/2092269190333767734, https://bsky.app/profile/did:plc:mtenhfd6jiq5i5osxpz4en3a/post/3mtw475p7wk2z, https://bsky.app/profile/blinzka.bsky.social/post/3mtvq4inttk2z, https://x.com/blinzka/status/2092214643221516549","Equipment":"(2x) ","EquipmentItems":"Fixed Wing OWAD (One Way Attack Drone) | Locomotive/Train","Units":"","OrbatUnits":"Battalion of unmanned strike aerial systems \"Signum\"","Id":"19f81c0a-fcf5-4f61-a6d0-bb2653c9176d","icon":"/api/icons/0051CA/False/template/181.png"},"source":"geoconfirmed","source_name":"GeoConfirmed","source_url":"https://geoconfirmed.org/map/ukraine","id":"19f81c0a-fcf5-4f61-a6d0-bb2653c9176d","date":"2026-08-24","link":"https://geoconfirmed.org/map/ukraine/19f81c0a-fcf5-4f61-a6d0-bb2653c9176d","category":"Longe Range (>50km) OWAD (One Way Attack Drone) or Loitering munition, mostly fixed wing, Flying OR Attacking a target without knowing the outcome: if something is damaged --> icon of the damaged equipment.","side":"Ukraine","color":"#0051CA","description":"0:01-0:18 - Two locomotives of a Russian cargo train are hit with drones by the Signum unmanned systems battalion of the 59th assault brigade of Ukraine.","orbat":["Battalion of unmanned strike aerial systems \"Signum\""],"geolocation":["https://x.com/GeoConfirmed/status/2092269190333767734","https://bsky.app/profile/did:plc:mtenhfd6jiq5i5osxpz4en3a/post/3mtw475p7wk2z","https://bsky.app/profile/blinzka.bsky.social/post/3mtvq4inttk2z","https://x.com/blinzka/status/2092214643221516549"],"sources":["https://bsky.app/profile/noelreports.com/post/3mtvimjukrs2d","https://x.com/NOELreports/status/2092180905863287194","https://t.me/umftteam/1091"]}},{"type":"Feature","geometry":{"type":"Point","coordinates":[41.91091,44.69648]},"properties":{"original":{"Date":"2026-08-24","Name":"24 AUG 2026","Faction":"Neutral","Origin":"SAT","Latitude":"44.69648","Longitude":"41.91091","PlusCode":"8HP3MWW6+H9 Nevinnomyssk, Stavropol Krai, Russia","Description":"Minor or no damage at the Nevinnomyssk Ozon warehouse following a Ukrainian strike. Burnt grass around the warehouse is visible.","Source":"https://x.com/kromark/status/2091866718746403027, , More information, https://english.nv.ua/nation/drones-strike-3-major-ozon-warehouses-across-russia-50635126.html, https://x.com/Exilenova_plus/status/2091665533284515918, https://t.me/exilenova_plus/29563, https://bloknot-stavropol.ru/news/gigantskiy-sklad-ozon-ploshchadyu-22-tysyachi-kvad-1737769","Geolocation":"https://x.com/kromark/status/2091866718746403027","Equipment":"","EquipmentItems":"","Units":"","OrbatUnits":"","Id":"3205b84f-3735-47d6-a156-bcb3187e2794","icon":"/api/icons/AC7339/False/template/191.png"},"source":"geoconfirmed","source_name":"GeoConfirmed","source_url":"https://geoconfirmed.org/map/ukraine","id":"3205b84f-3735-47d6-a156-bcb3187e2794","date":"2026-08-24","link":"https://geoconfirmed.org/map/ukraine/3205b84f-3735-47d6-a156-bcb3187e2794","category":"Infrastructure","side":"Neutral","color":"#AC7339","description":"Minor or no damage at the Nevinnomyssk Ozon warehouse following a Ukrainian strike. Burnt grass around the warehouse is visible.","orbat":[],"geolocation":["https://x.com/kromark/status/2091866718746403027"],"sources":["https://x.com/kromark/status/2091866718746403027","https://english.nv.ua/nation/drones-strike-3-major-ozon-warehouses-across-russia-50635126.html","https://x.com/Exilenova_plus/status/2091665533284515918","https://t.me/exilenova_plus/29563","https://bloknot-stavropol.ru/news/gigantskiy-sklad-ozon-ploshchadyu-22-tysyachi-kvad-1737769"]}},{"type":"Feature","geometry":{"type":"Point","coordinates":[32.97336,51.56142]},"properties":{"original":{"Date":"2026-08-24","Name":"24 AUG 2026","Faction":"Neutral","Origin":"VID","Latitude":"51.56142","Longitude":"32.97336","PlusCode":"9G3JHX6F+H8 Korop, Chernihiv Oblast, Ukraine","Description":"Aftermath of a reported Russian Geran-2/4 drone strike on a petrol station in the town of Korop, Chernihiv Oblast. Reportedly 1 person was injured.","Source":"https://x.com/AMK_Mapping_/status/2091741801199919111, , More information, https://kyivindependent.com/russian-attacks-kill-8-injure-43-across-ukraine-as-country-marks-independence-day/, https://t.me/chernigivskaODA/31296","Geolocation":"https://x.com/zarGEOINT/status/2091822130564325598","Equipment":"(reported)","EquipmentItems":"Geran-2","Units":"","OrbatUnits":"","Id":"fdd413b0-8fc4-4b59-88a1-d00e253377c2","icon":"/api/icons/AC7339/False/template/192.png"},"source":"geoconfirmed","source_name":"GeoConfirmed","source_url":"https://geoconfirmed.org/map/ukraine","id":"fdd413b0-8fc4-4b59-88a1-d00e253377c2","date":"2026-08-24","link":"https://geoconfirmed.org/map/ukraine/fdd413b0-8fc4-4b59-88a1-d00e253377c2","category":"Recently destroyed/Damaged[Visible in footage] or still burning infrastucture","side":"Neutral","color":"#AC7339","description":"Aftermath of a reported Russian Geran-2/4 drone strike on a petrol station in the town of Korop, Chernihiv Oblast. Reportedly 1 person was injured.","orbat":[],"geolocation":["https://x.com/zarGEOINT/status/2091822130564325598"],"sources":["https://x.com/AMK_Mapping_/status/2091741801199919111","https://kyivindependent.com/russian-attacks-kill-8-injure-43-across-ukraine-as-country-marks-independence-day/","https://t.me/chernigivskaODA/31296"]}},{"type":"Feature","geometry":{"type":"Point","coordinates":[37.00637,48.23991]},"properties":{"original":{"Date":"2026-08-24","Name":"24 AUG 2026","Faction":"Russia","Origin":"UAV","Latitude":"48.23991","Longitude":"37.00637","PlusCode":"8GWV62Q4+XG Udachne, Donetsk Oblast, Ukraine","Description":"00:46-0:54 - A Russian soldier was killed by  FPV strike of the 425th Assault Regiment \"Skala\"","Source":"https://x.com/Skelya425/status/2094455169291288669","Geolocation":"https://x.com/meowqai/status/2094464409661804791","Equipment":"","EquipmentItems":"FPV (First Person View) OWAD (One Way Attack Drone)","Units":"","OrbatUnits":"425th Assault Regiment \"Skala\"","Id":"5de31fd7-5cc0-449d-8a32-e5cd8729ee27","icon":"/api/icons/E00000/False/template/92.png"},"source":"geoconfirmed","source_name":"GeoConfirmed","source_url":"https://geoconfirmed.org/map/ukraine","id":"5de31fd7-5cc0-449d-8a32-e5cd8729ee27","date":"2026-08-24","link":"https://geoconfirmed.org/map/ukraine/5de31fd7-5cc0-449d-8a32-e5cd8729ee27","category":"WIA/KIA Soldier/Militant","side":"Russia","color":"#E00000","description":"00:46-0:54 - A Russian soldier was killed by  FPV strike of the 425th Assault Regiment \"Skala\"","orbat":["425th Assault Regiment \"Skala\""],"geolocation":["https://x.com/meowqai/status/2094464409661804791"],"sources":["https://x.com/Skelya425/status/2094455169291288669"]}},{"type":"Feature","geometry":{"type":"Point","coordinates":[37.673143,48.52623]},"properties":{"original":{"Date":"2026-08-24","Name":"24 AUG 2026","Faction":"Ukraine","Origin":"UAV","Latitude":"48.52623","Longitude":"37.673143","PlusCode":"8GWVGMGF+F7 Kostyantynivka, Donetsk Oblast, Ukraine","Description":"0:01-0:28 & 0:36-0:45 - A Ukrainian drone drops a large amount of munition on a building in Kostyantynivka","Source":"https://x.com/Bielitzling/status/2091878609229115533, https://www.instagram.com/2nd_special_purpose_unit_omega/reel/DcayfEPOQ4Y","Geolocation":"https://x.com/Bielitzling/status/2091878605110358478","Equipment":"","EquipmentItems":"(Multi-Purpose) Bomber UAV","Units":"","OrbatUnits":"2nd Special Purpose Detachment \"Omega 2\"","Id":"daf237e8-b0e8-4d83-ba68-e8fc03f287b9","icon":"/api/icons/0051CA/False/template/110.png"},"source":"geoconfirmed","source_name":"GeoConfirmed","source_url":"https://geoconfirmed.org/map/ukraine","id":"daf237e8-b0e8-4d83-ba68-e8fc03f287b9","date":"2026-08-24","link":"https://geoconfirmed.org/map/ukraine/daf237e8-b0e8-4d83-ba68-e8fc03f287b9","category":"Multipurpose Bomber Drone, Flying OR Dropping OR bombing a target without knowing the outcome: if something is damaged --> icon of the damaged equipment.","side":"Ukraine","color":"#0051CA","description":"0:01-0:28 & 0:36-0:45 - A Ukrainian drone drops a large amount of munition on a building in Kostyantynivka","orbat":["2nd Special Purpose Detachment \"Omega 2\""],"geolocation":["https://x.com/Bielitzling/status/2091878605110358478"],"sources":["https://x.com/Bielitzling/status/2091878609229115533","https://www.instagram.com/2nd_special_purpose_unit_omega/reel/DcayfEPOQ4Y"]}},{"type":"Feature","geometry":{"type":"Point","coordinates":[47.2714,43.04626]},"properties":{"original":{"Date":"2026-08-24","Name":"24 AUG 2026","Faction":"Neutral","Origin":"VID","Latitude":"43.04626","Longitude":"47.2714","PlusCode":"8HM927WC+GH Tiube, Republic of Dagestan, Russia","Description":"Center of the building - Ozon warehouse on fire, emitting large columns of black smoke, following several Ukrainian drone attacks","Source":"Vid1, (1/4), https://x.com/Exilenova_plus/status/2091723249046765753, https://x.com/99Dominik_/status/2091754546615681483, https://t.me/exilenova_plus/29584, Vid2, Moment of one of the attacks, https://x.com/99Dominik_/status/2091770313100939390, https://t.me/supernova_plus/58661, SAT, https://x.com/99Dominik_/status/2091791085307650389, https://t.me/exilenova_plus/29629, , More information, https://ua.news/en/war-vs-rf/video-velikii-sklad-ozon-atakovanii-u-dagestani","Geolocation":"https://x.com/99Dominik_/status/2091754119568482696","Equipment":"","EquipmentItems":"FP-1","Units":"","OrbatUnits":"","Id":"919f0e22-07fc-4feb-8df6-e9ce72578708","icon":"/api/icons/AC7339/False/template/192.png"},"source":"geoconfirmed","source_name":"GeoConfirmed","source_url":"https://geoconfirmed.org/map/ukraine","id":"919f0e22-07fc-4feb-8df6-e9ce72578708","date":"2026-08-24","link":"https://geoconfirmed.org/map/ukraine/919f0e22-07fc-4feb-8df6-e9ce72578708","category":"Recently destroyed/Damaged[Visible in footage] or still burning infrastucture","side":"Neutral","color":"#AC7339","description":"Center of the building - Ozon warehouse on fire, emitting large columns of black smoke, following several Ukrainian drone attacks","orbat":[],"geolocation":["https://x.com/99Dominik_/status/2091754119568482696"],"sources":["https://x.com/Exilenova_plus/status/2091723249046765753","https://x.com/99Dominik_/status/2091754546615681483","https://t.me/exilenova_plus/29584","https://x.com/99Dominik_/status/2091770313100939390","https://t.me/supernova_plus/58661","https://x.com/99Dominik_/status/2091791085307650389","https://t.me/exilenova_plus/29629","https://ua.news/en/war-vs-rf/video-velikii-sklad-ozon-atakovanii-u-dagestani"]}},{"type":"Feature","geometry":{"type":"Point","coordinates":[32.214761,51.521942]},"properties":{"original":{"Date":"2026-08-24","Name":"24 AUG 2026","Faction":"Neutral","Origin":"VID","Latitude":"51.521942","Longitude":"32.214761","PlusCode":"9G3JG6C7+QW Mena, Chernihiv Oblast, Ukraine","Description":"Russian drones destroyed an Ukrposhta / Ukrtelecom building in Mena. There are 13 wounded, including 4 children.","Source":"https://www.youtube.com/watch?v=H8AfCh7X1So","Geolocation":"https://bsky.app/profile/scaratlas.bsky.social/post/3mtwg2yn5v22h","Equipment":"","EquipmentItems":"","Units":"","OrbatUnits":"","Id":"d519c3a4-1247-4c9c-9a49-f376c4bf2dfd","icon":"/api/icons/AC7339/False/template/192.png"},"source":"geoconfirmed","source_name":"GeoConfirmed","source_url":"https://geoconfirmed.org/map/ukraine","id":"d519c3a4-1247-4c9c-9a49-f376c4bf2dfd","date":"2026-08-24","link":"https://geoconfirmed.org/map/ukraine/d519c3a4-1247-4c9c-9a49-f376c4bf2dfd","category":"Recently destroyed/Damaged[Visible in footage] or still burning infrastucture","side":"Neutral","color":"#AC7339","description":"Russian drones destroyed an Ukrposhta / Ukrtelecom building in Mena. There are 13 wounded, including 4 children.","orbat":[],"geolocation":["https://bsky.app/profile/scaratlas.bsky.social/post/3mtwg2yn5v22h"],"sources":["https://www.youtube.com/watch?v=H8AfCh7X1So"]}}]}