{"type":"FeatureCollection","features":[{"type":"Feature","geometry":null,"properties":{"source":"ua_mod","source_name":"Ministry of Defence of Ukraine","group":"official_ua","id":16220,"posted_utc":"2026-09-19T11:24:50+00:00","link":"https://t.me/ministry_of_defense_ua/16220","text":"росія втрачає мільярди доларів внаслідок українських діп- і мідлстрайків. Це сотні недоотриманих ворожою армією ракет, дронів, машин і найманців.\nТільки за останній тиждень українські воїни завдали нищівних ударів по десятках цілей противника. Так Україна відповідає на російські обстріли.\n💥 Cили оборони уразили нафтопереробний завод «Славнефть-ЯНОС» у Ярославській області, за 1000 кілометрів від кордону. Це один із п'яти найбільших НПЗ росії. До прильоту наших діпстрайків завод був ключовим постачальником палива для західного угруповання військ рф.\n💥 Також ми влучили у резервуари й технологічні потужності двох великих виробників авіаційного гасу та бензину: НПЗ «Славянський» і «Танеко».\n💥 Під ударами опинився Сизранський НПЗ у Самарській області. Там зафіксовано влучання з подальшою пожежею: уражено установку первинного перероблення нафти та резервуарний парк. Підприємство залучено до забезпечення потреб збройних сил рф.\n💥 На військовому аеродромі «Ростов-на-Дону (Центральний)» уражено три транспортні літаки Ан-12 і Ан-25, а також три гелікоптери з детонацією боєкомплекту.\nСистемно і послідовно винищуємо матеріальну базу, що годує російську агресію. Відчутні втрати фінансування воєнної машини ворога змусять Кремль сісти за стіл переговорів на справедливих умовах.","links":[],"original_html":"<b>росія втрачає мільярди доларів внаслідок українських діп- і мідлстрайків. Це сотні недоотриманих ворожою армією ракет, дронів, машин і найманців.</b><br/><br/>Тільки за останній тиждень українські воїни завдали нищівних ударів по десятках цілей противника. Так Україна відповідає на російські обстріли.<br/><br/><i class=\"emoji\" style=\"background-image:url('//telegram.org/img/emoji/40/F09F92A5.png')\"><b>💥</b></i> Cили оборони уразили нафтопереробний завод «Славнефть-ЯНОС» у Ярославській області, за 1000 кілометрів від кордону. Це один із п&#39;яти найбільших НПЗ росії. До прильоту наших діпстрайків завод був ключовим постачальником палива для західного угруповання військ рф. <br/><br/><i class=\"emoji\" style=\"background-image:url('//telegram.org/img/emoji/40/F09F92A5.png')\"><b>💥</b></i> Також ми влучили у резервуари й технологічні потужності двох великих виробників авіаційного гасу та бензину: НПЗ «Славянський» і «Танеко».<br/><br/><i class=\"emoji\" style=\"background-image:url('//telegram.org/img/emoji/40/F09F92A5.png')\"><b>💥</b></i> Під ударами опинився Сизранський НПЗ у Самарській області. Там зафіксовано влучання з подальшою пожежею: уражено установку первинного перероблення нафти та резервуарний парк. Підприємство залучено до забезпечення потреб збройних сил рф.<br/><br/><i class=\"emoji\" style=\"background-image:url('//telegram.org/img/emoji/40/F09F92A5.png')\"><b>💥</b></i> На військовому аеродромі «Ростов-на-Дону (Центральний)» уражено три транспортні літаки Ан-12 і Ан-25, а також три гелікоптери з детонацією боєкомплекту.<br/><br/>Системно і послідовно винищуємо матеріальну базу, що годує російську агресію. Відчутні втрати фінансування воєнної машини ворога змусять Кремль сісти за стіл переговорів на справедливих умовах."}},{"type":"Feature","geometry":null,"properties":{"source":"ua_mod","source_name":"Ministry of Defence of Ukraine","group":"official_ua","id":16221,"posted_utc":"2026-09-19T12:57:19+00:00","link":"https://t.me/ministry_of_defense_ua/16221","text":"Були доповіді міністра оборони Євгенія Хмари та Головнокомандувача ЗСУ Михайла Драпатого. Готуються рішення, які мають оновити управлінські підходи та систему реагування на виклики в командуванні Медичних сил ЗСУ після зміни керівництва. Головне – максимально масштабувати успішні практики, які застосовуються в бойових бригадах та в усіх ефективних патронатних службах бригад. Масштабування успішного досвіду Сил оборони – це пріоритет для командувачів усіх рівнів.\nОбговорили також оновлення нормативної бази і підходів до залучення іноземних добровольців для служби в Силах оборони України. Кожен, хто відчуває, що наш захист незалежності України має глобальне значення, повинен отримати належну можливість проявити себе та відповідну шану. Вдячний усім іноземним добровольцям, які вже вагомо долучились до захисту України, нашої незалежності, права нашого народу жити так, як це має бути у суверенній державі.\nПогодив і нові далекобійні операції у відповідь на російські удари. Готуємо розширення наших далекобійних можливостей.\nХочу й окремо подякувати всім нашим розробникам та виробникам зброї, усім інженерам та залученим експертам, які буквально цілодобово працюють для створення протидії реактивним «шахедам». Вже є кілька розробок, які довели свою ефективність реальним застосуванням і збиттям реактивних «шахедів». Працюємо, щоб забезпечити системне застосування, постійну ефективність у збиттях і необхідне масове виробництво.\nВизначили з Головнокомандувачем ЗСУ і подальші пріоритети активних дій на фронті. Слава Україні!","links":[],"original_html":"Були доповіді міністра оборони Євгенія Хмари та Головнокомандувача ЗСУ Михайла Драпатого. Готуються рішення, які мають оновити управлінські підходи та систему реагування на виклики в командуванні Медичних сил ЗСУ після зміни керівництва. Головне –&nbsp;максимально масштабувати успішні практики, які застосовуються в бойових бригадах та в усіх ефективних патронатних службах бригад. Масштабування успішного досвіду Сил оборони – це пріоритет для командувачів усіх рівнів. <br/><br/>Обговорили також оновлення нормативної бази і підходів до залучення іноземних добровольців для служби в Силах оборони України. Кожен, хто відчуває, що наш захист незалежності України має глобальне значення, повинен отримати належну можливість проявити себе та відповідну шану. Вдячний усім іноземним добровольцям, які вже вагомо долучились до захисту України, нашої незалежності, права нашого народу жити так, як це має бути у суверенній державі. <br/><br/>Погодив і нові далекобійні операції у відповідь на російські удари. Готуємо розширення наших далекобійних можливостей. <br/><br/>Хочу й окремо подякувати всім нашим розробникам та виробникам зброї, усім інженерам та залученим експертам, які буквально цілодобово працюють для створення протидії реактивним «шахедам». Вже є кілька розробок, які довели свою ефективність реальним застосуванням і збиттям реактивних «шахедів». Працюємо, щоб забезпечити системне застосування, постійну ефективність у збиттях і необхідне масове виробництво. <br/><br/>Визначили з Головнокомандувачем ЗСУ і подальші пріоритети активних дій на фронті. Слава Україні&#33;"}},{"type":"Feature","geometry":null,"properties":{"source":"ua_mod","source_name":"Ministry of Defence of Ukraine","group":"official_ua","id":16222,"posted_utc":"2026-09-19T16:37:56+00:00","link":"https://t.me/ministry_of_defense_ua/16222","text":"🤝 Данія передає позачерговий, 31-й, пакет військової допомоги Україні вартістю близько 275 млн дол США.\nЦі кошти будуть спрямовані на посилення спроможностей ППО України у критичний осінньо-зимовий період.\nМіністр оборони України Євгеній Хмара дякує своєму данському колезі Єппе Бруусу за виконання домовленостей, досягнутих під час телефонної розмови раніше цього тижня.\nДанія від початку повномасштабного російського вторгнення залишається однією з держав-лідерів у наданні військової допомоги Україні та послідовно розвиває нові ефективні формати співпраці.\nВдячні Уряду і Парламенту Данії за принципову позицію та підтримку України, зокрема на тлі російських гібридних атак і провокацій проти наших союзників.\nРазом ми сильніші!","links":[],"original_html":"<i class=\"emoji\" style=\"background-image:url('//telegram.org/img/emoji/40/F09FA49D.png')\"><b>🤝</b></i> <b>Данія передає позачерговий, 31-й, пакет військової допомоги Україні вартістю близько 275 млн дол США.</b><br/>Ці кошти будуть спрямовані на посилення спроможностей ППО України у критичний осінньо-зимовий період. <br/><br/>Міністр оборони України Євгеній Хмара дякує своєму данському колезі Єппе Бруусу за виконання домовленостей, досягнутих під час телефонної розмови раніше цього тижня.<br/><br/>Данія від початку повномасштабного російського вторгнення залишається однією з держав-лідерів у наданні військової допомоги Україні та послідовно розвиває нові ефективні формати співпраці.<br/><br/>Вдячні Уряду і Парламенту Данії за принципову позицію та підтримку України, зокрема на тлі російських гібридних атак і провокацій проти наших союзників. <br/><br/>Разом ми сильніші&#33;"}},{"type":"Feature","geometry":null,"properties":{"source":"ua_mod","source_name":"Ministry of Defence of Ukraine","group":"official_ua","id":16223,"posted_utc":"2026-09-19T17:07:22+00:00","link":"https://t.me/ministry_of_defense_ua/16223","text":"🤝 США та ЄС допомагають закрити українське небо!\nСША схвалили можливий продаж Україні засобів для модернізації систем протиповітряної оборони на орієнтовну суму $2,68 млрд.\nЦе:\n▪️ ракети S-300 Clone;\n▪️ ракети GAM-67;\n▪️ ракети з лазерним наведенням для ППО збільшеної дальності;\n▪️ пускові установки та комплекти для їхньої модифікації;\n▪️ радари RPS 202 для протидії дронам;\n▪️ запасні частини та витратні матеріали;\n▪️ програмне забезпечення й технічна документація;\n▪️ транспортна, інженерна, технічна та логістична підтримка.\nФінансування угоди планується за рахунок внесків однієї з європейських країн і коштів американської програми «Зовнішнє військове фінансування» (FMF).\nКрім схвалених США $2,68 млрд Україна також отримала погодження від ЄС на закупівлю критичного американського озброєння, включаючи ППО, на суму  €3 млрд у межах Ukraine Support Loan.\nБезперервність фінансування наших пріоритетних закупівель та дозволяє своєчасно забезпечувати Сили оборони необхідним озброєнням.\nНапередодні складної зими, підтримка партнерів посилить Україну, її можливості протистояти ракетному терору та зміцнить протиповітряну оборону.\nДякуємо уряду США та партнерам ЄС за підтримку України в боротьбі за незалежність!","links":[],"original_html":"<i class=\"emoji\" style=\"background-image:url('//telegram.org/img/emoji/40/F09FA49D.png')\"><b>🤝</b></i> США та ЄС допомагають закрити українське небо&#33;<br/><b>США схвалили можливий продаж Україні засобів для модернізації систем протиповітряної оборони на орієнтовну суму &#036;2,68 млрд.</b><br/><br/>Це:<br/><i class=\"emoji\" style=\"background-image:url('//telegram.org/img/emoji/40/E296AA.png')\"><b>▪️</b></i> ракети S-300 Clone;<br/><i class=\"emoji\" style=\"background-image:url('//telegram.org/img/emoji/40/E296AA.png')\"><b>▪️</b></i> ракети GAM-67;<br/><i class=\"emoji\" style=\"background-image:url('//telegram.org/img/emoji/40/E296AA.png')\"><b>▪️</b></i> ракети з лазерним наведенням для ППО збільшеної дальності;<br/><i class=\"emoji\" style=\"background-image:url('//telegram.org/img/emoji/40/E296AA.png')\"><b>▪️</b></i> пускові установки та комплекти для їхньої модифікації;<br/><i class=\"emoji\" style=\"background-image:url('//telegram.org/img/emoji/40/E296AA.png')\"><b>▪️</b></i> радари RPS 202 для протидії дронам;<br/><i class=\"emoji\" style=\"background-image:url('//telegram.org/img/emoji/40/E296AA.png')\"><b>▪️</b></i> запасні частини та витратні матеріали;<br/><i class=\"emoji\" style=\"background-image:url('//telegram.org/img/emoji/40/E296AA.png')\"><b>▪️</b></i> програмне забезпечення й технічна документація;<br/><i class=\"emoji\" style=\"background-image:url('//telegram.org/img/emoji/40/E296AA.png')\"><b>▪️</b></i> транспортна, інженерна, технічна та логістична підтримка.<br/><br/>Фінансування угоди планується за рахунок внесків однієї з європейських країн і коштів американської програми «Зовнішнє військове фінансування» (FMF).<br/><br/>Крім схвалених США &#036;2,68 млрд Україна також отримала погодження від ЄС на закупівлю критичного американського озброєння, включаючи ППО, на суму  €3 млрд у межах Ukraine Support Loan. <br/><br/>Безперервність фінансування наших пріоритетних закупівель та дозволяє своєчасно забезпечувати Сили оборони необхідним озброєнням.<br/><br/>Напередодні складної зими, підтримка партнерів посилить Україну, її можливості протистояти ракетному терору та зміцнить протиповітряну оборону.<br/><br/>Дякуємо уряду США та партнерам ЄС за підтримку України в боротьбі за незалежність&#33;"}},{"type":"Feature","geometry":null,"properties":{"source":"ua_mod","source_name":"Ministry of Defence of Ukraine","group":"official_ua","id":16215,"posted_utc":"2026-09-19T09:03:04+00:00","link":"https://t.me/ministry_of_defense_ua/16215","text":"ІТ-коаліції — три роки.\nЗа цей час Україна разом із 17 державами-партнерами спрямувала €1,85 млрд на технологічне посилення Сил оборони.\nКоаліцію створили 19 вересня 2023 року під час «Рамштайну». Її лідери — Естонія та Люксембург.\nГоловне завдання — зробити військо більш технологічним і стійким: розвивати захищений зв’язок, кібербезпеку, ІТ-інфраструктуру та цифрові системи.\nНайбільші напрями підтримки:\n▪️ €728 млн — на радіостанції широкосмугового зв’язку;\n▪️ €445 млн — на супутниковий зв’язок;\n▪️ обладнання для пунктів управління;\n▪️ розвиток хмарної інфраструктури, центрів обробки даних і тактичних мереж;\n▪️ кібербезпека та захист даних.\nПартнери також підтримують цифрові системи Армія+, Резерв+, DELTA, «Імпульс», SAP та інші рішення для оборони.\nУ 2026–2027 роках фокус — захищений радіо- та супутниковий зв’язок, стійка ІТ-інфраструктура та кібербезпека.","links":[],"original_html":"<div class=\"tgme_widget_message_text js-message_text\" dir=\"auto\"><b>ІТ-коаліції — три роки.<br/>За цей час Україна разом із 17 державами-партнерами спрямувала €1,85 млрд на технологічне посилення Сил оборони.</b><br/><br/>Коаліцію створили 19 вересня 2023 року під час «Рамштайну». Її лідери — Естонія та Люксембург.<br/><br/>Головне завдання — зробити військо більш технологічним і стійким: розвивати захищений зв’язок, кібербезпеку, ІТ-інфраструктуру та цифрові системи.<br/><br/>Найбільші напрями підтримки:<br/><i class=\"emoji\" style=\"background-image:url('//telegram.org/img/emoji/40/E296AA.png')\"><b>▪️</b></i> €728 млн — на радіостанції широкосмугового зв’язку;<br/><i class=\"emoji\" style=\"background-image:url('//telegram.org/img/emoji/40/E296AA.png')\"><b>▪️</b></i> €445 млн — на супутниковий зв’язок;<br/><i class=\"emoji\" style=\"background-image:url('//telegram.org/img/emoji/40/E296AA.png')\"><b>▪️</b></i> обладнання для пунктів управління;<br/><i class=\"emoji\" style=\"background-image:url('//telegram.org/img/emoji/40/E296AA.png')\"><b>▪️</b></i> розвиток хмарної інфраструктури, центрів обробки даних і тактичних мереж;<br/><i class=\"emoji\" style=\"background-image:url('//telegram.org/img/emoji/40/E296AA.png')\"><b>▪️</b></i> кібербезпека та захист даних.<br/><br/>Партнери також підтримують цифрові системи Армія+, Резерв+, DELTA, «Імпульс», SAP та інші рішення для оборони.<br/><br/>У 2026–2027 роках фокус — захищений радіо- та супутниковий зв’язок, стійка ІТ-інфраструктура та кібербезпека."}}]}