{"type":"FeatureCollection","features":[{"type":"Feature","geometry":{"type":"Polygon","coordinates":[[[37.21609,48.43253],[37.21668,48.4445],[37.22417,48.44745],[37.23002,48.44856],[37.23399,48.45321],[37.2396,48.4541],[37.24049,48.44834],[37.23722,48.44842],[37.23085,48.43943],[37.21902,48.42985],[37.21609,48.43253]]]},"properties":{"source":"deepstate","source_name":"DeepStateMap","source_url":"https://deepstatemap.live/en","category":"gained","category_label":"Newly Russian-occupied","period":"1d","compared_with":"2026-10-02","snapshot_time":"2026-10-03","area_km2_approx":2.1}}]}