{"type":"FeatureCollection","features":[{"type":"Feature","geometry":{"type":"MultiPolygon","coordinates":[[[[37.93184,49.24305],[37.95266,49.24993],[37.95656,49.24829],[37.95003,49.24791],[37.95003,49.24668],[37.95382,49.24544],[37.95026,49.24415],[37.94917,49.24172],[37.95649,49.24029],[37.95101,49.23638],[37.93556,49.23931],[37.92944,49.2418],[37.93184,49.24305]]],[[[37.89339,48.78456],[37.88994,48.79496],[37.87937,48.79684],[37.88133,48.80302],[37.89038,48.80795],[37.89249,48.81586],[37.89699,48.81911],[37.89035,48.82677],[37.90716,48.83304],[37.91665,48.83982],[37.92794,48.83903],[37.93255,48.81936],[37.92994,48.81732],[37.92891,48.81154],[37.93561,48.80185],[37.94044,48.79842],[37.93738,48.79601],[37.92941,48.79792],[37.92041,48.79508],[37.92267,48.78527],[37.91345,48.78343],[37.90042,48.77406],[37.89109,48.77829],[37.89339,48.78456]]],[[[37.89255,48.85171],[37.88858,48.85857],[37.89205,48.86483],[37.89484,48.86269],[37.90838,48.86255],[37.91042,48.85914],[37.90702,48.85286],[37.89555,48.85143],[37.88459,48.84881],[37.88445,48.84931],[37.89255,48.85171]]],[[[37.83834,48.75767],[37.82501,48.75655],[37.81858,48.76232],[37.81225,48.76962],[37.826,48.78223],[37.84205,48.78353],[37.84788,48.77545],[37.87053,48.77563],[37.87139,48.77989],[37.88083,48.77925],[37.88728,48.76974],[37.88436,48.76645],[37.86489,48.76165],[37.85104,48.76079],[37.83897,48.76487],[37.83207,48.76554],[37.83326,48.76266],[37.83685,48.76226],[37.84443,48.75444],[37.8347,48.75206],[37.83834,48.75767]]],[[[37.80337,48.56442],[37.80335,48.57228],[37.81583,48.5755],[37.81937,48.57173],[37.81391,48.56694],[37.81298,48.56464],[37.80337,48.56442]]],[[[37.7944,49.06859],[37.79184,49.07079],[37.81453,49.07006],[37.81454,49.06958],[37.7944,49.06859]]],[[[37.78175,48.6279],[37.77869,48.64432],[37.77048,48.65276],[37.75973,48.65433],[37.75483,48.65608],[37.75173,48.66089],[37.75394,48.66448],[37.78182,48.67337],[37.79317,48.67884],[37.78719,48.68968],[37.78741,48.68983],[37.79663,48.67942],[37.80546,48.68008],[37.81171,48.66552],[37.80027,48.66385],[37.78724,48.65643],[37.79071,48.64597],[37.78467,48.63351],[37.788,48.62353],[37.78175,48.6279]]],[[[37.79593,48.54891],[37.79597,48.54703],[37.7771,48.54451],[37.77702,48.545],[37.79593,48.54891]]],[[[37.79379,48.55941],[37.78792,48.55863],[37.78729,48.56035],[37.79048,48.56062],[37.79215,48.56285],[37.79198,48.56395],[37.79565,48.56417],[37.79576,48.5583],[37.79379,48.55941]]],[[[37.7286,48.49526],[37.74068,48.49541],[37.74654,48.48638],[37.76195,48.48311],[37.74852,48.47794],[37.74268,48.48121],[37.72649,48.47945],[37.71615,48.48442],[37.7286,48.49526]]],[[[37.62395,48.52551],[37.63977,48.52626],[37.64949,48.50816],[37.66469,48.50368],[37.64657,48.5002],[37.64252,48.50773],[37.62842,48.50675],[37.62035,48.49756],[37.62395,48.52551]]],[[[37.60757,48.45797],[37.61994,48.45962],[37.62839,48.46541],[37.62216,48.48564],[37.63337,48.47508],[37.63848,48.45063],[37.61203,48.4434],[37.60452,48.44228],[37.60757,48.45797]]],[[[37.61537,48.48823],[37.61181,48.49237],[37.61357,48.4944],[37.61919,48.49702],[37.61934,48.49678],[37.61511,48.49355],[37.62216,48.48564],[37.61537,48.48823]]],[[[37.24994,48.45529],[37.24667,48.45979],[37.27444,48.46839],[37.28121,48.47303],[37.29887,48.47602],[37.30784,48.47472],[37.29578,48.46988],[37.28533,48.46848],[37.27719,48.46406],[37.26933,48.45705],[37.24994,48.45529]]],[[[37.04431,48.35651],[37.04205,48.36105],[37.05001,48.36868],[37.10022,48.39029],[37.09743,48.39635],[37.10001,48.39779],[37.10576,48.39494],[37.11252,48.38806],[37.12401,48.3831],[37.13538,48.37576],[37.14724,48.37222],[37.15207,48.37758],[37.15736,48.3815],[37.1679,48.38621],[37.17432,48.39103],[37.17212,48.40083],[37.19362,48.40242],[37.18939,48.40997],[37.18932,48.41589],[37.20126,48.41477],[37.22362,48.41956],[37.22514,48.41616],[37.23265,48.41675],[37.23748,48.41507],[37.23461,48.41115],[37.23973,48.41116],[37.24056,48.40383],[37.21319,48.40149],[37.20468,48.39768],[37.18673,48.39364],[37.18572,48.38035],[37.1781,48.37906],[37.17923,48.37481],[37.18947,48.37186],[37.1834,48.36173],[37.16604,48.3603],[37.14662,48.36549],[37.10328,48.36302],[37.10284,48.36528],[37.08477,48.36258],[37.08589,48.3578],[37.07913,48.35621],[37.07069,48.35179],[37.06842,48.35137],[37.0675,48.34277],[37.06285,48.34002],[37.04084,48.34923],[37.04431,48.35651]]],[[[37.13721,50.33183],[37.13025,50.33444],[37.12535,50.3412],[37.13478,50.3475],[37.13838,50.36095],[37.14336,50.34586],[37.14511,50.33534],[37.15578,50.33511],[37.1558,50.33478],[37.13721,50.33183]]],[[[37.06506,48.28316],[37.06102,48.30629],[37.06233,48.31776],[37.08621,48.31258],[37.08787,48.30245],[37.10235,48.29584],[37.10351,48.28705],[37.05894,48.28128],[37.05886,48.28173],[37.06506,48.28316]]],[[[36.9909,48.26865],[36.99904,48.26908],[37.012,48.26787],[37.01027,48.27906],[37.0272,48.2746],[37.04407,48.28015],[37.05438,48.28069],[37.05763,48.26376],[37.05032,48.26163],[37.05117,48.25514],[37.04609,48.25208],[37.04633,48.24976],[37.04049,48.24664],[37.03835,48.24438],[37.01808,48.24175],[37.01252,48.25993],[37.01045,48.25978],[37.00882,48.26105],[37.00307,48.26091],[36.99545,48.2634],[36.98834,48.26291],[36.9909,48.26865]]],[[[36.16346,47.74594],[36.17493,47.7546],[36.19196,47.75773],[36.19505,47.75346],[36.19896,47.72874],[36.19007,47.71985],[36.16435,47.72631],[36.16346,47.74594]]],[[[36.14878,47.66127],[36.14606,47.66863],[36.13929,47.69001],[36.14226,47.70203],[36.1671,47.69232],[36.17244,47.68045],[36.16607,47.67461],[36.16026,47.66886],[36.17061,47.65487],[36.16457,47.65167],[36.15938,47.65304],[36.14878,47.66127]]],[[[36.06809,47.59032],[36.07329,47.59496],[36.10704,47.5852],[36.10698,47.5849],[36.0944,47.58593],[36.08967,47.58198],[36.06809,47.59032]]],[[[35.53519,47.54982],[35.56335,47.55818],[35.58307,47.55375],[35.59699,47.54082],[35.5903,47.52837],[35.57191,47.53857],[35.55494,47.54451],[35.53725,47.54368],[35.53618,47.54622],[35.53519,47.54982]]]]},"properties":{"source":"deepstate","source_name":"DeepStateMap","source_url":"https://deepstatemap.live/en","category":"gained","category_label":"Newly Russian-occupied","period":"30d","compared_with":"2026-09-03","snapshot_time":"2026-10-03","area_km2_approx":139.8}},{"type":"Feature","geometry":{"type":"MultiPolygon","coordinates":[[[[37.76149,49.16015],[37.76448,49.16318],[37.76385,49.16681],[37.75001,49.17449],[37.74905,49.17869],[37.75534,49.18157],[37.75991,49.18563],[37.77654,49.18291],[37.78056,49.18523],[37.78394,49.18813],[37.79455,49.18567],[37.79479,49.18388],[37.80597,49.18085],[37.81442,49.1858],[37.83922,49.18605],[37.84228,49.1906],[37.8839,49.19281],[37.89268,49.2004],[37.88074,49.20809],[37.88347,49.21358],[37.88415,49.22047],[37.8783,49.22161],[37.8764,49.2261],[37.88753,49.22646],[37.89511,49.22601],[37.89831,49.22446],[37.91873,49.22681],[37.91559,49.24275],[37.91948,49.24585],[37.92944,49.2418],[37.92331,49.2386],[37.92886,49.22648],[37.94946,49.20977],[37.90699,49.19104],[37.87843,49.18761],[37.87772,49.17272],[37.85429,49.16928],[37.85072,49.15631],[37.84652,49.14853],[37.84332,49.14825],[37.84081,49.15234],[37.81659,49.15706],[37.78545,49.15829],[37.78102,49.1603],[37.76149,49.16015]]],[[[37.79576,48.5583],[37.7981,48.55698],[37.79683,48.5491],[37.79593,48.54891],[37.79576,48.5583]]],[[[37.78359,49.07106],[37.74742,49.06316],[37.72204,49.06484],[37.71305,49.0691],[37.72074,49.08239],[37.72174,49.08838],[37.70693,49.08924],[37.68399,49.09426],[37.68182,49.09704],[37.6955,49.09964],[37.7103,49.10157],[37.71411,49.10225],[37.71511,49.10711],[37.70382,49.11027],[37.69646,49.10506],[37.67845,49.10531],[37.67895,49.1176],[37.68864,49.12824],[37.7004,49.13028],[37.70953,49.12687],[37.72408,49.13326],[37.7473,49.12972],[37.73095,49.11945],[37.72882,49.10849],[37.73666,49.10383],[37.7417,49.10796],[37.75293,49.11119],[37.77348,49.10778],[37.79007,49.09939],[37.77272,49.09231],[37.77481,49.09116],[37.78257,49.09091],[37.78847,49.08418],[37.78398,49.07756],[37.79184,49.07079],[37.78359,49.07106]]],[[[37.61125,49.78401],[37.6122,49.79171],[37.6057,49.79574],[37.61177,49.80177],[37.61501,49.80309],[37.61501,49.80309],[37.61859,49.80455],[37.62463,49.81448],[37.61705,49.81665],[37.61965,49.82324],[37.63424,49.82411],[37.63853,49.81798],[37.64754,49.81439],[37.64735,49.81388],[37.64343,49.81527],[37.63699,49.80987],[37.63133,49.80181],[37.62847,49.80817],[37.62463,49.80695],[37.62674,49.80062],[37.61503,49.80282],[37.61527,49.80017],[37.6217,49.79765],[37.62938,49.79698],[37.63612,49.79469],[37.62936,49.78972],[37.62712,49.78334],[37.62327,49.77672],[37.61125,49.78401]]]]},"properties":{"source":"deepstate","source_name":"DeepStateMap","source_url":"https://deepstatemap.live/en","category":"lost","category_label":"No longer Russian-occupied","period":"30d","compared_with":"2026-09-03","snapshot_time":"2026-10-03","area_km2_approx":83.4}}]}