{"type":"FeatureCollection","features":[{"type":"Feature","geometry":{"type":"MultiPolygon","coordinates":[[[[37.93184,49.24305],[37.95266,49.24993],[37.95656,49.24829],[37.95003,49.24791],[37.95003,49.24668],[37.95382,49.24544],[37.95026,49.24415],[37.94917,49.24172],[37.95649,49.24029],[37.95101,49.23638],[37.93556,49.23931],[37.92944,49.2418],[37.93184,49.24305]]],[[[37.89339,48.78456],[37.88994,48.79496],[37.87937,48.79684],[37.88133,48.80302],[37.89038,48.80795],[37.89249,48.81586],[37.89699,48.81911],[37.89729,48.81575],[37.90326,48.81213],[37.9015,48.80534],[37.90924,48.80007],[37.92041,48.79508],[37.92267,48.78527],[37.91345,48.78343],[37.90042,48.77406],[37.89109,48.77829],[37.89339,48.78456]]],[[[37.17212,48.40083],[37.19362,48.40242],[37.17432,48.39103],[37.17212,48.40083]]],[[[37.04431,48.35651],[37.04205,48.36105],[37.05001,48.36868],[37.10022,48.39029],[37.09743,48.39635],[37.10001,48.39779],[37.10576,48.39494],[37.11252,48.38806],[37.12401,48.3831],[37.13538,48.37576],[37.12907,48.37427],[37.11658,48.37973],[37.10765,48.37903],[37.10284,48.36528],[37.08477,48.36258],[37.06992,48.36156],[37.04792,48.35725],[37.04128,48.34973],[37.04113,48.34983],[37.04431,48.35651]]],[[[36.9909,48.26865],[36.99904,48.26908],[37.012,48.26787],[37.01027,48.27906],[37.0272,48.2746],[37.04407,48.28015],[37.05438,48.28069],[37.05694,48.2701],[37.04603,48.27117],[37.04507,48.2688],[37.02986,48.26768],[37.03147,48.2593],[37.01252,48.25993],[37.01045,48.25978],[37.00882,48.26105],[37.00307,48.26091],[36.99545,48.2634],[36.98834,48.26291],[36.9909,48.26865]]],[[[36.14878,47.66127],[36.14606,47.66863],[36.13929,47.69001],[36.14226,47.70203],[36.1671,47.69232],[36.17244,47.68045],[36.16607,47.67461],[36.16026,47.66886],[36.17061,47.65487],[36.16457,47.65167],[36.15938,47.65304],[36.14878,47.66127]]]]},"properties":{"source":"deepstate","source_name":"DeepStateMap","source_url":"https://deepstatemap.live/en","category":"gained","category_label":"Newly Russian-occupied","period":"7d","compared_with":"2026-09-26","snapshot_time":"2026-10-03","area_km2_approx":34.6}},{"type":"Feature","geometry":{"type":"MultiPolygon","coordinates":[[[[37.91992,49.25659],[37.94337,49.2568],[37.96865,49.25111],[37.96862,49.25086],[37.94354,49.25053],[37.93486,49.24617],[37.91803,49.2489],[37.91992,49.25659]]],[[[37.82301,48.86371],[37.82362,48.87638],[37.83284,48.88531],[37.83744,48.87695],[37.83383,48.86495],[37.8419,48.86064],[37.84186,48.86053],[37.82301,48.86371]]],[[[37.79827,48.85351],[37.80184,48.8585],[37.81296,48.8575],[37.81821,48.8402],[37.82319,48.83964],[37.82319,48.83937],[37.81458,48.83843],[37.81447,48.83563],[37.79827,48.85351]]],[[[37.61563,48.55671],[37.62777,48.56311],[37.64094,48.55736],[37.62567,48.55733],[37.62138,48.5512],[37.61563,48.55671]]],[[[37.60823,48.53887],[37.62138,48.5512],[37.61836,48.5391],[37.60645,48.51663],[37.60823,48.53887]]],[[[37.57411,50.19301],[37.54132,50.19],[37.53289,50.18657],[37.50663,50.18783],[37.50783,50.20788],[37.52396,50.20442],[37.5298,50.20591],[37.5614,50.22296],[37.57634,50.21586],[37.58562,50.20338],[37.57411,50.19301]]],[[[37.04388,48.41915],[37.04414,48.42444],[37.05251,48.43165],[37.05876,48.42932],[37.06295,48.42028],[37.08132,48.41691],[37.09197,48.40379],[37.07669,48.41024],[37.05263,48.41437],[37.03727,48.40506],[37.04388,48.41915]]],[[[37.09197,48.40379],[37.10612,48.40277],[37.11161,48.39894],[37.11957,48.40071],[37.12903,48.40727],[37.12749,48.4081],[37.13016,48.4103],[37.13211,48.40951],[37.13492,48.41253],[37.13496,48.41813],[37.13842,48.42297],[37.14341,48.42283],[37.15063,48.42361],[37.15531,48.42698],[37.16607,48.42855],[37.16309,48.44521],[37.16406,48.44655],[37.18854,48.43891],[37.19472,48.44918],[37.19491,48.4491],[37.19182,48.43845],[37.19026,48.43646],[37.19264,48.42246],[37.16875,48.42158],[37.15578,48.41711],[37.13646,48.40039],[37.12463,48.3827],[37.12401,48.3831],[37.11321,48.38776],[37.10903,48.39161],[37.10576,48.39494],[37.10502,48.39531],[37.10302,48.39715],[37.09197,48.40379]]]]},"properties":{"source":"deepstate","source_name":"DeepStateMap","source_url":"https://deepstatemap.live/en","category":"gained_contested","category_label":"Newly contested","period":"7d","compared_with":"2026-09-26","snapshot_time":"2026-10-03","area_km2_approx":38.1}},{"type":"Feature","geometry":{"type":"MultiPolygon","coordinates":[[[[37.76149,49.16015],[37.76427,49.16297],[37.76123,49.16294],[37.7453,49.17076],[37.74676,49.17881],[37.75407,49.18246],[37.75985,49.18666],[37.77694,49.1837],[37.78341,49.18882],[37.79626,49.18604],[37.79597,49.18417],[37.8057,49.18175],[37.81229,49.18647],[37.80058,49.19477],[37.77132,49.20398],[37.77901,49.21082],[37.80627,49.20398],[37.83697,49.20173],[37.85176,49.19749],[37.86599,49.19814],[37.88366,49.19609],[37.88411,49.20115],[37.87487,49.20524],[37.88091,49.21741],[37.87531,49.22135],[37.87403,49.22731],[37.88615,49.23082],[37.91384,49.2286],[37.91138,49.24432],[37.9167,49.2371],[37.91867,49.2271],[37.91559,49.24275],[37.91948,49.24585],[37.92944,49.2418],[37.92331,49.2386],[37.92886,49.22648],[37.94946,49.20977],[37.90699,49.19104],[37.87843,49.18761],[37.87772,49.17272],[37.85429,49.16928],[37.85072,49.15631],[37.84652,49.14853],[37.84332,49.14825],[37.84081,49.15234],[37.81659,49.15706],[37.78545,49.15829],[37.78102,49.1603],[37.76149,49.16015]]],[[[37.61113,49.79586],[37.6245,49.79319],[37.61481,49.8001],[37.61492,49.80031],[37.6217,49.79765],[37.62938,49.79698],[37.63612,49.79469],[37.62936,49.78972],[37.62608,49.79206],[37.62373,49.79138],[37.61912,49.7918],[37.6109,49.79433],[37.61113,49.79586]]]]},"properties":{"source":"deepstate","source_name":"DeepStateMap","source_url":"https://deepstatemap.live/en","category":"lost","category_label":"Less Russian-held (occupied or contested area lost)","period":"7d","compared_with":"2026-09-26","snapshot_time":"2026-10-03","area_km2_approx":56.8}}]}