{"type":"FeatureCollection","features":[{"type":"Feature","geometry":{"type":"Point","coordinates":[37.832764,44.715252]},"properties":{"source":"warspotting","source_name":"WarSpotting","source_url":"https://ukr.warspotting.net/","id":46490,"date":"2026-09-09","link":"https://ukr.warspotting.net/view/46490/","category":"Vessels","side":"Lost by Russia","color":"#E00000","description":"Project 11356R 'Burevestnik' class frigate · Damaged · near Novorossiysk, Novorossiysk okrug · tags: Loitering","orbat":["30th Surface Ship Division"]}}]}