{"type":"FeatureCollection","features":[{"type":"Feature","geometry":{"type":"Point","coordinates":[34.88977,51.2666]},"properties":{"source":"warspotting","source_name":"WarSpotting","source_url":"https://ukr.warspotting.net/","id":46932,"date":"2026-09-07","link":"https://ukr.warspotting.net/view/46932/","category":"Rocket and missile artillery","side":"Lost by Russia","color":"#E00000","description":"122mm 2B17 BM-21-1 (for 9K51 'Grad') · Destroyed · near Byakhovo, Korenevo raion · tags: Cope cage","orbat":[]}}]}