{"type":"FeatureCollection","features":[{"type":"Feature","geometry":null,"properties":{"source":"ru_mod","source_name":"Ministry of Defence of Russia","group":"official_ru","id":67889,"posted_utc":"2026-10-03T02:07:01+00:00","link":"https://t.me/mod_russia/67889","text":"⚡️️️  Ослепительный прилет по противнику\n🎮 Расчеты БПЛА самолетного типа «Молния-2» из состава 20-й гвардейской общевойсковой армии группировки «Запад» отработали по технике и личному составу ВСУ в районе восточного берега Краснооскольского водохранилища в ДНР.\n💬  Командир отделения с позывным «Брат» поделился, что даже в сильный туман, когда видимость практически нулевая, бойцы уверенно ведут беспилотники и точно поражают цели.\nПрисоединяйся к нашим бойцам и бей врага, как это делают дроноводы подразделений войск беспилотных систем! Узнай подробности на сайте Беспилотныевойска.рф и по телефону 117(доб.4).\n#ВойскаБПС\n🔹 Канал Минобороны России в MAКС – боевая работа 24/7","links":["https://xn--80abdlarjifukdg1ajk8m.xn--p1ai/?utm_source=mil&utm_medium=social&utm_campaign=social","https://max.ru/morf"]}},{"type":"Feature","geometry":null,"properties":{"source":"ru_mod","source_name":"Ministry of Defence of Russia","group":"official_ru","id":67890,"posted_utc":"2026-10-03T03:43:02+00:00","link":"https://t.me/mod_russia/67890","text":"💥  Поразительный «Гиацинт» для ВСУ\nРасчет «Гиацинта-Б» Новороссийских десантников отработал по складам и вражеским пунктам управления беспилотниками.\n📍  Ореховское направление\n▫️ Канал Минобороны России в MAКС – источник мощных новостей","links":["https://max.ru/morf"]}},{"type":"Feature","geometry":null,"properties":{"source":"ru_mod","source_name":"Ministry of Defence of Russia","group":"official_ru","id":67891,"posted_utc":"2026-10-03T05:27:58+00:00","link":"https://t.me/mod_russia/67891","text":"❗️ Вооруженные Силы Российской Федерации продолжают наносить удары по объектам инфраструктуры Украины и морским судам задействованным в интересах ВСУ.\n💥 Сегодня ночью в результате ударов беспилотными летательными аппаратами поражены:\n▪️ в городе Киеве – Северный автотранспортный мост через реку Днепр, обеспечивающий переброску войск и логистику при поставке военных грузов в интересах ВСУ;\n▪️ в Киевской области – логистический центр «Гостомель» на территории которого осуществляется хранение материальных средств, используемых для снабжения ВСУ.\n💥 Кроме того, на переходе морем в северо-западной части Черного моря поражено морское судно типа «сухогруз», доставлявшее в порт Одесса грузы двойного назначения для обеспечения ВСУ.\n🔹 Минобороны России","links":["https://max.ru/morf"]}},{"type":"Feature","geometry":null,"properties":{"source":"ru_mod","source_name":"Ministry of Defence of Russia","group":"official_ru","id":67892,"posted_utc":"2026-10-03T05:43:16+00:00","link":"https://t.me/mod_russia/67892","text":"⚡️ В течение прошедшей ночи в период с 20.00 мск 2 октября до 8.00 мск 3 октября дежурными силами ПВО перехвачены и уничтожены 218 украинских беспилотных летательных аппаратов самолетного типа над территориями Астраханской, Белгородской, Брянской, Воронежской, Калужской, Курской, Орловской, Ростовской, Рязанской, Смоленской, Тульской областей, Московского региона, Краснодарского края, Республики Крым и над акваториями Азовского и Черного морей.\n🔹 Курс на MAКС!","links":["https://max.ru/morf"]}},{"type":"Feature","geometry":null,"properties":{"source":"ru_mod","source_name":"Ministry of Defence of Russia","group":"official_ru","id":67893,"posted_utc":"2026-10-03T05:44:31+00:00","link":"https://t.me/mod_russia/67893","text":"❗️ Вооруженные Силы Российской Федерации продолжают наносить удары по объектам инфраструктуры Украины и морским судам задействованным в интересах ВСУ.  💥 Сегодня ночью в результате ударов беспилотными летательными аппаратами поражены:  ▪️ в городе Киеве –…","links":[]}},{"type":"Feature","geometry":null,"properties":{"source":"ru_mod","source_name":"Ministry of Defence of Russia","group":"official_ru","id":67894,"posted_utc":"2026-10-03T06:16:36+00:00","link":"https://t.me/mod_russia/67894","text":"Вражеского «зверя» закрыли в клетке\nСпецназ группировки «Запад» уничтожил БТР «Puma» итальянского производства в районе восточного берега Краснооскольского водохранилища.\n#ВойскаБПС\n🔹 Курс на MAКС!","links":["https://max.ru/morf"]}},{"type":"Feature","geometry":null,"properties":{"source":"ru_mod","source_name":"Ministry of Defence of Russia","group":"official_ru","id":67896,"posted_utc":"2026-10-03T08:01:08+00:00","link":"https://t.me/mod_russia/67896","text":"Полигонная симфония не стихает\n📍 полигон Тоцкий в Оренбургской области\nОпыт СВО помогает решить учебные задачки. Как разворачивался учебный бой на полигоне:\n▫️ Реактивщики огнем из «Торнадо-Г» накрыли резервы «противника» в тылу, лишив его возможности маневра и усиления.\n▫️ Экипажи тяжелых огнеметных систем уничтожили фортификации и опорные пункты и обеспечили продвижение штурмовых групп.\n▫️ Расчеты «Мсты-С» разгромили систему управления.\n▫️ Мотострелки штурмом овладели населенным пунктом «противника».\n#Центр2026\n🔹 Минобороны России","links":["https://max.ru/morf"]}},{"type":"Feature","geometry":null,"properties":{"source":"ru_mod","source_name":"Ministry of Defence of Russia","group":"official_ru","id":67897,"posted_utc":"2026-10-03T08:52:16+00:00","link":"https://t.me/mod_russia/67897","text":"⚡️ Подразделения группировки войск «Север» установили контроль на населенным пунктом Новая Казачья в Харьковской области.\nПодробнее о ходе проведения специальной военной операции ➡️ в MAКС.","links":["https://max.ru/morf/AaEA__WYGbE"]}},{"type":"Feature","geometry":null,"properties":{"source":"ru_mod","source_name":"Ministry of Defence of Russia","group":"official_ru","id":67899,"posted_utc":"2026-10-03T10:10:08+00:00","link":"https://t.me/mod_russia/67899","text":"Работает дружина «Вещего Олега»\nРасчёт БПЛА «Князь Вещий Олег» из состава 44-го армейского корпуса группировки «Север» фиксирует поражение боевиков в Сумской области.\n#ВойскаБПС\n▫️ Канал Минобороны России в MAКС – источник мощных новостей","links":["https://max.ru/morf"]}}]}