{"type":"FeatureCollection","features":[{"type":"Feature","geometry":{"type":"MultiPolygon","coordinates":[[[[37.79632,48.558],[37.79369,48.55914],[37.7894,48.5586],[37.78679,48.55898],[37.78706,48.56012],[37.78807,48.56073],[37.78942,48.56118],[37.79044,48.56176],[37.79029,48.56242],[37.79216,48.56282],[37.79176,48.56389],[37.79581,48.56412],[37.7964,48.56012],[37.79632,48.558]]],[[[37.61311,48.49609],[37.62108,48.49972],[37.62207,48.51033],[37.62271,48.51866],[37.62405,48.52419],[37.63671,48.52569],[37.64568,48.52481],[37.64929,48.5106],[37.66187,48.50463],[37.64368,48.50287],[37.64252,48.50776],[37.62837,48.5067],[37.6302,48.49639],[37.61261,48.49474],[37.61311,48.49609]]]]},"properties":{"source":"ukrdaily","source_name":"UkrDailyUpdate","source_url":"https://map.ukrdailyupdate.com/","category":"gained","category_label":"Russian advance: became occupied","period":"1d","compared_with":"2026-09-09","snapshot_time":"2026-09-10","area_km2_approx":5.5}},{"type":"Feature","geometry":{"type":"Polygon","coordinates":[[[36.67631,47.96356],[36.69747,47.97538],[36.71292,47.97975],[36.71217,47.97191],[36.7119,47.97131],[36.70293,47.97004],[36.70422,47.96468],[36.69289,47.96304],[36.66879,47.95975],[36.66876,47.95987],[36.67631,47.96356]]]},"properties":{"source":"ukrdaily","source_name":"UkrDailyUpdate","source_url":"https://map.ukrdailyupdate.com/","category":"lost","category_label":"Ukrainian advance: became Ukrainian-held","period":"1d","compared_with":"2026-09-09","snapshot_time":"2026-09-10","area_km2_approx":2.5}},{"type":"Feature","geometry":{"type":"MultiPolygon","coordinates":[[[[36.69288,47.96304],[36.70422,47.96468],[36.70293,47.97004],[36.7119,47.97131],[36.71221,47.97198],[36.72694,47.97377],[36.73686,47.97607],[36.73534,47.98958],[36.73744,47.99432],[36.73974,47.99381],[36.74075,47.9906],[36.74198,47.98934],[36.74231,47.98823],[36.74149,47.98598],[36.74202,47.98395],[36.74191,47.97896],[36.74122,47.97678],[36.74,47.97605],[36.73951,47.97553],[36.73495,47.96881],[36.7195,47.96674],[36.72226,47.95585],[36.68971,47.95097],[36.69288,47.96304]]],[[[36.28719,50.30193],[36.28677,50.30473],[36.28991,50.2997],[36.28976,50.29957],[36.28719,50.30193]]]]},"properties":{"source":"ukrdaily","source_name":"UkrDailyUpdate","source_url":"https://map.ukrdailyupdate.com/","category":"occupied_to_contested","category_label":"Occupied became contested","period":"1d","compared_with":"2026-09-09","snapshot_time":"2026-09-10","area_km2_approx":5.3}},{"type":"Feature","geometry":{"type":"MultiPolygon","coordinates":[[[[37.69257,48.53443],[37.69343,48.53404],[37.69408,48.53466],[37.6947,48.53532],[37.69782,48.53382],[37.69558,48.53175],[37.69391,48.53248],[37.6908,48.53399],[37.69257,48.53443]]],[[[37.61583,48.53008],[37.61789,48.53361],[37.61854,48.53742],[37.62047,48.54253],[37.62167,48.54614],[37.62394,48.5496],[37.62394,48.5529],[37.62982,48.55512],[37.63622,48.55531],[37.64077,48.55227],[37.63965,48.55009],[37.64068,48.5481],[37.64377,48.54668],[37.6514,48.54785],[37.65504,48.54994],[37.6644,48.54608],[37.67025,48.54302],[37.67017,48.5428],[37.66688,48.5436],[37.6654,48.54416],[37.65757,48.54768],[37.65384,48.54461],[37.65288,48.54226],[37.64988,48.54167],[37.64749,48.53937],[37.64535,48.54037],[37.64258,48.53767],[37.63951,48.53389],[37.61642,48.52682],[37.61376,48.5233],[37.61367,48.52334],[37.61583,48.53008]]]]},"properties":{"source":"ukrdaily","source_name":"UkrDailyUpdate","source_url":"https://map.ukrdailyupdate.com/","category":"ukrainian_to_contested","category_label":"Ukrainian-held became contested","period":"1d","compared_with":"2026-09-09","snapshot_time":"2026-09-10","area_km2_approx":5.1}}]}