{"type":"FeatureCollection","features":[{"type":"Feature","geometry":{"type":"Point","coordinates":[33.980137,45.127075]},"properties":{"original":{"Date":"2026-08-10","Name":"10 AUG 2026","Faction":"Russia","Origin":"SAT","Latitude":"45.127075","Longitude":"33.980137","PlusCode":"8GQM4XGJ+R3","Description":"Area grid - Several impacts visible near and on the runway of Hvardiyske (Gvardeyskoye) BSF Naval Air Base following a reported Ukrainian strike on 07 August 2026.(1)","Source":"https://x.com/GarbuzYe/status/2086709133567250458, More information, https://www.pravda.com.ua/eng/news/2026/08/10/8048057/, https://www.ukrinform.net/rubric-ato/4151968-defense-forces-strike-russian-radar-station-and-uav-repeaters-in-crimea.html","Geolocation":"https://x.com/GarbuzYe/status/2086709133567250458","Equipment":"","EquipmentItems":"","Units":"","OrbatUnits":"","Id":"1f5cf74c-7264-4937-b8eb-03bfe3f0a1f1","icon":"/api/icons/E00000/False/template/192.png"},"source":"geoconfirmed","source_name":"GeoConfirmed","source_url":"https://geoconfirmed.org/map/ukraine","id":"1f5cf74c-7264-4937-b8eb-03bfe3f0a1f1","date":"2026-08-10","link":"https://geoconfirmed.org/map/ukraine/1f5cf74c-7264-4937-b8eb-03bfe3f0a1f1","category":"Recently destroyed/Damaged[Visible in footage] or still burning infrastucture","side":"Russia","color":"#E00000","description":"Area grid - Several impacts visible near and on the runway of Hvardiyske (Gvardeyskoye) BSF Naval Air Base following a reported Ukrainian strike on 07 August 2026.(1)","orbat":[],"geolocation":["https://x.com/GarbuzYe/status/2086709133567250458"],"sources":["https://x.com/GarbuzYe/status/2086709133567250458","https://www.pravda.com.ua/eng/news/2026/08/10/8048057/","https://www.ukrinform.net/rubric-ato/4151968-defense-forces-strike-russian-radar-station-and-uav-repeaters-in-crimea.html"]}},{"type":"Feature","geometry":{"type":"Point","coordinates":[36.10409,47.873326]},"properties":{"original":{"Date":"2026-08-10","Name":"10 AUG 2026","Faction":"Russia","Origin":"UAV","Latitude":"47.873326","Longitude":"36.10409","PlusCode":"8GVRV4F3+8J Nove Pole, Zaporizhia Oblast, Ukraine","Description":"1:00-1:03 - Flag showed by Russian soldier of the 36th Guards Motorized Rifle Brigade early August 2026.","Source":"https://x.com/richardzai38580/status/2087104279438078436, https://t.me/voin_dv/20622","Geolocation":"https://x.com/richardzai38580/status/2087103560316318126","Equipment":"","EquipmentItems":"","Units":"","OrbatUnits":"36th Guards Motorized Rifle Brigade","Id":"8dbf1593-d532-4c06-a693-08f19d28924a","icon":"/api/icons/E00000/False/template/100.png"},"source":"geoconfirmed","source_name":"GeoConfirmed","source_url":"https://geoconfirmed.org/map/ukraine","id":"8dbf1593-d532-4c06-a693-08f19d28924a","date":"2026-08-10","link":"https://geoconfirmed.org/map/ukraine/8dbf1593-d532-4c06-a693-08f19d28924a","category":"Civilian or Soldier or Militant (Depending on the colour)","side":"Russia","color":"#E00000","description":"1:00-1:03 - Flag showed by Russian soldier of the 36th Guards Motorized Rifle Brigade early August 2026.","orbat":["36th Guards Motorized Rifle Brigade"],"geolocation":["https://x.com/richardzai38580/status/2087103560316318126"],"sources":["https://x.com/richardzai38580/status/2087104279438078436","https://t.me/voin_dv/20622"]}},{"type":"Feature","geometry":{"type":"Point","coordinates":[35.482461,50.438987]},"properties":{"original":{"Date":"2026-08-10","Name":"10 AUG 2026","Faction":"Russia","Origin":"UAV","Latitude":"50.438987","Longitude":"35.482461","PlusCode":"9G2QCFQJ+HX Velyka Pysarivka, Sumy Oblast, Ukraine","Description":"0:27-0:31 - Russian drone drop on a claimed Ukrainian position","Source":"https://t.me/icpbtrubicon/2350","Geolocation":"https://bsky.app/profile/scaratlas.bsky.social/post/3mtdvhpttx227","Equipment":"","EquipmentItems":"(Multi-Purpose) Bomber UAV","Units":"","OrbatUnits":"Center for Advanced Unmanned Aerial Technologies \"Rubicon\"","Id":"c426e61d-819c-42dc-9cbf-16e89b70fdbc","icon":"/api/icons/E00000/False/template/110.png"},"source":"geoconfirmed","source_name":"GeoConfirmed","source_url":"https://geoconfirmed.org/map/ukraine","id":"c426e61d-819c-42dc-9cbf-16e89b70fdbc","date":"2026-08-10","link":"https://geoconfirmed.org/map/ukraine/c426e61d-819c-42dc-9cbf-16e89b70fdbc","category":"Multipurpose Bomber Drone, Flying OR Dropping OR bombing a target without knowing the outcome: if something is damaged --> icon of the damaged equipment.","side":"Russia","color":"#E00000","description":"0:27-0:31 - Russian drone drop on a claimed Ukrainian position","orbat":["Center for Advanced Unmanned Aerial Technologies \"Rubicon\""],"geolocation":["https://bsky.app/profile/scaratlas.bsky.social/post/3mtdvhpttx227"],"sources":["https://t.me/icpbtrubicon/2350"]}},{"type":"Feature","geometry":{"type":"Point","coordinates":[33.987861,45.123715]},"properties":{"original":{"Date":"2026-08-10","Name":"10 AUG 2026","Faction":"Russia","Origin":"SAT","Latitude":"45.123715","Longitude":"33.987861","PlusCode":"8GQM4XFQ+F4","Description":"Dark mark at a building of Hvardiyske (Gvardeyskoye) BSF Naval Air Base following a reported Ukrainian strike on 07 August 2026.(2)","Source":"https://x.com/GarbuzYe/status/2086709133567250458, More information, https://www.pravda.com.ua/eng/news/2026/08/10/8048057/, https://www.ukrinform.net/rubric-ato/4151968-defense-forces-strike-russian-radar-station-and-uav-repeaters-in-crimea.html","Geolocation":"https://x.com/GarbuzYe/status/2086709133567250458","Equipment":"","EquipmentItems":"","Units":"","OrbatUnits":"","Id":"b14c711b-afe9-4cbf-9f1c-191255087b74","icon":"/api/icons/E00000/False/template/192.png"},"source":"geoconfirmed","source_name":"GeoConfirmed","source_url":"https://geoconfirmed.org/map/ukraine","id":"b14c711b-afe9-4cbf-9f1c-191255087b74","date":"2026-08-10","link":"https://geoconfirmed.org/map/ukraine/b14c711b-afe9-4cbf-9f1c-191255087b74","category":"Recently destroyed/Damaged[Visible in footage] or still burning infrastucture","side":"Russia","color":"#E00000","description":"Dark mark at a building of Hvardiyske (Gvardeyskoye) BSF Naval Air Base following a reported Ukrainian strike on 07 August 2026.(2)","orbat":[],"geolocation":["https://x.com/GarbuzYe/status/2086709133567250458"],"sources":["https://x.com/GarbuzYe/status/2086709133567250458","https://www.pravda.com.ua/eng/news/2026/08/10/8048057/","https://www.ukrinform.net/rubric-ato/4151968-defense-forces-strike-russian-radar-station-and-uav-repeaters-in-crimea.html"]}},{"type":"Feature","geometry":{"type":"Point","coordinates":[38.400718,48.949947]},"properties":{"original":{"Date":"2026-08-10","Name":"10 AUG 2026","Faction":"Neutral","Origin":"PIC","Latitude":"48.949947","Longitude":"38.400718","PlusCode":"8GWWWCX2+X7 Lysychans'k, Luhansk Oblast, Ukraine","Description":"Destruction of a school ","Source":"https://x.com/MikiValbuena/status/2091431881677914279, https://t.me/Trikutnik_UA/13735","Geolocation":"https://x.com/MikiValbuena/status/2091431876527362326","Equipment":"","EquipmentItems":"","Units":"","OrbatUnits":"","Id":"3647948a-a405-4845-a161-345ea10be5e2","icon":"/api/icons/AC7339/False/template/193.png"},"source":"geoconfirmed","source_name":"GeoConfirmed","source_url":"https://geoconfirmed.org/map/ukraine","id":"3647948a-a405-4845-a161-345ea10be5e2","date":"2026-08-10","link":"https://geoconfirmed.org/map/ukraine/3647948a-a405-4845-a161-345ea10be5e2","category":"Older destroyed infrastucture","side":"Neutral","color":"#AC7339","description":"Destruction of a school","orbat":[],"geolocation":["https://x.com/MikiValbuena/status/2091431876527362326"],"sources":["https://x.com/MikiValbuena/status/2091431881677914279","https://t.me/Trikutnik_UA/13735"]}},{"type":"Feature","geometry":{"type":"Point","coordinates":[37.603673,49.723059]},"properties":{"original":{"Date":"2026-08-10","Name":"10 AUG 2026","Faction":"Russia","Origin":"UAV","Latitude":"49.723059","Longitude":"37.603673","PlusCode":"8GXVPJF3+6F Kup'yans'k, Kharkiv Oblast, Ukraine","Description":"0:29 - Russian Soldier hit by FPV","Source":"https://x.com/Bielitzling/status/2086798265714913565, https://t.me/batallionnnn/1067","Geolocation":"https://x.com/Bielitzling/status/2086798261805883635","Equipment":"","EquipmentItems":"FPV (First Person View) OWAD (One Way Attack Drone)","Units":"","OrbatUnits":"2nd Guard Battalion","Id":"5854e82b-ebe2-4a65-949e-401ab2c01e85","icon":"/api/icons/E00000/False/template/92.png"},"source":"geoconfirmed","source_name":"GeoConfirmed","source_url":"https://geoconfirmed.org/map/ukraine","id":"5854e82b-ebe2-4a65-949e-401ab2c01e85","date":"2026-08-10","link":"https://geoconfirmed.org/map/ukraine/5854e82b-ebe2-4a65-949e-401ab2c01e85","category":"WIA/KIA Soldier/Militant","side":"Russia","color":"#E00000","description":"0:29 - Russian Soldier hit by FPV","orbat":["2nd Guard Battalion"],"geolocation":["https://x.com/Bielitzling/status/2086798261805883635"],"sources":["https://x.com/Bielitzling/status/2086798265714913565","https://t.me/batallionnnn/1067"]}},{"type":"Feature","geometry":{"type":"Point","coordinates":[36.192397,50.325408]},"properties":{"original":{"Date":"2026-08-10","Name":"10 AUG 2026","Faction":"Russia","Origin":"UAV","Latitude":"50.325408","Longitude":"36.192397","PlusCode":"9G2R85GR+5X Kozacha Lopan', Kharkiv Oblast, Ukraine","Description":"0:27-0:31 - Russian drone drop on a claimed Ukrainian position","Source":"https://t.me/icpbtrubicon/2350","Geolocation":"https://bsky.app/profile/scaratlas.bsky.social/post/3mtdubqsslk2q","Equipment":"","EquipmentItems":"(Multi-Purpose) Bomber UAV","Units":"","OrbatUnits":"Center for Advanced Unmanned Aerial Technologies \"Rubicon\"","Id":"3c132b90-0315-4d70-b663-5719e936fc01","icon":"/api/icons/E00000/False/template/110.png"},"source":"geoconfirmed","source_name":"GeoConfirmed","source_url":"https://geoconfirmed.org/map/ukraine","id":"3c132b90-0315-4d70-b663-5719e936fc01","date":"2026-08-10","link":"https://geoconfirmed.org/map/ukraine/3c132b90-0315-4d70-b663-5719e936fc01","category":"Multipurpose Bomber Drone, Flying OR Dropping OR bombing a target without knowing the outcome: if something is damaged --> icon of the damaged equipment.","side":"Russia","color":"#E00000","description":"0:27-0:31 - Russian drone drop on a claimed Ukrainian position","orbat":["Center for Advanced Unmanned Aerial Technologies \"Rubicon\""],"geolocation":["https://bsky.app/profile/scaratlas.bsky.social/post/3mtdubqsslk2q"],"sources":["https://t.me/icpbtrubicon/2350"]}},{"type":"Feature","geometry":{"type":"Point","coordinates":[37.591655,49.722609]},"properties":{"original":{"Date":"2026-08-10","Name":"10 AUG 2026","Faction":"Ukraine","Origin":"UAV","Latitude":"49.722609","Longitude":"37.591655","PlusCode":"8GXVPHFR+2M Kup'yans'k, Kharkiv Oblast, Ukraine","Description":"0:21-0:28 - Claimed Russian position hit by a drone drop of the 41st Separate Mechanized Brigade","Source":"https://x.com/Bielitzling/status/2086812620586152108, https://t.me/ombr41/3010","Geolocation":"https://x.com/Bielitzling/status/2086812614617624968","Equipment":"","EquipmentItems":"(Multi-Purpose) Bomber UAV","Units":"","OrbatUnits":"41st Separate Mechanized Brigade","Id":"1cdc7a03-23cb-4f1b-9615-5e54331cd641","icon":"/api/icons/0051CA/False/template/110.png"},"source":"geoconfirmed","source_name":"GeoConfirmed","source_url":"https://geoconfirmed.org/map/ukraine","id":"1cdc7a03-23cb-4f1b-9615-5e54331cd641","date":"2026-08-10","link":"https://geoconfirmed.org/map/ukraine/1cdc7a03-23cb-4f1b-9615-5e54331cd641","category":"Multipurpose Bomber Drone, Flying OR Dropping OR bombing a target without knowing the outcome: if something is damaged --> icon of the damaged equipment.","side":"Ukraine","color":"#0051CA","description":"0:21-0:28 - Claimed Russian position hit by a drone drop of the 41st Separate Mechanized Brigade","orbat":["41st Separate Mechanized Brigade"],"geolocation":["https://x.com/Bielitzling/status/2086812614617624968"],"sources":["https://x.com/Bielitzling/status/2086812620586152108","https://t.me/ombr41/3010"]}},{"type":"Feature","geometry":{"type":"Point","coordinates":[37.094274,50.210179]},"properties":{"original":{"Date":"2026-08-10","Name":"10 AUG 2026","Faction":"Russia","Origin":"UAV","Latitude":"50.210179","Longitude":"37.094274","PlusCode":"9G2V636V+3P Bilyi Kolodyaz', Kharkiv Oblast, Ukraine","Description":"0:15-0:32 - Russian drone strikes","Source":"https://x.com/Bielitzling/status/2086994015149293858, https://t.me/AptiAlaudinovAKHMAT/23004","Geolocation":"https://x.com/Bielitzling/status/2086994010971758936","Equipment":"","EquipmentItems":"FPV (First Person View) OWAD (One Way Attack Drone)","Units":"\"Kornets\"","OrbatUnits":"204th Special Purpose Regiment “Akhmat”","Id":"beac1b54-f8d4-489e-b9b4-5ffbd823914b","icon":"/api/icons/E00000/False/template/111.png"},"source":"geoconfirmed","source_name":"GeoConfirmed","source_url":"https://geoconfirmed.org/map/ukraine","id":"beac1b54-f8d4-489e-b9b4-5ffbd823914b","date":"2026-08-10","link":"https://geoconfirmed.org/map/ukraine/beac1b54-f8d4-489e-b9b4-5ffbd823914b","category":"Short Range (<50km) OWAD (One Way Attack Drone), mostly rotary wing, Flying OR Attacking a target without knowing the outcome: if something is damaged --> icon of the damaged equipment.","side":"Russia","color":"#E00000","description":"0:15-0:32 - Russian drone strikes","orbat":["204th Special Purpose Regiment “Akhmat”"],"geolocation":["https://x.com/Bielitzling/status/2086994010971758936"],"sources":["https://x.com/Bielitzling/status/2086994015149293858","https://t.me/AptiAlaudinovAKHMAT/23004"]}},{"type":"Feature","geometry":{"type":"Point","coordinates":[37.679289,48.527749]},"properties":{"original":{"Date":"2026-08-10","Name":"10 AUG 2026","Faction":"Ukraine","Origin":"UAV","Latitude":"48.527749","Longitude":"37.679289","PlusCode":"8GWVGMHH+3P Kostyantynivka, Donetsk Oblast, Ukraine","Description":"0:23 - Wreck, presumably Ukrainian.","Source":"https://x.com/Mocca2X/status/2086805774739947739, https://t.me/MSP1465/934","Geolocation":"https://x.com/Mocca2X/status/2086781394467106928","Equipment":"Vehicle or UGV","EquipmentItems":"","Units":"","OrbatUnits":"","Id":"2240c5f1-39cd-4c90-af89-6406544fd11d","icon":"/api/icons/0051CA/False/template/63.png"},"source":"geoconfirmed","source_name":"GeoConfirmed","source_url":"https://geoconfirmed.org/map/ukraine","id":"2240c5f1-39cd-4c90-af89-6406544fd11d","date":"2026-08-10","link":"https://geoconfirmed.org/map/ukraine/2240c5f1-39cd-4c90-af89-6406544fd11d","category":"Older Destroyed/Damaged Logistical Trucks (Soft skin OR armoured)","side":"Ukraine","color":"#0051CA","description":"0:23 - Wreck, presumably Ukrainian.","orbat":[],"geolocation":["https://x.com/Mocca2X/status/2086781394467106928"],"sources":["https://x.com/Mocca2X/status/2086805774739947739","https://t.me/MSP1465/934"]}},{"type":"Feature","geometry":{"type":"Point","coordinates":[37.790548,48.569412]},"properties":{"original":{"Date":"2026-08-10","Name":"10 AUG 2026","Faction":"Ukraine","Origin":"UAV","Latitude":"48.569412","Longitude":"37.790548","PlusCode":"8GWVHQ9R+Q6 Chervone, Donetsk Oblast, Ukraine","Description":"1:01 - Ukraine strikes a Russian position","Source":"https://x.com/24th_brigade/status/2086845028077281725, https://t.me/official24ombr/2543","Geolocation":"https://x.com/Bielitzling/status/2086853119602827596","Equipment":"","EquipmentItems":"","Units":"","OrbatUnits":"24th Mechanized Brigade","Id":"64de214a-8895-4465-a031-644533c1dec3","icon":"/api/icons/0051CA/False/template/70.png"},"source":"geoconfirmed","source_name":"GeoConfirmed","source_url":"https://geoconfirmed.org/map/ukraine","id":"64de214a-8895-4465-a031-644533c1dec3","date":"2026-08-10","link":"https://geoconfirmed.org/map/ukraine/64de214a-8895-4465-a031-644533c1dec3","category":"Controlled Demolition OR explosion of unknown origin OR fire of unknown origin where no other icon fits","side":"Ukraine","color":"#0051CA","description":"1:01 - Ukraine strikes a Russian position","orbat":["24th Mechanized Brigade"],"geolocation":["https://x.com/Bielitzling/status/2086853119602827596"],"sources":["https://x.com/24th_brigade/status/2086845028077281725","https://t.me/official24ombr/2543"]}},{"type":"Feature","geometry":{"type":"Point","coordinates":[37.091848,50.212024]},"properties":{"original":{"Date":"2026-08-10","Name":"10 AUG 2026","Faction":"Russia","Origin":"UAV","Latitude":"50.212024","Longitude":"37.091848","PlusCode":"9G2V636R+RP Bilyi Kolodyaz', Kharkiv Oblast, Ukraine","Description":"0:06 - Russian drone strike","Source":"https://x.com/Bielitzling/status/2086994015149293858, https://t.me/AptiAlaudinovAKHMAT/23004","Geolocation":"https://x.com/Bielitzling/status/2086994010971758936","Equipment":"","EquipmentItems":"FPV (First Person View) OWAD (One Way Attack Drone)","Units":"\"Kornets\"","OrbatUnits":"204th Special Purpose Regiment “Akhmat”","Id":"20704fd6-944d-4555-bb6c-645aead7bada","icon":"/api/icons/E00000/False/template/111.png"},"source":"geoconfirmed","source_name":"GeoConfirmed","source_url":"https://geoconfirmed.org/map/ukraine","id":"20704fd6-944d-4555-bb6c-645aead7bada","date":"2026-08-10","link":"https://geoconfirmed.org/map/ukraine/20704fd6-944d-4555-bb6c-645aead7bada","category":"Short Range (<50km) OWAD (One Way Attack Drone), mostly rotary wing, Flying OR Attacking a target without knowing the outcome: if something is damaged --> icon of the damaged equipment.","side":"Russia","color":"#E00000","description":"0:06 - Russian drone strike","orbat":["204th Special Purpose Regiment “Akhmat”"],"geolocation":["https://x.com/Bielitzling/status/2086994010971758936"],"sources":["https://x.com/Bielitzling/status/2086994015149293858","https://t.me/AptiAlaudinovAKHMAT/23004"]}},{"type":"Feature","geometry":{"type":"Point","coordinates":[33.991151,45.114568]},"properties":{"original":{"Date":"2026-08-10","Name":"10 AUG 2026","Faction":"Russia","Origin":"SAT","Latitude":"45.114568","Longitude":"33.991151","PlusCode":"8GQM4XFQ+F4","Description":"Destroyed building of Hvardiyske (Gvardeyskoye) BSF Naval Air Base following a reported Ukrainian strike on 07 August 2026.(3)","Source":"https://x.com/GarbuzYe/status/2086709133567250458, More information, https://www.pravda.com.ua/eng/news/2026/08/10/8048057/, https://www.ukrinform.net/rubric-ato/4151968-defense-forces-strike-russian-radar-station-and-uav-repeaters-in-crimea.html","Geolocation":"https://x.com/GarbuzYe/status/2086709133567250458","Equipment":"","EquipmentItems":"","Units":"","OrbatUnits":"","Id":"32dd7156-be8b-496e-94dd-6780b6d8ee4a","icon":"/api/icons/E00000/False/template/192.png"},"source":"geoconfirmed","source_name":"GeoConfirmed","source_url":"https://geoconfirmed.org/map/ukraine","id":"32dd7156-be8b-496e-94dd-6780b6d8ee4a","date":"2026-08-10","link":"https://geoconfirmed.org/map/ukraine/32dd7156-be8b-496e-94dd-6780b6d8ee4a","category":"Recently destroyed/Damaged[Visible in footage] or still burning infrastucture","side":"Russia","color":"#E00000","description":"Destroyed building of Hvardiyske (Gvardeyskoye) BSF Naval Air Base following a reported Ukrainian strike on 07 August 2026.(3)","orbat":[],"geolocation":["https://x.com/GarbuzYe/status/2086709133567250458"],"sources":["https://x.com/GarbuzYe/status/2086709133567250458","https://www.pravda.com.ua/eng/news/2026/08/10/8048057/","https://www.ukrinform.net/rubric-ato/4151968-defense-forces-strike-russian-radar-station-and-uav-repeaters-in-crimea.html"]}},{"type":"Feature","geometry":{"type":"Point","coordinates":[33.481153,44.520309]},"properties":{"original":{"Date":"2026-08-10","Name":"10 AUG 2026","Faction":"Russia","Origin":"UAV","Latitude":"44.520309","Longitude":"33.481153","PlusCode":"8GPMGFCJ+4F Sevastopol","Description":"0:18 - FPV strike on a S-300P/S-400 TEL","Source":"https://x.com/thisisnotdirk/status/2086797024981082329, https://x.com/DI_Ukraine/status/2086732873764098328, https://bsky.app/profile/specialkhersoncat.bsky.social/post/3mspplnmywk2x, https://x.com/bayraktar_1love/status/2086735850931396923, https://www.facebook.com/reel/1583819533145036, https://www.youtube.com/watch?v=sFGS3c1K8So, https://t.me/DIUkraine/9059","Geolocation":"https://x.com/thisisnotdirk/status/2086797022116376604","Equipment":"S-300P/S-400 TEL","EquipmentItems":"FPV (First Person View) OWAD (One Way Attack Drone)","Units":"","OrbatUnits":"Group 13","Id":"ac42760e-30a5-41cd-9d48-71f059ab2ddc","icon":"/api/icons/E00000/False/template/202.png"},"source":"geoconfirmed","source_name":"GeoConfirmed","source_url":"https://geoconfirmed.org/map/ukraine","id":"ac42760e-30a5-41cd-9d48-71f059ab2ddc","date":"2026-08-10","link":"https://geoconfirmed.org/map/ukraine/ac42760e-30a5-41cd-9d48-71f059ab2ddc","category":"Recently Destroyed/Damaged[Visible in footage] Anti-Air System (Tracked OR Wheeled)","side":"Russia","color":"#E00000","description":"0:18 - FPV strike on a S-300P/S-400 TEL","orbat":["Group 13"],"geolocation":["https://x.com/thisisnotdirk/status/2086797022116376604"],"sources":["https://x.com/thisisnotdirk/status/2086797024981082329","https://x.com/DI_Ukraine/status/2086732873764098328","https://bsky.app/profile/specialkhersoncat.bsky.social/post/3mspplnmywk2x","https://x.com/bayraktar_1love/status/2086735850931396923","https://www.facebook.com/reel/1583819533145036","https://www.youtube.com/watch?v=sFGS3c1K8So","https://t.me/DIUkraine/9059"]}},{"type":"Feature","geometry":{"type":"Point","coordinates":[33.963937,45.104188]},"properties":{"original":{"Date":"2026-08-10","Name":"10 AUG 2026","Faction":"Russia","Origin":"SAT","Latitude":"45.104188","Longitude":"33.963937","PlusCode":"8GQM4XFQ+F4","Description":"Dark mark at a building of Hvardiyske (Gvardeyskoye) BSF Naval Air Base following a reported Ukrainian strike on 07 August 2026.(5)","Source":"https://x.com/GarbuzYe/status/2086709133567250458, More information, https://www.pravda.com.ua/eng/news/2026/08/10/8048057/, https://www.ukrinform.net/rubric-ato/4151968-defense-forces-strike-russian-radar-station-and-uav-repeaters-in-crimea.html","Geolocation":"https://x.com/GarbuzYe/status/2086709133567250458","Equipment":"","EquipmentItems":"","Units":"","OrbatUnits":"","Id":"679424e7-bcdc-44d2-b683-73ccc28ba49d","icon":"/api/icons/E00000/False/template/192.png"},"source":"geoconfirmed","source_name":"GeoConfirmed","source_url":"https://geoconfirmed.org/map/ukraine","id":"679424e7-bcdc-44d2-b683-73ccc28ba49d","date":"2026-08-10","link":"https://geoconfirmed.org/map/ukraine/679424e7-bcdc-44d2-b683-73ccc28ba49d","category":"Recently destroyed/Damaged[Visible in footage] or still burning infrastucture","side":"Russia","color":"#E00000","description":"Dark mark at a building of Hvardiyske (Gvardeyskoye) BSF Naval Air Base following a reported Ukrainian strike on 07 August 2026.(5)","orbat":[],"geolocation":["https://x.com/GarbuzYe/status/2086709133567250458"],"sources":["https://x.com/GarbuzYe/status/2086709133567250458","https://www.pravda.com.ua/eng/news/2026/08/10/8048057/","https://www.ukrinform.net/rubric-ato/4151968-defense-forces-strike-russian-radar-station-and-uav-repeaters-in-crimea.html"]}},{"type":"Feature","geometry":{"type":"Point","coordinates":[37.728846,48.575925]},"properties":{"original":{"Date":"2026-08-10","Name":"10 AUG 2026","Faction":"Ukraine","Origin":"UAV","Latitude":"48.575925","Longitude":"37.728846","PlusCode":"8GWVHPGH+9G Stinky, Donetsk Oblast, Ukraine","Description":"0:36 - Ukraine strikes a Russian position","Source":"https://x.com/24th_brigade/status/2086845028077281725, https://t.me/official24ombr/2543","Geolocation":"https://x.com/Bielitzling/status/2086853119602827596","Equipment":"","EquipmentItems":"","Units":"","OrbatUnits":"24th Mechanized Brigade","Id":"e33a7211-1569-4c09-b84d-74958b43b75a","icon":"/api/icons/0051CA/False/template/70.png"},"source":"geoconfirmed","source_name":"GeoConfirmed","source_url":"https://geoconfirmed.org/map/ukraine","id":"e33a7211-1569-4c09-b84d-74958b43b75a","date":"2026-08-10","link":"https://geoconfirmed.org/map/ukraine/e33a7211-1569-4c09-b84d-74958b43b75a","category":"Controlled Demolition OR explosion of unknown origin OR fire of unknown origin where no other icon fits","side":"Ukraine","color":"#0051CA","description":"0:36 - Ukraine strikes a Russian position","orbat":["24th Mechanized Brigade"],"geolocation":["https://x.com/Bielitzling/status/2086853119602827596"],"sources":["https://x.com/24th_brigade/status/2086845028077281725","https://t.me/official24ombr/2543"]}},{"type":"Feature","geometry":{"type":"Point","coordinates":[32.47617,46.59945]},"properties":{"original":{"Date":"2026-08-10","Name":"10 AUG 2026","Faction":"Russia","Origin":"UAV","Latitude":"46.59945","Longitude":"32.47617","PlusCode":"8GRJHFXG+QF Dniprovs'ke, Kherson Oblast, Ukraine","Description":"Russians hit a Ukrainian boat with a drone.","Source":"https://x.com/Inclutus/status/2086877547661328595","Geolocation":"https://x.com/blinzka/status/2086885640264647052","Equipment":"UNK (boat)","EquipmentItems":"FPV (First Person View) OWAD (One Way Attack Drone)","Units":"","OrbatUnits":"18th Combined Arms Army","Id":"344ac85c-852d-4654-9b3f-75a1a21f6e9c","icon":"/api/icons/E00000/False/template/142.png"},"source":"geoconfirmed","source_name":"GeoConfirmed","source_url":"https://geoconfirmed.org/map/ukraine","id":"344ac85c-852d-4654-9b3f-75a1a21f6e9c","date":"2026-08-10","link":"https://geoconfirmed.org/map/ukraine/344ac85c-852d-4654-9b3f-75a1a21f6e9c","category":"Recently Destroyed/Damaged[Visible in footage] Small Boat/Ship","side":"Russia","color":"#E00000","description":"Russians hit a Ukrainian boat with a drone.","orbat":["18th Combined Arms Army"],"geolocation":["https://x.com/blinzka/status/2086885640264647052"],"sources":["https://x.com/Inclutus/status/2086877547661328595"]}},{"type":"Feature","geometry":{"type":"Point","coordinates":[68.433522,58.230433]},"properties":{"original":{"Date":"2026-08-10","Name":"10 AUG 2026","Faction":"Unknown","Origin":"VID","Latitude":"58.230433","Longitude":"68.433522","PlusCode":"9JCC6CJM+5C Tobolsk, Tyumen Oblast, Russia","Description":"Rough location - Point of view looking in a Northeast direction - Black smoke plume and fire from the area of the Tobolsk-Polymer Plant.","Source":"https://x.com/LayBay_ish/status/2086791433336369477, https://t.me/exilenova_plus/28493","Geolocation":"https://x.com/LayBay_ish/status/2086791321264525624","Equipment":"","EquipmentItems":"","Units":"","OrbatUnits":"","Id":"fa635a6e-9a30-4e39-8b27-9f2de615d4e5","icon":"/api/icons/666666/False/template/30.png"},"source":"geoconfirmed","source_name":"GeoConfirmed","source_url":"https://geoconfirmed.org/map/ukraine","id":"fa635a6e-9a30-4e39-8b27-9f2de615d4e5","date":"2026-08-10","link":"https://geoconfirmed.org/map/ukraine/fa635a6e-9a30-4e39-8b27-9f2de615d4e5","category":"Video - Always Point of View in description - In the colour of who is doing the attack or is responsable for the incident in the video.","side":"Unknown","color":"#666666","description":"Rough location - Point of view looking in a Northeast direction - Black smoke plume and fire from the area of the Tobolsk-Polymer Plant.","orbat":[],"geolocation":["https://x.com/LayBay_ish/status/2086791321264525624"],"sources":["https://x.com/LayBay_ish/status/2086791433336369477","https://t.me/exilenova_plus/28493"]}},{"type":"Feature","geometry":{"type":"Point","coordinates":[37.8095565,48.9683484]},"properties":{"original":{"Date":"2026-08-10","Name":"10 AUG 2026","Faction":"Russia","Origin":"UAV","Latitude":"48.9683484","Longitude":"37.8095565","PlusCode":"8GWVXR95+8R Lyman, Donetsk Oblast, Ukraine","Description":"0:27-0:47 - Russian Vandal and Fiber Optic FPV drones of the 370th Special Purpose Detachment targeted a Ukrainian position","Source":"https://x.com/ZoamSc2/status/2086943932093726950, https://t.me/Secrets_of_Vinakos/16699, ","Geolocation":"https://x.com/ZoamSc2/status/2086943929711439890","Equipment":"","EquipmentItems":"Fiber Optic (FO) FPV (First Person View) OWAD (One Way Attack Drone) | Vandal (KVN)","Units":"","OrbatUnits":"370th Special Purpose Detachment","Id":"37ae2c32-fc0c-4ef1-b157-a006fe24fea6","icon":"/api/icons/E00000/False/template/111.png"},"source":"geoconfirmed","source_name":"GeoConfirmed","source_url":"https://geoconfirmed.org/map/ukraine","id":"37ae2c32-fc0c-4ef1-b157-a006fe24fea6","date":"2026-08-10","link":"https://geoconfirmed.org/map/ukraine/37ae2c32-fc0c-4ef1-b157-a006fe24fea6","category":"Short Range (<50km) OWAD (One Way Attack Drone), mostly rotary wing, Flying OR Attacking a target without knowing the outcome: if something is damaged --> icon of the damaged equipment.","side":"Russia","color":"#E00000","description":"0:27-0:47 - Russian Vandal and Fiber Optic FPV drones of the 370th Special Purpose Detachment targeted a Ukrainian position","orbat":["370th Special Purpose Detachment"],"geolocation":["https://x.com/ZoamSc2/status/2086943929711439890"],"sources":["https://x.com/ZoamSc2/status/2086943932093726950","https://t.me/Secrets_of_Vinakos/16699"]}},{"type":"Feature","geometry":{"type":"Point","coordinates":[38.04829,44.59065]},"properties":{"original":{"Date":"2026-08-10","Name":"10 AUG 2026","Faction":"Russia","Origin":"PIC","Latitude":"44.59065","Longitude":"38.04829","PlusCode":"8GPWH2RX+78 Gelendzhik, Krasnodar Krai, Russia","Description":"(POV across the area) Russian air defense activity in Gelendzhik, reportedly engaging Ukrainian drones.","Source":"https://bsky.app/profile/noelreports.com/post/3msq5mqjykc27, https://x.com/NOELreports/status/2086799099387404765","Geolocation":"https://bsky.app/profile/blinzka.bsky.social/post/3msq7g3wc5c2b, https://x.com/blinzka/status/2086807168385204265","Equipment":"(likely) Pantsir;, UNK (likely Ukrainian drone)","EquipmentItems":"","Units":"UNK","OrbatUnits":"","Id":"406c552e-65cf-40ed-841f-a2b787750051","icon":"/api/icons/E00000/False/template/20.png"},"source":"geoconfirmed","source_name":"GeoConfirmed","source_url":"https://geoconfirmed.org/map/ukraine","id":"406c552e-65cf-40ed-841f-a2b787750051","date":"2026-08-10","link":"https://geoconfirmed.org/map/ukraine/406c552e-65cf-40ed-841f-a2b787750051","category":"Picture - Always Point of View in description - - In the colour of who is doing the attack or is responsable for the incident in the picture.","side":"Russia","color":"#E00000","description":"(POV across the area) Russian air defense activity in Gelendzhik, reportedly engaging Ukrainian drones.","orbat":["UNK"],"geolocation":["https://bsky.app/profile/blinzka.bsky.social/post/3msq7g3wc5c2b","https://x.com/blinzka/status/2086807168385204265"],"sources":["https://bsky.app/profile/noelreports.com/post/3msq5mqjykc27","https://x.com/NOELreports/status/2086799099387404765"]}},{"type":"Feature","geometry":{"type":"Point","coordinates":[32.620772,46.629941]},"properties":{"original":{"Date":"2026-08-10","Name":"10 AUG 2026","Faction":"Russia","Origin":"UAV","Latitude":"46.629941","Longitude":"32.620772","PlusCode":"8GRJJJHC+X8 Kherson, Kherson Oblast, Ukraine","Description":"0:00-0:05 - area grid - a Russian drone strike occurred near the Fregat hotel in Kherson","Source":"Vid1, https://x.com/Maks_NAFO_FELLA/status/2094721422685790573, based on, https://t.me/osvedomitell_alex/36778","Geolocation":"https://x.com/Zeldamices/status/2094894108019962118","Equipment":"","EquipmentItems":"Fixed Wing OWAD (One Way Attack Drone)","Units":"","OrbatUnits":"18th Combined Arms Army","Id":"55d06ce7-6407-4d9a-9978-a9109c2db328","icon":"/api/icons/E00000/False/template/181.png"},"source":"geoconfirmed","source_name":"GeoConfirmed","source_url":"https://geoconfirmed.org/map/ukraine","id":"55d06ce7-6407-4d9a-9978-a9109c2db328","date":"2026-08-10","link":"https://geoconfirmed.org/map/ukraine/55d06ce7-6407-4d9a-9978-a9109c2db328","category":"Longe Range (>50km) OWAD (One Way Attack Drone) or Loitering munition, mostly fixed wing, Flying OR Attacking a target without knowing the outcome: if something is damaged --> icon of the damaged equipment.","side":"Russia","color":"#E00000","description":"0:00-0:05 - area grid - a Russian drone strike occurred near the Fregat hotel in Kherson","orbat":["18th Combined Arms Army"],"geolocation":["https://x.com/Zeldamices/status/2094894108019962118"],"sources":["https://x.com/Maks_NAFO_FELLA/status/2094721422685790573","https://t.me/osvedomitell_alex/36778"]}},{"type":"Feature","geometry":{"type":"Point","coordinates":[32.484491,45.403799]},"properties":{"original":{"Date":"2026-08-10","Name":"10 AUG 2026","Faction":"Ukraine","Origin":"UAV","Latitude":"45.403799","Longitude":"32.484491","PlusCode":"8GQJCF3M+GQ","Description":"Vid1 33:06-33:17 & Vid2 0:30-End - Coastal Radar is attacked with a drone by the 426th Unmanned Systems Regiment of Ukraine., (Date estimated)","Source":"Vid1, https://www.youtube.com/watch?v=_AjVTluoLZo&t=2010s, Vid2, https://bsky.app/profile/militarynewsua.bsky.social/post/3mupptr4fes2o, https://x.com/front_ukrainian/status/2095960022526111791, https://www.facebook.com/reel/1063356876489525","Geolocation":"https://bsky.app/profile/eole2002.bsky.social/post/3mtoaesz6oc2k","Equipment":"Radar-system","EquipmentItems":"FPV (First Person View) OWAD (One Way Attack Drone)","Units":"","OrbatUnits":"426th Separate Unmanned Systems Regiment","Id":"a3e9a6d6-9ae6-4fec-b23c-a92c6c1f3365","icon":"/api/icons/0051CA/False/template/111.png"},"source":"geoconfirmed","source_name":"GeoConfirmed","source_url":"https://geoconfirmed.org/map/ukraine","id":"a3e9a6d6-9ae6-4fec-b23c-a92c6c1f3365","date":"2026-08-10","link":"https://geoconfirmed.org/map/ukraine/a3e9a6d6-9ae6-4fec-b23c-a92c6c1f3365","category":"Short Range (<50km) OWAD (One Way Attack Drone), mostly rotary wing, Flying OR Attacking a target without knowing the outcome: if something is damaged --> icon of the damaged equipment.","side":"Ukraine","color":"#0051CA","description":"Vid1 33:06-33:17 & Vid2 0:30-End - Coastal Radar is attacked with a drone by the 426th Unmanned Systems Regiment of Ukraine., (Date estimated)","orbat":["426th Separate Unmanned Systems Regiment"],"geolocation":["https://bsky.app/profile/eole2002.bsky.social/post/3mtoaesz6oc2k"],"sources":["https://www.youtube.com/watch?v=_AjVTluoLZo&t=2010s","https://bsky.app/profile/militarynewsua.bsky.social/post/3mupptr4fes2o","https://x.com/front_ukrainian/status/2095960022526111791","https://www.facebook.com/reel/1063356876489525"]}},{"type":"Feature","geometry":{"type":"Point","coordinates":[38.292906,48.830338]},"properties":{"original":{"Date":"2026-08-10","Name":"10 AUG 2026","Faction":"Russia","Origin":"UAV","Latitude":"48.830338","Longitude":"38.292906","PlusCode":"8GWWR7JV+45 Verkhn'okam'yanka, Luhansk Oblast, Ukraine","Description":"1:45-2:03 - A Russian truck was destroyed by Ukrainian FPV drone.","Source":"https://x.com/99Dominik_/status/2089623144935866674, https://t.me/ua_regteam/431, , ","Geolocation":"https://x.com/99Dominik_/status/2089622931957588473, ","Equipment":"","EquipmentItems":"FPV (First Person View) OWAD (One Way Attack Drone) | Truck","Units":"","OrbatUnits":"1st Special Operations Task Group","Id":"691ae09e-3a5b-4272-b55c-ac53b64836ba","icon":"/api/icons/E00000/False/template/62.png"},"source":"geoconfirmed","source_name":"GeoConfirmed","source_url":"https://geoconfirmed.org/map/ukraine","id":"691ae09e-3a5b-4272-b55c-ac53b64836ba","date":"2026-08-10","link":"https://geoconfirmed.org/map/ukraine/691ae09e-3a5b-4272-b55c-ac53b64836ba","category":"Recently Destroyed/Damaged[Visible in footage] Logistical Trucks (Soft skin OR armoured)","side":"Russia","color":"#E00000","description":"1:45-2:03 - A Russian truck was destroyed by Ukrainian FPV drone.","orbat":["1st Special Operations Task Group"],"geolocation":["https://x.com/99Dominik_/status/2089622931957588473"],"sources":["https://x.com/99Dominik_/status/2089623144935866674","https://t.me/ua_regteam/431"]}},{"type":"Feature","geometry":{"type":"Point","coordinates":[37.591983,49.722554]},"properties":{"original":{"Date":"2026-08-10","Name":"10 AUG 2026","Faction":"Russia","Origin":"UAV","Latitude":"49.722554","Longitude":"37.591983","PlusCode":"8GXVPHFR+2Q Kup'yans'k, Kharkiv Oblast, Ukraine","Description":"0:07-0:13 - Russian soldier hit by a FPV drone of the 41st Separate Mechanized Brigade","Source":"https://x.com/Bielitzling/status/2086812620586152108, https://t.me/ombr41/3010","Geolocation":"https://x.com/Bielitzling/status/2086812614617624968","Equipment":"","EquipmentItems":"FPV (First Person View) OWAD (One Way Attack Drone)","Units":"","OrbatUnits":"41st Separate Mechanized Brigade","Id":"5acb02c5-5888-42ee-b332-b1327a99dd90","icon":"/api/icons/E00000/False/template/92.png"},"source":"geoconfirmed","source_name":"GeoConfirmed","source_url":"https://geoconfirmed.org/map/ukraine","id":"5acb02c5-5888-42ee-b332-b1327a99dd90","date":"2026-08-10","link":"https://geoconfirmed.org/map/ukraine/5acb02c5-5888-42ee-b332-b1327a99dd90","category":"WIA/KIA Soldier/Militant","side":"Russia","color":"#E00000","description":"0:07-0:13 - Russian soldier hit by a FPV drone of the 41st Separate Mechanized Brigade","orbat":["41st Separate Mechanized Brigade"],"geolocation":["https://x.com/Bielitzling/status/2086812614617624968"],"sources":["https://x.com/Bielitzling/status/2086812620586152108","https://t.me/ombr41/3010"]}},{"type":"Feature","geometry":{"type":"Point","coordinates":[33.16801,45.22254]},"properties":{"original":{"Date":"2026-08-10","Name":"10 AUG 2026","Faction":"Russia","Origin":"UAV","Latitude":"45.22254","Longitude":"33.16801","PlusCode":"8H57569F+62","Description":"0:24-0:31 - A Russian radar dome is hit with an explosive drone by Group 13 of the Main Intelligence Directorate of Ukraine (HUR).","Source":"https://x.com/DI_Ukraine/status/2086732873764098328, https://bsky.app/profile/specialkhersoncat.bsky.social/post/3mspplnmywk2x, https://x.com/bayraktar_1love/status/2086735850931396923, https://www.facebook.com/reel/1583819533145036, https://www.youtube.com/watch?v=sFGS3c1K8So, https://t.me/DIUkraine/9059","Geolocation":"https://bsky.app/profile/blinzka.bsky.social/post/3mspyyto3mc2j, https://x.com/blinzka/status/2086778285946528223","Equipment":"UNK (Drone);, (claimed) Antenna for Orion Drones","EquipmentItems":"","Units":"","OrbatUnits":"Group 13","Id":"5961b7f0-315d-4f7f-bfa2-b1b24a1c6cec","icon":"/api/icons/E00000/False/template/15380368-63be-4bf9-8373-a30ef0d31bed.png"},"source":"geoconfirmed","source_name":"GeoConfirmed","source_url":"https://geoconfirmed.org/map/ukraine","id":"5961b7f0-315d-4f7f-bfa2-b1b24a1c6cec","date":"2026-08-10","link":"https://geoconfirmed.org/map/ukraine/5961b7f0-315d-4f7f-bfa2-b1b24a1c6cec","category":"Recently Destroyed/Damaged[Visible in footage] Radar System (Mobile or fixed)","side":"Russia","color":"#E00000","description":"0:24-0:31 - A Russian radar dome is hit with an explosive drone by Group 13 of the Main Intelligence Directorate of Ukraine (HUR).","orbat":["Group 13"],"geolocation":["https://bsky.app/profile/blinzka.bsky.social/post/3mspyyto3mc2j","https://x.com/blinzka/status/2086778285946528223"],"sources":["https://x.com/DI_Ukraine/status/2086732873764098328","https://bsky.app/profile/specialkhersoncat.bsky.social/post/3mspplnmywk2x","https://x.com/bayraktar_1love/status/2086735850931396923","https://www.facebook.com/reel/1583819533145036","https://www.youtube.com/watch?v=sFGS3c1K8So","https://t.me/DIUkraine/9059"]}},{"type":"Feature","geometry":{"type":"Point","coordinates":[51.8346,55.58713]},"properties":{"original":{"Date":"2026-08-10","Name":"10 AUG 2026","Faction":"Neutral","Origin":"VID","Latitude":"55.58713","Longitude":"51.8346","PlusCode":"9H7HHRPM+VR Nizhnekamsk, Republic of Tatarstan, Russia","Description":"Aftermath damage - Site of an explosion in the industrial zone after a reported landing of a Russian air defense system.","Source":"https://x.com/markito0171/status/2087101730336940316, https://t.me/exilenova_plus/28589","Geolocation":"https://x.com/blinzka/status/2087154933996871742","Equipment":"UNK","EquipmentItems":"","Units":"UNK","OrbatUnits":"","Id":"29280125-db06-4849-ab77-b76ecdf0d9d0","icon":"/api/icons/AC7339/False/template/192.png"},"source":"geoconfirmed","source_name":"GeoConfirmed","source_url":"https://geoconfirmed.org/map/ukraine","id":"29280125-db06-4849-ab77-b76ecdf0d9d0","date":"2026-08-10","link":"https://geoconfirmed.org/map/ukraine/29280125-db06-4849-ab77-b76ecdf0d9d0","category":"Recently destroyed/Damaged[Visible in footage] or still burning infrastucture","side":"Neutral","color":"#AC7339","description":"Aftermath damage - Site of an explosion in the industrial zone after a reported landing of a Russian air defense system.","orbat":["UNK"],"geolocation":["https://x.com/blinzka/status/2087154933996871742"],"sources":["https://x.com/markito0171/status/2087101730336940316","https://t.me/exilenova_plus/28589"]}},{"type":"Feature","geometry":{"type":"Point","coordinates":[37.679238,48.527447]},"properties":{"original":{"Date":"2026-08-10","Name":"10 AUG 2026","Faction":"Russia","Origin":"UAV","Latitude":"48.527447","Longitude":"37.679238","PlusCode":"8GWVGMGH+XM Kostyantynivka, Donetsk Oblast, Ukraine","Description":"0:17-0:37 - Russian shelling or an Ukrainian presence (area grid)","Source":"https://x.com/Mocca2X/status/2086805774739947739, https://t.me/MSP1465/934","Geolocation":"https://x.com/Mocca2X/status/2086781394467106928","Equipment":"","EquipmentItems":"Artillery","Units":"","OrbatUnits":"1465th Motorized Rifle Regiment","Id":"da07e8d2-9fea-4848-80f9-bf3b79a93d0a","icon":"/api/icons/E00000/False/template/10.png"},"source":"geoconfirmed","source_name":"GeoConfirmed","source_url":"https://geoconfirmed.org/map/ukraine","id":"da07e8d2-9fea-4848-80f9-bf3b79a93d0a","date":"2026-08-10","link":"https://geoconfirmed.org/map/ukraine/da07e8d2-9fea-4848-80f9-bf3b79a93d0a","category":"Shelling by artillery or aerial bombings - Location of the shelling, colour of who is shelling; Brown = UXO","side":"Russia","color":"#E00000","description":"0:17-0:37 - Russian shelling or an Ukrainian presence (area grid)","orbat":["1465th Motorized Rifle Regiment"],"geolocation":["https://x.com/Mocca2X/status/2086781394467106928"],"sources":["https://x.com/Mocca2X/status/2086805774739947739","https://t.me/MSP1465/934"]}},{"type":"Feature","geometry":{"type":"Point","coordinates":[36.098285,47.878172]},"properties":{"original":{"Date":"2026-08-10","Name":"10 AUG 2026","Faction":"Russia","Origin":"UAV","Latitude":"47.878172","Longitude":"36.098285","PlusCode":"8GVRV4F3+8J Nove Pole, Zaporizhia Oblast, Ukraine","Description":"1:08-end - Flag showed by Russian soldier of the 36th Guards Motorized Rifle Brigade early August 2026.","Source":"https://x.com/richardzai38580/status/2087104279438078436, https://t.me/voin_dv/20622","Geolocation":"https://x.com/richardzai38580/status/2087103560316318126","Equipment":"","EquipmentItems":"","Units":"","OrbatUnits":"36th Guards Motorized Rifle Brigade","Id":"2a9ca894-449b-4e96-8303-c12719e44f08","icon":"/api/icons/E00000/False/template/100.png"},"source":"geoconfirmed","source_name":"GeoConfirmed","source_url":"https://geoconfirmed.org/map/ukraine","id":"2a9ca894-449b-4e96-8303-c12719e44f08","date":"2026-08-10","link":"https://geoconfirmed.org/map/ukraine/2a9ca894-449b-4e96-8303-c12719e44f08","category":"Civilian or Soldier or Militant (Depending on the colour)","side":"Russia","color":"#E00000","description":"1:08-end - Flag showed by Russian soldier of the 36th Guards Motorized Rifle Brigade early August 2026.","orbat":["36th Guards Motorized Rifle Brigade"],"geolocation":["https://x.com/richardzai38580/status/2087103560316318126"],"sources":["https://x.com/richardzai38580/status/2087104279438078436","https://t.me/voin_dv/20622"]}},{"type":"Feature","geometry":{"type":"Point","coordinates":[37.593134,48.496223]},"properties":{"original":{"Date":"2026-08-10","Name":"10 AUG 2026","Faction":"Russia","Origin":"UAV","Latitude":"48.496223","Longitude":"37.593134","PlusCode":"8GWVFHWV+F7 Rozkishne, Donetsk Oblast, Ukraine","Description":"0:40-end - FPV strike on a claimed Ukrainian position","Source":"https://x.com/jimmhelloman555/status/2086801674606199163, https://t.me/SouthernRepublic/35435","Geolocation":"https://x.com/jimmhelloman555/status/2086801559808057604","Equipment":"","EquipmentItems":"FPV (First Person View) OWAD (One Way Attack Drone)","Units":"","OrbatUnits":"","Id":"48138ce2-f5ca-4cf9-9feb-c5643e829ccf","icon":"/api/icons/E00000/False/template/111.png"},"source":"geoconfirmed","source_name":"GeoConfirmed","source_url":"https://geoconfirmed.org/map/ukraine","id":"48138ce2-f5ca-4cf9-9feb-c5643e829ccf","date":"2026-08-10","link":"https://geoconfirmed.org/map/ukraine/48138ce2-f5ca-4cf9-9feb-c5643e829ccf","category":"Short Range (<50km) OWAD (One Way Attack Drone), mostly rotary wing, Flying OR Attacking a target without knowing the outcome: if something is damaged --> icon of the damaged equipment.","side":"Russia","color":"#E00000","description":"0:40-end - FPV strike on a claimed Ukrainian position","orbat":[],"geolocation":["https://x.com/jimmhelloman555/status/2086801559808057604"],"sources":["https://x.com/jimmhelloman555/status/2086801674606199163","https://t.me/SouthernRepublic/35435"]}},{"type":"Feature","geometry":{"type":"Point","coordinates":[37.828245,48.696195]},"properties":{"original":{"Date":"2026-08-10","Name":"10 AUG 2026","Faction":"Ukraine","Origin":"UAV","Latitude":"48.696195","Longitude":"37.828245","PlusCode":"8GWVMRWH+F7 Min'kivka, Donetsk Oblast, Ukraine","Description":"0:09 - Explosion, presumably a Ukrainian drone hitting Russian ammunition.","Source":"https://x.com/richardzai38580/status/2086721289549697106, https://t.me/assaultregiment33/3293","Geolocation":"https://x.com/richardzai38580/status/2086720757032472912","Equipment":"","EquipmentItems":"FPV (First Person View) OWAD (One Way Attack Drone)","Units":"","OrbatUnits":"33rd Separate Assault Regiment","Id":"bd59b752-309c-4efb-82cc-d5b0f4511ac1","icon":"/api/icons/0051CA/False/template/70.png"},"source":"geoconfirmed","source_name":"GeoConfirmed","source_url":"https://geoconfirmed.org/map/ukraine","id":"bd59b752-309c-4efb-82cc-d5b0f4511ac1","date":"2026-08-10","link":"https://geoconfirmed.org/map/ukraine/bd59b752-309c-4efb-82cc-d5b0f4511ac1","category":"Controlled Demolition OR explosion of unknown origin OR fire of unknown origin where no other icon fits","side":"Ukraine","color":"#0051CA","description":"0:09 - Explosion, presumably a Ukrainian drone hitting Russian ammunition.","orbat":["33rd Separate Assault Regiment"],"geolocation":["https://x.com/richardzai38580/status/2086720757032472912"],"sources":["https://x.com/richardzai38580/status/2086721289549697106","https://t.me/assaultregiment33/3293"]}},{"type":"Feature","geometry":{"type":"Point","coordinates":[36.169931,50.33064]},"properties":{"original":{"Date":"2026-08-10","Name":"10 AUG 2026","Faction":"Russia","Origin":"UAV","Latitude":"50.33064","Longitude":"36.169931","PlusCode":"9G2R85J9+7X Kozacha Lopan', Kharkiv Oblast, Ukraine","Description":"0:31-0:34 - Russian drone drop on a claimed Ukrainian position","Source":"https://t.me/icpbtrubicon/2350","Geolocation":"https://bsky.app/profile/scaratlas.bsky.social/post/3mtdtjusroc2u","Equipment":"","EquipmentItems":"(Multi-Purpose) Bomber UAV","Units":"","OrbatUnits":"Center for Advanced Unmanned Aerial Technologies \"Rubicon\"","Id":"d01ed784-3f7e-476c-8de6-d6d2bda02ca2","icon":"/api/icons/E00000/False/template/110.png"},"source":"geoconfirmed","source_name":"GeoConfirmed","source_url":"https://geoconfirmed.org/map/ukraine","id":"d01ed784-3f7e-476c-8de6-d6d2bda02ca2","date":"2026-08-10","link":"https://geoconfirmed.org/map/ukraine/d01ed784-3f7e-476c-8de6-d6d2bda02ca2","category":"Multipurpose Bomber Drone, Flying OR Dropping OR bombing a target without knowing the outcome: if something is damaged --> icon of the damaged equipment.","side":"Russia","color":"#E00000","description":"0:31-0:34 - Russian drone drop on a claimed Ukrainian position","orbat":["Center for Advanced Unmanned Aerial Technologies \"Rubicon\""],"geolocation":["https://bsky.app/profile/scaratlas.bsky.social/post/3mtdtjusroc2u"],"sources":["https://t.me/icpbtrubicon/2350"]}},{"type":"Feature","geometry":{"type":"Point","coordinates":[37.938677,47.987211]},"properties":{"original":{"Date":"2026-08-10","Name":"10 AUG 2026","Faction":"Russia","Origin":"UAV","Latitude":"47.987211","Longitude":"37.938677","PlusCode":"8GVVXWPQ+VF Makiivka, Donetsk Oblast, Ukraine","Description":"Drone impact on a gas Station.","Source":"https://x.com/hochu_dodomu/status/2086878176383320405","Geolocation":"https://x.com/MikiValbuena/status/2087061548380401934","Equipment":"","EquipmentItems":"","Units":"","OrbatUnits":"","Id":"573ab6a5-1b69-4318-a00e-e4a1b2da7bd4","icon":"/api/icons/E00000/False/template/111.png"},"source":"geoconfirmed","source_name":"GeoConfirmed","source_url":"https://geoconfirmed.org/map/ukraine","id":"573ab6a5-1b69-4318-a00e-e4a1b2da7bd4","date":"2026-08-10","link":"https://geoconfirmed.org/map/ukraine/573ab6a5-1b69-4318-a00e-e4a1b2da7bd4","category":"Short Range (<50km) OWAD (One Way Attack Drone), mostly rotary wing, Flying OR Attacking a target without knowing the outcome: if something is damaged --> icon of the damaged equipment.","side":"Russia","color":"#E00000","description":"Drone impact on a gas Station.","orbat":[],"geolocation":["https://x.com/MikiValbuena/status/2087061548380401934"],"sources":["https://x.com/hochu_dodomu/status/2086878176383320405"]}},{"type":"Feature","geometry":{"type":"Point","coordinates":[37.546323,48.599965]},"properties":{"original":{"Date":"2026-08-10","Name":"10 AUG 2026","Faction":"Neutral","Origin":"UAV","Latitude":"48.599965","Longitude":"37.546323","PlusCode":"8GWVHGXW+XG Druzhkivka, Donetsk Oblast, Ukraine","Description":"An elderly man escaped from a burning house that was hit by Russian airstrike.","Source":"https://x.com/99Dominik_/status/2086767242776043914, https://t.me/Khyzhak_brigade/3213","Geolocation":"https://x.com/99Dominik_/status/2086767018221441142, https://x.com/franfran2424/status/2086807676432842915","Equipment":"","EquipmentItems":"","Units":"","OrbatUnits":"","Id":"82994fc1-2391-4a0a-a671-e9444be328e6","icon":"/api/icons/AC7339/False/template/100.png"},"source":"geoconfirmed","source_name":"GeoConfirmed","source_url":"https://geoconfirmed.org/map/ukraine","id":"82994fc1-2391-4a0a-a671-e9444be328e6","date":"2026-08-10","link":"https://geoconfirmed.org/map/ukraine/82994fc1-2391-4a0a-a671-e9444be328e6","category":"Civilian or Soldier or Militant (Depending on the colour)","side":"Neutral","color":"#AC7339","description":"An elderly man escaped from a burning house that was hit by Russian airstrike.","orbat":[],"geolocation":["https://x.com/99Dominik_/status/2086767018221441142","https://x.com/franfran2424/status/2086807676432842915"],"sources":["https://x.com/99Dominik_/status/2086767242776043914","https://t.me/Khyzhak_brigade/3213"]}},{"type":"Feature","geometry":{"type":"Point","coordinates":[37.591695,49.721114]},"properties":{"original":{"Date":"2026-08-10","Name":"10 AUG 2026","Faction":"Ukraine","Origin":"UAV","Latitude":"49.721114","Longitude":"37.591695","PlusCode":"8GXVPHCR+CM Kup'yans'k, Kharkiv Oblast, Ukraine","Description":"0:29-end - Claimed Russian position hit by a drone drop of the 41st Separate Mechanized Brigade","Source":"https://x.com/Bielitzling/status/2086812620586152108, https://t.me/ombr41/3010","Geolocation":"https://x.com/Bielitzling/status/2086812614617624968","Equipment":"","EquipmentItems":"(Multi-Purpose) Bomber UAV","Units":"","OrbatUnits":"41st Separate Mechanized Brigade","Id":"c8867e85-d0bb-4f09-9ca4-ea370891eda7","icon":"/api/icons/0051CA/False/template/110.png"},"source":"geoconfirmed","source_name":"GeoConfirmed","source_url":"https://geoconfirmed.org/map/ukraine","id":"c8867e85-d0bb-4f09-9ca4-ea370891eda7","date":"2026-08-10","link":"https://geoconfirmed.org/map/ukraine/c8867e85-d0bb-4f09-9ca4-ea370891eda7","category":"Multipurpose Bomber Drone, Flying OR Dropping OR bombing a target without knowing the outcome: if something is damaged --> icon of the damaged equipment.","side":"Ukraine","color":"#0051CA","description":"0:29-end - Claimed Russian position hit by a drone drop of the 41st Separate Mechanized Brigade","orbat":["41st Separate Mechanized Brigade"],"geolocation":["https://x.com/Bielitzling/status/2086812614617624968"],"sources":["https://x.com/Bielitzling/status/2086812620586152108","https://t.me/ombr41/3010"]}},{"type":"Feature","geometry":{"type":"Point","coordinates":[51.790541,55.627238]},"properties":{"original":{"Date":"2026-08-10","Name":"10 AUG 2026","Faction":"Ukraine","Origin":"VID","Latitude":"55.627238","Longitude":"51.790541","PlusCode":"9H7HJQGR+V6 Nizhnekamsk, Republic of Tatarstan, Russia","Description":"Point Of View - Video pointing south-east, showing a smoke plume in the direction of a refinery in Nizhnekamsk","Source":"https://x.com/Vlad_23456/status/2086876694682492969, https://t.me/exilenova_plus/28477?single","Geolocation":"https://x.com/Vlad_23456/status/2086876499873845387","Equipment":"","EquipmentItems":"","Units":"","OrbatUnits":"","Id":"682b7daf-ea22-4c7f-a29c-ea4f35c834a8","icon":"/api/icons/0051CA/False/template/30.png"},"source":"geoconfirmed","source_name":"GeoConfirmed","source_url":"https://geoconfirmed.org/map/ukraine","id":"682b7daf-ea22-4c7f-a29c-ea4f35c834a8","date":"2026-08-10","link":"https://geoconfirmed.org/map/ukraine/682b7daf-ea22-4c7f-a29c-ea4f35c834a8","category":"Video - Always Point of View in description - In the colour of who is doing the attack or is responsable for the incident in the video.","side":"Ukraine","color":"#0051CA","description":"Point Of View - Video pointing south-east, showing a smoke plume in the direction of a refinery in Nizhnekamsk","orbat":[],"geolocation":["https://x.com/Vlad_23456/status/2086876499873845387"],"sources":["https://x.com/Vlad_23456/status/2086876694682492969","https://t.me/exilenova_plus/28477?single"]}},{"type":"Feature","geometry":{"type":"Point","coordinates":[33.9745,45.108152]},"properties":{"original":{"Date":"2026-08-10","Name":"10 AUG 2026","Faction":"Russia","Origin":"SAT","Latitude":"45.108152","Longitude":"33.9745","PlusCode":"8GQM4X5F+7R","Description":"Area grid - Several impacts visible near and on the runway of Hvardiyske (Gvardeyskoye) BSF Naval Air Base following a reported Ukrainian strike on 07 August 2026.(4)","Source":"https://x.com/GarbuzYe/status/2086709133567250458, More information, https://www.pravda.com.ua/eng/news/2026/08/10/8048057/, https://www.ukrinform.net/rubric-ato/4151968-defense-forces-strike-russian-radar-station-and-uav-repeaters-in-crimea.html","Geolocation":"https://x.com/GarbuzYe/status/2086709133567250458","Equipment":"","EquipmentItems":"","Units":"","OrbatUnits":"","Id":"1a212ce0-cfc8-438e-a1c5-f0eead57ee6a","icon":"/api/icons/E00000/False/template/192.png"},"source":"geoconfirmed","source_name":"GeoConfirmed","source_url":"https://geoconfirmed.org/map/ukraine","id":"1a212ce0-cfc8-438e-a1c5-f0eead57ee6a","date":"2026-08-10","link":"https://geoconfirmed.org/map/ukraine/1a212ce0-cfc8-438e-a1c5-f0eead57ee6a","category":"Recently destroyed/Damaged[Visible in footage] or still burning infrastucture","side":"Russia","color":"#E00000","description":"Area grid - Several impacts visible near and on the runway of Hvardiyske (Gvardeyskoye) BSF Naval Air Base following a reported Ukrainian strike on 07 August 2026.(4)","orbat":[],"geolocation":["https://x.com/GarbuzYe/status/2086709133567250458"],"sources":["https://x.com/GarbuzYe/status/2086709133567250458","https://www.pravda.com.ua/eng/news/2026/08/10/8048057/","https://www.ukrinform.net/rubric-ato/4151968-defense-forces-strike-russian-radar-station-and-uav-repeaters-in-crimea.html"]}}]}