{"type":"FeatureCollection","features":[{"type":"Feature","geometry":null,"properties":{"source":"ua_mod","source_name":"Ministry of Defence of Ukraine","group":"official_ua","id":16358,"posted_utc":"2026-10-10T09:27:15+00:00","link":"https://t.me/ministry_of_defense_ua/16358","text":"🤝 Спільні оборонні проєкти, обмін даними та досвідом фортифікацій – Україна й Естонія визначили напрями співпраці.\nМіністр оборони України Євгеній Хмара зустрівся з Міністром оборони Естонії Мартіном Херемом. Обговорили ситуацію на полі бою, актуальні потреби Сил оборони та практичні напрями партнерства.\nСеред перспектив – розвиток спільних підприємств і проєктів, а також обмін даними, що можуть посилювати оборонні спроможності обох держав.\nВажливим напрямом є використання українського досвіду сучасної війни. Естонській стороні представили перевірені підходи до будівництва фортифікацій, зокрема підземних захисних споруд.\nЄвгеній Хмара подякував Естонії за рішення щороку спрямовувати 0,25% ВВП на допомогу Україні та за лідерство в ІТ-коаліції.","links":[],"original_html":"<div class=\"tgme_widget_message_text js-message_text\" dir=\"auto\"><b><i class=\"emoji\" style=\"background-image:url('//telegram.org/img/emoji/40/F09FA49D.png')\"><b>🤝</b></i> Спільні оборонні проєкти, обмін даними та досвідом фортифікацій – Україна й Естонія визначили напрями співпраці.<br/></b><br/>Міністр оборони України Євгеній Хмара зустрівся з Міністром оборони Естонії Мартіном Херемом. Обговорили ситуацію на полі бою, актуальні потреби Сил оборони та практичні напрями партнерства.<br/><br/>Серед перспектив – розвиток спільних підприємств і проєктів, а також обмін даними, що можуть посилювати оборонні спроможності обох держав.<br/><br/>Важливим напрямом є використання українського досвіду сучасної війни. Естонській стороні представили перевірені підходи до будівництва фортифікацій, зокрема підземних захисних споруд.<br/><br/>Євгеній Хмара подякував Естонії за рішення щороку спрямовувати 0,25% ВВП на допомогу Україні та за лідерство в ІТ-коаліції."}}]}