{"type":"FeatureCollection","features":[{"type":"Feature","geometry":{"type":"Polygon","coordinates":[[[37.7944,49.06859],[37.79184,49.07079],[37.81453,49.07006],[37.81454,49.06958],[37.7944,49.06859]]]},"properties":{"source":"deepstate","source_name":"DeepStateMap","source_url":"https://deepstatemap.live/en","category":"gained","category_label":"Newly Russian-occupied","period":"1d","compared_with":"2026-09-19","snapshot_time":"2026-09-20","area_km2_approx":0.2}},{"type":"Feature","geometry":{"type":"Polygon","coordinates":[[[37.72834,49.1341],[37.72577,49.12976],[37.72683,49.1287],[37.73232,49.12945],[37.7473,49.12972],[37.73095,49.11945],[37.72882,49.10849],[37.73666,49.10383],[37.7417,49.10796],[37.75293,49.11119],[37.77348,49.10778],[37.79007,49.09939],[37.77272,49.09231],[37.77481,49.09116],[37.78257,49.09091],[37.78847,49.08418],[37.78398,49.07756],[37.79184,49.07079],[37.78389,49.07105],[37.78584,49.07099],[37.78943,49.06707],[37.80566,49.06651],[37.80565,49.06596],[37.78102,49.06594],[37.75634,49.06023],[37.72726,49.05867],[37.73158,49.05204],[37.7256,49.04833],[37.70539,49.05936],[37.7061,49.06825],[37.71306,49.07917],[37.71663,49.08715],[37.71074,49.09533],[37.707,49.10598],[37.70963,49.1193],[37.71633,49.13088],[37.72264,49.13499],[37.72834,49.1341]]]},"properties":{"source":"deepstate","source_name":"DeepStateMap","source_url":"https://deepstatemap.live/en","category":"lost","category_label":"Less Russian-held (occupied or contested area lost)","period":"1d","compared_with":"2026-09-19","snapshot_time":"2026-09-20","area_km2_approx":34.3}}]}