{"type":"FeatureCollection","features":[{"type":"Feature","geometry":{"type":"MultiPolygon","coordinates":[[[[37.7944,49.06859],[37.79184,49.07079],[37.81453,49.07006],[37.81454,49.06958],[37.7944,49.06859]]],[[[37.24994,48.45529],[37.24667,48.45979],[37.27444,48.46839],[37.28121,48.47303],[37.29887,48.47602],[37.30784,48.47472],[37.29578,48.46988],[37.28533,48.46848],[37.27719,48.46406],[37.26933,48.45705],[37.24994,48.45529]]],[[[37.17432,48.39103],[37.19362,48.40242],[37.18939,48.40997],[37.19619,48.40675],[37.20268,48.4079],[37.22274,48.40678],[37.22433,48.40423],[37.21319,48.40149],[37.20468,48.39768],[37.18673,48.39364],[37.18572,48.38035],[37.1781,48.37906],[37.17039,48.37909],[37.17432,48.39103]]],[[[37.13721,50.33183],[37.13025,50.33444],[37.12535,50.3412],[37.13478,50.3475],[37.13838,50.36095],[37.14336,50.34586],[37.14511,50.33534],[37.15578,50.33511],[37.1558,50.33478],[37.13721,50.33183]]],[[[37.03155,48.25889],[37.02986,48.26768],[37.04507,48.2688],[37.04603,48.27117],[37.0564,48.27015],[37.05763,48.26376],[37.05032,48.26163],[37.05117,48.25514],[37.04557,48.2538],[37.03353,48.25878],[37.03155,48.25889]]]]},"properties":{"source":"deepstate","source_name":"DeepStateMap","source_url":"https://deepstatemap.live/en","category":"gained","category_label":"Newly Russian-occupied","period":"7d","compared_with":"2026-09-13","snapshot_time":"2026-09-20","area_km2_approx":12.1}},{"type":"Feature","geometry":{"type":"Polygon","coordinates":[[[37.78359,49.07106],[37.74742,49.06316],[37.72204,49.06484],[37.71305,49.0691],[37.72074,49.08239],[37.72174,49.08838],[37.70693,49.08924],[37.68399,49.09426],[37.68182,49.09704],[37.6955,49.09964],[37.7103,49.10157],[37.71411,49.10225],[37.71511,49.10711],[37.70382,49.11027],[37.69646,49.10506],[37.67845,49.10531],[37.67895,49.1176],[37.68864,49.12824],[37.7004,49.13028],[37.70953,49.12687],[37.72408,49.13326],[37.7473,49.12972],[37.73095,49.11945],[37.72882,49.10849],[37.73666,49.10383],[37.7417,49.10796],[37.75293,49.11119],[37.77348,49.10778],[37.79007,49.09939],[37.77272,49.09231],[37.77481,49.09116],[37.78257,49.09091],[37.78847,49.08418],[37.78398,49.07756],[37.79184,49.07079],[37.78359,49.07106]]]},"properties":{"source":"deepstate","source_name":"DeepStateMap","source_url":"https://deepstatemap.live/en","category":"lost","category_label":"No longer Russian-occupied","period":"7d","compared_with":"2026-09-13","snapshot_time":"2026-09-20","area_km2_approx":35.3}}]}