{"type":"FeatureCollection","features":[{"type":"Feature","geometry":{"type":"Point","coordinates":[35.19994,50.94247]},"properties":{"source":"lost_warinua","source_name":"lost_warinua (Telegram)","source_url":"https://t.me/s/lost_warinua","id":141059,"date":"2026-07-23","date_note":null,"posted_utc":"2026-09-28T13:12:04+00:00","link":"https://t.me/lost_warinua/141059","category":"Telegram post","side":"Claimed loss: Ukraine (ВСУ)","color":"#0051CA","description":"Уничтоженный бронеавтомобиль BMC Kirpi с мангалом ВСУ возле н.п. Малая Рыбица Сумской области.","orbat":[],"sources":["https://t.me/warriorofnorth/20498"],"original_html":"<div class=\"tgme_widget_message_text js-message_text\" dir=\"auto\">23.07.2026<br/>Уничтоженный бронеавтомобиль BMC Kirpi с мангалом ВСУ возле н.п. Малая Рыбица Сумской области.<br/>(<code>50.94247, 35.19994</code>)<br/><a href=\"https://t.me/warriorofnorth/20498\" target=\"_blank\" rel=\"noopener\">https://t.me/warriorofnorth/20498</a>"}}]}