{"type":"FeatureCollection","features":[{"type":"Feature","geometry":{"type":"Polygon","coordinates":[[[37.78449,48.65666],[37.78182,48.67337],[37.79317,48.67884],[37.78719,48.68968],[37.78741,48.68984],[37.79663,48.67942],[37.80546,48.68008],[37.81171,48.66552],[37.80027,48.66385],[37.78724,48.65643],[37.79026,48.64731],[37.79,48.64719],[37.78449,48.65666]]]},"properties":{"source":"deepstate","source_name":"DeepStateMap","source_url":"https://deepstatemap.live/en","category":"gained","category_label":"Russian advance: became occupied","period":"1d","compared_with":"2026-09-09","snapshot_time":"2026-09-10","area_km2_approx":3.9}},{"type":"Feature","geometry":{"type":"Polygon","coordinates":[[[37.76499,48.66928],[37.77945,48.67763],[37.78091,48.68788],[37.7879,48.6763],[37.78182,48.67337],[37.78393,48.66019],[37.75682,48.65954],[37.76499,48.66928]]]},"properties":{"source":"deepstate","source_name":"DeepStateMap","source_url":"https://deepstatemap.live/en","category":"ukrainian_to_contested","category_label":"Ukrainian-held became contested","period":"1d","compared_with":"2026-09-09","snapshot_time":"2026-09-10","area_km2_approx":2.8}}]}