{"type":"FeatureCollection","features":[{"type":"Feature","geometry":{"type":"MultiPolygon","coordinates":[[[[37.89484,48.86269],[37.89205,48.86483],[37.90241,48.86573],[37.90779,48.87007],[37.89871,48.87537],[37.90121,48.87802],[37.90646,48.87774],[37.91037,48.87969],[37.91635,48.87961],[37.92534,48.88456],[37.92553,48.88429],[37.91494,48.87565],[37.91655,48.87193],[37.91012,48.86597],[37.90838,48.86255],[37.89484,48.86269]]],[[[37.84537,48.73603],[37.85151,48.73719],[37.85106,48.74243],[37.86147,48.73956],[37.87696,48.74084],[37.881,48.73309],[37.87896,48.72989],[37.87022,48.72606],[37.84788,48.73437],[37.84537,48.73603]]],[[[37.79071,48.64597],[37.78724,48.65643],[37.80027,48.66385],[37.81171,48.66552],[37.81649,48.663],[37.79797,48.65768],[37.80067,48.64387],[37.78467,48.63351],[37.79071,48.64597]]],[[[37.75174,49.6544],[37.72858,49.65144],[37.72506,49.64215],[37.70832,49.64209],[37.70798,49.64874],[37.71674,49.654],[37.71726,49.65637],[37.71375,49.65868],[37.7123,49.66544],[37.73985,49.66835],[37.76741,49.66715],[37.77781,49.67318],[37.77274,49.65771],[37.76997,49.65728],[37.77011,49.65429],[37.77732,49.65176],[37.77726,49.6515],[37.75174,49.6544]]],[[[37.18673,48.39364],[37.20468,48.39768],[37.21319,48.40149],[37.24056,48.40383],[37.24026,48.40645],[37.24071,48.40652],[37.2423,48.39904],[37.23609,48.39807],[37.22768,48.39767],[37.2156,48.39146],[37.21035,48.39198],[37.19119,48.38121],[37.18678,48.37367],[37.18673,48.39364]]],[[[37.07913,48.35621],[37.08589,48.3578],[37.0955,48.3563],[37.1158,48.34908],[37.11967,48.34896],[37.11968,48.34853],[37.10515,48.34737],[37.10614,48.33993],[37.08623,48.34685],[37.07295,48.34857],[37.07069,48.35179],[37.07913,48.35621]]],[[[36.60946,47.92468],[36.60571,47.93039],[36.60794,47.93742],[36.6271,47.93872],[36.62665,47.93696],[36.61034,47.92648],[36.60946,47.92468]]]]},"properties":{"source":"deepstate","source_name":"DeepStateMap","source_url":"https://deepstatemap.live/en","category":"gained","category_label":"Newly Russian-occupied","period":"7d","compared_with":"2026-08-09","snapshot_time":"2026-08-16","area_km2_approx":23.7}},{"type":"Feature","geometry":{"type":"MultiPolygon","coordinates":[[[[37.83744,48.87695],[37.83284,48.88531],[37.84679,48.88707],[37.85153,48.88597],[37.85746,48.88569],[37.8589,48.88611],[37.85999,48.88701],[37.86165,48.88708],[37.86391,48.88628],[37.86482,48.88492],[37.8645,48.88374],[37.86358,48.88311],[37.8616,48.88247],[37.86113,48.88152],[37.86325,48.88061],[37.86704,48.87981],[37.86966,48.87811],[37.87381,48.8772],[37.88036,48.87198],[37.85769,48.86541],[37.83744,48.87695]]],[[[37.78609,49.61985],[37.76372,49.62103],[37.75456,49.63621],[37.72487,49.63983],[37.70567,49.63276],[37.70554,49.63302],[37.72019,49.64213],[37.72506,49.64215],[37.72655,49.64608],[37.73688,49.6525],[37.73766,49.6526],[37.75653,49.64727],[37.76784,49.63915],[37.7866,49.63909],[37.78828,49.62851],[37.78562,49.62546],[37.79098,49.61293],[37.79067,49.61277],[37.78609,49.61985]]],[[[37.77547,48.64254],[37.75706,48.65371],[37.75682,48.65954],[37.78712,48.66027],[37.78714,48.6602],[37.77071,48.6536],[37.7819,48.64476],[37.77419,48.63322],[37.77547,48.64254]]],[[[37.70262,49.67859],[37.70203,49.68778],[37.74087,49.69532],[37.74031,49.68434],[37.75931,49.67936],[37.75918,49.66751],[37.73985,49.66835],[37.72043,49.6663],[37.69462,49.67169],[37.70262,49.67859]]],[[[37.68898,49.64943],[37.69166,49.66133],[37.70718,49.6581],[37.69847,49.63446],[37.68898,49.64943]]],[[[37.67835,49.73333],[37.67363,49.73839],[37.66775,49.74133],[37.65508,49.7435],[37.64404,49.74329],[37.63548,49.73895],[37.63532,49.7392],[37.64987,49.75072],[37.65465,49.75166],[37.66191,49.74721],[37.67311,49.74438],[37.68513,49.73955],[37.68712,49.73172],[37.67835,49.73333]]],[[[37.60264,48.49553],[37.60784,48.50501],[37.60645,48.51663],[37.62359,48.52745],[37.64086,48.53251],[37.65382,48.5212],[37.65384,48.51527],[37.64672,48.50792],[37.64073,48.52081],[37.62548,48.51551],[37.61245,48.50128],[37.60836,48.49364],[37.61123,48.48905],[37.62545,48.48299],[37.63013,48.4743],[37.62697,48.46892],[37.61351,48.46627],[37.61005,48.47831],[37.60433,48.48505],[37.60264,48.49553]]],[[[37.18754,48.39706],[37.17825,48.39975],[37.17547,48.40307],[37.18983,48.40366],[37.18869,48.40974],[37.17109,48.41118],[37.17117,48.41501],[37.18678,48.4148],[37.18737,48.42127],[37.18757,48.42128],[37.19166,48.39838],[37.18951,48.39427],[37.18673,48.39364],[37.18673,48.39237],[37.17285,48.39075],[37.1728,48.39093],[37.18754,48.39706]]],[[[37.11223,48.35462],[37.12074,48.35553],[37.12039,48.36166],[37.12084,48.36171],[37.12246,48.35125],[37.11652,48.35],[37.1063,48.35733],[37.10651,48.35767],[37.11223,48.35462]]],[[[35.58436,47.5627],[35.61276,47.55506],[35.61248,47.54416],[35.61163,47.53371],[35.624,47.52943],[35.63345,47.52573],[35.65015,47.51225],[35.63225,47.51669],[35.61017,47.51211],[35.60824,47.52789],[35.59623,47.54087],[35.58298,47.55126],[35.55949,47.55285],[35.55981,47.55529],[35.58436,47.5627]]]]},"properties":{"source":"deepstate","source_name":"DeepStateMap","source_url":"https://deepstatemap.live/en","category":"gained_contested","category_label":"Newly contested","period":"7d","compared_with":"2026-08-09","snapshot_time":"2026-08-16","area_km2_approx":50.2}},{"type":"Feature","geometry":{"type":"MultiPolygon","coordinates":[[[[36.74908,48.11738],[36.74015,48.13],[36.74258,48.13468],[36.75141,48.13514],[36.76135,48.13056],[36.77197,48.12726],[36.78319,48.1376],[36.79132,48.13603],[36.79967,48.13295],[36.80879,48.13021],[36.82999,48.09857],[36.84213,48.09411],[36.84201,48.09372],[36.82587,48.09742],[36.78719,48.08826],[36.76548,48.09099],[36.74076,48.09899],[36.74179,48.11048],[36.74908,48.11738]]],[[[36.45511,47.82459],[36.45174,47.80728],[36.42562,47.80975],[36.38099,47.79511],[36.36816,47.79591],[36.34811,47.8057],[36.30291,47.80298],[36.306,47.81227],[36.29572,47.81335],[36.28924,47.80839],[36.283,47.84808],[36.26857,47.85333],[36.24172,47.8528],[36.23298,47.86113],[36.23316,47.87384],[36.24072,47.88468],[36.28175,47.87607],[36.3049,47.87566],[36.31117,47.88019],[36.33161,47.88316],[36.3432,47.88464],[36.37815,47.88404],[36.39996,47.88967],[36.40337,47.89042],[36.45604,47.89673],[36.45353,47.91633],[36.48536,47.91779],[36.49248,47.9235],[36.5005,47.92554],[36.51152,47.92144],[36.53813,47.9276],[36.54285,47.93628],[36.55504,47.94335],[36.56388,47.95807],[36.55117,47.9614],[36.55031,47.96801],[36.54636,47.96752],[36.54679,47.96251],[36.53222,47.96168],[36.5301,47.96572],[36.53375,47.97087],[36.54627,47.97541],[36.56221,47.97075],[36.57342,47.97781],[36.59303,47.95849],[36.61883,47.96273],[36.6047,47.97213],[36.61887,47.97838],[36.62367,47.98911],[36.59045,47.99519],[36.58706,47.9988],[36.59259,48.00057],[36.61799,48.00157],[36.61236,48.01887],[36.61499,48.03297],[36.62107,48.03453],[36.61695,48.05207],[36.62011,48.05624],[36.62198,48.06529],[36.62382,48.06803],[36.62484,48.0703],[36.62029,48.07303],[36.61771,48.07656],[36.63376,48.08206],[36.63487,48.0874],[36.63874,48.09061],[36.64479,48.09024],[36.65152,48.08608],[36.6529,48.08774],[36.66603,48.08717],[36.66878,48.08969],[36.67659,48.08969],[36.67878,48.09694],[36.7032,48.09094],[36.71776,48.09712],[36.71624,48.08383],[36.73131,48.06805],[36.73681,48.06529],[36.73623,48.06458],[36.7473,48.0781],[36.76902,48.0754],[36.80392,48.06036],[36.80381,48.06003],[36.77619,48.06678],[36.76473,48.05498],[36.7636,48.03392],[36.74857,48.0267],[36.73554,48.00924],[36.74244,47.97461],[36.73217,47.9607],[36.66097,47.94367],[36.63615,47.93933],[36.6271,47.93872],[36.63044,47.95187],[36.6286,47.94463],[36.60561,47.94503],[36.5999,47.93653],[36.60191,47.91917],[36.56371,47.90919],[36.55233,47.88334],[36.55572,47.87152],[36.53498,47.86012],[36.4994,47.86106],[36.46175,47.8735],[36.44414,47.87167],[36.47758,47.85419],[36.47376,47.8418],[36.44126,47.84108],[36.42322,47.82824],[36.45511,47.82459]]],[[[36.63675,47.91257],[36.62893,47.90374],[36.6293,47.92106],[36.63675,47.91257]]],[[[36.60951,47.92478],[36.62102,47.92379],[36.628,47.92149],[36.62793,47.92121],[36.60879,47.9233],[36.60951,47.92478]]],[[[36.5399,47.85151],[36.57253,47.86165],[36.57945,47.87385],[36.57407,47.89633],[36.57414,47.89636],[36.58901,47.87397],[36.58236,47.86015],[36.57219,47.84909],[36.52565,47.84114],[36.49098,47.83039],[36.45513,47.82459],[36.45513,47.8246],[36.49287,47.84813],[36.5399,47.85151]]]]},"properties":{"source":"deepstate","source_name":"DeepStateMap","source_url":"https://deepstatemap.live/en","category":"lost","category_label":"Less Russian-held (occupied or contested area lost)","period":"7d","compared_with":"2026-08-09","snapshot_time":"2026-08-16","area_km2_approx":392.0}}]}