{"type":"FeatureCollection","features":[{"type":"Feature","geometry":{"type":"Polygon","coordinates":[[[37.07913,48.35621],[37.08589,48.3578],[37.0955,48.3563],[37.1158,48.34908],[37.11967,48.34896],[37.11968,48.34853],[37.10515,48.34737],[37.10614,48.33993],[37.08623,48.34685],[37.07295,48.34857],[37.07069,48.35179],[37.07913,48.35621]]]},"properties":{"source":"deepstate","source_name":"DeepStateMap","source_url":"https://deepstatemap.live/en","category":"gained","category_label":"Newly Russian-occupied","period":"1d","compared_with":"2026-08-15","snapshot_time":"2026-08-16","area_km2_approx":3.2}},{"type":"Feature","geometry":{"type":"Polygon","coordinates":[[[37.11223,48.35462],[37.12074,48.35553],[37.12039,48.36166],[37.12084,48.36171],[37.12246,48.35125],[37.11652,48.35],[37.1063,48.35733],[37.10651,48.35767],[37.11223,48.35462]]]},"properties":{"source":"deepstate","source_name":"DeepStateMap","source_url":"https://deepstatemap.live/en","category":"gained_contested","category_label":"Newly contested","period":"1d","compared_with":"2026-08-15","snapshot_time":"2026-08-16","area_km2_approx":0.4}}]}