{"type":"FeatureCollection","features":[{"type":"Feature","geometry":{"type":"Point","coordinates":[37.47569,50.14177]},"properties":{"source":"lost_warinua","source_name":"lost_warinua (Telegram)","source_url":"https://t.me/s/lost_warinua","id":140924,"date":"2026-08-14","date_note":null,"posted_utc":"2026-09-23T13:44:26+00:00","link":"https://t.me/lost_warinua/140924","category":"Telegram post","side":"Claimed loss: Ukraine (ВСУ)","color":"#0051CA","description":"Уничтоженный бронеавтомобиль HMMWV с мангалом ВСУ в н.п. Малый Бурлук Харьковской области.","orbat":[],"sources":["https://t.me/dva_majors/97510"],"original_html":"<div class=\"tgme_widget_message_text js-message_text\" dir=\"auto\">14.08.2026<br/>Уничтоженный бронеавтомобиль HMMWV с мангалом ВСУ в н.п. Малый Бурлук Харьковской области.<br/>(<code>50.14177, 37.47569</code>)<br/><a href=\"https://t.me/dva_majors/97510\" target=\"_blank\" rel=\"noopener\">https://t.me/dva_majors/97510</a>"}},{"type":"Feature","geometry":{"type":"Point","coordinates":[39.26872,48.34938]},"properties":{"source":"lost_warinua","source_name":"lost_warinua (Telegram)","source_url":"https://t.me/s/lost_warinua","id":140649,"date":"2026-08-14","date_note":null,"posted_utc":"2026-09-16T09:29:29+00:00","link":"https://t.me/lost_warinua/140649","category":"Telegram post","side":"Claimed loss: Russia","color":"#E00000","description":"Уничтоженная российская пусковая установка 9А83М2 комплекса 9К81М2 С-300В4 (С-300В) рядом с н.п.  Волнухино Луганской области.","orbat":[],"sources":["https://t.me/SBUkr/18594"],"original_html":"<div class=\"tgme_widget_message_text js-message_text\" dir=\"auto\">14.08.2026<br/>Уничтоженная российская пусковая установка 9А83М2 комплекса 9К81М2 С-300В4 (С-300В) рядом с н.п.  Волнухино Луганской области.<br/>(<code>48.34938, 39.26872</code>)<br/><a href=\"https://t.me/SBUkr/18594\" target=\"_blank\" rel=\"noopener\">https://t.me/SBUkr/18594</a>"}}]}