{"type":"FeatureCollection","features":[{"type":"Feature","geometry":null,"properties":{"source":"ua_mod","source_name":"Ministry of Defence of Ukraine","group":"official_ua","id":15976,"posted_utc":"2026-08-02T06:15:22+00:00","link":"https://t.me/ministry_of_defense_ua/15976","text":"✈️ Євгеній Хмара:\nСьогодні — День Повітряних Сил Збройних Сил України.\nЗ перших днів повномасштабної війни росія хотіла вільно використовувати українське небо для ударів по наших людях. Не вийшло, адже наша авіація та ППО не дозволили цього ворогу. Повітряні Сили закрили собою небо.\nІз 24 лютого 2022 року українська ППО знищила понад 445 000 повітряних цілей. Серед них — «Кинджали», «Калібри», Х-101, балістичні ракети «Іскандер-М», десятки тисяч «шахедів», розвідувальних БпЛА, «Ланцетів» та інших ворожих дронів.\nАвіація Повітряних Сил за чотири роки повномасштабної війни здійснила понад 38 тисяч літаковильотів, знищила понад 12 000 засобів повітряного нападу противника — літаків, гелікоптерів, ракет та дронів.\nЦе не просто цифри. Це захищені міста. Врятовані життя. Знищені загрози.\nІ це сила людей, які тримають українське небо. Пілоти. Інженери. Техніки. Радіотехнічні війська. Усі наші екіпажі та розрахунки. Ви щодня відбиваєте атаки і опановуєте найсучаснішу техніку — від Raven до Patriot, від МіГ-29 до F-16.\nЗахист неба, на жаль, здобувається ціною втрат. Згадуємо кожного і кожну, хто віддав життя за українське небо.\nПрацюємо, щоб у вас було більше сучасної зброї. Більше технологій. Більше можливостей збивати цілі, зберігати життя і уражати ворога.\nДякую за службу і високі результати. Нехай кількість приземлень завжди дорівнює кількості зльотів.","links":[],"original_html":"<tg-emoji emoji-id=\"5282850378700824563\"><i class=\"emoji\" style=\"background-image:url('//telegram.org/img/emoji/40/E29C88.png')\"><b>✈️</b></i></tg-emoji> <b>Євгеній Хмара:</b><br/><br/>Сьогодні — День Повітряних Сил Збройних Сил України.<br/><br/>З перших днів повномасштабної війни росія хотіла вільно використовувати українське небо для ударів по наших людях. Не вийшло, адже наша авіація та ППО не дозволили цього ворогу. Повітряні Сили закрили собою небо.<br/><br/>Із 24 лютого 2022 року українська ППО знищила понад 445 000 повітряних цілей. Серед них — «Кинджали», «Калібри», Х-101, балістичні ракети «Іскандер-М», десятки тисяч «шахедів», розвідувальних БпЛА, «Ланцетів» та інших ворожих дронів.<br/><br/>Авіація Повітряних Сил за чотири роки повномасштабної війни здійснила понад 38 тисяч літаковильотів, знищила понад 12 000 засобів повітряного нападу противника — літаків, гелікоптерів, ракет та дронів.<br/><br/>Це не просто цифри. Це захищені міста. Врятовані життя. Знищені загрози. <br/><br/>І це сила людей, які тримають українське небо. Пілоти. Інженери. Техніки. Радіотехнічні війська. Усі наші екіпажі та розрахунки. Ви щодня відбиваєте атаки і опановуєте найсучаснішу техніку — від Raven до Patriot, від МіГ-29 до F-16.<br/><br/>Захист неба, на жаль, здобувається ціною втрат. Згадуємо кожного і кожну, хто віддав життя за українське небо.<br/><br/>Працюємо, щоб у вас було більше сучасної зброї. Більше технологій. Більше можливостей збивати цілі, зберігати життя і уражати ворога.<br/><br/>Дякую за службу і високі результати. Нехай кількість приземлень завжди дорівнює кількості зльотів."}},{"type":"Feature","geometry":null,"properties":{"source":"ua_mod","source_name":"Ministry of Defence of Ukraine","group":"official_ua","id":15977,"posted_utc":"2026-08-02T07:58:01+00:00","link":"https://t.me/ministry_of_defense_ua/15977","text":"❗Залишилося 50 днів, щоб повернутися після СЗЧ за спрощеною програмою.\nПодати рапорт можна до 20 вересня 2026 року включно. Після цієї дати програма не діятиме.\nПрограма доступна військовослужбовцям ЗСУ, НГУ та ДССТ, у яких СЗЧ зафіксовано до 12 червня 2026 року включно.\nДля вибору доступні понад 70 підрозділів: механізовані, штурмові, десантні, дронові, артилерійські та інші. У кожному з них потрібні військовослужбовці з різним досвідом, військовими спеціальностями та навичками.\nКількість місць за окремими напрямами обмежена, тому тим, хто вже визначився, варто не відкладати подання рапорту.\nПісля зарахування відновлюється грошове, продовольче та інші види забезпечення.\nПодати рапорт можна:\n• через Армія+;\n• напряму до військової частини (для військовослужбовців ЗСУ та ДССТ);\n• через 1-й чи 2-й центр рекрутингу ЗСУ (для військовослужбовців ЗСУ).\nУмови програми та перелік підрозділів – https://szch.army.gov.ua","links":["https://szch.army.gov.ua/"],"original_html":"<b><i class=\"emoji\" style=\"background-image:url('//telegram.org/img/emoji/40/E29D97.png')\"><b>❗</b></i>Залишилося 50 днів, щоб повернутися після СЗЧ за спрощеною програмою</b>.<b><br/></b><br/>Подати рапорт можна до 20 вересня 2026 року включно. Після цієї дати програма не діятиме.<br/><br/>Програма доступна військовослужбовцям ЗСУ, НГУ та ДССТ, у яких СЗЧ зафіксовано до 12 червня 2026 року включно.<br/><br/>Для вибору доступні понад 70 підрозділів: механізовані, штурмові, десантні, дронові, артилерійські та інші. У кожному з них потрібні військовослужбовці з різним досвідом, військовими спеціальностями та навичками. <br/><br/>Кількість місць за окремими напрямами обмежена, тому тим, хто вже визначився, варто не відкладати подання рапорту.<br/><br/>Після зарахування відновлюється грошове, продовольче та інші види забезпечення.<br/><br/>Подати рапорт можна:<br/>• через Армія+;<br/>• напряму до військової частини (для військовослужбовців ЗСУ та ДССТ);<br/>• через 1-й чи 2-й центр рекрутингу ЗСУ (для військовослужбовців ЗСУ).<br/><br/>Умови програми та перелік підрозділів – <a href=\"https://szch.army.gov.ua/\" target=\"_blank\" rel=\"noopener\">https://szch.army.gov.ua</a>"}},{"type":"Feature","geometry":null,"properties":{"source":"ua_mod","source_name":"Ministry of Defence of Ukraine","group":"official_ua","id":15978,"posted_utc":"2026-08-02T14:42:38+00:00","link":"https://t.me/ministry_of_defense_ua/15978","text":"✈️ Євгеній Хмара:\nВідвідав підрозділи авіації та протиповітряної оборони Повітряних Сил.\nПоспілкувався з пілотами, екіпажами, інженерами, техніками, які забезпечують бойову роботу щодня і щоночі.\nОзнайомився з роботою командних пунктів. Обговорили нагальні питання: максимальна готовність до відбиття повітряних атак, забезпечення боєприпасами, розвиток дронів-перехоплювачів та інших рішень для захисту неба.\nУ фокусі Міністерства оборони – постійне зміцнення спроможностей Повітряних Сил.\nДокладемо зусиль, щоб збільшувати постачання дієвих українських рішень, що вже довели свою ефективність. Паралельно продовжуємо проєкти з партнерами, щоб Україна отримувала більше сучасної техніки для захисту від повітряних загроз.\nДякую кожному та кожній, хто обороняє наше небо.","links":[],"original_html":"<tg-emoji emoji-id=\"5282850378700824563\"><i class=\"emoji\" style=\"background-image:url('//telegram.org/img/emoji/40/E29C88.png')\"><b>✈️</b></i></tg-emoji> <b>Євгеній Хмара:</b><br/><br/>Відвідав підрозділи авіації та протиповітряної оборони Повітряних Сил.<br/><br/>Поспілкувався з пілотами, екіпажами, інженерами, техніками, які забезпечують бойову роботу щодня і щоночі. <br/><br/>Ознайомився з роботою командних пунктів. Обговорили нагальні питання: максимальна готовність до відбиття повітряних атак, забезпечення боєприпасами, розвиток дронів-перехоплювачів та інших рішень для захисту неба.<br/><br/>У фокусі Міністерства оборони – постійне зміцнення спроможностей Повітряних Сил. <br/><br/>Докладемо зусиль, щоб збільшувати постачання дієвих українських рішень, що вже довели свою ефективність. Паралельно продовжуємо проєкти з партнерами, щоб Україна отримувала більше сучасної техніки для захисту від повітряних загроз.<br/><br/>Дякую кожному та кожній, хто обороняє наше небо."}}]}