{"type":"FeatureCollection","features":[{"type":"Feature","geometry":null,"properties":{"source":"ru_mod","source_name":"Ministry of Defence of Russia","group":"official_ru","id":67237,"posted_utc":"2026-09-11T19:20:22+00:00","link":"https://t.me/mod_russia/67237","text":"Работа удары по пятницам приводят к выгоранию 🔥\nНаш пламенный − врагу и крепкое друзьям рукопожатие 🤝\n🔹 MAКС – территория СВОих","links":["https://max.ru/morf"],"original_html":"<b><s>Работа</s> удары по пятницам приводят к выгоранию</b> <tg-emoji emoji-id=\"5449590921916082144\"><i class=\"emoji\" style=\"background-image:url('//telegram.org/img/emoji/40/F09F94A5.png')\"><b>🔥</b></i></tg-emoji><br/> <br/>Наш пламенный − врагу и крепкое друзьям рукопожатие <tg-emoji emoji-id=\"5447324252925620983\"><i class=\"emoji\" style=\"background-image:url('//telegram.org/img/emoji/40/F09FA49D.png')\"><b>🤝</b></i></tg-emoji><br/><br/><tg-emoji emoji-id=\"5269510734265483362\"><i class=\"emoji\" style=\"background-image:url('//telegram.org/img/emoji/40/F09F94B9.png')\"><b>🔹</b></i></tg-emoji> <a href=\"https://max.ru/morf\" target=\"_blank\" rel=\"noopener\" onclick=\"return confirm('Open this link?\\n\\n'+this.href);\">MAКС – территория СВОих</a>"}},{"type":"Feature","geometry":null,"properties":{"source":"ru_mod","source_name":"Ministry of Defence of Russia","group":"official_ru","id":67238,"posted_utc":"2026-09-11T22:01:01+00:00","link":"https://t.me/mod_russia/67238","text":"Магистраль несломленных: дорога через смерть ради жизни\n📆 12 сентября 1941 года, 85 лет назад, начала действовать легендарная «Дорога жизни» – единственная транспортная магистраль, связавшая блокадный Ленинград с Большой землей через Ладожское озеро. В этот день к мысу Осиновец прорвались первые баржи, которые доставили в осажденный город около 740 тонн зерна и муки. Так открылся водный путь спасительного маршрута.\n❄️  С приходом холодов трасса стала ледяной. 22 ноября на неокрепший лед выехали первые грузовики: водители шли на смертельный риск ради спасения ленинградцев. Для защиты и бесперебойной работы дороги были развернутв зенитные батареи, на маршрутах открыли станции обогрева и медицинские пункты, а также наладили телефонную связь. Позже, в 1942 году, по дну озера проложили трубопровод для топлива и кабель для подачи в город электричества.\n▫️ За первую, самую тяжелую блокадную зиму 1941-1942 годов по «Дороге жизни» в Ленинград было доставлено свыше 360 тысяч тонн грузов, переправлены 6 стрелковых дивизий и танковая бригада. Были эвакуированы 539 тысяч 400 ленинградцев.\n🔥 27 января 1944 года Ленинград был полностью освобожден. Общее количество грузов, перевезённых в город по «Дороге жизни», составило свыше 1,6 миллиона тонн. Из Ленинграда были эвакуированы около 1,4 миллиона человек.\nУ этого подвига имя − Ленинград.\nМы не забыли, помним!\n#ВэтотДень\n🔹 Минобороны России","links":["https://max.ru/morf"],"original_html":"<b>Магистраль несломленных: дорога через смерть ради жизни </b><br/><br/><b><tg-emoji emoji-id=\"5472282252048104170\"><i class=\"emoji\" style=\"background-image:url('//telegram.org/img/emoji/40/F09F9386.png')\"><b>📆</b></i></tg-emoji></b><b> 12 сентября 1941 года, 85 лет назад, начала действовать легендарная «Дорога жизни» </b>– единственная транспортная магистраль, связавшая блокадный Ленинград с Большой землей через Ладожское озеро. В этот день к мысу Осиновец <b>прорвались первые баржи, которые доставили в осажденный город около 740 тонн зерна и муки. </b>Так открылся водный путь спасительного маршрута.<br/><br/><i class=\"emoji\" style=\"background-image:url('//telegram.org/img/emoji/40/E29D84.png')\"><b>❄️</b></i>  С приходом холодов трасса стала ледяной. 22 ноября <b>на неокрепший лед выехали первые грузовики</b>: водители шли на смертельный риск ради спасения ленинградцев. Для защиты и бесперебойной работы дороги были развернутв зенитные батареи, на маршрутах открыли станции обогрева и медицинские пункты, а также наладили телефонную связь. Позже, в 1942 году, по дну озера проложили трубопровод для топлива и кабель для подачи в город электричества.<br/><br/><b><tg-emoji emoji-id=\"5352532894478793783\"><i class=\"emoji\" style=\"background-image:url('//telegram.org/img/emoji/40/E296AB.png')\"><b>▫️</b></i></tg-emoji></b><b> За первую, самую тяжелую блокадную зиму 1941-1942 годов</b> по «Дороге жизни» в Ленинград было доставлено свыше 360 тысяч тонн грузов, переправлены 6 стрелковых дивизий и танковая бригада. Были эвакуированы 539 тысяч 400 ленинградцев.<br/><br/><b><tg-emoji emoji-id=\"5449590921916082144\"><i class=\"emoji\" style=\"background-image:url('//telegram.org/img/emoji/40/F09F94A5.png')\"><b>🔥</b></i></tg-emoji></b><b> 27 января 1944 года Ленинград был полностью освобожден.</b> Общее количество грузов, перевезённых в город по «Дороге жизни», составило свыше 1,6 миллиона тонн. Из Ленинграда были эвакуированы около 1,4 миллиона человек.<br/><br/><b>У этого подвига имя − Ленинград. <br/>Мы не забыли, помним&#33;</b><br/><br/><a href=\"?q=%23%D0%92%D1%8D%D1%82%D0%BE%D1%82%D0%94%D0%B5%D0%BD%D1%8C\">#ВэтотДень</a><br/><tg-emoji emoji-id=\"5269510734265483362\"><i class=\"emoji\" style=\"background-image:url('//telegram.org/img/emoji/40/F09F94B9.png')\"><b>🔹</b></i></tg-emoji> <a href=\"https://max.ru/morf\" target=\"_blank\" rel=\"noopener\" onclick=\"return confirm('Open this link?\\n\\n'+this.href);\">Минобороны России</a>"}},{"type":"Feature","geometry":null,"properties":{"source":"ru_mod","source_name":"Ministry of Defence of Russia","group":"official_ru","id":67216,"posted_utc":"2026-09-11T05:36:17+00:00","link":"https://t.me/mod_russia/67216","text":"❗️   Сегодня ночью Вооруженными Силами Российской Федерации нанесены групповые удары высокоточным оружием воздушного базирования и ударными беспилотными летательными аппаратами.\n💥  в результате поражены:\n▪ объекты военной промышленности и логистические центры Украины, задействованные в производстве и хранении беспилотных летательных аппаратов;\n▪ DATA-центры в городе Киеве, Киевской, Хмельницкой и Днепропетровской областях;\n▪ объекты портовой инфраструктуры в Одесской области, обеспечивающие разгрузку и хранение грузов, предназначенных для ВСУ;\n▪ морские суда, осуществляющие доставку военных грузов и горюче-смазочных материалов для ВСУ.\n🔹 Минобороны России","links":["https://max.ru/morf"],"original_html":"<i class=\"emoji\" style=\"background-image:url('//telegram.org/img/emoji/40/E29D97.png')\"><b>❗️</b></i>   Сегодня ночью Вооруженными Силами Российской Федерации <b>нанесены групповые удары</b> высокоточным оружием воздушного базирования и ударными беспилотными летательными аппаратами.<br/><br/><i class=\"emoji\" style=\"background-image:url('//telegram.org/img/emoji/40/F09F92A5.png')\"><b>💥</b></i> <b> в результате поражены: <br/><br/><i class=\"emoji\" style=\"background-image:url('//telegram.org/img/emoji/40/E296AA.png')\"><b>▪</b></i> объекты военной промышленности и логистические центры Украины</b>, задействованные в производстве и хранении беспилотных летательных аппаратов;<br/><br/><b><i class=\"emoji\" style=\"background-image:url('//telegram.org/img/emoji/40/E296AA.png')\"><b>▪</b></i> DATA-центры</b> в городе Киеве, Киевской, Хмельницкой и Днепропетровской областях;<br/><br/><i class=\"emoji\" style=\"background-image:url('//telegram.org/img/emoji/40/E296AA.png')\"><b>▪</b></i> <b>объекты портовой инфраструктуры</b> в Одесской области, обеспечивающие разгрузку и хранение грузов, предназначенных для ВСУ;<br/><br/><i class=\"emoji\" style=\"background-image:url('//telegram.org/img/emoji/40/E296AA.png')\"><b>▪</b></i> <b>морские суда</b>, осуществляющие доставку военных грузов и горюче-смазочных материалов для ВСУ.<br/><br/><tg-emoji emoji-id=\"5269510734265483362\"><i class=\"emoji\" style=\"background-image:url('//telegram.org/img/emoji/40/F09F94B9.png')\"><b>🔹</b></i></tg-emoji> <a href=\"https://max.ru/morf\" target=\"_blank\" rel=\"noopener\" onclick=\"return confirm('Open this link?\\n\\n'+this.href);\">Минобороны России</a>"}},{"type":"Feature","geometry":null,"properties":{"source":"ru_mod","source_name":"Ministry of Defence of Russia","group":"official_ru","id":67217,"posted_utc":"2026-09-11T05:40:04+00:00","link":"https://t.me/mod_russia/67217","text":"⚡ В течение прошедшей ночи в период с 20.00 мск 10 сентября до 8.00 мск 11 сентября дежурными силами ПВО перехвачены и уничтожены 777 украинских беспилотных летательных аппаратов самолетного типа над территориями Брянской, Курской, Белгородской, Орловской, Калужской, Воронежской, Тульской, Рязанской, Липецкой, Нижегородской, Саратовской, Ростовской, Самарской областей, Пермского края, Республики Марий Эл, Республики Крым, Удмуртской Республики и над акваториями Черного и Каспийского морей.\n🔹 MAКС – территория СВОих","links":["https://max.ru/morf"],"original_html":"<i class=\"emoji\" style=\"background-image:url('//telegram.org/img/emoji/40/E29AA1.png')\"><b>⚡</b></i> В течение прошедшей ночи в период с 20.00 мск 10 сентября до 8.00 мск 11 сентября <b>дежурными силами ПВО перехвачены и уничтожены 777 украинских беспилотных летательных аппаратов самолетного типа </b>над территориями Брянской, Курской, Белгородской, Орловской, Калужской, Воронежской, Тульской, Рязанской, Липецкой, Нижегородской, Саратовской, Ростовской, Самарской областей, Пермского края, Республики Марий Эл, Республики Крым, Удмуртской Республики и над акваториями Черного и Каспийского морей.<br/><br/><tg-emoji emoji-id=\"5269510734265483362\"><i class=\"emoji\" style=\"background-image:url('//telegram.org/img/emoji/40/F09F94B9.png')\"><b>🔹</b></i></tg-emoji> <a href=\"https://max.ru/morf\" target=\"_blank\" rel=\"noopener\" onclick=\"return confirm('Open this link?\\n\\n'+this.href);\">MAКС – территория СВОих</a>"}},{"type":"Feature","geometry":null,"properties":{"source":"ru_mod","source_name":"Ministry of Defence of Russia","group":"official_ru","id":67218,"posted_utc":"2026-09-11T05:47:41+00:00","link":"https://t.me/mod_russia/67218","text":"❗️   Сегодня ночью Вооруженными Силами Российской Федерации нанесены групповые удары высокоточным оружием воздушного базирования и ударными беспилотными летательными аппаратами.  💥  в результате поражены:   ▪ объекты военной промышленности и логистические…","links":[],"original_html":"<i class=\"emoji\" style=\"background-image:url('//telegram.org/img/emoji/40/E29D97.png')\"><b>❗️</b></i>   Сегодня ночью Вооруженными Силами Российской Федерации нанесены групповые удары высокоточным оружием воздушного базирования и ударными беспилотными летательными аппаратами.  <i class=\"emoji\" style=\"background-image:url('//telegram.org/img/emoji/40/F09F92A5.png')\"><b>💥</b></i>  в результате поражены:   <i class=\"emoji\" style=\"background-image:url('//telegram.org/img/emoji/40/E296AA.png')\"><b>▪</b></i> объекты военной промышленности и логистические…"}},{"type":"Feature","geometry":null,"properties":{"source":"ru_mod","source_name":"Ministry of Defence of Russia","group":"official_ru","id":67220,"posted_utc":"2026-09-11T06:07:41+00:00","link":"https://t.me/mod_russia/67220","text":"Всегда точная, срочная и мощная💯  🔹 MAКС – территория СВОих","links":[],"original_html":"Всегда точная, срочная и мощная<i class=\"emoji\" style=\"background-image:url('//telegram.org/img/emoji/40/F09F92AF.png')\"><b>💯</b></i>  <tg-emoji emoji-id=\"5269510734265483362\"><i class=\"emoji\" style=\"background-image:url('//telegram.org/img/emoji/40/F09F94B9.png')\"><b>🔹</b></i></tg-emoji> MAКС – территория СВОих"}},{"type":"Feature","geometry":null,"properties":{"source":"ru_mod","source_name":"Ministry of Defence of Russia","group":"official_ru","id":67221,"posted_utc":"2026-09-11T07:14:48+00:00","link":"https://t.me/mod_russia/67221","text":"Медалью Суворова награжден за доблестную службу оператор БПЛА с позывным «Викинг». Он служит в расчете FPV-дронов войск беспилотных систем в составе 1-й гвардейской танковой армии, на Харьковском направлении.\nЛетает наш герой чуть больше полугода — переобучился после ранения в плечо. Поэтому с мелкой моторикой, по его словам, до сих пор не все просто. Но в его работе важнее внимание: умение найти и отследить летящую высоко в небе вражескую цель.\nРассказываем об участниках СВО в 📲 MAX,  📱 ВКонтакте и в 📱 Дзен","links":["https://max.ru/heroesofZ","https://vk.com/heroes0fz","http://dzen.ru/heroesofz"],"original_html":"Медалью Суворова награжден за доблестную службу оператор БПЛА с <b>позывным «Викинг»</b>. Он служит в расчете FPV-дронов войск беспилотных систем в составе 1-й гвардейской танковой армии, на Харьковском направлении.<br/><br/>Летает наш герой чуть больше полугода — переобучился после ранения в плечо. Поэтому с мелкой моторикой, по его словам, до сих пор не все просто. Но в его работе важнее внимание: умение найти и отследить летящую высоко в небе вражескую цель.<br/><br/><i>Рассказываем об участниках СВО в</i> <i><tg-emoji emoji-id=\"5449407131675558756\"><i class=\"emoji\" style=\"background-image:url('//telegram.org/img/emoji/40/F09F93B2.png')\"><b>📲</b></i></tg-emoji></i><i> </i><a href=\"https://max.ru/heroesofZ\" target=\"_blank\" rel=\"noopener\" onclick=\"return confirm('Open this link?\\n\\n'+this.href);\"><i>MAX</i></a>,<i>  </i><i><tg-emoji emoji-id=\"5334853932915114338\"><i class=\"emoji\" style=\"background-image:url('//telegram.org/img/emoji/40/F09F93B1.png')\"><b>📱</b></i></tg-emoji></i><i> </i><a href=\"https://vk.com/heroes0fz\" target=\"_blank\" rel=\"noopener\" onclick=\"return confirm('Open this link?\\n\\n'+this.href);\"><i>ВКонтакте</i></a> <i>и в </i><i><tg-emoji emoji-id=\"5321533581472842536\"><i class=\"emoji\" style=\"background-image:url('//telegram.org/img/emoji/40/F09F93B1.png')\"><b>📱</b></i></tg-emoji></i><i> </i><a href=\"http://dzen.ru/heroesofz\" target=\"_blank\" rel=\"noopener\" onclick=\"return confirm('Open this link?\\n\\n'+this.href);\"><i>Дзен</i></a>"}},{"type":"Feature","geometry":null,"properties":{"source":"ru_mod","source_name":"Ministry of Defence of Russia","group":"official_ru","id":67222,"posted_utc":"2026-09-11T08:49:59+00:00","link":"https://t.me/mod_russia/67222","text":"Страшный каждый сон солдата ВСУ 😱\nДроноводы «Востока» методично выкашивают личный состав и сжигают транспорт снабжения противника.\n#ВойскаБПС\n🔹 MAКС – территория СВОих","links":["https://max.ru/morf"],"original_html":"<b><s>Страшный</s> каждый сон солдата ВСУ </b><i class=\"emoji\" style=\"background-image:url('//telegram.org/img/emoji/40/F09F98B1.png')\"><b>😱</b></i> <br/><br/>Дроноводы «Востока» методично выкашивают личный состав и сжигают транспорт снабжения противника.<br/><br/><a href=\"?q=%23%D0%92%D0%BE%D0%B9%D1%81%D0%BA%D0%B0%D0%91%D0%9F%D0%A1\">#ВойскаБПС</a><br/><tg-emoji emoji-id=\"5269510734265483362\"><i class=\"emoji\" style=\"background-image:url('//telegram.org/img/emoji/40/F09F94B9.png')\"><b>🔹</b></i></tg-emoji> <a href=\"https://max.ru/morf\" target=\"_blank\" rel=\"noopener\" onclick=\"return confirm('Open this link?\\n\\n'+this.href);\">MAКС – территория СВОих</a>"}},{"type":"Feature","geometry":null,"properties":{"source":"ru_mod","source_name":"Ministry of Defence of Russia","group":"official_ru","id":67223,"posted_utc":"2026-09-11T09:00:17+00:00","link":"https://t.me/mod_russia/67223","text":"⚡️ Подразделения группировки войск «Центр» освободили населенный пункт Новогришино Донецкой Народной Республики.\n🔹 Канал Минобороны России в MAКС – боевая работа 24/7","links":["https://max.ru/morf"],"original_html":"<i class=\"emoji\" style=\"background-image:url('//telegram.org/img/emoji/40/E29AA1.png')\"><b>⚡️</b></i> Подразделения группировки войск «Центр» <b>освободили населенный пункт Новогришино </b>Донецкой Народной Республики.<br/><br/><tg-emoji emoji-id=\"5269510734265483362\"><i class=\"emoji\" style=\"background-image:url('//telegram.org/img/emoji/40/F09F94B9.png')\"><b>🔹</b></i></tg-emoji> <a href=\"https://max.ru/morf\" target=\"_blank\" rel=\"noopener\" onclick=\"return confirm('Open this link?\\n\\n'+this.href);\">Канал Минобороны России в MAКС – боевая работа 24/7</a>"}},{"type":"Feature","geometry":null,"properties":{"source":"ru_mod","source_name":"Ministry of Defence of Russia","group":"official_ru","id":67224,"posted_utc":"2026-09-11T09:04:03+00:00","link":"https://t.me/mod_russia/67224","text":"⚡️  Подразделения группировки войск «Восток» освободили населенный пункт Зоревка Запорожской области.\nПодробнее об успехах наших войск ➡️ в MAКС","links":["https://max.ru/morf/AaCPt0aOJG0"],"original_html":"<i class=\"emoji\" style=\"background-image:url('//telegram.org/img/emoji/40/E29AA1.png')\"><b>⚡️</b></i>  Подразделения группировки войск «Восток» <b>освободили населенный пункт Зоревка</b> Запорожской области.<br/><br/>Подробнее об успехах наших войск <tg-emoji emoji-id=\"5469902676957357453\"><i class=\"emoji\" style=\"background-image:url('//telegram.org/img/emoji/40/E29EA1.png')\"><b>➡️</b></i></tg-emoji> <a href=\"https://max.ru/morf/AaCPt0aOJG0\" target=\"_blank\" rel=\"noopener\" onclick=\"return confirm('Open this link?\\n\\n'+this.href);\">в MAКС</a>"}},{"type":"Feature","geometry":null,"properties":{"source":"ru_mod","source_name":"Ministry of Defence of Russia","group":"official_ru","id":67225,"posted_utc":"2026-09-11T10:18:22+00:00","link":"https://t.me/mod_russia/67225","text":"«Краснополь» заказывали?\nРасчеты САУ «Мста-С» группировки «Восток» уложили высокоточные снаряды точно по адресу и в щепки разнесли опорники ВСУ в Днепропетровской области.\n🔹 Курс на MAКС!","links":["https://max.ru/morf"],"original_html":"<b>«Краснополь» заказывали?</b><br/><br/>Расчеты САУ «Мста-С» группировки «Восток» уложили высокоточные снаряды точно по адресу и в щепки разнесли опорники ВСУ в Днепропетровской области.<br/><br/><tg-emoji emoji-id=\"5269510734265483362\"><i class=\"emoji\" style=\"background-image:url('//telegram.org/img/emoji/40/F09F94B9.png')\"><b>🔹</b></i></tg-emoji> <a href=\"https://max.ru/morf\" target=\"_blank\" rel=\"noopener\" onclick=\"return confirm('Open this link?\\n\\n'+this.href);\">Курс на MAКС&#33;</a>"}},{"type":"Feature","geometry":null,"properties":{"source":"ru_mod","source_name":"Ministry of Defence of Russia","group":"official_ru","id":67226,"posted_utc":"2026-09-11T11:13:47+00:00","link":"https://t.me/mod_russia/67226","text":"Как по нотам: лётчики кладут рядком\n🔥 В районе Лесного в Сумской области наши парни устроили врагу по-настоящему жаркий день.\n▫️ Авиабомбы ФАБ-500 с УМПК сровняли с землей пункты управления БПЛА 4-й обр БР национальной гвардии Украины.\n▫️ Многоцелевые управляемые ракеты Х-39 разнесли в щепки пункт временной дислокации 119-й обр ТерО.\n🔹 MAКС – территория СВОих","links":["https://max.ru/morf"],"original_html":"<b>Как по нотам: лётчики кладут рядком</b><br/><br/><tg-emoji emoji-id=\"5449590921916082144\"><i class=\"emoji\" style=\"background-image:url('//telegram.org/img/emoji/40/F09F94A5.png')\"><b>🔥</b></i></tg-emoji> В районе Лесного в Сумской области наши парни устроили врагу по-настоящему жаркий день.<br/><br/><tg-emoji emoji-id=\"5469903849483431273\"><i class=\"emoji\" style=\"background-image:url('//telegram.org/img/emoji/40/E296AB.png')\"><b>▫️</b></i></tg-emoji> Авиабомбы ФАБ-500 с УМПК <b>сровняли с землей пункты управления БПЛА</b> 4-й обр БР национальной гвардии Украины.<br/><br/><tg-emoji emoji-id=\"5469903849483431273\"><i class=\"emoji\" style=\"background-image:url('//telegram.org/img/emoji/40/E296AB.png')\"><b>▫️</b></i></tg-emoji> Многоцелевые управляемые ракеты Х-39 <b>разнесли в щепки пункт временной дислокации</b> 119-й обр ТерО.<br/><br/><tg-emoji emoji-id=\"5269510734265483362\"><i class=\"emoji\" style=\"background-image:url('//telegram.org/img/emoji/40/F09F94B9.png')\"><b>🔹</b></i></tg-emoji> <a href=\"https://max.ru/morf\" target=\"_blank\" rel=\"noopener\" onclick=\"return confirm('Open this link?\\n\\n'+this.href);\">MAКС – территория СВОих</a>"}},{"type":"Feature","geometry":null,"properties":{"source":"ru_mod","source_name":"Ministry of Defence of Russia","group":"official_ru","id":67227,"posted_utc":"2026-09-11T12:30:57+00:00","link":"https://t.me/mod_russia/67227","text":"Минобороны России напоминает ❗️\n📨 Уважаемые военнослужащие и члены их семей, не поддавайтесь уловкам мошенников и не направляйте свои персональные данные и другую информацию на какие-либо адреса электронной почты.\n🖥 Проявляйте бдительность при получении писем по электронной почте, сообщений в мессенджерах, а также уведомлений от ботов и через формы обратной связи. Особое внимание уделяйте запросам, содержащим требования предоставить личные сведения.\n▫️ Не открывайте вложения и не переходите по ссылкам без подтверждения подлинности отправителя и содержания через официальные каналы связи.\n❗️ Минобороны России и его подразделения не требуют от военнослужащих предоставлять и направлять сведения с использованием сети Интернет, а используют для этих целей исключительно официальную переписку.\n#МОобъясняет\n🔹 MAКС – территория СВОих","links":["https://max.ru/morf"],"original_html":"<b>Минобороны России напоминает </b><tg-emoji emoji-id=\"5447116342148753425\"><i class=\"emoji\" style=\"background-image:url('//telegram.org/img/emoji/40/E29D97.png')\"><b>❗️</b></i></tg-emoji> <br/> <br/><i class=\"emoji\" style=\"background-image:url('//telegram.org/img/emoji/40/F09F93A8.png')\"><b>📨</b></i> Уважаемые военнослужащие и члены их семей, <b>не поддавайтесь уловкам мошенников </b>и не направляйте свои персональные данные и другую информацию на какие-либо адреса электронной почты.<br/><br/><b><tg-emoji emoji-id=\"5449528846753754177\"><i class=\"emoji\" style=\"background-image:url('//telegram.org/img/emoji/40/F09F96A5.png')\"><b>🖥</b></i></tg-emoji></b><b> Проявляйте бдительность </b>при получении писем по электронной почте, сообщений в мессенджерах, а также уведомлений от ботов и через формы обратной связи. Особое внимание уделяйте запросам, содержащим требования предоставить личные сведения.<br/><br/><b><tg-emoji emoji-id=\"5469903849483431273\"><i class=\"emoji\" style=\"background-image:url('//telegram.org/img/emoji/40/E296AB.png')\"><b>▫️</b></i></tg-emoji></b><b> Не открывайте вложения и не переходите по ссылкам</b> без подтверждения подлинности отправителя и содержания через официальные каналы связи.<br/><br/><b><tg-emoji emoji-id=\"5470085453585608671\"><i class=\"emoji\" style=\"background-image:url('//telegram.org/img/emoji/40/E29D97.png')\"><b>❗️</b></i></tg-emoji></b><b> Минобороны России и его подразделения не требуют от военнослужащих предоставлять и направлять сведения с использованием сети Интернет</b>, а используют для этих целей исключительно официальную переписку.<br/> <br/><a href=\"?q=%23%D0%9C%D0%9E%D0%BE%D0%B1%D1%8A%D1%8F%D1%81%D0%BD%D1%8F%D0%B5%D1%82\">#МОобъясняет</a><br/><tg-emoji emoji-id=\"5269510734265483362\"><i class=\"emoji\" style=\"background-image:url('//telegram.org/img/emoji/40/F09F94B9.png')\"><b>🔹</b></i></tg-emoji> <a href=\"https://max.ru/morf\" target=\"_blank\" rel=\"noopener\" onclick=\"return confirm('Open this link?\\n\\n'+this.href);\">MAКС – территория СВОих</a>"}},{"type":"Feature","geometry":null,"properties":{"source":"ru_mod","source_name":"Ministry of Defence of Russia","group":"official_ru","id":67228,"posted_utc":"2026-09-11T13:32:04+00:00","link":"https://t.me/mod_russia/67228","text":"«Мы «откидывали конвейер» по лесополосе, а потом туда двигалась пехота»\n🤝 Ни для кого не секрет, что современные танковые экипажи в основном работают с закрытых огневых позиций. И это неоценимая помощь нашим штурмовым подразделениям.\n💬 О применении этой тактики рассказал командир танковой роты с позывным «Август»:\n«Сначала мы с закрытых огневых позиций отработаем, и только потом пехота начинает заходить. При работе с десантно-штурмовым батальоном у нас так и было. Мы «откидывали конвейер» по лесополосе, а потом туда двигалась пехота».\n➡️ Стать частью танкового экипажа, чтобы вместе приближать Победу, нетрудно. Выбирай службу по контракту и присоединяйся к СВОим! Больше информации на сайте Службапоконтракту.рф и по телефону 117.\n🔹 Канал Минобороны России в MAКС – только для своих!","links":["https://clck.ru/3CW2xW","https://max.ru/morf"],"original_html":"<b>«Мы «откидывали конвейер» по лесополосе, а потом туда двигалась пехота»</b><br/><br/><tg-emoji emoji-id=\"5447324252925620983\"><i class=\"emoji\" style=\"background-image:url('//telegram.org/img/emoji/40/F09FA49D.png')\"><b>🤝</b></i></tg-emoji> Ни для кого не секрет, что современные танковые экипажи в основном работают с закрытых огневых позиций. И это неоценимая помощь нашим штурмовым подразделениям.<br/><br/><tg-emoji emoji-id=\"5447486370761176298\"><i class=\"emoji\" style=\"background-image:url('//telegram.org/img/emoji/40/F09F92AC.png')\"><b>💬</b></i></tg-emoji> О применении этой тактики рассказал командир танковой роты с позывным «Август»:<br/><br/><blockquote>«Сначала мы с закрытых огневых позиций отработаем, и только потом пехота начинает заходить. При работе с десантно-штурмовым батальоном у нас так и было. Мы «откидывали конвейер» по лесополосе, а потом туда двигалась пехота». </blockquote><br/><br/><i><tg-emoji emoji-id=\"5469902676957357453\"><i class=\"emoji\" style=\"background-image:url('//telegram.org/img/emoji/40/E29EA1.png')\"><b>➡️</b></i></tg-emoji></i><i> Стать частью танкового экипажа, чтобы вместе приближать Победу, нетрудно. Выбирай службу по контракту и присоединяйся к СВОим&#33; Больше информации на сайте </i><a href=\"https://clck.ru/3CW2xW\" target=\"_blank\" rel=\"noopener\" onclick=\"return confirm('Open this link?\\n\\n'+this.href);\"><i><u>Службапоконтракту.рф</u></i></a><i> и по телефону 117.<br/><br/></i><tg-emoji emoji-id=\"5269510734265483362\"><i class=\"emoji\" style=\"background-image:url('//telegram.org/img/emoji/40/F09F94B9.png')\"><b>🔹</b></i></tg-emoji> <a href=\"https://max.ru/morf\" target=\"_blank\" rel=\"noopener\" onclick=\"return confirm('Open this link?\\n\\n'+this.href);\">Канал Минобороны России в MAКС – только для своих&#33;</a>"}},{"type":"Feature","geometry":null,"properties":{"source":"ru_mod","source_name":"Ministry of Defence of Russia","group":"official_ru","id":67229,"posted_utc":"2026-09-11T14:36:35+00:00","link":"https://t.me/mod_russia/67229","text":"🦅  «Мы летаем лучше, и позиции у нас выгоднее»\n💬 Начальник артиллерии 1465-го мотострелкового полка с позывным «Салют» рассказал о боевой работе в Славянско-Краматорской агломерации.\nПо его словам, враг выбит со своих «насиженных» мест и вынужден откатываться назад. Инициатива полностью в наших руках.\n«До освобождения Константиновки они сидели на более выгодных рубежах. Сейчас мы летаем лучше, и позиции у нас выгоднее», – уверен «Салют».\n➡️ Присоединяйся к нашим артиллеристам, служи по контракту! Подробности на сайте Службапоконтракту.рф и по телефону 117.\n🔹 MAКС – территория СВОих","links":["https://clck.ru/3CW2xW","https://max.ru/morf"],"original_html":"<i class=\"emoji\" style=\"background-image:url('//telegram.org/img/emoji/40/F09FA685.png')\"><b>🦅</b></i>  <b>«Мы летаем лучше, и позиции у нас выгоднее»</b><br/><br/><tg-emoji emoji-id=\"5447486370761176298\"><i class=\"emoji\" style=\"background-image:url('//telegram.org/img/emoji/40/F09F92AC.png')\"><b>💬</b></i></tg-emoji> Начальник артиллерии 1465-го мотострелкового полка с позывным «Салют» рассказал о боевой работе в Славянско-Краматорской агломерации.<br/><br/>По его словам, <b>враг выбит со своих «насиженных» мест и вынужден откатываться назад.</b> Инициатива полностью в наших руках.<br/><br/><blockquote>«До освобождения Константиновки они сидели на более выгодных рубежах. Сейчас мы летаем лучше, и позиции у нас выгоднее», – уверен «Салют».  </blockquote><br/><br/><i><tg-emoji emoji-id=\"5469902676957357453\"><i class=\"emoji\" style=\"background-image:url('//telegram.org/img/emoji/40/E29EA1.png')\"><b>➡️</b></i></tg-emoji></i><i> Присоединяйся к нашим артиллеристам, служи по контракту&#33; Подробности на сайте </i><a href=\"https://clck.ru/3CW2xW\" target=\"_blank\" rel=\"noopener\" onclick=\"return confirm('Open this link?\\n\\n'+this.href);\"><u>Службапоконтракту.рф</u></a><i> и по телефону 117.<br/><br/></i><tg-emoji emoji-id=\"5269510734265483362\"><i class=\"emoji\" style=\"background-image:url('//telegram.org/img/emoji/40/F09F94B9.png')\"><b>🔹</b></i></tg-emoji> <a href=\"https://max.ru/morf\" target=\"_blank\" rel=\"noopener\" onclick=\"return confirm('Open this link?\\n\\n'+this.href);\">MAКС – территория СВОих</a>"}},{"type":"Feature","geometry":null,"properties":{"source":"ru_mod","source_name":"Ministry of Defence of Russia","group":"official_ru","id":67230,"posted_utc":"2026-09-11T15:49:59+00:00","link":"https://t.me/mod_russia/67230","text":"🔥 Заряд сверху − на головы врага\n▫️ Авиабомбами ФАБ-1500 поражен пункт временной дислокации подразделения 65-й омбр ВСУ в Орехове в Запорожской области.\n▫️ Ракеты X-39 ликвидировали пункт временной дислокации 5-го погранотряда ВСУ в Сумской области.\n✈️ Курс на MAКС!","links":["https://max.ru/morf"],"original_html":"<b><tg-emoji emoji-id=\"5449590921916082144\"><i class=\"emoji\" style=\"background-image:url('//telegram.org/img/emoji/40/F09F94A5.png')\"><b>🔥</b></i></tg-emoji></b><b> Заряд сверху − на головы врага</b><br/><br/><tg-emoji emoji-id=\"5469903849483431273\"><i class=\"emoji\" style=\"background-image:url('//telegram.org/img/emoji/40/E296AB.png')\"><b>▫️</b></i></tg-emoji> Авиабомбами ФАБ-1500 поражен пункт временной дислокации подразделения 65-й омбр ВСУ в Орехове в Запорожской области. <br/><br/><tg-emoji emoji-id=\"5469903849483431273\"><i class=\"emoji\" style=\"background-image:url('//telegram.org/img/emoji/40/E296AB.png')\"><b>▫️</b></i></tg-emoji> Ракеты X-39 ликвидировали пункт временной дислокации 5-го погранотряда ВСУ в Сумской области.<br/><br/><tg-emoji emoji-id=\"5449403034276751727\"><i class=\"emoji\" style=\"background-image:url('//telegram.org/img/emoji/40/E29C88.png')\"><b>✈️</b></i></tg-emoji> <a href=\"https://max.ru/morf\" target=\"_blank\" rel=\"noopener\" onclick=\"return confirm('Open this link?\\n\\n'+this.href);\">Курс на MAКС&#33;</a>"}},{"type":"Feature","geometry":null,"properties":{"source":"ru_mod","source_name":"Ministry of Defence of Russia","group":"official_ru","id":67231,"posted_utc":"2026-09-11T16:50:04+00:00","link":"https://t.me/mod_russia/67231","text":"Быть готовым ко всему – это база\n💬 Оператор расчёта НРТК отдельной бригады БПС группировки «Центр» Максим Тарабаев рассказал о подготовке к выполнению боевых задач.\n▫️ Перед отправкой на передовую специалисты войск БПС проходят жесткий отбор и комплексное обучение сразу на нескольких полигонах – от специализированных площадок НРТК до штурмовой и огневой подготовки. Максим подчеркивает, что без железного знания базы бойца просто не допустят к реальной работе:\n«Просто тебя не пустят: если не знаешь тактическую медицину, там будет вообще делать нечего. Если бы нас не прогоняли через эти полигоны, возможно, на боевые задачи мы и не поехали бы».\n#ВойскаБПС\n🔹 MAКС – территория СВОих","links":["https://max.ru/morf"],"original_html":"<b>Быть готовым ко всему – это база</b><br/><br/><tg-emoji emoji-id=\"5447486370761176298\"><i class=\"emoji\" style=\"background-image:url('//telegram.org/img/emoji/40/F09F92AC.png')\"><b>💬</b></i></tg-emoji> Оператор расчёта НРТК отдельной бригады БПС группировки «Центр» Максим Тарабаев<b> рассказал о подготовке</b> <b>к выполнению боевых задач.</b><br/><br/><tg-emoji emoji-id=\"5352532894478793783\"><i class=\"emoji\" style=\"background-image:url('//telegram.org/img/emoji/40/E296AB.png')\"><b>▫️</b></i></tg-emoji> Перед отправкой на передовую <b>специалисты войск БПС проходят жесткий отбор и комплексное обучение</b> сразу на нескольких полигонах – от специализированных площадок НРТК до штурмовой и огневой подготовки. Максим подчеркивает, что <b>без железного знания базы бойца просто не допустят к реальной работе</b>:<br/><br/><blockquote>«Просто тебя не пустят: если не знаешь тактическую медицину, там будет вообще делать нечего. Если бы нас не прогоняли через эти полигоны, возможно, на боевые задачи мы и не поехали бы». </blockquote><br/><br/><a href=\"?q=%23%D0%92%D0%BE%D0%B9%D1%81%D0%BA%D0%B0%D0%91%D0%9F%D0%A1\">#ВойскаБПС</a><br/><tg-emoji emoji-id=\"5269510734265483362\"><i class=\"emoji\" style=\"background-image:url('//telegram.org/img/emoji/40/F09F94B9.png')\"><b>🔹</b></i></tg-emoji> <a href=\"https://max.ru/morf\" target=\"_blank\" rel=\"noopener\" onclick=\"return confirm('Open this link?\\n\\n'+this.href);\">MAКС – территория СВОих</a>"}},{"type":"Feature","geometry":null,"properties":{"source":"ru_mod","source_name":"Ministry of Defence of Russia","group":"official_ru","id":67232,"posted_utc":"2026-09-11T17:28:25+00:00","link":"https://t.me/mod_russia/67232","text":"🎮 «Сокол» в небе – враг на прицеле\n💬 Оператор дрона-перехватчика Игорь Меслер рассказал, как расчеты БПЛА «Сокол-И» прикрывают нашу технику на Добропольском направлении.\n«Если на нас уже наводят по азимуту, по дальности, по высоте, мы уже начинаем искать. Грубо говоря, начинается охота. А там уже все просто: нашли и уничтожили».\n#ВойскаБПС\n▫️ Канал Минобороны России в MAКС – источник мощных новостей","links":["https://max.ru/morf"],"original_html":"<b><tg-emoji emoji-id=\"5449767024165154360\"><i class=\"emoji\" style=\"background-image:url('//telegram.org/img/emoji/40/F09F8EAE.png')\"><b>🎮</b></i></tg-emoji></b><b> «Сокол» в небе – враг на прицеле</b><br/><br/><tg-emoji emoji-id=\"5447486370761176298\"><i class=\"emoji\" style=\"background-image:url('//telegram.org/img/emoji/40/F09F92AC.png')\"><b>💬</b></i></tg-emoji> Оператор дрона-перехватчика Игорь Меслер рассказал, как расчеты БПЛА «Сокол-И» прикрывают нашу технику на Добропольском направлении.<br/><br/><blockquote>«Если на нас уже наводят по азимуту, по дальности, по высоте, мы уже начинаем искать. Грубо говоря, начинается охота. А там уже все просто: нашли и уничтожили». </blockquote><br/><br/><a href=\"?q=%23%D0%92%D0%BE%D0%B9%D1%81%D0%BA%D0%B0%D0%91%D0%9F%D0%A1\">#ВойскаБПС</a><br/><tg-emoji emoji-id=\"5352532894478793783\"><i class=\"emoji\" style=\"background-image:url('//telegram.org/img/emoji/40/E296AB.png')\"><b>▫️</b></i></tg-emoji> <a href=\"https://max.ru/morf\" target=\"_blank\" rel=\"noopener\" onclick=\"return confirm('Open this link?\\n\\n'+this.href);\">Канал Минобороны России в MAКС – источник мощных новостей</a>"}},{"type":"Feature","geometry":null,"properties":{"source":"ru_mod","source_name":"Ministry of Defence of Russia","group":"official_ru","id":67233,"posted_utc":"2026-09-11T17:44:28+00:00","link":"https://t.me/mod_russia/67233","text":"⚡️ В течение дня, в период с 8.00 мск до 20.00 мск, дежурными силами ПВО перехвачены и уничтожены 67 украинских беспилотных летательных аппаратов самолетного типа над территориями Белгородской, Брянской, Калужской, Курской, Орловской, Ростовской, Самарской, Тульской областей, Пермского края, Удмуртской Республики, Республики Крым и над акваторией Черного моря.\n🔹 Канал Минобороны России в MAКС – боевая работа 24/7","links":["https://max.ru/morf"],"original_html":"<i class=\"emoji\" style=\"background-image:url('//telegram.org/img/emoji/40/E29AA1.png')\"><b>⚡️</b></i> В течение дня, в период с 8.00 мск до 20.00 мск, дежурными силами ПВО <b>перехвачены и уничтожены 67 украинских беспилотных летательных аппаратов самолетного типа</b> над территориями Белгородской, Брянской, Калужской, Курской, Орловской, Ростовской, Самарской, Тульской областей, Пермского края, Удмуртской Республики, Республики Крым и над акваторией Черного моря.<br/><br/><tg-emoji emoji-id=\"5269510734265483362\"><i class=\"emoji\" style=\"background-image:url('//telegram.org/img/emoji/40/F09F94B9.png')\"><b>🔹</b></i></tg-emoji> <a href=\"https://max.ru/morf\" target=\"_blank\" rel=\"noopener\" onclick=\"return confirm('Open this link?\\n\\n'+this.href);\">Канал Минобороны России в MAКС – боевая работа 24/7</a>"}},{"type":"Feature","geometry":null,"properties":{"source":"ru_mod","source_name":"Ministry of Defence of Russia","group":"official_ru","id":67234,"posted_utc":"2026-09-11T18:04:15+00:00","link":"https://t.me/mod_russia/67234","text":"Дроны жгут дотла!\n🔥 Ударные БПЛА Новороссийских десантников уничтожили живую силу и технику ВСУ вблизи города Запорожье.\n#ВойскаБПС\n🔹 MAКС – территория СВОих","links":["https://max.ru/morf"],"original_html":"<b>Дроны жгут дотла&#33;</b><br/><br/><tg-emoji emoji-id=\"5449590921916082144\"><i class=\"emoji\" style=\"background-image:url('//telegram.org/img/emoji/40/F09F94A5.png')\"><b>🔥</b></i></tg-emoji> Ударные БПЛА Новороссийских десантников <b>уничтожили живую силу и технику ВСУ</b> вблизи города Запорожье.<br/><br/><a href=\"?q=%23%D0%92%D0%BE%D0%B9%D1%81%D0%BA%D0%B0%D0%91%D0%9F%D0%A1\">#ВойскаБПС</a><br/><tg-emoji emoji-id=\"5269510734265483362\"><i class=\"emoji\" style=\"background-image:url('//telegram.org/img/emoji/40/F09F94B9.png')\"><b>🔹</b></i></tg-emoji> <a href=\"https://max.ru/morf\" target=\"_blank\" rel=\"noopener\" onclick=\"return confirm('Open this link?\\n\\n'+this.href);\">MAКС – территория СВОих</a>"}},{"type":"Feature","geometry":null,"properties":{"source":"ru_mod","source_name":"Ministry of Defence of Russia","group":"official_ru","id":67235,"posted_utc":"2026-09-11T18:39:30+00:00","link":"https://t.me/mod_russia/67235","text":"+8\n▫️ Уверенно движемся к победе!\n#Цифра\n🔹 Минобороны России","links":["https://max.ru/morf"],"original_html":"<b>+8</b><br/><tg-emoji emoji-id=\"5352532894478793783\"><i class=\"emoji\" style=\"background-image:url('//telegram.org/img/emoji/40/E296AB.png')\"><b>▫️</b></i></tg-emoji> Уверенно движемся к победе&#33;<br/><br/><a href=\"?q=%23%D0%A6%D0%B8%D1%84%D1%80%D0%B0\">#Цифра</a><br/><tg-emoji emoji-id=\"5269510734265483362\"><i class=\"emoji\" style=\"background-image:url('//telegram.org/img/emoji/40/F09F94B9.png')\"><b>🔹</b></i></tg-emoji> <a href=\"https://max.ru/morf\" target=\"_blank\" rel=\"noopener\" onclick=\"return confirm('Open this link?\\n\\n'+this.href);\">Минобороны России</a>"}},{"type":"Feature","geometry":null,"properties":{"source":"ru_mod","source_name":"Ministry of Defence of Russia","group":"official_ru","id":67236,"posted_utc":"2026-09-11T18:54:53+00:00","link":"https://t.me/mod_russia/67236","text":"📆 Главное за день\n↗️ Только вперед: сегодня мы освободили Зоревку в Запорожской области и Новогришино в Донецкой Народной Республике.\n💥 Вам бамдероль: бьем по предприятиям промышленности, логистическим и дата-центрам, морским портам Украины, а также судам, задействованным в интересах ВСУ.\n✈️ Как по нотам: летчики ВКС России накрыли пункты управления БПЛА и позиции противника в Сумской и Запорожской областях.\n🎯 «Краснополь» точно по адресу: артиллеристы группировки «Восток» разнесли в щепки опорники ВСУ в Днепропетровской области.\n🔥 Дроны жгут дотла: ударные беспилотники уничтожили живую силу и технику ВСУ вблизи Запорожья.\n🎮 «Летаем лучше, и позиции у нас выгоднее»: начальник артиллерии мотострелкового полка рассказал о боевой работе в Славянско-Краматорской агломерации.\n▫️ Духовная опора: в 154-м отдельном комендантском Преображенском полку почтили память святого покровителя воинов благоверного князя Дмитрия Донского.\nВместе нам по плечу любые задачи!\n#ИтогиДня\n🔹 Канал Минобороны России в MAКС – боевая работа 24/7","links":["https://t.me/mod_russia/67224","https://t.me/mod_russia/67223","https://t.me/mod_russia/67220","https://t.me/mod_russia/67226","https://t.me/mod_russia/67230","https://t.me/mod_russia/67225","https://t.me/mod_russia/67234","https://t.me/mod_russia/67229","https://t.me/mod_russia/67212","https://max.ru/morf"],"original_html":"<tg-emoji emoji-id=\"5472282252048104170\"><i class=\"emoji\" style=\"background-image:url('//telegram.org/img/emoji/40/F09F9386.png')\"><b>📆</b></i></tg-emoji><b> Главное за день</b><br/> <br/><tg-emoji emoji-id=\"5352838429862296415\"><i class=\"emoji\" style=\"background-image:url('//telegram.org/img/emoji/40/E28697.png')\"><b>↗️</b></i></tg-emoji> Только вперед: сегодня мы <b>освободили</b> <a href=\"https://t.me/mod_russia/67224\" target=\"_blank\" rel=\"noopener\" onclick=\"return confirm('Open this link?\\n\\n'+this.href);\"><b>Зоревку</b></a><b> в Запорожской области и</b> <a href=\"https://t.me/mod_russia/67223\" target=\"_blank\" rel=\"noopener\" onclick=\"return confirm('Open this link?\\n\\n'+this.href);\"><b>Новогришино</b></a><b> в Донецкой Народной Республике.</b><br/><br/><tg-emoji emoji-id=\"5449682610877918293\"><i class=\"emoji\" style=\"background-image:url('//telegram.org/img/emoji/40/F09F92A5.png')\"><b>💥</b></i></tg-emoji> Вам бамдероль: <a href=\"https://t.me/mod_russia/67220\" target=\"_blank\" rel=\"noopener\" onclick=\"return confirm('Open this link?\\n\\n'+this.href);\"><b>бьем</b></a><b> по предприятиям промышленности, логистическим и дата-центрам, морским портам Украины, а также судам,</b> задействованным в интересах ВСУ.<br/><br/><tg-emoji emoji-id=\"5449403034276751727\"><i class=\"emoji\" style=\"background-image:url('//telegram.org/img/emoji/40/E29C88.png')\"><b>✈️</b></i></tg-emoji> Как по нотам: летчики ВКС России <b>накрыли пункты управления БПЛА и позиции противника</b> <b>в</b> <a href=\"https://t.me/mod_russia/67226\" target=\"_blank\" rel=\"noopener\" onclick=\"return confirm('Open this link?\\n\\n'+this.href);\"><b>Сумской</b></a><b> и</b> <a href=\"https://t.me/mod_russia/67230\" target=\"_blank\" rel=\"noopener\" onclick=\"return confirm('Open this link?\\n\\n'+this.href);\"><b>Запорожской</b></a><b> областях.</b><br/><br/><tg-emoji emoji-id=\"5467558728620341717\"><i class=\"emoji\" style=\"background-image:url('//telegram.org/img/emoji/40/F09F8EAF.png')\"><b>🎯</b></i></tg-emoji> «Краснополь» точно по адресу: артиллеристы группировки «Восток» <a href=\"https://t.me/mod_russia/67225\" target=\"_blank\" rel=\"noopener\" onclick=\"return confirm('Open this link?\\n\\n'+this.href);\"><b>разнесли</b></a><b> в щепки опорники ВСУ</b> в Днепропетровской области.<br/><br/><tg-emoji emoji-id=\"5449590921916082144\"><i class=\"emoji\" style=\"background-image:url('//telegram.org/img/emoji/40/F09F94A5.png')\"><b>🔥</b></i></tg-emoji> Дроны жгут дотла: ударные беспилотники <a href=\"https://t.me/mod_russia/67234\" target=\"_blank\" rel=\"noopener\" onclick=\"return confirm('Open this link?\\n\\n'+this.href);\"><b>уничтожили</b></a><b> живую силу и технику ВСУ</b> вблизи Запорожья.<br/><br/><tg-emoji emoji-id=\"5449767024165154360\"><i class=\"emoji\" style=\"background-image:url('//telegram.org/img/emoji/40/F09F8EAE.png')\"><b>🎮</b></i></tg-emoji> «Летаем лучше, и позиции у нас выгоднее»: начальник артиллерии мотострелкового полка <a href=\"https://t.me/mod_russia/67229\" target=\"_blank\" rel=\"noopener\" onclick=\"return confirm('Open this link?\\n\\n'+this.href);\"><b>рассказал</b></a><b> о боевой работе в Славянско-Краматорской агломерации.</b><br/><br/><tg-emoji emoji-id=\"5469903849483431273\"><i class=\"emoji\" style=\"background-image:url('//telegram.org/img/emoji/40/E296AB.png')\"><b>▫️</b></i></tg-emoji> Духовная опора: в 154-м отдельном комендантском Преображенском полку <a href=\"https://t.me/mod_russia/67212\" target=\"_blank\" rel=\"noopener\" onclick=\"return confirm('Open this link?\\n\\n'+this.href);\"><b>почтили</b></a><b> память святого покровителя воинов благоверного князя Дмитрия Донского.</b><br/><br/><b>Вместе нам по плечу любые задачи&#33;</b><br/><br/><a href=\"?q=%23%D0%98%D1%82%D0%BE%D0%B3%D0%B8%D0%94%D0%BD%D1%8F\">#ИтогиДня</a><br/><tg-emoji emoji-id=\"5269510734265483362\"><i class=\"emoji\" style=\"background-image:url('//telegram.org/img/emoji/40/F09F94B9.png')\"><b>🔹</b></i></tg-emoji> <a href=\"https://max.ru/morf\" target=\"_blank\" rel=\"noopener\" onclick=\"return confirm('Open this link?\\n\\n'+this.href);\">Канал Минобороны России в MAКС – боевая работа 24/7</a>"}},{"type":"Feature","geometry":null,"properties":{"source":"ru_mod","source_name":"Ministry of Defence of Russia","group":"official_ru","id":67212,"posted_utc":"2026-09-11T02:03:02+00:00","link":"https://t.me/mod_russia/67212","text":"Духовная опора: преображенцы почтили святого покровителя воинов\n🙏 В полковом храме Дмитрия Донского при 154-м отдельном комендантском Преображенском полку прошло особенное богослужение.\n💬 Божественную литургию отслужил отец Михаил. В своей проповеди он упомянул о частице мощей святого благоверного князя Дмитрия Донского. Отец Михаил подчеркнул, что эта святыня появилась именно в то время, когда каждому воину особенно важна духовная опора.\n🔹 MAКС – территория СВОих","links":["https://max.ru/morf"],"original_html":"<b>Духовная опора: преображенцы почтили святого покровителя воинов</b><br/><br/><i class=\"emoji\" style=\"background-image:url('//telegram.org/img/emoji/40/F09F998F.png')\"><b>🙏</b></i> В полковом храме Дмитрия Донского при 154-м отдельном комендантском Преображенском полку прошло особенное богослужение.<br/><br/><i class=\"emoji\" style=\"background-image:url('//telegram.org/img/emoji/40/F09F92AC.png')\"><b>💬</b></i> Божественную литургию отслужил отец Михаил. В своей проповеди он упомянул о частице мощей святого благоверного князя Дмитрия Донского. Отец Михаил подчеркнул, что <b>эта святыня появилась именно в то время, когда каждому воину особенно важна духовная опора.<br/><br/></b><tg-emoji emoji-id=\"5269510734265483362\"><i class=\"emoji\" style=\"background-image:url('//telegram.org/img/emoji/40/F09F94B9.png')\"><b>🔹</b></i></tg-emoji> <a href=\"https://max.ru/morf\" target=\"_blank\" rel=\"noopener\" onclick=\"return confirm('Open this link?\\n\\n'+this.href);\">MAКС – территория СВОих</a>"}},{"type":"Feature","geometry":null,"properties":{"source":"ru_mod","source_name":"Ministry of Defence of Russia","group":"official_ru","id":67215,"posted_utc":"2026-09-11T03:34:01+00:00","link":"https://t.me/mod_russia/67215","text":"ФАБрика по демонтажу ПВД противника работает без перерывов\nРасчет разведывательного БПЛА 49-й общевойсковой армии из состава группировки «Днепр» вскрыл пункт временной дислокации ВСУ и скорректировал по нему удар ФАБами.\n#ВойскаБПС\n🔹 Канал Минобороны России в MAКС – боевая работа 24/7","links":["https://max.ru/morf"],"original_html":"<b>ФАБрика по демонтажу ПВД противника работает без перерывов</b><br/><br/>Расчет разведывательного БПЛА 49-й общевойсковой армии из состава группировки «Днепр» вскрыл пункт временной дислокации ВСУ и скорректировал по нему удар ФАБами.<br/><br/><a href=\"?q=%23%D0%92%D0%BE%D0%B9%D1%81%D0%BA%D0%B0%D0%91%D0%9F%D0%A1\">#ВойскаБПС</a><br/><br/><tg-emoji emoji-id=\"5269510734265483362\"><i class=\"emoji\" style=\"background-image:url('//telegram.org/img/emoji/40/F09F94B9.png')\"><b>🔹</b></i></tg-emoji> <a href=\"https://max.ru/morf\" target=\"_blank\" rel=\"noopener\" onclick=\"return confirm('Open this link?\\n\\n'+this.href);\">Канал Минобороны России в MAКС – боевая работа 24/7</a>"}}]}