{"type":"FeatureCollection","features":[{"type":"Feature","geometry":null,"properties":{"source":"ru_mod","source_name":"Ministry of Defence of Russia","group":"official_ru","id":67300,"posted_utc":"2026-09-13T16:48:30+00:00","link":"https://t.me/mod_russia/67300","text":"Тонны брони, тысяча «лошадей» и команда, которой доверяешь себя\n🤖 Наша боевая нейронка помогла рассказать о плюсах службы в танковых войсках. Все как в жизни на все 💯\nПонравилось? На деле будет еще круче! Гайд здесь ➡️ Службапоконтракту.рф или звони 117. И ты в нашем экипаже!\n🔹 Минобороны России","links":["http://%D0%A1%D0%BB%D1%83%D0%B6%D0%B1%D0%B0%D0%BF%D0%BE%D0%BA%D0%BE%D0%BD%D1%82%D1%80%D0%B0%D0%BA%D1%82%D1%83.%D1%80%D1%84/","https://max.ru/morf"],"original_html":"<b>Тонны брони, тысяча «лошадей» и команда, которой доверяешь себя</b><br/><br/><i class=\"emoji\" style=\"background-image:url('//telegram.org/img/emoji/40/F09FA496.png')\"><b>🤖</b></i> Наша боевая нейронка помогла рассказать <b>о плюсах службы в танковых войсках</b>. Все как в жизни на все <i class=\"emoji\" style=\"background-image:url('//telegram.org/img/emoji/40/F09F92AF.png')\"><b>💯</b></i><br/><br/><b>Понравилось? На деле будет еще круче&#33;</b> Гайд здесь <tg-emoji emoji-id=\"5469902676957357453\"><i class=\"emoji\" style=\"background-image:url('//telegram.org/img/emoji/40/E29EA1.png')\"><b>➡️</b></i></tg-emoji> <a href=\"http://%D0%A1%D0%BB%D1%83%D0%B6%D0%B1%D0%B0%D0%BF%D0%BE%D0%BA%D0%BE%D0%BD%D1%82%D1%80%D0%B0%D0%BA%D1%82%D1%83.%D1%80%D1%84/\" target=\"_blank\" rel=\"noopener\">Службапоконтракту.рф</a> или звони 117. И ты в нашем экипаже&#33;<br/><br/><tg-emoji emoji-id=\"5269510734265483362\"><i class=\"emoji\" style=\"background-image:url('//telegram.org/img/emoji/40/F09F94B9.png')\"><b>🔹</b></i></tg-emoji> <a href=\"https://max.ru/morf\" target=\"_blank\" rel=\"noopener\" onclick=\"return confirm('Open this link?\\n\\n'+this.href);\">Минобороны России</a>"}},{"type":"Feature","geometry":null,"properties":{"source":"ru_mod","source_name":"Ministry of Defence of Russia","group":"official_ru","id":67310,"posted_utc":"2026-09-13T17:30:30+00:00","link":"https://t.me/mod_russia/67310","text":"⚡️ В течение дня, с 8.00 до 20.00 мск, дежурными силами ПВО перехвачены и уничтожены 140 украинских беспилотных летательных аппаратов самолетного типа над территориями Белгородской, Брянской, Калужской, Курской, Орловской, Ростовской областей, Республики Крым и над акваторией Черного моря.\n🔹 MAКС – территория СВОих","links":["https://max.ru/morf"],"original_html":"<i class=\"emoji\" style=\"background-image:url('//telegram.org/img/emoji/40/E29AA1.png')\"><b>⚡️</b></i> В течение дня, с 8.00 до 20.00 мск, дежурными силами ПВО <b>перехвачены и уничтожены 140 украинских беспилотных летательных аппаратов самолетного типа</b> над территориями Белгородской, Брянской, Калужской, Курской, Орловской, Ростовской областей, Республики Крым и над акваторией Черного моря.<br/><br/><tg-emoji emoji-id=\"5269510734265483362\"><i class=\"emoji\" style=\"background-image:url('//telegram.org/img/emoji/40/F09F94B9.png')\"><b>🔹</b></i></tg-emoji> <a href=\"https://max.ru/morf\" target=\"_blank\" rel=\"noopener\" onclick=\"return confirm('Open this link?\\n\\n'+this.href);\">MAКС – территория СВОих</a>"}},{"type":"Feature","geometry":null,"properties":{"source":"ru_mod","source_name":"Ministry of Defence of Russia","group":"official_ru","id":67311,"posted_utc":"2026-09-13T17:53:00+00:00","link":"https://t.me/mod_russia/67311","text":"Позиции противника – в огне 🔥\nТанкисты «Востока» оказывают мощную огневую поддержку штурмовым подразделениям в Запорожской области: уничтожают опорники, укреплённые позиции и пункты управления беспилотниками ВСУ.\nЭкипажи отдельно хвалят наши машины за надежную броню, живучесть и безотказную работу в любых условиях.\n💥 Канал Минобороны России в MAКС – боевая работа 24/7. Присоединяйся!","links":["https://max.ru/morf"],"original_html":"<b>Позиции противника – в огне</b> <i class=\"emoji\" style=\"background-image:url('//telegram.org/img/emoji/40/F09F94A5.png')\"><b>🔥</b></i><br/><br/>Танкисты «Востока» оказывают <b>мощную огневую поддержку штурмовым подразделениям</b> в Запорожской области: уничтожают опорники, укреплённые позиции и пункты управления беспилотниками ВСУ.<br/><br/>Экипажи <b>отдельно хвалят наши машины</b> за надежную броню, живучесть и безотказную работу в любых условиях.<br/><br/><tg-emoji emoji-id=\"5447408202356389121\"><i class=\"emoji\" style=\"background-image:url('//telegram.org/img/emoji/40/F09F92A5.png')\"><b>💥</b></i></tg-emoji> <a href=\"https://max.ru/morf\" target=\"_blank\" rel=\"noopener\" onclick=\"return confirm('Open this link?\\n\\n'+this.href);\">Канал Минобороны России в MAКС – боевая работа 24/7. Присоединяйся&#33;</a>"}},{"type":"Feature","geometry":null,"properties":{"source":"ru_mod","source_name":"Ministry of Defence of Russia","group":"official_ru","id":67312,"posted_utc":"2026-09-13T18:32:18+00:00","link":"https://t.me/mod_russia/67312","text":"🐕 Фронтовой пёс «Гав», член экипажа танка\n«Цель вижу, Гав!» – отличная работа, боец! ❤️\n🔹 Минобороны России","links":["https://max.ru/morf"],"original_html":"<i class=\"emoji\" style=\"background-image:url('//telegram.org/img/emoji/40/F09F9095.png')\"><b>🐕</b></i> <b>Фронтовой пёс «Гав», член экипажа танка</b><br/><br/><b><i>«Цель вижу, Гав&#33;»</i></b> – отличная работа, боец&#33; <i class=\"emoji\" style=\"background-image:url('//telegram.org/img/emoji/40/E29DA4.png')\"><b>❤️</b></i><br/><br/><tg-emoji emoji-id=\"5269510734265483362\"><i class=\"emoji\" style=\"background-image:url('//telegram.org/img/emoji/40/F09F94B9.png')\"><b>🔹</b></i></tg-emoji> <a href=\"https://max.ru/morf\" target=\"_blank\" rel=\"noopener\" onclick=\"return confirm('Open this link?\\n\\n'+this.href);\">Минобороны России</a>"}},{"type":"Feature","geometry":null,"properties":{"source":"ru_mod","source_name":"Ministry of Defence of Russia","group":"official_ru","id":67278,"posted_utc":"2026-09-13T10:18:33+00:00","link":"https://t.me/mod_russia/67278","text":"Челябинскому танковому вручено Боевое знамя\n🤝 Заместитель Министра обороны Российской Федерации – начальник Главного военно-политического управления ВС РФ генерал армии Виктор Горемыкин вручил Боевое знамя начальнику Челябинского высшего танкового командного училища, воссозданного в 2026 году.\n🚩 Кроме того, вузу переданы для экспонирования исторические знамена, врученные Челябинскому танкотехническому училищу и высшему танковому командному училищу в 1944 и 1968 годах.\n❗️ Расширение сети высших военно-учебных заведений проводится в рамках реализации целевой задачи по модернизации системы военного образования и подготовки офицерских кадров, поставленной Министром обороны РФ Андреем Белоусовым в ходе расширенного заседания Коллегии Министерства обороны РФ в декабре 2024 года.\n💬 Генерал армии Виктор Горемыкин подчеркнул, что возрождение Челябинского высшего танкового командного училища – это не просто открытие еще одного учебного заведения, а возвращение офицерской школы и особой системы подготовки военных кадров. Заместитель главы российского военного ведомства выразил уверенность, что Боевое знамя возрожденного Челябинского танкового училища станет надежной связующей нитью между поколениями курсантов и офицеров, которая будет вдохновлять на профессиональное мастерство и укреплять боевое товарищество.\n🔹 Канал Минобороны России в MAКС – источник мощных новостей","links":["https://chvvtku.mil.ru/","https://max.ru/morf"],"original_html":"<b>Челябинскому танковому вручено Боевое знамя</b><br/><br/><tg-emoji emoji-id=\"5447324252925620983\"><i class=\"emoji\" style=\"background-image:url('//telegram.org/img/emoji/40/F09FA49D.png')\"><b>🤝</b></i></tg-emoji> Заместитель Министра обороны Российской Федерации – начальник Главного военно-политического управления ВС РФ генерал армии Виктор Горемыкин <b>вручил Боевое знамя начальнику Челябинского высшего танкового командного училища</b>, воссозданного в 2026 году.  <br/><br/><tg-emoji emoji-id=\"5447466081335670917\"><i class=\"emoji\" style=\"background-image:url('//telegram.org/img/emoji/40/F09F9AA9.png')\"><b>🚩</b></i></tg-emoji> Кроме того, <b>вузу переданы для экспонирования исторические знамена</b>, врученные Челябинскому танкотехническому училищу и высшему танковому командному училищу в 1944 и 1968 годах.<br/><br/><tg-emoji emoji-id=\"5447116342148753425\"><i class=\"emoji\" style=\"background-image:url('//telegram.org/img/emoji/40/E29D97.png')\"><b>❗️</b></i></tg-emoji> Расширение сети высших военно-учебных заведений <b>проводится в рамках реализации целевой задачи по модернизации системы военного образования и подготовки офицерских кадров</b>, поставленной Министром обороны РФ Андреем Белоусовым в ходе расширенного заседания Коллегии Министерства обороны РФ в декабре 2024 года.<br/><br/><tg-emoji emoji-id=\"5447486370761176298\"><i class=\"emoji\" style=\"background-image:url('//telegram.org/img/emoji/40/F09F92AC.png')\"><b>💬</b></i></tg-emoji> Генерал армии Виктор Горемыкин подчеркнул, <b>что возрождение </b><a href=\"https://chvvtku.mil.ru/\" target=\"_blank\" rel=\"noopener\" onclick=\"return confirm('Open this link?\\n\\n'+this.href);\"><b>Челябинского высшего танкового командного училища</b></a><b> – это не просто открытие еще одного учебного заведения, а возвращение офицерской школы и особой системы подготовки военных кадров</b>. Заместитель главы российского военного ведомства выразил уверенность, что Боевое знамя возрожденного Челябинского танкового училища станет надежной связующей нитью между поколениями курсантов и офицеров, которая будет вдохновлять на профессиональное мастерство и укреплять боевое товарищество.<br/><br/><tg-emoji emoji-id=\"5269510734265483362\"><i class=\"emoji\" style=\"background-image:url('//telegram.org/img/emoji/40/F09F94B9.png')\"><b>🔹</b></i></tg-emoji> <a href=\"https://max.ru/morf\" target=\"_blank\" rel=\"noopener\" onclick=\"return confirm('Open this link?\\n\\n'+this.href);\">Канал Минобороны России в MAКС – источник мощных новостей</a>"}},{"type":"Feature","geometry":null,"properties":{"source":"ru_mod","source_name":"Ministry of Defence of Russia","group":"official_ru","id":67281,"posted_utc":"2026-09-13T10:31:11+00:00","link":"https://t.me/mod_russia/67281","text":"Главная ударная сила: как танкисты Руслана Курбанова меняют ход боев\n▫️ Герой России командир танкового батальона 40-й бригады морской пехоты группировки «Восток» подполковник Руслан Курбанов вместе со своим подразделением встречает профессиональный праздник на передовой. Офицер уверен: танки остаются главной ударной силой на поле боя.\n«Без танковых подразделений ничего невозможно делать, особенно прорывы глубоко эшелонированной обороны. Танковые войска доказали, что это главная ударная сила Сухопутных войск», – отмечает Руслан Курбанов.\n🔥 За плечами батальона десятки сложнейших операций. Однажды танкисты вместе со спецназом попали в окружение, но экипажи отказались бросать товарищей. Они приняли бой, который длился почти 23 часа, и уже в ночное время вышли из окружения без потерь, уничтожив много техники врага. В другой раз четкая тактика помогла застать противника врасплох: сформировав восемь колонн во главе с танками, подразделение всего за полчаса зашло два населённых пункта.\n▫️ Сегодня экипажи Курбанова продолжают выполнять задачи в зоне спецоперации. Праздник они проводят в привычной обстановке – на боевых позициях, рядом со своими машинами и надежными товарищами.\n🔹 Минобороны России","links":["https://max.ru/morf"],"original_html":"<b>Главная ударная сила: как танкисты Руслана Курбанова меняют ход боев</b><br/><br/><tg-emoji emoji-id=\"5242497442967987181\"><i class=\"emoji\" style=\"background-image:url('//telegram.org/img/emoji/40/E296AB.png')\"><b>▫️</b></i></tg-emoji> Герой России командир танкового батальона 40-й бригады морской пехоты группировки «Восток» подполковник Руслан Курбанов вместе со своим подразделением встречает профессиональный праздник на передовой. Офицер уверен: <b>танки остаются главной ударной силой на поле боя</b>.<br/><br/><blockquote>«Без танковых подразделений ничего невозможно делать, особенно прорывы глубоко эшелонированной обороны. Танковые войска доказали, что это главная ударная сила Сухопутных войск», – отмечает Руслан Курбанов.</blockquote><br/><br/><tg-emoji emoji-id=\"5449590921916082144\"><i class=\"emoji\" style=\"background-image:url('//telegram.org/img/emoji/40/F09F94A5.png')\"><b>🔥</b></i></tg-emoji> <b>За плечами батальона десятки сложнейших операций.</b> Однажды танкисты вместе со спецназом попали в окружение, но экипажи отказались бросать товарищей. Они приняли бой, который длился почти 23 часа, и уже в ночное время вышли из окружения без потерь, уничтожив много техники врага. В другой раз четкая тактика помогла застать противника врасплох: сформировав восемь колонн во главе с танками, подразделение всего за полчаса зашло два населённых пункта.<br/><br/><tg-emoji emoji-id=\"5469903849483431273\"><i class=\"emoji\" style=\"background-image:url('//telegram.org/img/emoji/40/E296AB.png')\"><b>▫️</b></i></tg-emoji> <b>Сегодня экипажи Курбанова продолжают выполнять задачи в зоне спецоперации.</b> Праздник они проводят в привычной обстановке – на боевых позициях, рядом со своими машинами и надежными товарищами.<br/><br/><tg-emoji emoji-id=\"5269510734265483362\"><i class=\"emoji\" style=\"background-image:url('//telegram.org/img/emoji/40/F09F94B9.png')\"><b>🔹</b></i></tg-emoji> <a href=\"https://max.ru/morf\" target=\"_blank\" rel=\"noopener\" onclick=\"return confirm('Open this link?\\n\\n'+this.href);\">Минобороны России</a>"}},{"type":"Feature","geometry":null,"properties":{"source":"ru_mod","source_name":"Ministry of Defence of Russia","group":"official_ru","id":67282,"posted_utc":"2026-09-13T10:52:51+00:00","link":"https://t.me/mod_russia/67282","text":"С опорой на традиции и новые технологии\n▫️ В ходе торжественных мероприятий прошел ритуал приведения к Военной присяге курсантов первого курса, а также состоялась церемония открытия памятника «Танкистам» и стелы, посвященной Челябинскому высшему танковому командному училищу.\n✅ Заместитель Министра обороны РФ генерал армии Виктор Горемыкин проверил готовность фондов и учебно-материальной базы военного училища к новому учебному году. Он осмотрел аудитории, объекты казарменно-жилищного фонда, а также встретился с профессорско-преподавательским составом и ветеранами.\n🎮 Виктору Горемыкину доложили, что среди новых специальностей, по которым в вузе осуществляется подготовка, в том числе «Применение подразделений Сухопутных войск с беспилотными летательными аппаратами». Весь профессорско-преподавательский состав и командиры подразделений имеют боевой опыт специальной военной операции.\n🔹 MAКС – территория СВОих","links":["https://max.ru/morf"],"original_html":"<b>С опорой на традиции и новые технологии</b><br/><br/><tg-emoji emoji-id=\"5447420966999193906\"><i class=\"emoji\" style=\"background-image:url('//telegram.org/img/emoji/40/E296AB.png')\"><b>▫️</b></i></tg-emoji> В ходе торжественных мероприятий прошел <b>ритуал приведения к Военной присяге</b> <b>курсантов первого курса</b>, а также состоялась <b>церемония открытия памятника «Танкистам» и стелы</b>, посвященной Челябинскому высшему танковому командному училищу.<br/><br/><tg-emoji emoji-id=\"5469909785128234267\"><i class=\"emoji\" style=\"background-image:url('//telegram.org/img/emoji/40/E29C85.png')\"><b>✅</b></i></tg-emoji> <b>Заместитель Министра обороны РФ генерал армии Виктор Горемыкин проверил готовность фондов и учебно-материальной базы военного училища</b> к новому учебному году. Он осмотрел аудитории, объекты казарменно-жилищного фонда, а также встретился с профессорско-преподавательским составом и ветеранами.<br/><br/><tg-emoji emoji-id=\"5449767024165154360\"><i class=\"emoji\" style=\"background-image:url('//telegram.org/img/emoji/40/F09F8EAE.png')\"><b>🎮</b></i></tg-emoji> <b>Виктору Горемыкину доложили, что среди новых специальностей, по которым в вузе осуществляется подготовка, в том числе «Применение подразделений Сухопутных войск с беспилотными летательными аппаратами»</b>. Весь профессорско-преподавательский состав и командиры подразделений имеют боевой опыт специальной военной операции.<br/><br/><tg-emoji emoji-id=\"5269510734265483362\"><i class=\"emoji\" style=\"background-image:url('//telegram.org/img/emoji/40/F09F94B9.png')\"><b>🔹</b></i></tg-emoji> <a href=\"https://max.ru/morf\" target=\"_blank\" rel=\"noopener\" onclick=\"return confirm('Open this link?\\n\\n'+this.href);\">MAКС – территория СВОих</a>"}},{"type":"Feature","geometry":null,"properties":{"source":"ru_mod","source_name":"Ministry of Defence of Russia","group":"official_ru","id":67283,"posted_utc":"2026-09-13T11:25:14+00:00","link":"https://t.me/mod_russia/67283","text":"Курс на будущее: бойцы вышли на связь со студентами из Иркутской области\n🎮 Военнослужащие 31-го отдельного батальона беспилотных систем провели телемост с учащимися Чунского техникума. Ребята узнали о видах БПЛА, воздушной разведке, радиоэлектронной борьбе и подготовке операторов дронов.\n🤝 Такие встречи помогают молодежи больше узнать о современных технологиях, а бойцам – почувствовать поддержку земляков.\n💬 Канал Минобороны России в MAКС – только для своих!","links":["https://max.ru/morf"],"original_html":"<b>Курс на будущее: бойцы вышли на связь со студентами из Иркутской области</b><br/><br/><tg-emoji emoji-id=\"5449767024165154360\"><i class=\"emoji\" style=\"background-image:url('//telegram.org/img/emoji/40/F09F8EAE.png')\"><b>🎮</b></i></tg-emoji> Военнослужащие 31-го отдельного батальона беспилотных систем провели телемост с учащимися Чунского техникума. Ребята узнали о видах БПЛА, воздушной разведке, радиоэлектронной борьбе и подготовке операторов дронов.<br/><br/><tg-emoji emoji-id=\"5449641465091222201\"><i class=\"emoji\" style=\"background-image:url('//telegram.org/img/emoji/40/F09FA49D.png')\"><b>🤝</b></i></tg-emoji> Такие встречи помогают молодежи больше узнать о современных технологиях, а бойцам – почувствовать поддержку земляков.<br/><br/><tg-emoji emoji-id=\"5447486370761176298\"><i class=\"emoji\" style=\"background-image:url('//telegram.org/img/emoji/40/F09F92AC.png')\"><b>💬</b></i></tg-emoji> <a href=\"https://max.ru/morf\" target=\"_blank\" rel=\"noopener\" onclick=\"return confirm('Open this link?\\n\\n'+this.href);\">Канал Минобороны России в MAКС – только для своих&#33;</a>"}},{"type":"Feature","geometry":null,"properties":{"source":"ru_mod","source_name":"Ministry of Defence of Russia","group":"official_ru","id":67284,"posted_utc":"2026-09-13T12:15:35+00:00","link":"https://t.me/mod_russia/67284","text":"Летопись продолжается\nЧелябинское высшее танковое командное училище, которое разместилось на территории бывшего Челябинского высшего военного автомобильного командно-инженерного училища имени П.А.Ротмистрова, создано в соответствии с решением Президента Российской Федерации Владимира Владимировича Путина и распоряжением Правительства Российской Федерации от 27 мая 2026 года.\n📆 Летопись училища берет свое начало в первые и самые тяжелые дни Великой Отечественной войны. Решение о его создании было принято 30 июля 1941 года, а менее чем через год в мае 1942 года состоялся первый выпуск офицеров.\n🔥 Всего за годы войны было произведено 37 выпусков и подготовлено около семи тысяч офицеров для бронетанковых войск, двадцати из них было присвоено звание Героя Советского Союза.\n▫️ Челябинское танковое училище за годы существования подготовило и воспитало около 20 тысяч офицеров, способных принимать решения, отвечать за подчиненных и выполнять поставленные задачи в самых сложных условиях. За выполнение боевых задач на Кавказе, в Сирии, а также в ходе специальной военной операции звания Героя Российской Федерации удостоены 13 выпускников училища.\nПожелаем удачи будущим офицерам-танкистам!\n💬 Канал Минобороны России в MAКС – только для своих!","links":["https://t.me/mod_russia/67282","https://max.ru/morf"],"original_html":"<b>Летопись продолжается</b><br/><br/><a href=\"https://t.me/mod_russia/67282\" target=\"_blank\" rel=\"noopener\" onclick=\"return confirm('Open this link?\\n\\n'+this.href);\"><i>Челябинское высшее танковое командное училище</i></a><i>, которое разместилось на территории бывшего Челябинского высшего военного автомобильного командно-инженерного училища имени П.А.Ротмистрова, создано в соответствии с решением Президента Российской Федерации Владимира Владимировича Путина и распоряжением Правительства Российской Федерации от 27 мая 2026 года.</i><br/><br/> <tg-emoji emoji-id=\"5472282252048104170\"><i class=\"emoji\" style=\"background-image:url('//telegram.org/img/emoji/40/F09F9386.png')\"><b>📆</b></i></tg-emoji> Летопись училища берет свое начало в первые и самые тяжелые дни Великой Отечественной войны. <b>Решение о его создании было принято 30 июля 1941 года</b>, а менее чем через год в мае 1942 года состоялся первый выпуск офицеров. <br/><br/><tg-emoji emoji-id=\"5449590921916082144\"><i class=\"emoji\" style=\"background-image:url('//telegram.org/img/emoji/40/F09F94A5.png')\"><b>🔥</b></i></tg-emoji> Всего за годы войны было произведено 37 выпусков и подготовлено около семи тысяч офицеров для бронетанковых войск, <b>двадцати из них было присвоено звание Героя Советского Союза</b>.<br/><br/> <tg-emoji emoji-id=\"5447420966999193906\"><i class=\"emoji\" style=\"background-image:url('//telegram.org/img/emoji/40/E296AB.png')\"><b>▫️</b></i></tg-emoji> Челябинское танковое училище за годы существования подготовило и воспитало <b>около 20 тысяч офицеров, способных принимать решения, отвечать за подчиненных и выполнять поставленные задачи в самых сложных условиях</b>. За выполнение боевых задач на Кавказе, в Сирии, а также в ходе специальной военной операции звания Героя Российской Федерации удостоены 13 выпускников училища.<br/><b><br/>Пожелаем удачи будущим офицерам-танкистам&#33;</b><br/><br/><tg-emoji emoji-id=\"5447486370761176298\"><i class=\"emoji\" style=\"background-image:url('//telegram.org/img/emoji/40/F09F92AC.png')\"><b>💬</b></i></tg-emoji> <a href=\"https://max.ru/morf\" target=\"_blank\" rel=\"noopener\" onclick=\"return confirm('Open this link?\\n\\n'+this.href);\">Канал Минобороны России в MAКС – только для своих&#33;</a>"}},{"type":"Feature","geometry":null,"properties":{"source":"ru_mod","source_name":"Ministry of Defence of Russia","group":"official_ru","id":67285,"posted_utc":"2026-09-13T12:37:46+00:00","link":"https://t.me/mod_russia/67285","text":"💥 Экипажи – в бою\n▫️ День танкиста экипаж Т-72Б3М встретил в самом пекле, превратив праздник в день настоящего подвига.\n🔥 Сначала парни точными ударами разнесли укрепленный узел обороны ВСУ, ликвидировав до 30 бойцов противника. Но сразу после выполнения задачи начался настоящий ад.\n▫️ Разозленный враг решил отомстить и поднял в воздух целый рой FPV-дронов. Бронемашина оказалась под плотным прицелом: беспилотники кружили над позицией один за другим, пытаясь найти уязвимую точку и уничтожить экипаж.\n▫️ В этой смертоносной дуэли наши ребята проявили железную выдержку и хладнокровие. Танкисты один за другим приземлили более 40 вражеских беспилотников, выйдя из этой схватки абсолютными победителями.\n🤝 Поздравляем наших героев с праздником и желаем больше никогда не попадать в такие переплеты!\n🔹 MAКС – территория СВОих","links":["https://max.ru/morf"],"original_html":"<tg-emoji emoji-id=\"5449682610877918293\"><i class=\"emoji\" style=\"background-image:url('//telegram.org/img/emoji/40/F09F92A5.png')\"><b>💥</b></i></tg-emoji> <b>Экипажи –</b> <b>в бою</b><br/><br/><tg-emoji emoji-id=\"5264796878809099818\"><i class=\"emoji\" style=\"background-image:url('//telegram.org/img/emoji/40/E296AB.png')\"><b>▫️</b></i></tg-emoji> День танкиста <b>экипаж Т-72Б3М встретил в самом пекле</b>, превратив праздник в день настоящего подвига.<br/><br/><tg-emoji emoji-id=\"5449590921916082144\"><i class=\"emoji\" style=\"background-image:url('//telegram.org/img/emoji/40/F09F94A5.png')\"><b>🔥</b></i></tg-emoji> Сначала <b>парни точными ударами разнесли укрепленный узел обороны ВСУ</b>, ликвидировав до 30 бойцов противника. Но сразу после выполнения задачи начался настоящий ад.<br/><br/><tg-emoji emoji-id=\"5469903849483431273\"><i class=\"emoji\" style=\"background-image:url('//telegram.org/img/emoji/40/E296AB.png')\"><b>▫️</b></i></tg-emoji> <b>Разозленный враг решил отомстить и поднял в воздух целый рой FPV-дронов</b>. Бронемашина оказалась под плотным прицелом: беспилотники кружили над позицией один за другим, пытаясь найти уязвимую точку и уничтожить экипаж.<br/><br/><tg-emoji emoji-id=\"5352532894478793783\"><i class=\"emoji\" style=\"background-image:url('//telegram.org/img/emoji/40/E296AB.png')\"><b>▫️</b></i></tg-emoji> В этой смертоносной дуэли <b>наши ребята проявили железную выдержку и хладнокровие</b>. Танкисты один за другим приземлили более 40 вражеских беспилотников, выйдя из этой схватки абсолютными победителями.<br/><br/><tg-emoji emoji-id=\"5447324252925620983\"><i class=\"emoji\" style=\"background-image:url('//telegram.org/img/emoji/40/F09FA49D.png')\"><b>🤝</b></i></tg-emoji> <b>Поздравляем наших героев с праздником</b> и желаем больше никогда не попадать в такие переплеты&#33;<br/><br/><tg-emoji emoji-id=\"5269510734265483362\"><i class=\"emoji\" style=\"background-image:url('//telegram.org/img/emoji/40/F09F94B9.png')\"><b>🔹</b></i></tg-emoji> <a href=\"https://max.ru/morf\" target=\"_blank\" rel=\"noopener\" onclick=\"return confirm('Open this link?\\n\\n'+this.href);\">MAКС – территория СВОих</a>"}},{"type":"Feature","geometry":null,"properties":{"source":"ru_mod","source_name":"Ministry of Defence of Russia","group":"official_ru","id":67286,"posted_utc":"2026-09-13T13:09:03+00:00","link":"https://t.me/mod_russia/67286","text":"События недели: мощные удары по врагу и боевая работа, традиции и социальная поддержка\n💥 Российская армия наносит массированные удары высокоточным оружием наземного и воздушного базирования, а также ударными БПЛА. Под прицелом находятся объекты ВПК, логистические центры и военные объекты в глубоком тылу противника, в том числе в Киеве и Киевской области.\n📆 В Вооруженных Силах отметили День танкиста, а воссозданному Челябинскому танковому училищу вручили Боевое знамя. Руководство ведомства пожелало воинам приумножать традиции и совершенствовать мастерство.\n🤝 В реабилитационном центре госпиталя имени П.В. Мандрыка офицерам-участникам СВО вручили дипломы о профессиональной переподготовке. Проводятся проверки организации работы военных комиссариатов и пунктов отбора на военную службу, особое внимание – на реализации социальных гарантий военнослужащих и членов семей участников СВО.\n☦️ Духовной опорой для российских военнослужащих на передовой и в тыловых районах остаются вековые православные традиции. В честь обретения мощей святого благоверного князя Димитрия Донского в воинских частях и соединениях прошли торжественные молебны.\n#СобытияНедели\n🔹 Минобороны России","links":["https://max.ru/morf"],"original_html":"<b>События недели: мощные удары по врагу и боевая работа, традиции и социальная поддержка</b><br/><br/><tg-emoji emoji-id=\"5449682610877918293\"><i class=\"emoji\" style=\"background-image:url('//telegram.org/img/emoji/40/F09F92A5.png')\"><b>💥</b></i></tg-emoji> <b>Российская армия наносит массированные удары</b> высокоточным оружием наземного и воздушного базирования, а также ударными БПЛА. Под прицелом находятся объекты ВПК, логистические центры и военные объекты в глубоком тылу противника, в том числе в Киеве и Киевской области.<br/><br/><tg-emoji emoji-id=\"5472282252048104170\"><i class=\"emoji\" style=\"background-image:url('//telegram.org/img/emoji/40/F09F9386.png')\"><b>📆</b></i></tg-emoji> <b>В Вооруженных Силах отметили День танкиста</b>, а воссозданному Челябинскому танковому училищу вручили Боевое знамя. Руководство ведомства пожелало воинам приумножать традиции и совершенствовать мастерство. <br/><br/><tg-emoji emoji-id=\"5447324252925620983\"><i class=\"emoji\" style=\"background-image:url('//telegram.org/img/emoji/40/F09FA49D.png')\"><b>🤝</b></i></tg-emoji> <b>В реабилитационном центре госпиталя имени П.В. Мандрыка офицерам-участникам СВО вручили дипломы о профессиональной переподготовке</b>. Проводятся проверки организации работы военных комиссариатов и пунктов отбора на военную службу, особое внимание – на реализации социальных гарантий военнослужащих и членов семей участников СВО. <br/><br/><i class=\"emoji\" style=\"background-image:url('//telegram.org/img/emoji/40/E298A6.png')\"><b>☦️</b></i> <b>Духовной опорой для российских военнослужащих на передовой и в тыловых районах остаются вековые православные традиции</b>. В честь обретения мощей святого благоверного князя Димитрия Донского в воинских частях и соединениях прошли торжественные молебны.<br/><br/><a href=\"?q=%23%D0%A1%D0%BE%D0%B1%D1%8B%D1%82%D0%B8%D1%8F%D0%9D%D0%B5%D0%B4%D0%B5%D0%BB%D0%B8\">#СобытияНедели</a><br/><tg-emoji emoji-id=\"5269510734265483362\"><i class=\"emoji\" style=\"background-image:url('//telegram.org/img/emoji/40/F09F94B9.png')\"><b>🔹</b></i></tg-emoji> <a href=\"https://max.ru/morf\" target=\"_blank\" rel=\"noopener\" onclick=\"return confirm('Open this link?\\n\\n'+this.href);\">Минобороны России</a>"}},{"type":"Feature","geometry":null,"properties":{"source":"ru_mod","source_name":"Ministry of Defence of Russia","group":"official_ru","id":67296,"posted_utc":"2026-09-13T14:42:31+00:00","link":"https://t.me/mod_russia/67296","text":"Стань настоящим героем в мире танков. Твой ход, будущий командир!\nДля каждого мужчины приходит время выбирать свой путь.\n▫️ Быть танкистом – это призвание для людей со стальным характером и непоколебимой волей. Танковые войска исторически остаются главным сухопутным кулаком армии, где сочетаются передовые технические достижения, огневая мощь и вековые традиции боевого братства.\n🤝 Если решил связать свою жизнь с танками, готовиться к поступлению нужно уже сейчас, с первых дней выпускного класса: подтягивай физическую форму, делай упор на профильные предметы и закаляй характер.\nВедущие военные вузы страны ждут будущих офицеров!\n▫️ Казанское высшее танковое командное училище – кузница высококлассных танковых командиров с богатейшей историей и мощной научно-технической базой.\n▫️ Челябинское высшее танковое командное училище – легендарный военный вуз, который вновь открыл свои двери для абитуриентов, чтобы готовить новые поколения офицеров-танкистов на базе лучших традиций отечественной бронетанковой школы.\n#ЕстьТакаяПрофессия\n💬 Канал Минобороны России в MAКС – только для своих!","links":["https://kvtkku.mil.ru/","https://chvvtku.mil.ru/","https://max.ru/morf"],"original_html":"<b>Стань настоящим героем в мире танков. Твой ход, будущий командир&#33;</b><br/><br/>Для каждого мужчины приходит время выбирать свой путь.<br/><br/><tg-emoji emoji-id=\"5352532894478793783\"><i class=\"emoji\" style=\"background-image:url('//telegram.org/img/emoji/40/E296AB.png')\"><b>▫️</b></i></tg-emoji> <b>Быть танкистом – это призвание для людей со стальным характером и непоколебимой волей.</b> Танковые войска исторически остаются главным сухопутным кулаком армии, где сочетаются передовые технические достижения, огневая мощь и вековые традиции боевого братства.<br/><br/><tg-emoji emoji-id=\"5447324252925620983\"><i class=\"emoji\" style=\"background-image:url('//telegram.org/img/emoji/40/F09FA49D.png')\"><b>🤝</b></i></tg-emoji> <b>Если решил связать свою жизнь с танками, готовиться к поступлению нужно уже сейчас</b>, с первых дней выпускного класса: подтягивай физическую форму, делай упор на профильные предметы и закаляй характер.<br/><br/>Ведущие военные вузы страны ждут будущих офицеров&#33;<br/><br/><tg-emoji emoji-id=\"5447420966999193906\"><i class=\"emoji\" style=\"background-image:url('//telegram.org/img/emoji/40/E296AB.png')\"><b>▫️</b></i></tg-emoji> <a href=\"https://kvtkku.mil.ru/\" target=\"_blank\" rel=\"noopener\" onclick=\"return confirm('Open this link?\\n\\n'+this.href);\">Казанское высшее танковое командное училище</a> – кузница высококлассных танковых командиров с богатейшей историей и мощной научно-технической базой.<br/><br/><tg-emoji emoji-id=\"5447420966999193906\"><i class=\"emoji\" style=\"background-image:url('//telegram.org/img/emoji/40/E296AB.png')\"><b>▫️</b></i></tg-emoji> <a href=\"https://chvvtku.mil.ru/\" target=\"_blank\" rel=\"noopener\" onclick=\"return confirm('Open this link?\\n\\n'+this.href);\">Челябинское высшее танковое командное училище</a> – легендарный военный вуз, который вновь открыл свои двери для абитуриентов, чтобы готовить новые поколения офицеров-танкистов на базе лучших традиций отечественной бронетанковой школы.<br/><br/><a href=\"?q=%23%D0%95%D1%81%D1%82%D1%8C%D0%A2%D0%B0%D0%BA%D0%B0%D1%8F%D0%9F%D1%80%D0%BE%D1%84%D0%B5%D1%81%D1%81%D0%B8%D1%8F\">#ЕстьТакаяПрофессия</a><br/><tg-emoji emoji-id=\"5447486370761176298\"><i class=\"emoji\" style=\"background-image:url('//telegram.org/img/emoji/40/F09F92AC.png')\"><b>💬</b></i></tg-emoji> <a href=\"https://max.ru/morf\" target=\"_blank\" rel=\"noopener\" onclick=\"return confirm('Open this link?\\n\\n'+this.href);\">Канал Минобороны России в MAКС – только для своих&#33;</a>"}},{"type":"Feature","geometry":null,"properties":{"source":"ru_mod","source_name":"Ministry of Defence of Russia","group":"official_ru","id":67297,"posted_utc":"2026-09-13T15:13:33+00:00","link":"https://t.me/mod_russia/67297","text":"❗️В течение дня Вооруженными Силами Российской Федерации нанесены групповые удары по предприятиям промышленности, задействованным в производстве БПЛА, логистическим центрам и складским терминалам, осуществляющим распределение и поставку военного назначения для ВСУ, а также объектам энергетики, обеспечивающим функционирование портов и объектов логистической инфраструктуры Украины.\n💥 В результате ударов высокоточным оружием воздушного базирования и ударными беспилотными летательными аппаратами поражены:\n📍 в городе Одессе:\n▫️ логистические центры «Пальма», «Raben-ukraine» и «Одесса-22», осуществляющие хранение грузов, предназначенных для обеспечения ВСУ;\n▫️ цех по производству беспилотных летательных аппаратов и комплектующих к ним, склад ракетно-артиллерийского вооружения и боеприпасов ВСУ;\n📍 в Одесской области:\n▫️ логистический центр «Новая почта», осуществляющий хранение и распределение грузов, предназначенных для обеспечения ВСУ, а также цеха по производству беспилотных летательных аппаратов в н.п. Ильичевка;\n▫️ логистический центр в н.п. Усатово и логистический центр «Блум» в н.п. Теплодар, осуществляющий хранение грузов, предназначенных для обеспечения ВСУ.\n⏩ Также поражены:\n📍 в порту «Одесса»: морское судно типа «сухогруз», доставившее грузы, предназначенные для обеспечения ВСУ;\n▫️ электроподстанции «Новая» и «Усатово», обеспечивающие функционирование портовой и логистической инфраструктуры в Одесской и Николаевской областях.\n🔥 Кроме того, продолжено нанесение ударов по объектам железнодорожной инфраструктуры в западных регионах Украины, используемым для перевозки грузов военного назначения из стран Европы.\n🔹 Минобороны России","links":["https://max.ru/morf"],"original_html":"<tg-emoji emoji-id=\"5447116342148753425\"><i class=\"emoji\" style=\"background-image:url('//telegram.org/img/emoji/40/E29D97.png')\"><b>❗️</b></i></tg-emoji>В течение дня <b>Вооруженными Силами Российской Федерации нанесены групповые удары</b> по предприятиям промышленности, задействованным в производстве БПЛА, логистическим центрам и складским терминалам, осуществляющим распределение и поставку военного назначения для ВСУ, а также объектам энергетики, обеспечивающим функционирование портов и объектов логистической инфраструктуры Украины.<br/><br/><tg-emoji emoji-id=\"5449682610877918293\"><i class=\"emoji\" style=\"background-image:url('//telegram.org/img/emoji/40/F09F92A5.png')\"><b>💥</b></i></tg-emoji> <b>В результате ударов высокоточным оружием воздушного базирования и ударными беспилотными летательными аппаратами поражены:</b><br/><br/><tg-emoji emoji-id=\"5449396879588614682\"><i class=\"emoji\" style=\"background-image:url('//telegram.org/img/emoji/40/F09F938D.png')\"><b>📍</b></i></tg-emoji> <b>в городе Одессе:</b><br/><br/><tg-emoji emoji-id=\"5469903849483431273\"><i class=\"emoji\" style=\"background-image:url('//telegram.org/img/emoji/40/E296AB.png')\"><b>▫️</b></i></tg-emoji> <b>логистические центры</b> «Пальма», «Raben-ukraine» и «Одесса-22», осуществляющие хранение грузов, предназначенных для обеспечения ВСУ;<br/><tg-emoji emoji-id=\"5469903849483431273\"><i class=\"emoji\" style=\"background-image:url('//telegram.org/img/emoji/40/E296AB.png')\"><b>▫️</b></i></tg-emoji> <b>цех по производству беспилотных летательных аппаратов</b> и комплектующих к ним, <b>склад ракетно-артиллерийского вооружения и боеприпасов ВСУ</b>;<br/><br/><tg-emoji emoji-id=\"5449396879588614682\"><i class=\"emoji\" style=\"background-image:url('//telegram.org/img/emoji/40/F09F938D.png')\"><b>📍</b></i></tg-emoji> <b>в</b> <b>Одесской области</b>:<br/><br/><tg-emoji emoji-id=\"5469903849483431273\"><i class=\"emoji\" style=\"background-image:url('//telegram.org/img/emoji/40/E296AB.png')\"><b>▫️</b></i></tg-emoji> <b>логистический центр</b> «Новая почта», осуществляющий хранение и распределение грузов, предназначенных для обеспечения ВСУ, а также <b>цеха по производству беспилотных летательных аппаратов</b> в н.п. Ильичевка;<br/><tg-emoji emoji-id=\"5469903849483431273\"><i class=\"emoji\" style=\"background-image:url('//telegram.org/img/emoji/40/E296AB.png')\"><b>▫️</b></i></tg-emoji> <b>логистический центр</b> в н.п. Усатово и <b>логистический центр</b> «Блум» в н.п. Теплодар, осуществляющий хранение грузов, предназначенных для обеспечения ВСУ. <br/><b><br/></b><b><tg-emoji emoji-id=\"5470088953983955103\"><i class=\"emoji\" style=\"background-image:url('//telegram.org/img/emoji/40/E28FA9.png')\"><b>⏩</b></i></tg-emoji></b> Также поражены:<br/><br/><tg-emoji emoji-id=\"5449396879588614682\"><i class=\"emoji\" style=\"background-image:url('//telegram.org/img/emoji/40/F09F938D.png')\"><b>📍</b></i></tg-emoji> в порту «Одесса»: <b>морское судно типа «сухогруз»</b>, доставившее грузы, предназначенные для обеспечения ВСУ;<br/><tg-emoji emoji-id=\"5469903849483431273\"><i class=\"emoji\" style=\"background-image:url('//telegram.org/img/emoji/40/E296AB.png')\"><b>▫️</b></i></tg-emoji> <b>электроподстанции</b> «Новая» и «Усатово», обеспечивающие функционирование портовой и логистической инфраструктуры в Одесской и Николаевской областях.<br/><br/><tg-emoji emoji-id=\"5449590921916082144\"><i class=\"emoji\" style=\"background-image:url('//telegram.org/img/emoji/40/F09F94A5.png')\"><b>🔥</b></i></tg-emoji> Кроме того, <b>продолжено нанесение ударов по объектам железнодорожной инфраструктуры</b> в западных регионах Украины, используемым для перевозки грузов военного назначения из стран Европы.<br/><br/><tg-emoji emoji-id=\"5269510734265483362\"><i class=\"emoji\" style=\"background-image:url('//telegram.org/img/emoji/40/F09F94B9.png')\"><b>🔹</b></i></tg-emoji> <a href=\"https://max.ru/morf\" target=\"_blank\" rel=\"noopener\" onclick=\"return confirm('Open this link?\\n\\n'+this.href);\">Минобороны России</a>"}},{"type":"Feature","geometry":null,"properties":{"source":"ru_mod","source_name":"Ministry of Defence of Russia","group":"official_ru","id":67298,"posted_utc":"2026-09-13T15:46:30+00:00","link":"https://t.me/mod_russia/67298","text":"💥 Вспахали вражеские позиции: экипажи ВКС России ударили по пунктам временной дислокации ВСУ с применением ФАБ-250.\n📍 район населенного пункта Преображенка, Запорожская область\n✈️ Канал Минобороны России в MAКС – боевая работа 24/7","links":["https://max.ru/morf"],"original_html":"<tg-emoji emoji-id=\"5449682610877918293\"><i class=\"emoji\" style=\"background-image:url('//telegram.org/img/emoji/40/F09F92A5.png')\"><b>💥</b></i></tg-emoji> <b>Вспахали вражеские позиции</b>: экипажи ВКС России ударили по пунктам временной дислокации ВСУ с применением ФАБ-250.<br/><br/><tg-emoji emoji-id=\"5449396879588614682\"><i class=\"emoji\" style=\"background-image:url('//telegram.org/img/emoji/40/F09F938D.png')\"><b>📍</b></i></tg-emoji> <i>район населенного пункта Преображенка, Запорожская область</i><br/><br/><tg-emoji emoji-id=\"5449403034276751727\"><i class=\"emoji\" style=\"background-image:url('//telegram.org/img/emoji/40/E29C88.png')\"><b>✈️</b></i></tg-emoji> <a href=\"https://max.ru/morf\" target=\"_blank\" rel=\"noopener\" onclick=\"return confirm('Open this link?\\n\\n'+this.href);\">Канал Минобороны России в MAКС – боевая работа 24/7</a>"}},{"type":"Feature","geometry":null,"properties":{"source":"ru_mod","source_name":"Ministry of Defence of Russia","group":"official_ru","id":67299,"posted_utc":"2026-09-13T16:13:07+00:00","link":"https://t.me/mod_russia/67299","text":"Работа Т-80БВМ: на полигонах СВО куется боевая мощь\n▫️ Танкисты группировки «Запад» оттачивают мастерство на полигонах в тылу СВО. Экипажи Т-80БВМ тренируют стрельбу с закрытых позиций и прямой наводкой.\n⏩ Особое внимание – слаженности, защите от БПЛА и борьбе с РЭБ. Командиры разбирают каждый выстрел, чтобы подразделения были готовы уничтожать технику и укрепления врага 24/7.\n😎 В видео специально не добавляем музыку, чтобы вы могли насладились стальным лязгом гусениц и грозным ревом турбин.\nНакидайте 🔥 в поддержку наших экипажей!\n💥 Курс на MAКС!","links":["https://max.ru/morf"],"original_html":"<b>Работа Т-80БВМ: на полигонах СВО куется боевая мощь</b><br/><br/><tg-emoji emoji-id=\"5264796878809099818\"><i class=\"emoji\" style=\"background-image:url('//telegram.org/img/emoji/40/E296AB.png')\"><b>▫️</b></i></tg-emoji> Танкисты группировки «Запад» <b>оттачивают мастерство на полигонах</b> в тылу СВО. Экипажи Т-80БВМ тренируют стрельбу с закрытых позиций и прямой наводкой.<br/><br/><tg-emoji emoji-id=\"5470088953983955103\"><i class=\"emoji\" style=\"background-image:url('//telegram.org/img/emoji/40/E28FA9.png')\"><b>⏩</b></i></tg-emoji> <b>Особое внимание – слаженности, защите от БПЛА и борьбе с РЭБ</b>. Командиры разбирают каждый выстрел, чтобы подразделения были готовы уничтожать технику и укрепления врага 24/7.<br/><br/><i class=\"emoji\" style=\"background-image:url('//telegram.org/img/emoji/40/F09F988E.png')\"><b>😎</b></i> В видео специально не добавляем музыку, <b>чтобы вы могли насладились стальным лязгом гусениц и грозным ревом турбин</b>. <br/><br/><b>Накидайте <i class=\"emoji\" style=\"background-image:url('//telegram.org/img/emoji/40/F09F94A5.png')\"><b>🔥</b></i> в поддержку наших экипажей&#33;</b><br/><br/><tg-emoji emoji-id=\"5447408202356389121\"><i class=\"emoji\" style=\"background-image:url('//telegram.org/img/emoji/40/F09F92A5.png')\"><b>💥</b></i></tg-emoji> <a href=\"https://max.ru/morf\" target=\"_blank\" rel=\"noopener\" onclick=\"return confirm('Open this link?\\n\\n'+this.href);\">Курс на MAКС&#33;</a>"}},{"type":"Feature","geometry":null,"properties":{"source":"ru_mod","source_name":"Ministry of Defence of Russia","group":"official_ru","id":67265,"posted_utc":"2026-09-13T02:01:09+00:00","link":"https://t.me/mod_russia/67265","text":"🔥 Порядок в танковых войсках! Бежит наша броня – дрожит земля и подгорает у врага.\nС Днём танкиста всех, кто держит строй в стальном боевом порядке 👊\n▫️ Канал Минобороны России в MAКС – источник мощных новостей","links":["https://max.ru/morf"],"original_html":"<tg-emoji emoji-id=\"5449590921916082144\"><i class=\"emoji\" style=\"background-image:url('//telegram.org/img/emoji/40/F09F94A5.png')\"><b>🔥</b></i></tg-emoji> <b>Порядок в танковых войсках&#33; Бежит наша броня – дрожит земля и подгорает у врага. </b><br/><br/>С Днём танкиста всех, кто держит строй в стальном боевом порядке <i class=\"emoji\" style=\"background-image:url('//telegram.org/img/emoji/40/F09F918A.png')\"><b>👊</b></i><br/><br/><tg-emoji emoji-id=\"5352532894478793783\"><i class=\"emoji\" style=\"background-image:url('//telegram.org/img/emoji/40/E296AB.png')\"><b>▫️</b></i></tg-emoji> <a href=\"https://max.ru/morf\" target=\"_blank\" rel=\"noopener\" onclick=\"return confirm('Open this link?\\n\\n'+this.href);\">Канал Минобороны России в MAКС – источник мощных новостей</a>"}},{"type":"Feature","geometry":null,"properties":{"source":"ru_mod","source_name":"Ministry of Defence of Russia","group":"official_ru","id":67267,"posted_utc":"2026-09-13T03:51:09+00:00","link":"https://t.me/mod_russia/67267","text":"💥 «Центр» гасит управление\n📍 Добропольское направление\nДроноводы группировки «Центр» скорректировали удары по пунктам управления врага и зафиксировали поражение целей.\n#ВойскаБПС\n🎮 Канал Минобороны России в MAКС – боевая работа 24/7. Присоединяйся!","links":["https://max.ru/morf"],"original_html":"<tg-emoji emoji-id=\"5449682610877918293\"><i class=\"emoji\" style=\"background-image:url('//telegram.org/img/emoji/40/F09F92A5.png')\"><b>💥</b></i></tg-emoji><b> «Центр» гасит управление</b><br/><i><br/></i><i><tg-emoji emoji-id=\"5469680584198483528\"><i class=\"emoji\" style=\"background-image:url('//telegram.org/img/emoji/40/F09F938D.png')\"><b>📍</b></i></tg-emoji></i><i> Добропольское направление </i><br/><br/>Дроноводы группировки «Центр» <b>скорректировали удары</b> по пунктам управления врага<b> и зафиксировали поражение целей.</b><br/><br/><a href=\"?q=%23%D0%92%D0%BE%D0%B9%D1%81%D0%BA%D0%B0%D0%91%D0%9F%D0%A1\">#ВойскаБПС</a><br/><tg-emoji emoji-id=\"5449767024165154360\"><i class=\"emoji\" style=\"background-image:url('//telegram.org/img/emoji/40/F09F8EAE.png')\"><b>🎮</b></i></tg-emoji> <a href=\"https://max.ru/morf\" target=\"_blank\" rel=\"noopener\" onclick=\"return confirm('Open this link?\\n\\n'+this.href);\">Канал Минобороны России в MAКС – боевая работа 24/7. Присоединяйся&#33;</a>"}},{"type":"Feature","geometry":null,"properties":{"source":"ru_mod","source_name":"Ministry of Defence of Russia","group":"official_ru","id":67268,"posted_utc":"2026-09-13T06:01:39+00:00","link":"https://t.me/mod_russia/67268","text":"❗️ В течение ночи Вооруженными Силами Российской Федерации нанесены групповые удары по логистическим центрам, через которые осуществляется поставка и распределение грузов военного назначения, а также по объектам энергетики, обеспечивающим их функционирование.\n💥 В результате ударов высокоточным оружием воздушного базирования и ударными беспилотными летательными аппаратами поражены:\n▪️ логистический центр «Новая Почта» в н.п. Нерубайское Одесской области, используемый для хранения и распределения военного имущества, предназначенного для обеспечения ВСУ;\n▪️ электроподстанции «Усатово» в г. Одессе и «Новая» в г. Николаеве, обеспечивающие функционирование портовой и логистической инфраструктуры в Одесской и Николаевской областях.\n▪️ Кроме того, поражены объекты железнодорожной инфраструктуры в западных регионах Украины, обеспечивающие перевозку военных грузов из стран Европы.\n🔹 Минобороны России","links":["https://max.ru/morf"],"original_html":"<tg-emoji emoji-id=\"5447116342148753425\"><i class=\"emoji\" style=\"background-image:url('//telegram.org/img/emoji/40/E29D97.png')\"><b>❗️</b></i></tg-emoji> В течение ночи Вооруженными Силами Российской Федерации <b>нанесены групповые удары по логистическим центрам</b>, через которые осуществляется поставка и распределение грузов военного назначения, а также <b>по объектам энергетики</b>, обеспечивающим их функционирование.<br/><br/><tg-emoji emoji-id=\"5449682610877918293\"><i class=\"emoji\" style=\"background-image:url('//telegram.org/img/emoji/40/F09F92A5.png')\"><b>💥</b></i></tg-emoji> <b>В результате ударов</b> высокоточным оружием воздушного базирования и ударными беспилотными летательными аппаратами <b>поражены</b>:<br/><br/><i class=\"emoji\" style=\"background-image:url('//telegram.org/img/emoji/40/E296AA.png')\"><b>▪️</b></i> <b>логистический центр «Новая Почта» </b>в н.п. Нерубайское Одесской области, используемый для хранения и распределения военного имущества, предназначенного для обеспечения ВСУ;<br/><b><br/><i class=\"emoji\" style=\"background-image:url('//telegram.org/img/emoji/40/E296AA.png')\"><b>▪️</b></i> электроподстанции «Усатово»</b> в г. Одессе и «Новая» в г. Николаеве, обеспечивающие функционирование портовой и логистической инфраструктуры в Одесской и Николаевской областях.<br/><br/><i class=\"emoji\" style=\"background-image:url('//telegram.org/img/emoji/40/E296AA.png')\"><b>▪️</b></i> Кроме того, поражены <b>объекты железнодорожной инфраструктуры</b> в западных регионах Украины, обеспечивающие перевозку военных грузов из стран Европы.<br/><br/><tg-emoji emoji-id=\"5269510734265483362\"><i class=\"emoji\" style=\"background-image:url('//telegram.org/img/emoji/40/F09F94B9.png')\"><b>🔹</b></i></tg-emoji> <a href=\"https://max.ru/morf\" target=\"_blank\" rel=\"noopener\" onclick=\"return confirm('Open this link?\\n\\n'+this.href);\">Минобороны России</a>"}},{"type":"Feature","geometry":null,"properties":{"source":"ru_mod","source_name":"Ministry of Defence of Russia","group":"official_ru","id":67269,"posted_utc":"2026-09-13T06:16:57+00:00","link":"https://t.me/mod_russia/67269","text":"⚡️ В течение прошедшей ночи дежурными силами ПВО перехвачены и уничтожены 389 украинских беспилотных летательных аппаратов самолетного типа над территориями Белгородской, Брянской, Волгоградской, Воронежской, Калужской, Курской, Орловской, Пензенской, Ростовской, Саратовской, Смоленской областей, Краснодарского края, Республики Крым, Республики Татарстан, Чувашской Республики и над акваториями Азовского, Черного и Каспийского морей.\n🔹 MAКС – территория СВОих","links":["https://max.ru/morf"],"original_html":"<tg-emoji emoji-id=\"5449911936361724483\"><i class=\"emoji\" style=\"background-image:url('//telegram.org/img/emoji/40/E29AA1.png')\"><b>⚡️</b></i></tg-emoji> В течение прошедшей ночи дежурными силами ПВО <b>перехвачены и уничтожены 389 украинских беспилотных летательных аппаратов самолетного типа </b>над территориями Белгородской, Брянской, Волгоградской, Воронежской, Калужской, Курской, Орловской, Пензенской, Ростовской, Саратовской, Смоленской областей, Краснодарского края, Республики Крым, Республики Татарстан, Чувашской Республики и над акваториями Азовского, Черного и Каспийского морей.<br/><br/><tg-emoji emoji-id=\"5269510734265483362\"><i class=\"emoji\" style=\"background-image:url('//telegram.org/img/emoji/40/F09F94B9.png')\"><b>🔹</b></i></tg-emoji> <a href=\"https://max.ru/morf\" target=\"_blank\" rel=\"noopener\" onclick=\"return confirm('Open this link?\\n\\n'+this.href);\">MAКС – территория СВОих</a>"}},{"type":"Feature","geometry":null,"properties":{"source":"ru_mod","source_name":"Ministry of Defence of Russia","group":"official_ru","id":67270,"posted_utc":"2026-09-13T06:59:40+00:00","link":"https://t.me/mod_russia/67270","text":"Наследники победителей в бою\n▫️ Экипажи танков Т-80БВМ 71-й гвардейской мотострелковой дивизии группировки «Север» продолжают выжигать позиции противника в Харьковской области.\n💥 Каждый выстрел – точно в цель. Командир танка с позывным «Гром» рассказал, что значит носить гордое звание гвардейца на передовой:\n«Звание гвардейцев мы стараемся подтверждать каждый день своей боевой работой, продвигаясь вперед, оттесняя нацистов. Мы воюем за спокойный сон нашего гражданского населения, за то, чтобы не посрамить честь своих героических предков, которые так же били нацизм 80 лет назад. И мы воюем в память о тех, кто посмертно получил звание Героев России, тех, кто отдал жизнь ради того, чтобы наши рубежи защитить, ради того, чтобы этих неофашистов раскатать».\n🔹 Канал Минобороны России в MAКС – боевая работа 24/7","links":["https://max.ru/morf"],"original_html":"<b>Наследники победителей в бою</b><br/><br/><tg-emoji emoji-id=\"5264796878809099818\"><i class=\"emoji\" style=\"background-image:url('//telegram.org/img/emoji/40/E296AB.png')\"><b>▫️</b></i></tg-emoji> Экипажи танков Т-80БВМ 71-й гвардейской мотострелковой дивизии группировки «Север» <b>продолжают выжигать позиции противника</b> в Харьковской области.<br/><br/><tg-emoji emoji-id=\"5449682610877918293\"><i class=\"emoji\" style=\"background-image:url('//telegram.org/img/emoji/40/F09F92A5.png')\"><b>💥</b></i></tg-emoji> <b>Каждый выстрел – точно в цель</b>. Командир танка с позывным «Гром» рассказал, что значит носить гордое звание гвардейца на передовой:<br/><br/><blockquote>«Звание гвардейцев мы стараемся подтверждать каждый день своей боевой работой, продвигаясь вперед, оттесняя нацистов. Мы воюем за спокойный сон нашего гражданского населения, за то, чтобы не посрамить честь своих героических предков, которые так же били нацизм 80 лет назад. И мы воюем в память о тех, кто посмертно получил звание Героев России, тех, кто отдал жизнь ради того, чтобы наши рубежи защитить, ради того, чтобы этих неофашистов раскатать».</blockquote><br/><br/><tg-emoji emoji-id=\"5269510734265483362\"><i class=\"emoji\" style=\"background-image:url('//telegram.org/img/emoji/40/F09F94B9.png')\"><b>🔹</b></i></tg-emoji> <a href=\"https://max.ru/morf\" target=\"_blank\" rel=\"noopener\" onclick=\"return confirm('Open this link?\\n\\n'+this.href);\">Канал Минобороны России в MAКС – боевая работа 24/7</a>"}},{"type":"Feature","geometry":null,"properties":{"source":"ru_mod","source_name":"Ministry of Defence of Russia","group":"official_ru","id":67271,"posted_utc":"2026-09-13T07:37:30+00:00","link":"https://t.me/mod_russia/67271","text":"👊 Братья танкисты! С праздником!\nНаши бойцы передают поздравления для своих товарищей, ветеранов и всех, кто связал свою жизнь с танковыми войсками.\nМужики! Спасибо за вашу смелость, силу и верность Отчизне! Все вместе – мы настоящий экипаж! ▫️\n🔹 Канал Минобороны России в MAКС – только для своих!","links":["https://max.ru/morf"],"original_html":"<b><i class=\"emoji\" style=\"background-image:url('//telegram.org/img/emoji/40/F09F918A.png')\"><b>👊</b></i> Братья танкисты&#33; С праздником&#33; <br/></b><br/>Наши бойцы передают поздравления для своих товарищей, ветеранов и всех, кто связал свою жизнь с танковыми войсками.<br/><i><br/>Мужики&#33; Спасибо за вашу смелость, силу и верность Отчизне&#33; Все вместе – мы настоящий экипаж&#33; </i><i><tg-emoji emoji-id=\"5352532894478793783\"><i class=\"emoji\" style=\"background-image:url('//telegram.org/img/emoji/40/E296AB.png')\"><b>▫️</b></i></tg-emoji></i><br/><br/><tg-emoji emoji-id=\"5269510734265483362\"><i class=\"emoji\" style=\"background-image:url('//telegram.org/img/emoji/40/F09F94B9.png')\"><b>🔹</b></i></tg-emoji> <a href=\"https://max.ru/morf\" target=\"_blank\" rel=\"noopener\" onclick=\"return confirm('Open this link?\\n\\n'+this.href);\">Канал Минобороны России в MAКС – только для своих&#33;</a>"}},{"type":"Feature","geometry":null,"properties":{"source":"ru_mod","source_name":"Ministry of Defence of Russia","group":"official_ru","id":67272,"posted_utc":"2026-09-13T07:45:36+00:00","link":"https://t.me/mod_russia/67272","text":"⚡️ Подразделения группировки войск «Север» взяли под контроль населенный пункт Черняков в Харьковской области.\nПодробнее об успехах наших войск ➡️ в MAКС","links":["https://max.ru/morf","https://max.ru/morf/AaCZx3HGHGg"],"original_html":"<i class=\"emoji\" style=\"background-image:url('//telegram.org/img/emoji/40/E29AA1.png')\"><b>⚡️</b></i> Подразделения группировки войск «Север» <b>взяли под контроль населенный пункт Черняков</b> в Харьковской области.<br/><br/>Подробнее об успехах наших войск<a href=\"https://max.ru/morf\" target=\"_blank\" rel=\"noopener\" onclick=\"return confirm('Open this link?\\n\\n'+this.href);\"> </a><tg-emoji emoji-id=\"5469902676957357453\"><i class=\"emoji\" style=\"background-image:url('//telegram.org/img/emoji/40/E29EA1.png')\"><b>➡️</b></i></tg-emoji> в <a href=\"https://max.ru/morf/AaCZx3HGHGg\" target=\"_blank\" rel=\"noopener\" onclick=\"return confirm('Open this link?\\n\\n'+this.href);\">MAКС</a>"}},{"type":"Feature","geometry":null,"properties":{"source":"ru_mod","source_name":"Ministry of Defence of Russia","group":"official_ru","id":67273,"posted_utc":"2026-09-13T08:32:19+00:00","link":"https://t.me/mod_russia/67273","text":"С именем небесного покровителя «Дмитрий Донской» на броне\n📆 Первыми Т-34-85, появившимися в боевых действиях, стали танки колонны «Димитрий Донской», созданной по инициативе Московской патриархии на пожертвования верующих. В конце 1942 года советские верующие выступили с искренней инициативой – делом поддержать армию и собрать средства на создание именной боевой техники.\n✅ Люди активно откликнулись и передали в фонд обороны личные сбережения и золото – всего свыше 8 миллионов рублей. На эти средства заводы изготовили дополнительную партию бронетехники: 19 новейших танков Т-34-85 в Горьком и 21 огнеметный ОТ-34 в Челябинске. Они и составили колонну боевых машин «Димитрий Донской».\n▫️ 8 марта 1944 года новые танки с гордой надписью «Димитрий Донской» на броне торжественно передали экипажам Красной армии. Войдя в состав регулярных полков, они прошли славный боевой путь и дошли до Берлина.\nБелый танк Т-34-85 с красной надписью «Димитрий Донской» на башне представлен в экспозиции музейного комплекса парка «Патриот». Он символизирует память о событиях войны, дань уважения колонне.\n❗️ Летом 2026 года в Архангельском соборе Кремля произошло второе обретение мощей святого князя Димитрия Донского.\n▫️ Как и в 1944 году, имя великого полководца вновь призвано укрепить дух армии: ковчег с фрагментом его десницы (правой руки), державшей меч на Куликовом поле, отправили в крестный ход прямо на линию боевого соприкосновения в зоне СВО для поддержки и духовного укрепления военнослужащих.\n🔹 Курс на MAКС!","links":["https://parkpatriot.ru/o-parke/tekhnika-parka/sredniy-tank-t-34-85-dimitriy-donskoy/","https://max.ru/morf"],"original_html":"<b>С именем небесного покровителя «Дмитрий Донской» на броне </b><br/><br/><tg-emoji emoji-id=\"5472282252048104170\"><i class=\"emoji\" style=\"background-image:url('//telegram.org/img/emoji/40/F09F9386.png')\"><b>📆</b></i></tg-emoji> <b>Первыми Т-34-85, появившимися в боевых действиях, стали танки колонны «Димитрий Донской», созданной по инициативе Московской патриархии на пожертвования верующих</b>. В конце 1942 года советские верующие выступили с искренней инициативой – делом поддержать армию и собрать средства на создание именной боевой техники.<br/><br/><tg-emoji emoji-id=\"5469909785128234267\"><i class=\"emoji\" style=\"background-image:url('//telegram.org/img/emoji/40/E29C85.png')\"><b>✅</b></i></tg-emoji> Люди активно откликнулись и передали в фонд обороны личные сбережения и золото – всего свыше 8 миллионов рублей. На эти средства заводы изготовили дополнительную партию бронетехники: <b>19 новейших танков Т-34-85 в Горьком и 21 огнеметный ОТ-34 в Челябинске. Они и составили колонну боевых машин «Димитрий Донской»</b>.<br/><br/><tg-emoji emoji-id=\"5352532894478793783\"><i class=\"emoji\" style=\"background-image:url('//telegram.org/img/emoji/40/E296AB.png')\"><b>▫️</b></i></tg-emoji> 8 марта 1944 года новые танки с гордой надписью <b>«Димитрий Донской»</b> на броне торжественно передали экипажам Красной армии. <b>Войдя в состав регулярных полков, они прошли славный боевой путь и дошли до Берлина. </b><br/><br/><i>Белый танк Т-34-85 с красной надписью «Димитрий Донской» на башне </i><a href=\"https://parkpatriot.ru/o-parke/tekhnika-parka/sredniy-tank-t-34-85-dimitriy-donskoy/\" target=\"_blank\" rel=\"noopener\" onclick=\"return confirm('Open this link?\\n\\n'+this.href);\"><i>представлен</i></a><i> в экспозиции музейного комплекса парка «Патриот». Он символизирует память о событиях войны, дань уважения колонне.</i><br/><br/><tg-emoji emoji-id=\"5447116342148753425\"><i class=\"emoji\" style=\"background-image:url('//telegram.org/img/emoji/40/E29D97.png')\"><b>❗️</b></i></tg-emoji> Летом 2026 года в Архангельском соборе Кремля произошло <b>второе обретение мощей святого князя Димитрия Донского</b>.<br/><br/><tg-emoji emoji-id=\"5352532894478793783\"><i class=\"emoji\" style=\"background-image:url('//telegram.org/img/emoji/40/E296AB.png')\"><b>▫️</b></i></tg-emoji> <b>Как и в 1944 году, имя великого полководца вновь призвано укрепить дух армии</b>: ковчег с фрагментом его десницы (правой руки), державшей меч на Куликовом поле, отправили в крестный ход прямо на линию боевого соприкосновения в зоне СВО для поддержки и духовного укрепления военнослужащих.<br/><br/><tg-emoji emoji-id=\"5269510734265483362\"><i class=\"emoji\" style=\"background-image:url('//telegram.org/img/emoji/40/F09F94B9.png')\"><b>🔹</b></i></tg-emoji> <a href=\"https://max.ru/morf\" target=\"_blank\" rel=\"noopener\" onclick=\"return confirm('Open this link?\\n\\n'+this.href);\">Курс на MAКС&#33;</a>"}},{"type":"Feature","geometry":null,"properties":{"source":"ru_mod","source_name":"Ministry of Defence of Russia","group":"official_ru","id":67276,"posted_utc":"2026-09-13T09:19:19+00:00","link":"https://t.me/mod_russia/67276","text":"Прилеты по узлам снабжения 🔥\n🎮 Расчеты БПЛА «Герань-4 сикер» поражают логистические центры в районе Николаева.\n#ВойскаБПС\n🔹 Канал Минобороны России в MAКС – боевая работа 24/7","links":["https://max.ru/morf"],"original_html":"<b>Прилеты по узлам снабжения</b> <i class=\"emoji\" style=\"background-image:url('//telegram.org/img/emoji/40/F09F94A5.png')\"><b>🔥</b></i><br/><br/><i class=\"emoji\" style=\"background-image:url('//telegram.org/img/emoji/40/F09F8EAE.png')\"><b>🎮</b></i> Расчеты БПЛА «Герань-4 сикер» <b>поражают логистические центры</b> в районе Николаева.<br/><br/><a href=\"?q=%23%D0%92%D0%BE%D0%B9%D1%81%D0%BA%D0%B0%D0%91%D0%9F%D0%A1\">#ВойскаБПС</a><br/><tg-emoji emoji-id=\"5269510734265483362\"><i class=\"emoji\" style=\"background-image:url('//telegram.org/img/emoji/40/F09F94B9.png')\"><b>🔹</b></i></tg-emoji> <a href=\"https://max.ru/morf\" target=\"_blank\" rel=\"noopener\" onclick=\"return confirm('Open this link?\\n\\n'+this.href);\">Канал Минобороны России в MAКС – боевая работа 24/7</a>"}},{"type":"Feature","geometry":null,"properties":{"source":"ru_mod","source_name":"Ministry of Defence of Russia","group":"official_ru","id":67277,"posted_utc":"2026-09-13T09:44:10+00:00","link":"https://t.me/mod_russia/67277","text":"«Всегда держишь в голове: если не ты, то кто будет другой?»\nМедалями Суворова, «За храбрость» II степени, «За боевые отличия» награжден за боевую работу командир огневого взвода РСЗО «Град» с позывным «Степь». С 2023 года он на фронте.\n«Хочется отодвинуть фронт, продвинуться вперед, чтобы по тылам, по гражданскому населению противник не мог работать. Именно это меня и мотивирует», — говорит герой.\nРассказываем об участниках СВО в 📲 MAX,  📱 ВКонтакте и в 📱 Дзен","links":["https://max.ru/heroesofZ","https://vk.com/heroes0fz","http://dzen.ru/heroesofz"],"original_html":"<i>«Всегда держишь в голове: если не ты, то кто будет другой?»</i><br/><br/>Медалями Суворова, «За храбрость» II степени, «За боевые отличия» награжден за боевую работу командир огневого взвода РСЗО «Град» с <b>позывным «Степь»</b>. С 2023 года он на фронте.<br/><br/><i>«</i>Хочется отодвинуть фронт, продвинуться вперед, чтобы по тылам, по гражданскому населению противник не мог работать. Именно это меня и мотивирует<i>»</i>, — говорит герой.<br/><br/><i>Рассказываем об участниках СВО в</i> <i><tg-emoji emoji-id=\"5449407131675558756\"><i class=\"emoji\" style=\"background-image:url('//telegram.org/img/emoji/40/F09F93B2.png')\"><b>📲</b></i></tg-emoji></i><i> </i><a href=\"https://max.ru/heroesofZ\" target=\"_blank\" rel=\"noopener\" onclick=\"return confirm('Open this link?\\n\\n'+this.href);\"><i>MAX</i></a>,<i>  </i><i><tg-emoji emoji-id=\"5334853932915114338\"><i class=\"emoji\" style=\"background-image:url('//telegram.org/img/emoji/40/F09F93B1.png')\"><b>📱</b></i></tg-emoji></i><i> </i><a href=\"https://vk.com/heroes0fz\" target=\"_blank\" rel=\"noopener\" onclick=\"return confirm('Open this link?\\n\\n'+this.href);\"><i>ВКонтакте</i></a> <i>и в </i><i><tg-emoji emoji-id=\"5321533581472842536\"><i class=\"emoji\" style=\"background-image:url('//telegram.org/img/emoji/40/F09F93B1.png')\"><b>📱</b></i></tg-emoji></i><i> </i><a href=\"http://dzen.ru/heroesofz\" target=\"_blank\" rel=\"noopener\" onclick=\"return confirm('Open this link?\\n\\n'+this.href);\"><i>Дзен</i></a>"}}]}