{"type":"FeatureCollection","features":[{"type":"Feature","geometry":null,"properties":{"source":"ua_mod","source_name":"Ministry of Defence of Ukraine","group":"official_ua","id":16088,"posted_utc":"2026-08-25T09:09:57+00:00","link":"https://t.me/ministry_of_defense_ua/16088","text":"🤝 ППО, українські дрони й ракети, далекобійні артилерійські боєприпаси — серед першочергових потреб Сил оборони.\nЦі пріоритети заступник Міністра оборони Сергій Боєв обговорив із делегацією європейських парламентарів United for Ukraine (U4U). Партнери підтвердили, що подальша військова підтримка України залишається пріоритетом для Європи.\nОкремо йшлося про масштабування українського оборонно-промислового комплексу в 2026–2027 роках. Йдеться про фінансування виробників безпілотних систем, Ukraine Support Loan, Build with Ukraine, Drone Deal і спільне виробництво.\nУкраїна має отримати більше зброї для фронту. Європа – перевірені війною технології та зміцнення власної оборони.","links":["https://mod.gov.ua/news/ukraina-ta-yevropeiski-parlamentari-obhovoryly-pershocherhovi-oboronni-potreby-pidtrymku-opk-i-win-win-partnerstva?utm_source=mod-telegram&utm_medium=social"],"original_html":"<b><i class=\"emoji\" style=\"background-image:url('//telegram.org/img/emoji/40/F09FA49D.png')\"><b>🤝</b></i></b> <b>ППО, українські дрони й ракети, далекобійні артилерійські боєприпаси — серед першочергових потреб Сил оборони.<br/></b><br/>Ці пріоритети заступник Міністра оборони Сергій Боєв <a href=\"https://mod.gov.ua/news/ukraina-ta-yevropeiski-parlamentari-obhovoryly-pershocherhovi-oboronni-potreby-pidtrymku-opk-i-win-win-partnerstva?utm_source=mod-telegram&amp;amp;utm_medium=social\" target=\"_blank\" rel=\"noopener\" onclick=\"return confirm('Open this link?\\n\\n'+this.href);\">обговорив із делегацією європейських парламентарів United for Ukraine (U4U)</a>. Партнери підтвердили, що подальша військова підтримка України залишається пріоритетом для Європи.<br/><br/>Окремо йшлося про масштабування українського оборонно-промислового комплексу в 2026–2027 роках. Йдеться про фінансування виробників безпілотних систем, Ukraine Support Loan, Build with Ukraine, Drone Deal і спільне виробництво.<br/><br/>Україна має отримати більше зброї для фронту. Європа – перевірені війною технології та зміцнення власної оборони."}},{"type":"Feature","geometry":null,"properties":{"source":"ua_mod","source_name":"Ministry of Defence of Ukraine","group":"official_ua","id":16089,"posted_utc":"2026-08-25T11:21:47+00:00","link":"https://t.me/ministry_of_defense_ua/16089","text":"✅ Вперше Агенція оборонних закупівель ДОТ проводить тендер на закупівлю НРК за єдиними технічними вимогами Міноборони.\nЗакуповуються наземні роботизовані комплекси двох типів: логістичні та ударні.\n• Комплекси поділені на класи за дальністю роботи та вагою вантажу\n• У кожному класі буде 4-5 окремих лотів\n• Виробник не зможе отримати понад половину замовлення в одному класі\nДо участь у тендері запрошуються виробники та постачальники, які мають щонайменше один кодифікований комплекс.","links":["https://mod.gov.ua/news/vpershe-oholosheno-tender-na-zakupivliu-nrk-za-vyznachenymy-minoborony-kharakterystykamy?utm_source=mod-telegram&utm_medium=social"],"original_html":"<b><i class=\"emoji\" style=\"background-image:url('//telegram.org/img/emoji/40/E29C85.png')\"><b>✅</b></i></b> <b>Вперше Агенція оборонних закупівель ДОТ проводить </b><a href=\"https://mod.gov.ua/news/vpershe-oholosheno-tender-na-zakupivliu-nrk-za-vyznachenymy-minoborony-kharakterystykamy?utm_source=mod-telegram&amp;amp;utm_medium=social\" target=\"_blank\" rel=\"noopener\" onclick=\"return confirm('Open this link?\\n\\n'+this.href);\"><b>тендер на закупівлю НРК</b></a><b> за єдиними технічними вимогами Міноборони.<br/></b> <br/>Закуповуються наземні роботизовані комплекси двох типів: логістичні та ударні.<br/><br/>• Комплекси поділені на класи за дальністю роботи та вагою вантажу<br/>• У кожному класі буде 4-5 окремих лотів<br/>• Виробник не зможе отримати понад половину замовлення в одному класі<br/> <br/>До участь у тендері запрошуються виробники та постачальники, які мають щонайменше один кодифікований комплекс."}},{"type":"Feature","geometry":null,"properties":{"source":"ua_mod","source_name":"Ministry of Defence of Ukraine","group":"official_ua","id":16090,"posted_utc":"2026-08-25T14:05:06+00:00","link":"https://t.me/ministry_of_defense_ua/16090","text":"🔥 Сили оборони продовжують завдавати збитків паливно-мастильному комплексу рф.\nВночі було уражено Афіпський НПЗ, одне з великих нафтопереробних підприємств Краснодарського краю.\nЗавод виробляє дизель, бензинові компоненти та задіяний у забезпеченні російської окупаційної армії. Його потужність становить 6,25 млн тонн нафти на рік.\nУкраїнські далекобійні санкції стають болючішими, а черги на російських АЗС –буденністю.","links":[],"original_html":"<b><i class=\"emoji\" style=\"background-image:url('//telegram.org/img/emoji/40/F09F94A5.png')\"><b>🔥</b></i> Сили оборони продовжують завдавати збитків паливно-мастильному комплексу рф.<br/></b><br/>Вночі було уражено Афіпський НПЗ, одне з великих нафтопереробних підприємств Краснодарського краю.<br/><br/>Завод виробляє дизель, бензинові компоненти та задіяний у забезпеченні російської окупаційної армії. Його потужність становить 6,25 млн тонн нафти на рік.<br/><br/>Українські далекобійні санкції стають болючішими, а черги на російських АЗС –буденністю."}},{"type":"Feature","geometry":null,"properties":{"source":"ua_mod","source_name":"Ministry of Defence of Ukraine","group":"official_ua","id":16091,"posted_utc":"2026-08-25T15:25:37+00:00","link":"https://t.me/ministry_of_defense_ua/16091","text":"☣️ В Армія+ з’явився новий курс про захист здоров’я під час служби.\nУ п’яти модулях курсу «Захист здоров’я: ВІЛ, гепатити й туберкульоз» пояснюють:\n• як знизити ризик інфікування в повсякденних і польових умовах;\n• як діяти після ризикованого контакту;\n• коли й де тестуватися на ВІЛ і вірусні гепатити;\n• як працюють доконтактна та постконтактна профілактика ВІЛ;\n• як захиститися від гепатиту В за допомогою вакцинації;\n• як сьогодні лікують ВІЛ, гепатит С і туберкульоз.\nКурс вже доступний у розділі «Навчання» в Армія+\n🔗 Більше про курс","links":["https://mod.gov.ua/news/yak-zakhystytysia-vid-vil-hepatytiv-i-tuberkulozu-v-armiia-zapustyly-novyi-kurs?utm_source=mod-telegram&utm_medium=social"],"original_html":"<b><i class=\"emoji\" style=\"background-image:url('//telegram.org/img/emoji/40/E298A3.png')\"><b>☣️</b></i></b> <b>В Армія+ з’явився новий курс про захист здоров’я під час служби</b>.<b><br/></b><br/>У п’яти модулях курсу «Захист здоров’я: ВІЛ, гепатити й туберкульоз» пояснюють:<br/><br/>• як знизити ризик інфікування в повсякденних і польових умовах;<br/>• як діяти після ризикованого контакту;<br/>• коли й де тестуватися на ВІЛ і вірусні гепатити;<br/>• як працюють доконтактна та постконтактна профілактика ВІЛ;<br/>• як захиститися від гепатиту В за допомогою вакцинації;<br/>• як сьогодні лікують ВІЛ, гепатит С і туберкульоз.<br/><br/><i>Курс вже доступний у розділі «Навчання» в Армія+</i><u><br/></u><br/><i class=\"emoji\" style=\"background-image:url('//telegram.org/img/emoji/40/F09F9497.png')\"><b>🔗</b></i> <a href=\"https://mod.gov.ua/news/yak-zakhystytysia-vid-vil-hepatytiv-i-tuberkulozu-v-armiia-zapustyly-novyi-kurs?utm_source=mod-telegram&amp;amp;utm_medium=social\" target=\"_blank\" rel=\"noopener\" onclick=\"return confirm('Open this link?\\n\\n'+this.href);\"><b>Більше про курс</b></a>"}},{"type":"Feature","geometry":null,"properties":{"source":"ua_mod","source_name":"Ministry of Defence of Ukraine","group":"official_ua","id":16092,"posted_utc":"2026-08-25T16:45:34+00:00","link":"https://t.me/ministry_of_defense_ua/16092","text":"❗️ Виплати при самовільному залишенні частини та після повернення до служби –  Міноборони відповідає на поширені запитання.\n• Що відбувається з грошовим забезпеченням під час СЗЧ?\n• Чи блокують рахунки і картки військовослужбовця в СЗЧ?\n• Чи виплатять гроші за час відсутності після повернення на службу?\n• Коли саме поновлюють виплати?\n• Що буде з «бойовими» після повернення?\n• Чи блокує виплати кримінальне провадження через СЗЧ?\n• Що робити, якщо військовий повернувся до частини, а виплати не поновили?\n🔗 Читайте відповіді тут","links":["https://mod.gov.ua/explanation/vyplaty-hroshovoho-zabezpechennia-pry-szch-vidpovidaiemo-na-holovne?utm_source=mod-telegram&utm_medium=social"],"original_html":"<i class=\"emoji\" style=\"background-image:url('//telegram.org/img/emoji/40/E29D97.png')\"><b>❗️</b></i> <b>Виплати при самовільному залишенні частини та після повернення до служби –&nbsp; Міноборони відповідає на поширені запитання.</b><br/><br/>• Що відбувається з грошовим забезпеченням під час СЗЧ?<br/>• Чи блокують рахунки і картки військовослужбовця в СЗЧ?<br/>• Чи виплатять гроші за час відсутності після повернення на службу?<br/>• Коли саме поновлюють виплати?<br/>• Що буде з «бойовими» після повернення?<br/>• Чи блокує виплати кримінальне провадження через СЗЧ?<br/>• Що робити, якщо військовий повернувся до частини, а виплати не поновили?<br/><br/><i class=\"emoji\" style=\"background-image:url('//telegram.org/img/emoji/40/F09F9497.png')\"><b>🔗</b></i><b> </b><a href=\"https://mod.gov.ua/explanation/vyplaty-hroshovoho-zabezpechennia-pry-szch-vidpovidaiemo-na-holovne?utm_source=mod-telegram&amp;amp;utm_medium=social\" target=\"_blank\" rel=\"noopener\" onclick=\"return confirm('Open this link?\\n\\n'+this.href);\"><b>Читайте відповіді тут</b></a>"}}]}