{"type":"FeatureCollection","features":[{"type":"Feature","geometry":{"type":"MultiPolygon","coordinates":[[[[37.91785,48.81009],[37.90716,48.83304],[37.91665,48.83982],[37.92794,48.83903],[37.93255,48.81936],[37.92994,48.81732],[37.92891,48.81154],[37.91785,48.81009]]],[[[37.83834,48.75767],[37.82501,48.75655],[37.81858,48.76232],[37.83502,48.77946],[37.84205,48.78353],[37.84788,48.77545],[37.83656,48.77833],[37.83553,48.77748],[37.84206,48.76999],[37.85184,48.76668],[37.85104,48.76079],[37.83897,48.76487],[37.83207,48.76554],[37.83326,48.76266],[37.83685,48.76226],[37.84443,48.75444],[37.8347,48.75206],[37.83834,48.75767]]],[[[37.80337,48.56441],[37.80335,48.57228],[37.81583,48.5755],[37.81937,48.57173],[37.81391,48.56694],[37.81298,48.56464],[37.80337,48.56441]]],[[[37.78449,48.65666],[37.78182,48.67337],[37.79317,48.67884],[37.78719,48.68968],[37.78741,48.68984],[37.79663,48.67942],[37.80546,48.68008],[37.81171,48.66552],[37.80027,48.66385],[37.78724,48.65643],[37.79026,48.64731],[37.79,48.64719],[37.78449,48.65666]]],[[[37.79593,48.54892],[37.79597,48.54703],[37.77708,48.54451],[37.777,48.54499],[37.79593,48.54892]]],[[[37.79379,48.55941],[37.78792,48.55863],[37.78729,48.56035],[37.79048,48.56062],[37.79215,48.56285],[37.79198,48.56395],[37.79565,48.56424],[37.79576,48.5583],[37.79379,48.55941]]],[[[37.71349,49.10756],[37.71511,49.10711],[37.71419,49.10263],[37.71406,49.10264],[37.71349,49.10756]]],[[[37.62395,48.52551],[37.63977,48.52626],[37.64949,48.50816],[37.66469,48.50368],[37.64657,48.5002],[37.64252,48.50773],[37.62842,48.50675],[37.62035,48.49756],[37.62395,48.52551]]],[[[37.60757,48.45797],[37.61994,48.45962],[37.62839,48.46541],[37.62216,48.48564],[37.63337,48.47508],[37.63848,48.45063],[37.61203,48.4434],[37.60452,48.44228],[37.60757,48.45797]]],[[[37.61537,48.48823],[37.61181,48.49237],[37.61357,48.4944],[37.6192,48.49703],[37.61934,48.49679],[37.61511,48.49355],[37.62216,48.48564],[37.61537,48.48823]]],[[[37.24994,48.45529],[37.24667,48.45979],[37.27444,48.46839],[37.28121,48.47303],[37.29887,48.47602],[37.30784,48.47472],[37.29578,48.46988],[37.28533,48.46848],[37.27719,48.46406],[37.26933,48.45705],[37.24994,48.45529]]],[[[37.22362,48.41956],[37.22514,48.41616],[37.23265,48.41675],[37.23748,48.41507],[37.23461,48.41115],[37.23973,48.41116],[37.24056,48.40383],[37.21555,48.40169],[37.21549,48.40205],[37.22433,48.40423],[37.22274,48.40678],[37.20268,48.4079],[37.19619,48.40675],[37.18939,48.40997],[37.18932,48.41589],[37.20126,48.41477],[37.22362,48.41956]]],[[[37.03353,48.25878],[37.04557,48.2538],[37.05071,48.25503],[37.05076,48.2549],[37.04609,48.25208],[37.04633,48.24976],[37.04049,48.24664],[37.03835,48.24438],[37.01808,48.24175],[37.01252,48.25993],[37.03353,48.25878]]]]},"properties":{"source":"deepstate","source_name":"DeepStateMap","source_url":"https://deepstatemap.live/en","category":"gained","category_label":"Russian advance: became occupied","period":"7d","compared_with":"2026-09-07","snapshot_time":"2026-09-14","area_km2_approx":33.3}},{"type":"Feature","geometry":{"type":"Polygon","coordinates":[[[37.70954,49.08555],[37.68743,49.08744],[37.68088,49.09154],[37.6758,49.10077],[37.67295,49.11451],[37.68088,49.1271],[37.69865,49.13671],[37.71633,49.13088],[37.70963,49.1193],[37.707,49.10598],[37.71074,49.09533],[37.71548,49.08874],[37.71468,49.08879],[37.71548,49.08874],[37.71663,49.08715],[37.70954,49.08555]]]},"properties":{"source":"deepstate","source_name":"DeepStateMap","source_url":"https://deepstatemap.live/en","category":"lost","category_label":"Ukrainian advance: became Ukrainian-held","period":"7d","compared_with":"2026-09-07","snapshot_time":"2026-09-14","area_km2_approx":12.5}},{"type":"Feature","geometry":{"type":"MultiPolygon","coordinates":[[[[37.79576,48.5583],[37.7981,48.55698],[37.79683,48.5491],[37.79593,48.54892],[37.79576,48.5583]]],[[[37.70763,49.1092],[37.70963,49.1193],[37.71553,49.12951],[37.72408,49.13326],[37.74528,49.13003],[37.74525,49.12968],[37.73232,49.12945],[37.72086,49.12788],[37.71739,49.12017],[37.71288,49.11284],[37.71349,49.10756],[37.70763,49.1092]]],[[[37.71548,49.08874],[37.71074,49.09533],[37.70862,49.10135],[37.7103,49.10157],[37.71411,49.10225],[37.72225,49.09333],[37.72157,49.08839],[37.71548,49.08874]]]]},"properties":{"source":"deepstate","source_name":"DeepStateMap","source_url":"https://deepstatemap.live/en","category":"occupied_to_contested","category_label":"Occupied became contested","period":"7d","compared_with":"2026-09-07","snapshot_time":"2026-09-14","area_km2_approx":2.6}},{"type":"Feature","geometry":{"type":"MultiPolygon","coordinates":[[[[37.82085,48.76946],[37.82753,48.77888],[37.82774,48.77877],[37.82333,48.76759],[37.81532,48.76805],[37.81531,48.76824],[37.82085,48.76946]]],[[[37.79296,48.57562],[37.80192,48.57617],[37.80068,48.57249],[37.79169,48.57054],[37.79296,48.57562]]],[[[37.77712,48.56706],[37.78785,48.56693],[37.78914,48.56258],[37.78848,48.56045],[37.78729,48.56035],[37.78792,48.55865],[37.78664,48.55453],[37.77381,48.55156],[37.76997,48.56266],[37.77712,48.56706]]],[[[37.76499,48.66928],[37.77945,48.67763],[37.78091,48.68788],[37.7879,48.6763],[37.78182,48.67337],[37.78393,48.66019],[37.75682,48.65954],[37.76499,48.66928]]],[[[37.61836,48.5391],[37.62138,48.5512],[37.62567,48.55733],[37.64094,48.55736],[37.64042,48.5481],[37.65311,48.54169],[37.64318,48.53904],[37.64086,48.53251],[37.62359,48.52745],[37.60645,48.51663],[37.61836,48.5391]]],[[[37.17779,48.41063],[37.18869,48.40974],[37.18983,48.40366],[37.17911,48.40322],[37.17779,48.41063]]],[[[37.16875,48.42158],[37.18746,48.42227],[37.18678,48.4148],[37.17117,48.41501],[37.16875,48.42158]]],[[[37.02924,48.32868],[37.03028,48.34094],[37.03525,48.33165],[37.04606,48.32054],[37.04601,48.32047],[37.02924,48.32868]]]]},"properties":{"source":"deepstate","source_name":"DeepStateMap","source_url":"https://deepstatemap.live/en","category":"ukrainian_to_contested","category_label":"Ukrainian-held became contested","period":"7d","compared_with":"2026-09-07","snapshot_time":"2026-09-14","area_km2_approx":13.5}}]}