{"type":"FeatureCollection","features":[{"type":"Feature","geometry":{"type":"Point","coordinates":[29.862888,50.623618]},"properties":{"source":"geoconfirmed","source_name":"GeoConfirmed","source_url":"https://geoconfirmed.org/map/ukraine","id":"b2a4025c-60e9-4be0-ae63-01e3e877cac8","date":"2026-09-21","link":"https://geoconfirmed.org/map/ukraine/b2a4025c-60e9-4be0-ae63-01e3e877cac8","category":"Video - Always Point of View in description - In the colour of who is doing the attack or is responsable for the incident in the video.","side":"Russia","color":"#E00000","description":"Point of view in northeast direction - Black smoke plume visible in the distance following a reported Russian attack.","orbat":[],"geolocation":["https://x.com/giK1893/status/2102027778455384362"],"sources":["https://x.com/giK1893/status/2102027775578161318","https://t.me/kievinfo_kyiv/98988","https://t.me/k_dvizh/80236"]}},{"type":"Feature","geometry":{"type":"Point","coordinates":[30.327475,50.190105]},"properties":{"source":"geoconfirmed","source_name":"GeoConfirmed","source_url":"https://geoconfirmed.org/map/ukraine","id":"07357483-cecb-48a1-9ed8-08078f33c016","date":"2026-09-21","link":"https://geoconfirmed.org/map/ukraine/07357483-cecb-48a1-9ed8-08078f33c016","category":"Recently destroyed/Damaged[Visible in footage] or still burning infrastucture","side":"Neutral","color":"#AC7339","description":"Smoke plumes coming from a damaged house following a reported Russian attack. The house adjacent is on fire.","orbat":[],"geolocation":["https://x.com/giK1893/status/2102146683190624413"],"sources":["https://x.com/giK1893/status/2102146679583481918","https://t.me/dsns_telegram/75341"]}},{"type":"Feature","geometry":{"type":"Point","coordinates":[36.422908,50.487525]},"properties":{"source":"geoconfirmed","source_name":"GeoConfirmed","source_url":"https://geoconfirmed.org/map/ukraine","id":"d01bf7f8-bc85-46fd-bd5f-0fdb55682b4e","date":"2026-09-21","link":"https://geoconfirmed.org/map/ukraine/d01bf7f8-bc85-46fd-bd5f-0fdb55682b4e","category":"Short Range (<50km) OWAD (One Way Attack Drone), mostly rotary wing, Flying OR Attacking a target without knowing the outcome: if something is damaged --> icon of the damaged equipment.","side":"Ukraine","color":"#0051CA","description":"0:43-0:45 - Ukrainian 3rd SOF Hornet drone attacks Transport","orbat":["Ukrainian Special Operations Forces (SSO)"],"geolocation":["https://x.com/neonhandrail/status/2102131223909048818"],"sources":["https://x.com/NOELreports/status/2102002503843782770","https://x.com/3sofua/status/2102020020670697802"]}},{"type":"Feature","geometry":{"type":"Point","coordinates":[29.944709,46.356748]},"properties":{"source":"geoconfirmed","source_name":"GeoConfirmed","source_url":"https://geoconfirmed.org/map/ukraine","id":"9940639f-7799-48c2-a1bc-18c1493fd760","date":"2026-09-21","link":"https://geoconfirmed.org/map/ukraine/9940639f-7799-48c2-a1bc-18c1493fd760","category":"Longe Range (>50km) OWAD (One Way Attack Drone) or Loitering munition, mostly fixed wing, Flying OR Attacking a target without knowing the outcome: if something is damaged --> icon of the damaged equipment.","side":"Russia","color":"#E00000","description":"0:00-0:04 - Reported strike on a Radar by a seeker Geran drone.","orbat":[],"geolocation":["https://x.com/Brokenarrow42/status/2101721719551529118"],"sources":["https://x.com/Brokenarrow42/status/2101721758973690183","https://t.me/warhistoryalconafter/284916?single"]}},{"type":"Feature","geometry":{"type":"Point","coordinates":[36.385979,50.454241]},"properties":{"source":"geoconfirmed","source_name":"GeoConfirmed","source_url":"https://geoconfirmed.org/map/ukraine","id":"a8ed6081-d696-46f0-a981-197a0ea0ed61","date":"2026-09-21","link":"https://geoconfirmed.org/map/ukraine/a8ed6081-d696-46f0-a981-197a0ea0ed61","category":"Short Range (<50km) OWAD (One Way Attack Drone), mostly rotary wing, Flying OR Attacking a target without knowing the outcome: if something is damaged --> icon of the damaged equipment.","side":"Ukraine","color":"#0051CA","description":"0:35-0:37 - Ukrainian 3rd SOF Regiment targets logistics transport trucks  at a poultry plant","orbat":["Ukrainian Special Operations Forces (SSO)"],"geolocation":["https://x.com/neonhandrail/status/2102038947027407335"],"sources":["https://x.com/NOELreports/status/2102002503843782770","https://x.com/3sofua/status/2102020020670697802"]}},{"type":"Feature","geometry":{"type":"Point","coordinates":[30.327335,50.19028]},"properties":{"source":"geoconfirmed","source_name":"GeoConfirmed","source_url":"https://geoconfirmed.org/map/ukraine","id":"5849e58b-0f3c-4159-890d-1c7bd0da4d50","date":"2026-09-21","link":"https://geoconfirmed.org/map/ukraine/5849e58b-0f3c-4159-890d-1c7bd0da4d50","category":"Recently destroyed/Damaged[Visible in footage] or still burning infrastucture","side":"Neutral","color":"#AC7339","description":"A house on fire following a reported Russian attack.","orbat":[],"geolocation":["https://x.com/giK1893/status/2102146683190624413"],"sources":["https://x.com/giK1893/status/2102146679583481918","https://t.me/dsns_telegram/75341"]}},{"type":"Feature","geometry":{"type":"Point","coordinates":[37.529082,48.609319]},"properties":{"source":"geoconfirmed","source_name":"GeoConfirmed","source_url":"https://geoconfirmed.org/map/ukraine","id":"55bfb82f-fa64-4f7d-9a16-27aa67abac34","date":"2026-09-21","link":"https://geoconfirmed.org/map/ukraine/55bfb82f-fa64-4f7d-9a16-27aa67abac34","category":"Killed or wounded civilian. Potential Warcrime. In the colour of who is assessed as doing the attack/killing.","side":"Russia","color":"#E00000","description":"1:25 - Ukrainian soldier from the Mobile Assault Unit \"Kurt & Company\" filmed a deceased civilian","orbat":["Mobile Assault Unit \"Kurt & Company\""],"geolocation":["https://x.com/99Dominik_/status/2101953639929536828"],"sources":["https://x.com/99Dominik_/status/2101953959866810388","https://t.me/kurt_compani_group/880"]}},{"type":"Feature","geometry":{"type":"Point","coordinates":[27.788332,50.558042]},"properties":{"source":"geoconfirmed","source_name":"GeoConfirmed","source_url":"https://geoconfirmed.org/map/ukraine","id":"99d06b0f-3c94-4b0b-a120-2a7c1a8de2d6","date":"2026-09-21","link":"https://geoconfirmed.org/map/ukraine/99d06b0f-3c94-4b0b-a120-2a7c1a8de2d6","category":"Recently destroyed/Damaged[Visible in footage] or still burning infrastucture","side":"Neutral","color":"#AC7339","description":"Russian Shahed hit Ukrainian WOG gas station in Bronyky, Zhytomyr","orbat":[],"geolocation":["https://x.com/giK1893/status/2101968973185044623"],"sources":["https://x.com/giK1893/status/2101968973185044623","https://t.me/lviv_golovne/43425","https://t.me/zhitomir_zhytomir/33546"]}},{"type":"Feature","geometry":{"type":"Point","coordinates":[37.0645,48.5391]},"properties":{"source":"geoconfirmed","source_name":"GeoConfirmed","source_url":"https://geoconfirmed.org/map/ukraine","id":"6b22a693-cc65-4f7f-b8df-2bfd158cd287","date":"2026-09-21","link":"https://geoconfirmed.org/map/ukraine/6b22a693-cc65-4f7f-b8df-2bfd158cd287","category":"Shelling by artillery or aerial bombings - Location of the shelling, colour of who is shelling; Brown = UXO","side":"Russia","color":"#E00000","description":"0:15-0:34 - Russian Airstrike (rough area grid)","orbat":["reported as \"15th Reconnaissance Battalion of ther National guard\""],"geolocation":["https://x.com/Brokenarrow42/status/2101714720696721629","https://x.com/Volodimyrovich_/status/2101748415776313839"],"sources":["https://x.com/Volodimyrovich_/status/2101741799211495446","https://x.com/Brokenarrow42/status/2101714819120263464","https://t.me/The_Wrong_Side/31206"]}},{"type":"Feature","geometry":{"type":"Point","coordinates":[37.802468,48.56974]},"properties":{"source":"geoconfirmed","source_name":"GeoConfirmed","source_url":"https://geoconfirmed.org/map/ukraine","id":"f978cbfa-ee93-4d57-b3a0-2e6ecfbb3daf","date":"2026-09-21","link":"https://geoconfirmed.org/map/ukraine/f978cbfa-ee93-4d57-b3a0-2e6ecfbb3daf","category":"Multipurpose Bomber Drone, Flying OR Dropping OR bombing a target without knowing the outcome: if something is damaged --> icon of the damaged equipment.","side":"Ukraine","color":"#0051CA","description":"0:25-0:28 - The 24th Separate Mechanized Brigade blows up a Russian-held dugout in Chervone with a presumed Heavy Shot Drone-dropped TM-62.","orbat":["24th Mechanized Brigade"],"geolocation":["https://x.com/AudaxonX/status/2102784004118524371"],"sources":["https://x.com/AudaxonX/status/2102783992915427740","https://t.me/official24ombr/2691"]}},{"type":"Feature","geometry":{"type":"Point","coordinates":[36.742764,46.852436]},"properties":{"source":"geoconfirmed","source_name":"GeoConfirmed","source_url":"https://geoconfirmed.org/map/ukraine","id":"cb5b48a9-3250-46a4-ac43-2f2ba5941310","date":"2026-09-21","link":"https://geoconfirmed.org/map/ukraine/cb5b48a9-3250-46a4-ac43-2f2ba5941310","category":"Short Range (<50km) OWAD (One Way Attack Drone), mostly rotary wing, Flying OR Attacking a target without knowing the outcome: if something is damaged --> icon of the damaged equipment.","side":"Ukraine","color":"#0051CA","description":"0:07 -0:09 - Ukrainian 3rd SOF Hornet drone attacks truck","orbat":["Ukrainian Special Operations Forces (SSO)"],"geolocation":["https://x.com/neonhandrail/status/2102105903499760077"],"sources":["https://x.com/NOELreports/status/2102002503843782770","https://x.com/3sofua/status/2102020020670697802"]}},{"type":"Feature","geometry":{"type":"Point","coordinates":[37.759402,48.573717]},"properties":{"source":"geoconfirmed","source_name":"GeoConfirmed","source_url":"https://geoconfirmed.org/map/ukraine","id":"212c37e1-32f4-4e53-b6a6-3779bf748e79","date":"2026-09-21","link":"https://geoconfirmed.org/map/ukraine/212c37e1-32f4-4e53-b6a6-3779bf748e79","category":"Civilian or Soldier or Militant (Depending on the colour)","side":"Russia","color":"#E00000","description":"0:05-0:06 - The 24th Separate Mechanized Brigade observes Russian soldiers entering a dugout near Podilske from the south.","orbat":["24th Mechanized Brigade"],"geolocation":["https://x.com/AudaxonX/status/2102783996706857274"],"sources":["https://x.com/AudaxonX/status/2102783992915427740","https://t.me/official24ombr/2691"]}},{"type":"Feature","geometry":{"type":"Point","coordinates":[37.790934,48.563752]},"properties":{"source":"geoconfirmed","source_name":"GeoConfirmed","source_url":"https://geoconfirmed.org/map/ukraine","id":"79698981-ee40-4b44-986c-3fb3a27fcb5d","date":"2026-09-21","link":"https://geoconfirmed.org/map/ukraine/79698981-ee40-4b44-986c-3fb3a27fcb5d","category":"Short Range (<50km) OWAD (One Way Attack Drone), mostly rotary wing, Flying OR Attacking a target without knowing the outcome: if something is damaged --> icon of the damaged equipment.","side":"Ukraine","color":"#0051CA","description":"1:03-1:08 - Rough location - The 24th Separate Mechanized Brigade blows up a presumed Russian-held dugout in Chervone with a presumed Vampire Drone-dropped TM-62.","orbat":["24th Mechanized Brigade"],"geolocation":["https://x.com/AudaxonX/status/2102784012200890375"],"sources":["https://x.com/AudaxonX/status/2102783992915427740","https://t.me/official24ombr/2691"]}},{"type":"Feature","geometry":{"type":"Point","coordinates":[35.79357,53.368821]},"properties":{"source":"geoconfirmed","source_name":"GeoConfirmed","source_url":"https://geoconfirmed.org/map/ukraine","id":"25ce0955-a1f1-4c12-8810-40e4b51bbadf","date":"2026-09-21","link":"https://geoconfirmed.org/map/ukraine/25ce0955-a1f1-4c12-8810-40e4b51bbadf","category":"Recently destroyed/Damaged[Visible in footage] or still burning infrastucture","side":"Russia","color":"#E00000","description":"Impact on a bunker.","orbat":[],"geolocation":["https://x.com/anno1540/status/2102087221410934991","https://t.me/absolutely_reliable/118"],"sources":["https://x.com/anno1540/status/2102087221410934991","https://t.me/absolutely_reliable/118","https://www.pravda.com.ua/eng/news/2026/09/21/8054488/","https://x.com/GeneralStaffUA/status/2102314456835670050","https://t.me/GeneralStaffZSU/42326"]}},{"type":"Feature","geometry":{"type":"Point","coordinates":[36.855869,46.932205]},"properties":{"source":"geoconfirmed","source_name":"GeoConfirmed","source_url":"https://geoconfirmed.org/map/ukraine","id":"f1e7c73e-94a2-4b5b-986d-47a34928d56d","date":"2026-09-21","link":"https://geoconfirmed.org/map/ukraine/f1e7c73e-94a2-4b5b-986d-47a34928d56d","category":"Short Range (<50km) OWAD (One Way Attack Drone), mostly rotary wing, Flying OR Attacking a target without knowing the outcome: if something is damaged --> icon of the damaged equipment.","side":"Ukraine","color":"#0051CA","description":"0:22-0:24 - Russian convoy of five trucks targeted by Ukrainian Hornet drone of the 3rd Separate Special Purpose Regiment.","orbat":["3rd Separate Special Purpose Regiment"],"geolocation":["https://x.com/neonhandrail/status/2102751246054830546"],"sources":["https://x.com/NOELreports/status/2102002503843782770"]}},{"type":"Feature","geometry":{"type":"Point","coordinates":[35.174247,47.818169]},"properties":{"source":"geoconfirmed","source_name":"GeoConfirmed","source_url":"https://geoconfirmed.org/map/ukraine","id":"b92c1e7a-8e12-496d-a988-487e96da756e","date":"2026-09-21","link":"https://geoconfirmed.org/map/ukraine/b92c1e7a-8e12-496d-a988-487e96da756e","category":"Recently destroyed/Damaged[Visible in footage] or still burning infrastucture","side":"Neutral","color":"#AC7339","description":"Destroyed building of Intrade Shopping mall (Zaporizhzhia) following a reported Russian strike.","orbat":[],"geolocation":["https://x.com/Volodimyrovich_/status/2101836741728424348","https://x.com/zarGEOINT/status/2101899869191274496"],"sources":["https://x.com/Volodimyrovich_/status/2101907539675738316","https://x.com/zarGEOINT/status/2101897749625029110","https://t.me/truexazaporozie/70265"]}},{"type":"Feature","geometry":{"type":"Point","coordinates":[35.231765,47.78631]},"properties":{"source":"geoconfirmed","source_name":"GeoConfirmed","source_url":"https://geoconfirmed.org/map/ukraine","id":"bc2b16d0-fd3f-4d8f-b9d2-4b900c34efc1","date":"2026-09-21","link":"https://geoconfirmed.org/map/ukraine/bc2b16d0-fd3f-4d8f-b9d2-4b900c34efc1","category":"Killed or wounded civilian. Potential Warcrime. In the colour of who is assessed as doing the attack/killing.","side":"Russia","color":"#E00000","description":"Woman injured by Russian FPV drone attack","orbat":[],"geolocation":["https://x.com/99Dominik_/status/2102015430063697922"],"sources":["https://x.com/99Dominik_/status/2102015676265251081","https://t.me/eyes_everywhere_ua/148136"]}},{"type":"Feature","geometry":{"type":"Point","coordinates":[36.387652,50.452802]},"properties":{"source":"geoconfirmed","source_name":"GeoConfirmed","source_url":"https://geoconfirmed.org/map/ukraine","id":"0e13f53b-5f3c-4239-b06c-4fd104d79c69","date":"2026-09-21","link":"https://geoconfirmed.org/map/ukraine/0e13f53b-5f3c-4239-b06c-4fd104d79c69","category":"Short Range (<50km) OWAD (One Way Attack Drone), mostly rotary wing, Flying OR Attacking a target without knowing the outcome: if something is damaged --> icon of the damaged equipment.","side":"Ukraine","color":"#0051CA","description":"0:12-0:14 - Ukrainian 3rd SOF Regiment targets logistics transport trucks  at a poultry plant","orbat":["Ukrainian Special Operations Forces (SSO)"],"geolocation":["https://x.com/neonhandrail/status/2102038947027407335"],"sources":["https://x.com/NOELreports/status/2102002503843782770","https://x.com/3sofua/status/2102020020670697802"]}},{"type":"Feature","geometry":{"type":"Point","coordinates":[35.204983,46.84233]},"properties":{"source":"geoconfirmed","source_name":"GeoConfirmed","source_url":"https://geoconfirmed.org/map/ukraine","id":"b5508bd9-7285-4009-b958-62ad68eae8a3","date":"2026-09-21","link":"https://geoconfirmed.org/map/ukraine/b5508bd9-7285-4009-b958-62ad68eae8a3","category":"Short Range (<50km) OWAD (One Way Attack Drone), mostly rotary wing, Flying OR Attacking a target without knowing the outcome: if something is damaged --> icon of the damaged equipment.","side":"Ukraine","color":"#0051CA","description":"0:26 -0:29 - Ukrainian 3rd SOF Hornet drone strike on Van","orbat":["Ukrainian Special Operations Forces (SSO)"],"geolocation":["https://x.com/neonhandrail/status/2102094109901308038"],"sources":["https://x.com/NOELreports/status/2102002503843782770","https://x.com/3sofua/status/2102020020670697802"]}},{"type":"Feature","geometry":{"type":"Point","coordinates":[35.79483,53.37157]},"properties":{"source":"geoconfirmed","source_name":"GeoConfirmed","source_url":"https://geoconfirmed.org/map/ukraine","id":"6136b934-097b-455a-9086-632362fe2a84","date":"2026-09-21","link":"https://geoconfirmed.org/map/ukraine/6136b934-097b-455a-9086-632362fe2a84","category":"Recently destroyed/Damaged[Visible in footage] or still burning infrastucture","side":"Russia","color":"#E00000","description":"Impact on a bunker.","orbat":[],"geolocation":["https://x.com/anno1540/status/2102087221410934991","https://t.me/absolutely_reliable/118"],"sources":["https://x.com/anno1540/status/2102087221410934991","https://t.me/absolutely_reliable/118","https://www.pravda.com.ua/eng/news/2026/09/21/8054488/","https://x.com/GeneralStaffUA/status/2102314456835670050","https://t.me/GeneralStaffZSU/42326"]}},{"type":"Feature","geometry":{"type":"Point","coordinates":[37.689666,48.577567]},"properties":{"source":"geoconfirmed","source_name":"GeoConfirmed","source_url":"https://geoconfirmed.org/map/ukraine","id":"2b6f23b9-395e-444e-930d-6680c399c938","date":"2026-09-21","link":"https://geoconfirmed.org/map/ukraine/2b6f23b9-395e-444e-930d-6680c399c938","category":"Short Range (<50km) OWAD (One Way Attack Drone), mostly rotary wing, Flying OR Attacking a target without knowing the outcome: if something is damaged --> icon of the damaged equipment.","side":"Ukraine","color":"#0051CA","description":"0:42-0:48 - The 24th Separate Mechanized Brigade hits a presumed Russian-held bunker near Izhevka with an FPV drone.","orbat":["24th Mechanized Brigade"],"geolocation":["https://x.com/AudaxonX/status/2102784008085975391"],"sources":["https://x.com/AudaxonX/status/2102783992915427740","https://t.me/official24ombr/2691"]}},{"type":"Feature","geometry":{"type":"Point","coordinates":[34.752125,51.069627]},"properties":{"source":"geoconfirmed","source_name":"GeoConfirmed","source_url":"https://geoconfirmed.org/map/ukraine","id":"9a12c91e-de7a-480c-bb63-692fcbb03773","date":"2026-09-21","link":"https://geoconfirmed.org/map/ukraine/9a12c91e-de7a-480c-bb63-692fcbb03773","category":"Shelling by artillery or aerial bombings - Location of the shelling, colour of who is shelling; Brown = UXO","side":"Russia","color":"#E00000","description":"0:05 - area grid - A FAB-1500 UMPK airstrike occurred at the claimed position of a UAV launcher of the 158th Separate Mechanized Brigade of the Ukrainian","orbat":["Russian Aerospace Forces (VKS)","158th Mechanized Brigade"],"geolocation":["https://x.com/juss_men/status/2102025300586438951"],"sources":["https://x.com/juss_men/status/2102025639582687551","https://t.me/The_Wrong_Side/31217"]}},{"type":"Feature","geometry":{"type":"Point","coordinates":[35.18113,47.81841]},"properties":{"source":"geoconfirmed","source_name":"GeoConfirmed","source_url":"https://geoconfirmed.org/map/ukraine","id":"235aeca1-ac13-4bd4-a32e-7028cfc9e318","date":"2026-09-21","link":"https://geoconfirmed.org/map/ukraine/235aeca1-ac13-4bd4-a32e-7028cfc9e318","category":"Recently destroyed/Damaged[Visible in footage] or still burning infrastucture","side":"Neutral","color":"#AC7339","description":"Russian strike destroyed Zaporizhzhia National University","orbat":[],"geolocation":["https://x.com/zarGEOINT/status/2101903464334860776"],"sources":["https://x.com/ShaunPinnerUA/status/2101900244933910559"]}},{"type":"Feature","geometry":{"type":"Point","coordinates":[36.387272,50.453318]},"properties":{"source":"geoconfirmed","source_name":"GeoConfirmed","source_url":"https://geoconfirmed.org/map/ukraine","id":"cf8c737e-8ad8-4a95-baa7-76495d2db108","date":"2026-09-21","link":"https://geoconfirmed.org/map/ukraine/cf8c737e-8ad8-4a95-baa7-76495d2db108","category":"Short Range (<50km) OWAD (One Way Attack Drone), mostly rotary wing, Flying OR Attacking a target without knowing the outcome: if something is damaged --> icon of the damaged equipment.","side":"Ukraine","color":"#0051CA","description":"0:16-0:18 - Ukrainian 3rd SOF Regiment targets logistics transport trucks  at a poultry plant","orbat":["Ukrainian Special Operations Forces (SSO)"],"geolocation":["https://x.com/neonhandrail/status/2102038947027407335"],"sources":["https://x.com/NOELreports/status/2102002503843782770","https://x.com/3sofua/status/2102020020670697802"]}},{"type":"Feature","geometry":{"type":"Point","coordinates":[30.326455,50.189117]},"properties":{"source":"geoconfirmed","source_name":"GeoConfirmed","source_url":"https://geoconfirmed.org/map/ukraine","id":"a05f64ff-d051-4dca-a679-80c3d9ffa922","date":"2026-09-21","link":"https://geoconfirmed.org/map/ukraine/a05f64ff-d051-4dca-a679-80c3d9ffa922","category":"Video - Always Point of View in description - In the colour of who is doing the attack or is responsable for the incident in the video.","side":"Russia","color":"#E00000","description":"Point of view in north east direction -  Fire in a residential area following a reported Russian attack.","orbat":[],"geolocation":["https://x.com/giK1893/status/2102146687020003658"],"sources":["https://x.com/giK1893/status/2102146687020003658","https://t.me/Vasylkiv_Vasilkov/26662","https://x.com/giK1893/status/2102146679583481918"]}},{"type":"Feature","geometry":{"type":"Point","coordinates":[34.837384,50.905794]},"properties":{"source":"geoconfirmed","source_name":"GeoConfirmed","source_url":"https://geoconfirmed.org/map/ukraine","id":"05114fcb-dac8-464a-aa2a-83f39fea500c","date":"2026-09-21","link":"https://geoconfirmed.org/map/ukraine/05114fcb-dac8-464a-aa2a-83f39fea500c","category":"Killed or wounded civilian. Potential Warcrime. In the colour of who is assessed as doing the attack/killing.","side":"Russia","color":"#E00000","description":"A reported Russian FPV drone killed a woman and injured her husband.","orbat":[],"geolocation":["https://x.com/99Dominik_/status/2101980501103788054"],"sources":["https://x.com/99Dominik_/status/2101980787427983379","https://t.me/police_su_region/40603","https://x.com/99Dominik_/status/2101981059877376181","https://t.me/kordonmedia/27553","https://x.com/99Dominik_/status/2101984084939415988","https://t.me/kordonmedia/27569"]}},{"type":"Feature","geometry":{"type":"Point","coordinates":[34.172734,47.41399]},"properties":{"source":"geoconfirmed","source_name":"GeoConfirmed","source_url":"https://geoconfirmed.org/map/ukraine","id":"78e0fbed-cd9a-4c6a-86c8-a3754b12454d","date":"2026-09-21","link":"https://geoconfirmed.org/map/ukraine/78e0fbed-cd9a-4c6a-86c8-a3754b12454d","category":"Shelling by artillery or aerial bombings - Location of the shelling, colour of who is shelling; Brown = UXO","side":"Ukraine","color":"#0051CA","description":"A Ukrainian MiG-29 fighter jet precisely destroys a claimed enemy field command post using a guided aerial bomb.","orbat":["Ukrainian Air Force"],"geolocation":["https://x.com/Zeldamices/status/2101946654987374963"],"sources":["https://x.com/Zeldamices/status/2101947480036266248","https://t.me/soniah_hub/18296","https://t.me/WarArchive_ua/38439"]}},{"type":"Feature","geometry":{"type":"Point","coordinates":[34.659856,47.637864]},"properties":{"source":"geoconfirmed","source_name":"GeoConfirmed","source_url":"https://geoconfirmed.org/map/ukraine","id":"5392990d-c084-4437-8fd2-ac6f16765d0e","date":"2026-09-21","link":"https://geoconfirmed.org/map/ukraine/5392990d-c084-4437-8fd2-ac6f16765d0e","category":"Recently destroyed/Damaged[Visible in footage] or still burning infrastucture","side":"Neutral","color":"#AC7339","description":"Damage at a store  in  Marhanets' following a reported Russian strike.","orbat":[],"geolocation":["https://x.com/dsm3rt/status/2101975833543897280"],"sources":["https://x.com/dsm3rt/status/2101975921355817241","https://t.me/huevuy_mn/123486"]}},{"type":"Feature","geometry":{"type":"Point","coordinates":[37.4465,48.606611]},"properties":{"source":"geoconfirmed","source_name":"GeoConfirmed","source_url":"https://geoconfirmed.org/map/ukraine","id":"2ac0381d-3b6f-4500-a88c-badc9b069dee","date":"2026-09-21","link":"https://geoconfirmed.org/map/ukraine/2ac0381d-3b6f-4500-a88c-badc9b069dee","category":"Shelling by artillery or aerial bombings - Location of the shelling, colour of who is shelling; Brown = UXO","side":"Russia","color":"#E00000","description":"0:00-0:14 - Russian Airstrike (area grid)","orbat":["117th Heavy Mechanized Brigade"],"geolocation":["https://x.com/Volodimyrovich_/status/2101741623096779164","https://x.com/Brokenarrow42/status/2101711816673898636"],"sources":["https://x.com/Volodimyrovich_/status/2101741799211495446","https://x.com/Brokenarrow42/status/2101711890116157797","https://t.me/The_Wrong_Side/31206"]}},{"type":"Feature","geometry":{"type":"Point","coordinates":[34.760468,51.069884]},"properties":{"source":"geoconfirmed","source_name":"GeoConfirmed","source_url":"https://geoconfirmed.org/map/ukraine","id":"90855918-fadc-44ae-9e56-c10ec4149af9","date":"2026-09-21","link":"https://geoconfirmed.org/map/ukraine/90855918-fadc-44ae-9e56-c10ec4149af9","category":"Shelling by artillery or aerial bombings - Location of the shelling, colour of who is shelling; Brown = UXO","side":"Russia","color":"#E00000","description":"0:03 - area grid - A FAB-1500 UMPK airstrike occurred at the claimed position of a UAV launcher of the 158th Separate Mechanized Brigade of the Ukrainian","orbat":["Russian Aerospace Forces (VKS)","158th Mechanized Brigade"],"geolocation":["https://x.com/juss_men/status/2102025300586438951"],"sources":["https://x.com/juss_men/status/2102025639582687551","https://t.me/The_Wrong_Side/31217"]}},{"type":"Feature","geometry":{"type":"Point","coordinates":[36.390539,50.436916]},"properties":{"source":"geoconfirmed","source_name":"GeoConfirmed","source_url":"https://geoconfirmed.org/map/ukraine","id":"a5fa6c3c-05ed-4074-817d-c154ae1fb838","date":"2026-09-21","link":"https://geoconfirmed.org/map/ukraine/a5fa6c3c-05ed-4074-817d-c154ae1fb838","category":"Short Range (<50km) OWAD (One Way Attack Drone), mostly rotary wing, Flying OR Attacking a target without knowing the outcome: if something is damaged --> icon of the damaged equipment.","side":"Ukraine","color":"#0051CA","description":"0:52-0:57 - Ukrainian 3rd Regiment SOF Hornet Drone attacks Russian block post/vehicle","orbat":["Ukrainian Special Operations Forces (SSO)"],"geolocation":["https://x.com/neonhandrail/status/2102131223909048818"],"sources":["https://x.com/NOELreports/status/2102002503843782770","https://x.com/3sofua/status/2102020020670697802"]}},{"type":"Feature","geometry":{"type":"Point","coordinates":[37.536139,48.601361]},"properties":{"source":"geoconfirmed","source_name":"GeoConfirmed","source_url":"https://geoconfirmed.org/map/ukraine","id":"af976a52-821e-44ce-b358-c35eb04ddf8b","date":"2026-09-21","link":"https://geoconfirmed.org/map/ukraine/af976a52-821e-44ce-b358-c35eb04ddf8b","category":"Shelling by artillery or aerial bombings - Location of the shelling, colour of who is shelling; Brown = UXO","side":"Russia","color":"#E00000","description":"0:15-end - A FAB-1500 UMPK airstrike occurred at the claimed position of a UAV launcher of the 156th Mechanized Brigade, Druzhkivka, Donetsk region.","orbat":["Russian Aerospace Forces (VKS)","156th Mechanized Brigade"],"geolocation":["https://x.com/Volodimyrovich_/status/2102038117515468854"],"sources":["https://x.com/juss_men/status/2102025639582687551","https://t.me/The_Wrong_Side/31217"]}},{"type":"Feature","geometry":{"type":"Point","coordinates":[37.90894,49.962797]},"properties":{"source":"geoconfirmed","source_name":"GeoConfirmed","source_url":"https://geoconfirmed.org/map/ukraine","id":"28ccead0-8bf1-4bfe-848d-daa4bfe4772e","date":"2026-09-21","link":"https://geoconfirmed.org/map/ukraine/28ccead0-8bf1-4bfe-848d-daa4bfe4772e","category":"Recently Destroyed/Damaged[Visible in footage] Logistical Trucks (Soft skin OR armoured)","side":"Russia","color":"#E00000","description":"0:12-0:31 - A truck loaded with reported gas cylinders was hit by Drone Battalion “Hatilo”.","orbat":["Drone Battalion “Hatilo”"],"geolocation":["https://x.com/MikiValbuena/status/2102281559923405175"],"sources":["https://x.com/MikiValbuena/status/2102281565510283516","https://www.instagram.com/reel/DdiP0ykBhL9"]}},{"type":"Feature","geometry":{"type":"Point","coordinates":[37.607894,48.730322]},"properties":{"source":"geoconfirmed","source_name":"GeoConfirmed","source_url":"https://geoconfirmed.org/map/ukraine","id":"2453d972-e488-40ae-b7a9-e3db7e4199a1","date":"2026-09-21","link":"https://geoconfirmed.org/map/ukraine/2453d972-e488-40ae-b7a9-e3db7e4199a1","category":"WIA/KIA Soldier/Militant","side":"Russia","color":"#E00000","description":"Area grid - Following a Russian attack on Kramatorsk, one man was killed and a boy born in 2014 was injured.","orbat":[],"geolocation":["https://x.com/99Dominik_/status/2102708577555054837"],"sources":["https://x.com/99Dominik_/status/2102709801075556659","https://t.me/don_gunp/23636","https://x.com/99Dominik_/status/2102709910496801083","https://t.me/kramatorsk_rada/28061"]}},{"type":"Feature","geometry":{"type":"Point","coordinates":[34.595023,46.559827]},"properties":{"source":"geoconfirmed","source_name":"GeoConfirmed","source_url":"https://geoconfirmed.org/map/ukraine","id":"2c889507-c484-4374-8672-ed4c3947da2b","date":"2026-09-21","link":"https://geoconfirmed.org/map/ukraine/2c889507-c484-4374-8672-ed4c3947da2b","category":"Short Range (<50km) OWAD (One Way Attack Drone), mostly rotary wing, Flying OR Attacking a target without knowing the outcome: if something is damaged --> icon of the damaged equipment.","side":"Ukraine","color":"#0051CA","description":"0:46-0:49 - Ukrainian 3rd SOF Hornet drone attacks Russian mobile fire group on truck","orbat":["Ukrainian Special Operations Forces (SSO)"],"geolocation":["https://x.com/neonhandrail/status/2102083093020746173"],"sources":["https://x.com/NOELreports/status/2102002503843782770","https://x.com/3sofua/status/2102020020670697802"]}},{"type":"Feature","geometry":{"type":"Point","coordinates":[30.56359,46.58082]},"properties":{"source":"geoconfirmed","source_name":"GeoConfirmed","source_url":"https://geoconfirmed.org/map/ukraine","id":"5dd99e91-d1f6-4aad-9482-f3afb11506f1","date":"2026-09-21","link":"https://geoconfirmed.org/map/ukraine/5dd99e91-d1f6-4aad-9482-f3afb11506f1","category":"Video - Always Point of View in description - In the colour of who is doing the attack or is responsable for the incident in the video.","side":"Russia","color":"#E00000","description":"Point of view  in south direction - A warehouse at the Gate Link Distribution Center (Wikimapia) on fire following a reported Russian strike.","orbat":[],"geolocation":["https://x.com/zarGEOINT/status/2101933569803207144"],"sources":["https://x.com/AMK_Mapping_/status/2101907735633600616","https://t.me/c/1406855303/109063"]}},{"type":"Feature","geometry":{"type":"Point","coordinates":[37.741,48.563749]},"properties":{"source":"geoconfirmed","source_name":"GeoConfirmed","source_url":"https://geoconfirmed.org/map/ukraine","id":"2e8ae9e9-690c-433b-811c-fa1ac5d52009","date":"2026-09-21","link":"https://geoconfirmed.org/map/ukraine/2e8ae9e9-690c-433b-811c-fa1ac5d52009","category":"Shelling by artillery or aerial bombings - Location of the shelling, colour of who is shelling; Brown = UXO","side":"Ukraine","color":"#0051CA","description":"0:11-0:14 and 0:48-0:51: the 24th Separate Mechanized Brigade blows up a presumed Russian-held dugout south of Stinky with a presumed Vampire Drone-dropped TM-62.","orbat":["24th Mechanized Brigade"],"geolocation":["https://x.com/AudaxonX/status/2102783999751893347"],"sources":["https://x.com/AudaxonX/status/2102783992915427740","https://t.me/official24ombr/2691"]}},{"type":"Feature","geometry":{"type":"Point","coordinates":[37.836268,55.651907]},"properties":{"source":"geoconfirmed","source_name":"GeoConfirmed","source_url":"https://geoconfirmed.org/map/ukraine","id":"5062c493-aca8-449b-846b-fad7a325e0ff","date":"2026-09-21","link":"https://geoconfirmed.org/map/ukraine/5062c493-aca8-449b-846b-fad7a325e0ff","category":"Anti-Air System (Tracked OR Wheeled)","side":"Russia","color":"#E00000","description":"Pantsir system deployed on overpass over the MKAD.","orbat":[],"geolocation":["https://x.com/MikiValbuena/status/2101929790345277524"],"sources":["https://x.com/CasetaBosque/status/2101921042251878659"]}},{"type":"Feature","geometry":{"type":"Point","coordinates":[35.826652,53.362805]},"properties":{"source":"geoconfirmed","source_name":"GeoConfirmed","source_url":"https://geoconfirmed.org/map/ukraine","id":"76d6d835-bd7a-40f8-ac52-fd7efc9f3c6d","date":"2026-09-21","link":"https://geoconfirmed.org/map/ukraine/76d6d835-bd7a-40f8-ac52-fd7efc9f3c6d","category":"Recently destroyed/Damaged[Visible in footage] or still burning infrastucture","side":"Russia","color":"#E00000","description":"area grid - wreckages of presumable UAV following a reported Ukrainian attack.","orbat":[],"geolocation":["https://x.com/anno1540/status/2102087221410934991","https://t.me/absolutely_reliable/118"],"sources":["https://x.com/anno1540/status/2102087221410934991","https://t.me/absolutely_reliable/118","https://www.pravda.com.ua/eng/news/2026/09/21/8054488/","https://x.com/GeneralStaffUA/status/2102314456835670050","https://t.me/GeneralStaffZSU/42326"]}},{"type":"Feature","geometry":{"type":"Point","coordinates":[37.728075,48.536945]},"properties":{"source":"geoconfirmed","source_name":"GeoConfirmed","source_url":"https://geoconfirmed.org/map/ukraine","id":"d75a3607-c7df-462d-9c35-fe07a2053e84","date":"2026-09-21","link":"https://geoconfirmed.org/map/ukraine/d75a3607-c7df-462d-9c35-fe07a2053e84","category":"Short Range (<50km) OWAD (One Way Attack Drone), mostly rotary wing, Flying OR Attacking a target without knowing the outcome: if something is damaged --> icon of the damaged equipment.","side":"Ukraine","color":"#0051CA","description":"Russian soldier attacked by Ukrainian Fiber Optic FPV drone of the 3rd Assault Battalion.","orbat":["3rd Assault Battalion"],"geolocation":["https://x.com/AudaxonX/status/2102730999675126193"],"sources":["https://x.com/AudaxonX/status/2102731111063261475","https://t.me/ptashkaDoDo/3420"]}}]}