{"type":"FeatureCollection","features":[{"type":"Feature","geometry":{"type":"MultiPolygon","coordinates":[[[[37.79593,48.54891],[37.79597,48.54703],[37.7771,48.54451],[37.77702,48.545],[37.79593,48.54891]]],[[[37.79379,48.55941],[37.78792,48.55863],[37.78729,48.56035],[37.79048,48.56062],[37.79215,48.56285],[37.79198,48.56395],[37.79565,48.56424],[37.79576,48.5583],[37.79379,48.55941]]],[[[37.62395,48.52551],[37.63977,48.52626],[37.64949,48.50816],[37.66469,48.50368],[37.64657,48.5002],[37.64252,48.50773],[37.62842,48.50675],[37.62035,48.49756],[37.62395,48.52551]]]]},"properties":{"source":"deepstate","source_name":"DeepStateMap","source_url":"https://deepstatemap.live/en","category":"gained","category_label":"Russian advance: became occupied","period":"1d","compared_with":"2026-09-08","snapshot_time":"2026-09-09","area_km2_approx":4.8}},{"type":"Feature","geometry":{"type":"Polygon","coordinates":[[[37.79576,48.5583],[37.7981,48.55698],[37.79683,48.5491],[37.79593,48.54891],[37.79576,48.5583]]]},"properties":{"source":"deepstate","source_name":"DeepStateMap","source_url":"https://deepstatemap.live/en","category":"occupied_to_contested","category_label":"Occupied became contested","period":"1d","compared_with":"2026-09-08","snapshot_time":"2026-09-09","area_km2_approx":0.1}},{"type":"Feature","geometry":{"type":"MultiPolygon","coordinates":[[[[37.77712,48.56706],[37.78785,48.56693],[37.78914,48.56258],[37.78848,48.56045],[37.78729,48.56035],[37.78792,48.55864],[37.78664,48.55453],[37.77381,48.55156],[37.76997,48.56266],[37.77712,48.56706]]],[[[37.61836,48.5391],[37.62138,48.5512],[37.62567,48.55733],[37.64094,48.55736],[37.64042,48.5481],[37.65311,48.54169],[37.64318,48.53904],[37.64086,48.53251],[37.62359,48.52745],[37.60645,48.51663],[37.61836,48.5391]]]]},"properties":{"source":"deepstate","source_name":"DeepStateMap","source_url":"https://deepstatemap.live/en","category":"ukrainian_to_contested","category_label":"Ukrainian-held became contested","period":"1d","compared_with":"2026-09-08","snapshot_time":"2026-09-09","area_km2_approx":7.8}}]}