{"type":"FeatureCollection","features":[{"type":"Feature","geometry":{"type":"MultiPolygon","coordinates":[[[[37.89255,48.85171],[37.88858,48.85857],[37.89205,48.86483],[37.89484,48.86269],[37.90838,48.86255],[37.91042,48.85914],[37.90702,48.85286],[37.89555,48.85143],[37.88459,48.84881],[37.88445,48.84931],[37.89255,48.85171]]],[[[37.85184,48.76668],[37.84206,48.76999],[37.83553,48.77748],[37.83656,48.77833],[37.84788,48.77545],[37.87053,48.77563],[37.87139,48.77989],[37.88083,48.77925],[37.88728,48.76974],[37.88436,48.76645],[37.86489,48.76165],[37.85104,48.76079],[37.85184,48.76668]]],[[[37.79593,48.54891],[37.79597,48.54703],[37.7771,48.54451],[37.77702,48.545],[37.79593,48.54891]]],[[[37.79379,48.55941],[37.78792,48.55863],[37.78729,48.56035],[37.79048,48.56062],[37.79215,48.56285],[37.79198,48.56395],[37.79565,48.56424],[37.79576,48.5583],[37.79379,48.55941]]],[[[37.7286,48.49526],[37.74068,48.49541],[37.74654,48.48638],[37.76195,48.48311],[37.74852,48.47794],[37.74268,48.48121],[37.72649,48.47945],[37.71615,48.48442],[37.7286,48.49526]]],[[[37.62395,48.52551],[37.63977,48.52626],[37.64949,48.50816],[37.66469,48.50368],[37.64657,48.5002],[37.64252,48.50773],[37.62842,48.50675],[37.62035,48.49756],[37.62395,48.52551]]],[[[37.60757,48.45797],[37.61994,48.45962],[37.62839,48.46541],[37.62216,48.48564],[37.63337,48.47508],[37.63848,48.45063],[37.61203,48.4434],[37.60452,48.44228],[37.60757,48.45797]]],[[[37.10765,48.37903],[37.11658,48.37973],[37.13237,48.36795],[37.15145,48.36863],[37.15679,48.36617],[37.16466,48.36998],[37.17039,48.37909],[37.1781,48.37906],[37.17923,48.37481],[37.18947,48.37186],[37.1834,48.36173],[37.16604,48.3603],[37.14662,48.36549],[37.10328,48.36302],[37.10284,48.36528],[37.10765,48.37903]]],[[[37.06506,48.28316],[37.06102,48.30629],[37.06233,48.31776],[37.08621,48.31258],[37.08787,48.30245],[37.10235,48.29584],[37.10351,48.28705],[37.05894,48.28128],[37.05886,48.28173],[37.06506,48.28316]]],[[[37.03353,48.25878],[37.04557,48.2538],[37.05072,48.25503],[37.05077,48.2549],[37.04609,48.25208],[37.04633,48.24976],[37.04049,48.24664],[37.03835,48.24438],[37.01808,48.24175],[37.01252,48.25993],[37.03353,48.25878]]],[[[36.16346,47.74594],[36.17493,47.7546],[36.19196,47.75773],[36.19505,47.75346],[36.19896,47.72874],[36.19007,47.71985],[36.16435,47.72631],[36.16346,47.74594]]],[[[36.06809,47.59032],[36.07329,47.59496],[36.10704,47.5852],[36.10698,47.5849],[36.0944,47.58593],[36.08967,47.58198],[36.06809,47.59032]]],[[[35.53519,47.54982],[35.56335,47.55818],[35.58307,47.55375],[35.59699,47.54082],[35.5903,47.52837],[35.57191,47.53857],[35.55494,47.54451],[35.53725,47.54368],[35.53618,47.54622],[35.53519,47.54982]]]]},"properties":{"source":"deepstate","source_name":"DeepStateMap","source_url":"https://deepstatemap.live/en","category":"gained","category_label":"Russian advance: became occupied","period":"7d","compared_with":"2026-09-02","snapshot_time":"2026-09-09","area_km2_approx":54.9}},{"type":"Feature","geometry":{"type":"MultiPolygon","coordinates":[[[[37.6338,49.83248],[37.6433,49.83085],[37.64891,49.8338],[37.65327,49.82846],[37.6633,49.825],[37.66766,49.8159],[37.66241,49.81377],[37.64702,49.81832],[37.64176,49.82498],[37.63732,49.8296],[37.62917,49.82618],[37.6338,49.83248]]],[[[37.64565,49.84874],[37.64387,49.85601],[37.62728,49.86332],[37.6273,49.86336],[37.63749,49.8629],[37.64533,49.85805],[37.6611,49.8546],[37.65845,49.85113],[37.64928,49.8502],[37.65292,49.84191],[37.64565,49.84874]]]]},"properties":{"source":"deepstate","source_name":"DeepStateMap","source_url":"https://deepstatemap.live/en","category":"lost","category_label":"Ukrainian advance: became Ukrainian-held","period":"7d","compared_with":"2026-09-02","snapshot_time":"2026-09-09","area_km2_approx":3.8}},{"type":"Feature","geometry":{"type":"MultiPolygon","coordinates":[[[[37.79576,48.5583],[37.7981,48.55698],[37.79683,48.5491],[37.79593,48.54891],[37.79576,48.5583]]],[[[37.64008,49.82673],[37.64176,49.82498],[37.64702,49.81832],[37.66241,49.81377],[37.66766,49.8159],[37.6633,49.825],[37.65327,49.82846],[37.65076,49.83153],[37.66687,49.83877],[37.66888,49.82655],[37.67596,49.81892],[37.66995,49.81202],[37.66051,49.80922],[37.63853,49.81798],[37.63424,49.82411],[37.64008,49.82673]]],[[[37.63775,49.86466],[37.65537,49.86166],[37.66748,49.85373],[37.66298,49.84968],[37.65843,49.85111],[37.6611,49.8546],[37.6484,49.85738],[37.64791,49.85795],[37.64034,49.86114],[37.63749,49.8629],[37.63658,49.86294],[37.63775,49.86466]]]]},"properties":{"source":"deepstate","source_name":"DeepStateMap","source_url":"https://deepstatemap.live/en","category":"occupied_to_contested","category_label":"Occupied became contested","period":"7d","compared_with":"2026-09-02","snapshot_time":"2026-09-09","area_km2_approx":4.5}},{"type":"Feature","geometry":{"type":"MultiPolygon","coordinates":[[[[37.84222,48.86047],[37.83383,48.86495],[37.83744,48.87695],[37.85769,48.86541],[37.86918,48.85499],[37.87115,48.84655],[37.84359,48.84262],[37.83546,48.84921],[37.84222,48.86047]]],[[[37.77917,48.73402],[37.79425,48.73568],[37.78939,48.72388],[37.77917,48.73402]]],[[[37.77712,48.56706],[37.78785,48.56693],[37.78914,48.56258],[37.78848,48.56045],[37.78729,48.56035],[37.78792,48.55864],[37.78664,48.55453],[37.77381,48.55156],[37.76997,48.56266],[37.77712,48.56706]]],[[[37.61836,48.5391],[37.62138,48.5512],[37.62567,48.55733],[37.64094,48.55736],[37.64042,48.5481],[37.65311,48.54169],[37.64318,48.53904],[37.64086,48.53251],[37.62359,48.52745],[37.60645,48.51663],[37.61836,48.5391]]],[[[37.19552,48.45118],[37.20531,48.4668],[37.21748,48.46818],[37.2179,48.46335],[37.22147,48.45769],[37.20756,48.44289],[37.2029,48.44164],[37.2017,48.4374],[37.19182,48.43845],[37.19552,48.45118]]],[[[37.15492,48.37813],[37.15999,48.37904],[37.16903,48.37693],[37.16466,48.36998],[37.15901,48.36724],[37.15037,48.37269],[37.15492,48.37813]]],[[[36.12517,47.7735],[36.13096,47.77286],[36.13144,47.76743],[36.1583,47.76782],[36.16149,47.77736],[36.16895,47.76609],[36.16457,47.76535],[36.16598,47.74989],[36.14302,47.74684],[36.12494,47.74941],[36.12517,47.7735]]],[[[36.05747,47.59614],[36.07916,47.60805],[36.08236,47.59234],[36.07329,47.59496],[36.06809,47.59032],[36.07347,47.58824],[36.06762,47.58555],[36.05747,47.59614]]],[[[35.90781,47.54123],[35.92695,47.5363],[35.91211,47.52732],[35.9032,47.52896],[35.90781,47.54123]]],[[[35.8068,47.50671],[35.80929,47.52546],[35.83079,47.52637],[35.83827,47.51303],[35.83203,47.49702],[35.84925,47.49611],[35.85164,47.49357],[35.8697,47.49277],[35.86968,47.49222],[35.83189,47.49264],[35.82707,47.48613],[35.81246,47.48496],[35.79942,47.48026],[35.79748,47.49119],[35.8068,47.50671]]],[[[35.51584,47.59902],[35.54634,47.60009],[35.59276,47.5862],[35.61276,47.55506],[35.57645,47.57103],[35.53021,47.56813],[35.50365,47.57019],[35.50679,47.58608],[35.51584,47.59902]]]]},"properties":{"source":"deepstate","source_name":"DeepStateMap","source_url":"https://deepstatemap.live/en","category":"ukrainian_to_contested","category_label":"Ukrainian-held became contested","period":"7d","compared_with":"2026-09-02","snapshot_time":"2026-09-09","area_km2_approx":62.3}}]}