{"type":"FeatureCollection","features":[{"type":"Feature","geometry":null,"properties":{"source":"ua_mod","source_name":"Ministry of Defence of Ukraine","group":"official_ua","id":16352,"posted_utc":"2026-10-09T09:07:16+00:00","link":"https://t.me/ministry_of_defense_ua/16352","text":"🤝 У Києві відкрився Kyiv Business Centre – постійний майданчик для співпраці оборонних компаній України та Великої Британії.\nЦе перший спеціалізований британський бізнес-центр у Києві, створений для розвитку спільних проєктів у трьох напрямах: промисловість, інновації та інвестиції.\nБританські компанії зможуть безпосередньо взаємодіяти з українськими державними структурами, виробниками, інноваційним сектором та інвесторами й отримувати інформацію про актуальні потреби.\nЦентр працюватиме й для українських підприємств, які шукають партнерів у Великій Британії або планують створювати там дочірні компанії.\nKyiv Business Centre створено за підтримки британського уряду в межах сторічного партнерства України та Великої Британії. Між компаніями двох країн налагоджено вже понад 40 великих партнерств.\nДізнатися більше про можливості співпраці з Kyiv Business Centre можна на сайті kyivbusinesscentre.com або за електронною адресою enquiries@kyivbusinesscentre.com.","links":["https://www.kyivbusinesscentre.com/"],"original_html":"<i class=\"emoji\" style=\"background-image:url('//telegram.org/img/emoji/40/F09FA49D.png')\"><b>🤝</b></i> <b>У Києві відкрився Kyiv Business Centre – постійний майданчик для співпраці оборонних компаній України та Великої Британії.</b><br/><br/>Це перший спеціалізований британський бізнес-центр у Києві, створений для розвитку спільних проєктів у трьох напрямах: промисловість, інновації та інвестиції.<br/><br/>Британські компанії зможуть безпосередньо взаємодіяти з українськими державними структурами, виробниками, інноваційним сектором та інвесторами й отримувати інформацію про актуальні потреби. <br/><br/>Центр працюватиме й для українських підприємств, які шукають партнерів у Великій Британії або планують створювати там дочірні компанії.<br/><br/>Kyiv Business Centre створено за підтримки британського уряду в межах сторічного партнерства України та Великої Британії. Між компаніями двох країн налагоджено вже понад 40 великих партнерств.&nbsp;<br/><br/><i>Дізнатися більше про можливості співпраці з Kyiv Business Centre можна на сайті </i><a href=\"https://www.kyivbusinesscentre.com/\" target=\"_blank\" rel=\"noopener\" onclick=\"return confirm('Open this link?\\n\\n'+this.href);\"><i><u>kyivbusinesscentre.com</u></i></a><i> або за електронною адресою </i><i>enquiries@kyivbusinesscentre.com</i><i>.</i>"}},{"type":"Feature","geometry":null,"properties":{"source":"ua_mod","source_name":"Ministry of Defence of Ukraine","group":"official_ua","id":16353,"posted_utc":"2026-10-09T09:38:27+00:00","link":"https://t.me/ministry_of_defense_ua/16353","text":"💥 Понад 30 засобів ППО, РЛС і РЕБ, понад 40 пунктів управління та понад 50 об’єктів логістики – результати middle strike у вересні.\nСеред уражених засобів ППО та радіолокації: пускові установки С-400, РЛС 92Н6, ЗРК «Бук-М3», комплекси «Панцир-С1» і «Панцир-С2», станції «Небо-У», «Небо-СВ», «Подльот», «Каста» та П-18.\nВажливий напрям бойової роботи – інфраструктура безпілотних систем. Лише за опублікованими Генштабом даними, Сили оборони уразили понад 20 об’єктів, пов’язаних зі зберіганням, підготовкою, виробництвом та застосуванням БпЛА.\nПродовжилися й удари по логістиці. У вересні уражено понад 50 складів, баз та інших об’єктів забезпечення, а в Криму – залізничний міст через Північно-Кримський канал, який використовувався для військової логістики.\nСеред інших підтверджених цілей: Су-24, МіГ-29, Ка-27, десантний катер БК-16 та патрульний катер «Мангуст».\nСистемне застосування middle strike послаблює ППО противника, порушує управління та ускладнює забезпечення російських підрозділів.","links":[],"original_html":"<i class=\"emoji\" style=\"background-image:url('//telegram.org/img/emoji/40/F09F92A5.png')\"><b>💥</b></i> <b>Понад 30 засобів ППО, РЛС і РЕБ, понад 40 пунктів управління та понад 50 об’єктів логістики – результати middle strike у вересні.</b><br/><br/>Серед уражених засобів ППО та радіолокації: пускові установки С-400, РЛС 92Н6, ЗРК «Бук-М3», комплекси «Панцир-С1» і «Панцир-С2», станції «Небо-У», «Небо-СВ», «Подльот», «Каста» та П-18.<br/><br/>Важливий напрям бойової роботи – інфраструктура безпілотних систем. Лише за опублікованими Генштабом даними, Сили оборони уразили понад 20 об’єктів, пов’язаних зі зберіганням, підготовкою, виробництвом та застосуванням БпЛА.<br/><br/>Продовжилися й удари по логістиці. У вересні уражено понад 50 складів, баз та інших об’єктів забезпечення, а в Криму – залізничний міст через Північно-Кримський канал, який використовувався для військової логістики.<br/><br/>Серед інших підтверджених цілей: Су-24, МіГ-29, Ка-27, десантний катер БК-16 та патрульний катер «Мангуст».<br/><br/>Системне застосування middle strike послаблює ППО противника, порушує управління та ускладнює забезпечення російських підрозділів."}},{"type":"Feature","geometry":null,"properties":{"source":"ua_mod","source_name":"Ministry of Defence of Ukraine","group":"official_ua","id":16354,"posted_utc":"2026-10-09T10:12:14+00:00","link":"https://t.me/ministry_of_defense_ua/16354","text":"Провів селектор за участі військових та урядовців. Перше: вдячний усім ремонтним бригадам, працівникам енергетичних компаній і тим обласним владам, які оперативно відновлюють роботу енергосистеми після російських ударів. На жаль, багато пошкоджень енергомережі, об’єктів передачі електрики. Відновлення ведеться цілодобово. Оновили потреби в енергетичному обладнанні та пакетах ППО. МЗС і команда Офісу готують відповідну комунікацію з партнерами. Буду говорити з лідерами.\nДруге: була доповідь по термінах виконання планів стійкості, зокрема на Київщині та в інших регіонах. Гальмування робіт абсолютно неприпустиме, і відповідальність Міністерства інфраструктури та обласних адміністрацій є персональною. Окремо визначили завдання щодо Києва – через майже повне невиконання міською владою необхідних кроків. Був звіт по ситуації в Прилуках на Чернігівщині, доручив до кінця тижня підготувати повний пакет рішень, які були обговорені з людьми в Прилуках.\nТретє: була доповідь міністра оборони України та Головнокомандувача ЗСУ по ситуації на фронті, передусім на Донеччині, в районах Костянтинівки, Добропілля, Слов’янська, Краматорська. Є результати у знищенні «просочувань» окупанта в Добропіллі. Визначили рішення, які мають спрацювати найближчими тижнями. Дякую кожному підрозділу, який повністю виконує визначені завдання. Слава Україні!","links":[],"original_html":"<div class=\"tgme_widget_message_text js-message_text\" dir=\"auto\">Провів селектор за участі військових та урядовців. Перше: вдячний усім ремонтним бригадам, працівникам енергетичних компаній і тим обласним владам, які оперативно відновлюють роботу енергосистеми після російських ударів. На жаль, багато пошкоджень енергомережі, об’єктів передачі електрики. Відновлення ведеться цілодобово. Оновили потреби в енергетичному обладнанні та пакетах ППО. МЗС і команда Офісу готують відповідну комунікацію з партнерами. Буду говорити з лідерами. <br/><br/>Друге: була доповідь по термінах виконання планів стійкості, зокрема на Київщині та в інших регіонах. Гальмування робіт абсолютно неприпустиме, і відповідальність Міністерства інфраструктури та обласних адміністрацій є персональною. Окремо визначили завдання щодо Києва – через майже повне невиконання міською владою необхідних кроків. Був звіт по ситуації в Прилуках на Чернігівщині, доручив до кінця тижня підготувати повний пакет рішень, які були обговорені з людьми в Прилуках. <br/><br/>Третє: була доповідь міністра оборони України та Головнокомандувача ЗСУ по ситуації на фронті, передусім на Донеччині, в районах Костянтинівки, Добропілля, Слов’янська, Краматорська. Є результати у знищенні «просочувань» окупанта в Добропіллі. Визначили рішення, які мають спрацювати найближчими тижнями. Дякую кожному підрозділу, який повністю виконує визначені завдання. Слава Україні&#33;"}}]}