{"type":"FeatureCollection","features":[{"type":"Feature","geometry":null,"properties":{"source":"ua_mod","source_name":"Ministry of Defence of Ukraine","group":"official_ua","id":15963,"posted_utc":"2026-07-29T14:06:07+00:00","link":"https://t.me/ministry_of_defense_ua/15963","text":"✅ Українські виробники озброєння отримали 167 пільгових кредитів на загальну суму в понад 10 млрд грн.\nПрограму пільгового кредитування реалізує Міноборони.\n• Виробники можуть залучати до 500 млн грн на інвестиційні проєкти або до 100 млн грн на поточні потреби.\n• Кредити видаються під 5% річних, а решту вартості фінансування компенсує держава.\n• Кошти спрямовуються на розробку, виробництво, ремонт і модернізацію озброєння.\nДопомагаємо оборонній промисловості розширювати виробництво та збільшувати постачання для Сил оборони.","links":["https://mod.gov.ua/news/ponad-10-mlrd-hrn-pilhovykh-kredytiv-dlia-opk-minoborony-rozshyriuie-pidtrymku-ukrainskykh-zbroiariv?utm_source=mod-telegram&utm_medium=social"],"original_html":"<b><i class=\"emoji\" style=\"background-image:url('//telegram.org/img/emoji/40/E29C85.png')\"><b>✅</b></i> Українські виробники озброєння отримали 167 пільгових кредитів на загальну суму в понад 10 млрд грн.<br/></b> <br/><a href=\"https://mod.gov.ua/news/ponad-10-mlrd-hrn-pilhovykh-kredytiv-dlia-opk-minoborony-rozshyriuie-pidtrymku-ukrainskykh-zbroiariv?utm_source=mod-telegram&amp;amp;utm_medium=social\" target=\"_blank\" rel=\"noopener\" onclick=\"return confirm('Open this link?\\n\\n'+this.href);\">Програму пільгового кредитування</a> реалізує Міноборони.<br/> <br/>• Виробники можуть залучати до 500 млн грн на інвестиційні проєкти або до 100 млн грн на поточні потреби.<br/>• Кредити видаються під 5% річних, а решту вартості фінансування компенсує держава.<br/>• Кошти спрямовуються на розробку, виробництво, ремонт і модернізацію озброєння.<br/> <br/>Допомагаємо оборонній промисловості розширювати виробництво та збільшувати постачання для Сил оборони."}},{"type":"Feature","geometry":null,"properties":{"source":"ua_mod","source_name":"Ministry of Defence of Ukraine","group":"official_ua","id":15964,"posted_utc":"2026-07-29T17:27:30+00:00","link":"https://t.me/ministry_of_defense_ua/15964","text":"❗️Євгеній Хмара:\nФормуємо команду, здатну швидко перетворювати потреби Сил оборони на конкретні рішення.\nСьогодні Уряд призначив двох заступників Міністра оборони України. Це посилення за ключовими напрямами: міжнародна підтримка та людський капітал.\nСергій Боєв відповідатиме за міжнародний напрям як заступник Міністра оборони України з питань європейської інтеграції.\nЙого завдання – переводити домовленості з партнерами у рішення для Сил оборони: фінансування, постачання, спільні проєкти, розвиток українського ОПК і довгострокові програми підтримки.\nЕкспертиза та досвід Сергія безперечно посилять нашу співпрацю з ЄС, НАТО та іншими державами, допоможуть залучати більше безпекової допомоги та будувати партнерства, які працюють на довгу дистанцію.","links":[],"original_html":"<i class=\"emoji\" style=\"background-image:url('//telegram.org/img/emoji/40/E29D97.png')\"><b>❗️</b></i><b>Євгеній Хмара:</b><br/><br/>Формуємо команду, здатну швидко перетворювати потреби Сил оборони на конкретні рішення.<br/><br/>Сьогодні Уряд призначив двох заступників Міністра оборони України. Це посилення за ключовими напрямами: міжнародна підтримка та людський капітал.<br/><br/>Сергій Боєв відповідатиме за міжнародний напрям як заступник Міністра оборони України з питань європейської інтеграції.<br/><br/>Його завдання – переводити домовленості з партнерами у рішення для Сил оборони: фінансування, постачання, спільні проєкти, розвиток українського ОПК і довгострокові програми підтримки.<br/><br/>Експертиза та досвід Сергія безперечно посилять нашу співпрацю з ЄС, НАТО та іншими державами, допоможуть залучати більше безпекової допомоги та будувати партнерства, які працюють на довгу дистанцію."}},{"type":"Feature","geometry":null,"properties":{"source":"ua_mod","source_name":"Ministry of Defence of Ukraine","group":"official_ua","id":15965,"posted_utc":"2026-07-29T17:28:36+00:00","link":"https://t.me/ministry_of_defense_ua/15965","text":"❗️Євгеній Хмара:\nЛюбов Галан відповідатиме за розвиток та збереження людського капіталу Сил оборони.\nУ фокусі – ефективне комплектування, зрозуміле кар’єрне зростання, соціальний захист військовослужбовців і їхніх родин, якісна підготовка особового складу, охорона здоров’я, а також правила, які чітко визначають права й обов’язки військових та захищають їх від свавілля.\nЛюбов – правозахисниця, яка співзаснувала та керувала Правозахисним центром для військовослужбовців «Принцип». Її досвід важливий для системних змін, які мають відчувати військові.\nНаша мета – зробити систему Міністерства швидшою і ближчою до потреб Сил оборони.","links":[],"original_html":"<i class=\"emoji\" style=\"background-image:url('//telegram.org/img/emoji/40/E29D97.png')\"><b>❗️</b></i><b>Євгеній Хмара:</b><br/><br/>Любов Галан відповідатиме за розвиток та збереження людського капіталу Сил оборони. <br/><br/>У фокусі – ефективне комплектування, зрозуміле кар’єрне зростання, соціальний захист військовослужбовців і їхніх родин, якісна підготовка особового складу, охорона здоров’я, а також правила, які чітко визначають права й обов’язки військових та захищають їх від свавілля.<br/><br/>Любов – правозахисниця, яка співзаснувала та керувала Правозахисним центром для військовослужбовців «Принцип». Її досвід важливий для системних змін, які мають відчувати військові.<br/><br/>Наша мета – зробити систему Міністерства швидшою і ближчою до потреб Сил оборони."}},{"type":"Feature","geometry":null,"properties":{"source":"ua_mod","source_name":"Ministry of Defence of Ukraine","group":"official_ua","id":15962,"posted_utc":"2026-07-29T10:44:54+00:00","link":"https://t.me/ministry_of_defense_ua/15962","text":"Євгеній Хмара дав інтерв’ю американський консервативній журналістці та блогерці Лорі Лумер.\nОсновні тези розмови:\n• Нашу перевагу створюють асиметричні дії. Мета в тому, щоб вартість українських ударів становила близько 2% від шкоди, якої вони завдають росії.\n• Логістика є частиною бойової спроможності. Серед пріоритетів Міністерства оборони – захист маршрутів постачання від дронів, забезпечення підрозділів та своєчасне доправлення воїнам всього необхідного.\n• Україна та США можуть побудувати стратегічне партнерство: Америка має найпотужнішу армію світу, Україна – унікальний досвід сучасної війни.\n• Для України критично важливо отримати можливість виробляти ракети-перехоплювачі Patriot, необхідні для захисту від російських балістичних атак.\n• У війнах майбутнього перемагатиме той, хто швидше впроваджує інновації, адаптується до змін і зберігає життя військових.\n«Ми діємо за одними правилами. Я довіряю військовим, а вони довіряють мені», — наголосив Хмара.","links":["https://mod.gov.ua/news/ukrayina-maye-diyati-asimetrichno-udari-mayut-poslablyuvati-infrastrukturu-ta-spromozhnosti-agresora-yevgenij-hmara?utm_source=mod-telegram&utm_medium=social"],"original_html":"<b>Євгеній Хмара </b><a href=\"https://mod.gov.ua/news/ukrayina-maye-diyati-asimetrichno-udari-mayut-poslablyuvati-infrastrukturu-ta-spromozhnosti-agresora-yevgenij-hmara?utm_source=mod-telegram&amp;amp;utm_medium=social\" target=\"_blank\" rel=\"noopener\" onclick=\"return confirm('Open this link?\\n\\n'+this.href);\"><b>дав інтерв’ю</b></a><b> американський консервативній журналістці та блогерці Лорі Лумер.<br/></b><br/>Основні тези розмови:<br/><br/>• Нашу перевагу створюють асиметричні дії. Мета в тому, щоб вартість українських ударів становила близько 2% від шкоди, якої вони завдають росії. <br/><br/>• Логістика є частиною бойової спроможності. Серед пріоритетів Міністерства оборони – захист маршрутів постачання від дронів, забезпечення підрозділів та своєчасне доправлення воїнам всього необхідного.<br/><br/>• Україна та США можуть побудувати стратегічне партнерство: Америка має найпотужнішу армію світу, Україна – унікальний досвід сучасної війни.<br/><br/>• Для України критично важливо отримати можливість виробляти ракети-перехоплювачі Patriot, необхідні для захисту від російських балістичних атак.<br/><br/>• У війнах майбутнього перемагатиме той, хто швидше впроваджує інновації, адаптується до змін і зберігає життя військових.<br/><br/><blockquote>«Ми діємо за одними правилами. Я довіряю військовим, а вони довіряють мені», — наголосив Хмара.</blockquote>"}}]}