{"type":"FeatureCollection","features":[{"type":"Feature","geometry":null,"properties":{"source":"ru_mod","source_name":"Ministry of Defence of Russia","group":"official_ru","id":67549,"posted_utc":"2026-09-22T09:15:59+00:00","link":"https://t.me/mod_russia/67549","text":"❗️ Оперативно-тактической авиацией, ударными беспилотными летательными аппаратами, ракетными войсками и артиллерией группировок войск Вооруженных Сил Российской Федерации нанесено поражение логистическим центрам, цехам производства беспилотных летательных аппаратов и комплектующих к ним, а также пунктам временной дислокации украинских вооруженных формирований и иностранных наемников в 148 районах.\nПодробнее о ходе проведения специальной военной операции ➡️ в MAКС.","links":["https://max.ru/morf/AaDIY0cGSwo"],"original_html":"<tg-emoji emoji-id=\"5447116342148753425\"><i class=\"emoji\" style=\"background-image:url('//telegram.org/img/emoji/40/E29D97.png')\"><b>❗️</b></i></tg-emoji> <b>Оперативно-тактической авиацией, ударными беспилотными летательными аппаратами, ракетными войсками и артиллерией группировок войск Вооруженных Сил Российской Федерации нанесено поражение </b>логистическим центрам, цехам производства беспилотных летательных аппаратов и комплектующих к ним, а также пунктам временной дислокации украинских вооруженных формирований и иностранных наемников <b>в 148 районах</b>.<br/><br/>Подробнее о ходе проведения специальной военной операции <tg-emoji emoji-id=\"5469902676957357453\"><i class=\"emoji\" style=\"background-image:url('//telegram.org/img/emoji/40/E29EA1.png')\"><b>➡️</b></i></tg-emoji> <a href=\"https://max.ru/morf/AaDIY0cGSwo\" target=\"_blank\" rel=\"noopener\" onclick=\"return confirm('Open this link?\\n\\n'+this.href);\">в MAКС.</a>"}},{"type":"Feature","geometry":null,"properties":{"source":"ru_mod","source_name":"Ministry of Defence of Russia","group":"official_ru","id":67550,"posted_utc":"2026-09-22T10:38:20+00:00","link":"https://t.me/mod_russia/67550","text":"👊 Отрезаем маршруты и «накидываем» в тыл\nПодразделения группировки войск «Север» продолжают уверенно затягивать петлю вокруг сил противника в Харьковской области.\nСтарший наводчик самоходной пушки «Гиацинт-С» с позывным «Кощей» рассказал, как его расчет изолирует район боевых действий и пресекает все попытки ВСУ прорвать окружение.\n«Мы работаем по скоплению живой силы противника, помогаем нашим штурмовым подразделениям, отрезаем пути отхода и ротации противника, а также любые возможности прорвать окружение на Харьковском направлении. Мы можем спокойно «накидывать» противнику в тыл, тем самым портим им логистику, транспортировку техники и подвоз личного состава».\n▫️ Канал Минобороны России в MAКС – источник мощных новостей","links":["https://max.ru/morf"],"original_html":"<b><i class=\"emoji\" style=\"background-image:url('//telegram.org/img/emoji/40/F09F918A.png')\"><b>👊</b></i> Отрезаем маршруты и «накидываем» в тыл</b><br/><br/>Подразделения группировки войск «Север» <b>продолжают уверенно затягивать петлю вокруг сил противника в Харьковской области</b>.<br/><br/>Старший наводчик самоходной пушки «Гиацинт-С» с позывным «Кощей» рассказал, как его расчет изолирует район боевых действий и пресекает все попытки ВСУ прорвать окружение.<br/><br/><blockquote>«Мы работаем по скоплению живой силы противника, помогаем нашим штурмовым подразделениям, отрезаем пути отхода и ротации противника, а также любые возможности прорвать окружение на Харьковском направлении. Мы можем спокойно «накидывать» противнику в тыл, тем самым портим им логистику, транспортировку техники и подвоз личного состава».</blockquote><br/><br/><tg-emoji emoji-id=\"5352532894478793783\"><i class=\"emoji\" style=\"background-image:url('//telegram.org/img/emoji/40/E296AB.png')\"><b>▫️</b></i></tg-emoji> <a href=\"https://max.ru/morf\" target=\"_blank\" rel=\"noopener\" onclick=\"return confirm('Open this link?\\n\\n'+this.href);\">Канал Минобороны России в MAКС – источник мощных новостей</a>"}},{"type":"Feature","geometry":null,"properties":{"source":"ru_mod","source_name":"Ministry of Defence of Russia","group":"official_ru","id":67551,"posted_utc":"2026-09-22T11:42:45+00:00","link":"https://t.me/mod_russia/67551","text":"💥 Продолжаем «варить» врага в котлах\nБойцы группировки «Центр» намертво зажали в тиски подразделения ВСУ в Доброполье и методично их перемалывают. Бежать врагу некуда 👊\n🔹 Канал Минобороны России в MAКС – боевая работа 24/7","links":["https://t.me/mod_russia/67544","https://max.ru/morf"],"original_html":"<b><tg-emoji emoji-id=\"5449682610877918293\"><i class=\"emoji\" style=\"background-image:url('//telegram.org/img/emoji/40/F09F92A5.png')\"><b>💥</b></i></tg-emoji></b><b> Продолжаем «варить» врага в котлах</b><br/><br/>Бойцы группировки «Центр» <a href=\"https://t.me/mod_russia/67544\" target=\"_blank\" rel=\"noopener\" onclick=\"return confirm('Open this link?\\n\\n'+this.href);\">намертво зажали в тиски</a> подразделения ВСУ в Доброполье и методично их перемалывают. Бежать врагу некуда <i class=\"emoji\" style=\"background-image:url('//telegram.org/img/emoji/40/F09F918A.png')\"><b>👊</b></i><br/><br/><tg-emoji emoji-id=\"5269510734265483362\"><i class=\"emoji\" style=\"background-image:url('//telegram.org/img/emoji/40/F09F94B9.png')\"><b>🔹</b></i></tg-emoji> <a href=\"https://max.ru/morf\" target=\"_blank\" rel=\"noopener\" onclick=\"return confirm('Open this link?\\n\\n'+this.href);\">Канал Минобороны России в MAКС – боевая работа 24/7</a>"}},{"type":"Feature","geometry":null,"properties":{"source":"ru_mod","source_name":"Ministry of Defence of Russia","group":"official_ru","id":67552,"posted_utc":"2026-09-22T13:10:16+00:00","link":"https://t.me/mod_russia/67552","text":"🔥 Ольховатка за нами: в ближнем бою штурмовики все сделали как надо\nЗаместитель командира роты с позывным «Тарк» поделился подробностями освобождения населенного пункта Ольховатка в Харьковской области.\n«Тарк» рассказывает, что продвигаться помогала четкая координация с воздуха:\n«Глазки» сверху корректируют: куда зайти, где обойти, где противник сидит, как лучше обойти, взять позицию».\nОфицер также отметил превосходство наших бойцов в ближнем бою:\n«При зачистке одного из зданий трое наших бойцов столкнулись с пятью противниками. В ходе боя трое боевиков были уничтожены, двое сбежали».\n🔹 Минобороны России","links":["https://t.me/mod_russia/67356","https://max.ru/morf"],"original_html":"<b><i class=\"emoji\" style=\"background-image:url('//telegram.org/img/emoji/40/F09F94A5.png')\"><b>🔥</b></i> Ольховатка за нами: в ближнем бою штурмовики все сделали как надо</b><br/><br/>Заместитель командира роты с позывным «Тарк» <b>поделился подробностями освобождения населенного пункта </b><a href=\"https://t.me/mod_russia/67356\" target=\"_blank\" rel=\"noopener\" onclick=\"return confirm('Open this link?\\n\\n'+this.href);\"><b>Ольховатка</b></a> в Харьковской области.<br/><br/>«Тарк» рассказывает, что продвигаться помогала четкая координация с воздуха: <br/><br/><blockquote>«Глазки» сверху корректируют: куда зайти, где обойти, где противник сидит, как лучше обойти, взять позицию».</blockquote><br/><br/>Офицер также отметил превосходство наших бойцов в ближнем бою:<br/><br/><blockquote>«При зачистке одного из зданий трое наших бойцов столкнулись с пятью противниками. В ходе боя трое боевиков были уничтожены, двое сбежали».</blockquote><br/><br/><tg-emoji emoji-id=\"5269510734265483362\"><i class=\"emoji\" style=\"background-image:url('//telegram.org/img/emoji/40/F09F94B9.png')\"><b>🔹</b></i></tg-emoji> <a href=\"https://max.ru/morf\" target=\"_blank\" rel=\"noopener\" onclick=\"return confirm('Open this link?\\n\\n'+this.href);\">Минобороны России</a>"}},{"type":"Feature","geometry":null,"properties":{"source":"ru_mod","source_name":"Ministry of Defence of Russia","group":"official_ru","id":67553,"posted_utc":"2026-09-22T14:30:06+00:00","link":"https://t.me/mod_russia/67553","text":"🚫 Дроноводы «Днепра» избавляются от назойливых БПЛА противника\nДроноводы группировки «Днепр» внимательно следят за тем, чтобы над головами не летали вражеские разведывательные и ударные беспилотники.\n#ВойскаБПС\n▫️ Канал Минобороны России в MAКС – источник мощных новостей","links":["https://max.ru/morf"],"original_html":"<b><i class=\"emoji\" style=\"background-image:url('//telegram.org/img/emoji/40/F09F9AAB.png')\"><b>🚫</b></i> Дроноводы «Днепра» избавляются от назойливых БПЛА противника</b><br/><br/>Дроноводы группировки «Днепр» внимательно следят за тем, чтобы над головами не летали вражеские разведывательные и ударные беспилотники.<br/><br/><a href=\"?q=%23%D0%92%D0%BE%D0%B9%D1%81%D0%BA%D0%B0%D0%91%D0%9F%D0%A1\">#ВойскаБПС</a><br/><tg-emoji emoji-id=\"5352532894478793783\"><i class=\"emoji\" style=\"background-image:url('//telegram.org/img/emoji/40/E296AB.png')\"><b>▫️</b></i></tg-emoji> <a href=\"https://max.ru/morf\" target=\"_blank\" rel=\"noopener\" onclick=\"return confirm('Open this link?\\n\\n'+this.href);\">Канал Минобороны России в MAКС – источник мощных новостей</a>"}},{"type":"Feature","geometry":null,"properties":{"source":"ru_mod","source_name":"Ministry of Defence of Russia","group":"official_ru","id":67554,"posted_utc":"2026-09-22T15:41:42+00:00","link":"https://t.me/mod_russia/67554","text":"❗️ Сегодня днем Вооруженными Силами Российской Федерации продолжено нанесение ударов беспилотными летательными аппаратами по логистическим центрам и портовой инфраструктуре Украины, а также морским судам, задействованным в интересах ВСУ.\nВ результате ударов поражены:\n▫️ логистические центры «Пальма» и «Новая линия» в Одессе;\n▫️ в порту Одесса – морское судно типа «сухогруз», доставившее грузы военного назначения для обеспечения ВСУ.\n🔹 Канал Минобороны России в MAКС – боевая работа 24/7","links":["https://max.ru/morf"],"original_html":"<tg-emoji emoji-id=\"5447116342148753425\"><i class=\"emoji\" style=\"background-image:url('//telegram.org/img/emoji/40/E29D97.png')\"><b>❗️</b></i></tg-emoji> <b>Сегодня днем Вооруженными Силами Российской Федерации продолжено нанесение ударов беспилотными летательными аппаратами по логистическим центрам и портовой инфраструктуре Украины, а также морским судам, задействованным в интересах ВСУ.</b> <br/><br/>В результате ударов поражены:<br/><br/><tg-emoji emoji-id=\"5469903849483431273\"><i class=\"emoji\" style=\"background-image:url('//telegram.org/img/emoji/40/E296AB.png')\"><b>▫️</b></i></tg-emoji> <b>логистические центры «Пальма» и «Новая линия»</b> в Одессе;<br/><br/><tg-emoji emoji-id=\"5469903849483431273\"><i class=\"emoji\" style=\"background-image:url('//telegram.org/img/emoji/40/E296AB.png')\"><b>▫️</b></i></tg-emoji> в порту Одесса – <b>морское судно типа «сухогруз»</b>, доставившее грузы военного назначения для обеспечения ВСУ.<br/><br/><tg-emoji emoji-id=\"5269510734265483362\"><i class=\"emoji\" style=\"background-image:url('//telegram.org/img/emoji/40/F09F94B9.png')\"><b>🔹</b></i></tg-emoji> <a href=\"https://max.ru/morf\" target=\"_blank\" rel=\"noopener\" onclick=\"return confirm('Open this link?\\n\\n'+this.href);\">Канал Минобороны России в MAКС – боевая работа 24/7</a>"}},{"type":"Feature","geometry":null,"properties":{"source":"ru_mod","source_name":"Ministry of Defence of Russia","group":"official_ru","id":67555,"posted_utc":"2026-09-22T16:24:28+00:00","link":"https://t.me/mod_russia/67555","text":"Дрон с «сюрпризом»: бойцы «Центра» применили новую тактику тандемного удара\n🤝 Бойцы подразделения РХБ защиты группировки «Центр» опробовали тактику «тандемного удара» на Днепропетровском направлении.\n🎮 Дроноводы задействовали БПЛА самолётного типа «Молния-2» с прикреплённым к нему FPV-дроном. Такой тандем позволяет атаковать врага на гораздо большем расстоянии.\nНаши парни подробно рассказали о новой фишке ▶️\nСлужи по контракту в войсках беспилотных систем – управляй дронами. Подробности на сайте Беспилотныевойска.рф и по телефону 117(доб.4).\n#ВойскаБПС\n🔹 MAКС – территория СВОих","links":["http://%D0%91%D0%B5%D1%81%D0%BF%D0%B8%D0%BB%D0%BE%D1%82%D0%BD%D1%8B%D0%B5%D0%B2%D0%BE%D0%B9%D1%81%D0%BA%D0%B0.%D1%80%D1%84/","https://max.ru/morf"],"original_html":"<b>Дрон с «сюрпризом»: бойцы «Центра» применили новую тактику тандемного удара<br/></b><br/><tg-emoji emoji-id=\"5447324252925620983\"><i class=\"emoji\" style=\"background-image:url('//telegram.org/img/emoji/40/F09FA49D.png')\"><b>🤝</b></i></tg-emoji> Бойцы подразделения РХБ защиты группировки «Центр» опробовали тактику «тандемного удара» на Днепропетровском направлении. <br/><br/><tg-emoji emoji-id=\"5449767024165154360\"><i class=\"emoji\" style=\"background-image:url('//telegram.org/img/emoji/40/F09F8EAE.png')\"><b>🎮</b></i></tg-emoji> Дроноводы <b>задействовали БПЛА самолётного типа «Молния-2» с прикреплённым к нему FPV-дроном</b>. Такой тандем позволяет атаковать врага на гораздо большем расстоянии.<br/><br/>Наши парни подробно рассказали о новой фишке <i class=\"emoji\" style=\"background-image:url('//telegram.org/img/emoji/40/E296B6.png')\"><b>▶️</b></i> <br/><br/><i>Служи по контракту в войсках беспилотных систем – управляй дронами. Подробности на сайте </i><a href=\"http://%D0%91%D0%B5%D1%81%D0%BF%D0%B8%D0%BB%D0%BE%D1%82%D0%BD%D1%8B%D0%B5%D0%B2%D0%BE%D0%B9%D1%81%D0%BA%D0%B0.%D1%80%D1%84/\" target=\"_blank\" rel=\"noopener\"><i>Беспилотныевойска.рф</i></a><i> и по телефону 117(доб.4).</i><br/><br/><a href=\"?q=%23%D0%92%D0%BE%D0%B9%D1%81%D0%BA%D0%B0%D0%91%D0%9F%D0%A1\">#ВойскаБПС</a><br/><tg-emoji emoji-id=\"5269510734265483362\"><i class=\"emoji\" style=\"background-image:url('//telegram.org/img/emoji/40/F09F94B9.png')\"><b>🔹</b></i></tg-emoji> <a href=\"https://max.ru/morf\" target=\"_blank\" rel=\"noopener\" onclick=\"return confirm('Open this link?\\n\\n'+this.href);\">MAКС – территория СВОих</a>"}},{"type":"Feature","geometry":null,"properties":{"source":"ru_mod","source_name":"Ministry of Defence of Russia","group":"official_ru","id":67556,"posted_utc":"2026-09-22T17:23:16+00:00","link":"https://t.me/mod_russia/67556","text":"⚡️ В течение дня в период с 8.00 мск до 20.00 мск дежурными силами ПВО перехвачены и уничтожены 17 украинских беспилотных летательных аппаратов самолетного типа над территориями Курской и Белгородской областей, Республики Крым, а также над акваторией Черного моря.\n🔹 Канал Минобороны России в MAКС – боевая работа 24/7","links":["https://max.ru/morf"],"original_html":"<tg-emoji emoji-id=\"5449911936361724483\"><i class=\"emoji\" style=\"background-image:url('//telegram.org/img/emoji/40/E29AA1.png')\"><b>⚡️</b></i></tg-emoji> В течение дня в период с 8.00 мск до 20.00 мск дежурными силами ПВО <b>перехвачены и уничтожены 17 украинских беспилотных летательных аппаратов самолетного типа</b> над территориями Курской и Белгородской областей, Республики Крым, а также над акваторией Черного моря.<br/><br/><tg-emoji emoji-id=\"5269510734265483362\"><i class=\"emoji\" style=\"background-image:url('//telegram.org/img/emoji/40/F09F94B9.png')\"><b>🔹</b></i></tg-emoji> <a href=\"https://max.ru/morf\" target=\"_blank\" rel=\"noopener\" onclick=\"return confirm('Open this link?\\n\\n'+this.href);\">Канал Минобороны России в MAКС – боевая работа 24/7</a>"}},{"type":"Feature","geometry":null,"properties":{"source":"ru_mod","source_name":"Ministry of Defence of Russia","group":"official_ru","id":67557,"posted_utc":"2026-09-22T17:41:31+00:00","link":"https://t.me/mod_russia/67557","text":"💥 «Ураган» прошелся по противнику\nИвановские десантники накрыли огнем скопление пехоты ВСУ вблизи Орехова в Запорожской области.\n▫️ Канал Минобороны России в MAКС – источник мощных новостей","links":["https://max.ru/morf"],"original_html":"<tg-emoji emoji-id=\"5449682610877918293\"><i class=\"emoji\" style=\"background-image:url('//telegram.org/img/emoji/40/F09F92A5.png')\"><b>💥</b></i></tg-emoji> <b>«Ураган» прошелся по противнику</b><br/><br/>Ивановские десантники накрыли огнем скопление пехоты ВСУ вблизи Орехова в Запорожской области.<br/><br/><tg-emoji emoji-id=\"5352532894478793783\"><i class=\"emoji\" style=\"background-image:url('//telegram.org/img/emoji/40/E296AB.png')\"><b>▫️</b></i></tg-emoji> <a href=\"https://max.ru/morf\" target=\"_blank\" rel=\"noopener\" onclick=\"return confirm('Open this link?\\n\\n'+this.href);\">Канал Минобороны России в MAКС – источник мощных новостей</a>"}},{"type":"Feature","geometry":null,"properties":{"source":"ru_mod","source_name":"Ministry of Defence of Russia","group":"official_ru","id":67558,"posted_utc":"2026-09-22T18:31:56+00:00","link":"https://t.me/mod_russia/67558","text":"📆 Главное за день\n📍 Окружили Доброполье. «Скалу» разносим в камни: подразделения группировки «Центр» в результате активных и решительных действий завершили окружение крупного узла обороны ВСУ в городе Доброполье ДНР и развивают дальнейшее наступление в направлении Александровки.\n💥 Девятый вал: нанесли массированный удар по предприятиям металлургической и химической промышленности, топливно-энергетического и военно-промышленного комплекса, объектам портовой инфраструктуры Украины, а также морским судам, задействованным в интересах ВСУ.\n💬 Отрезаем маршруты и «накидываем» в тыл: подразделения группировки «Север» продолжают уверенно затягивать петлю вокруг сил противника в Харьковской области.\n👊 Вбиваем аргументы ФАБам: экипажи ВКС России ударили по пунктам управления БПЛА противника в ДНР и Сумской области.\n☦️ Подвиги Дмитрия Донского – наш ориентир: в полковом храме в Тамбовской области состоялся молебен по случаю обретения святых мощей великого князя.\nДень был насыщенным. Работаем дальше ▫️\n#ИтогиДня\n✈️ Курс на MAКС!","links":["https://t.me/mod_russia/67544","https://t.me/mod_russia/67542","https://t.me/mod_russia/67546","https://t.me/mod_russia/67550","https://t.me/mod_russia/67545","https://t.me/mod_russia/67537","https://max.ru/morf"],"original_html":"<b><tg-emoji emoji-id=\"5472282252048104170\"><i class=\"emoji\" style=\"background-image:url('//telegram.org/img/emoji/40/F09F9386.png')\"><b>📆</b></i></tg-emoji></b><b> Главное за день</b><br/><br/><tg-emoji emoji-id=\"5449396879588614682\"><i class=\"emoji\" style=\"background-image:url('//telegram.org/img/emoji/40/F09F938D.png')\"><b>📍</b></i></tg-emoji> <b>Окружили Доброполье. «Скалу» разносим в камни</b>: подразделения группировки «Центр» в результате активных и решительных действий <a href=\"https://t.me/mod_russia/67544\" target=\"_blank\" rel=\"noopener\" onclick=\"return confirm('Open this link?\\n\\n'+this.href);\">завершили окружение</a> крупного узла обороны ВСУ в городе Доброполье ДНР и развивают дальнейшее наступление в направлении Александровки. <br/><br/><tg-emoji emoji-id=\"5449682610877918293\"><i class=\"emoji\" style=\"background-image:url('//telegram.org/img/emoji/40/F09F92A5.png')\"><b>💥</b></i></tg-emoji> <a href=\"https://t.me/mod_russia/67542\" target=\"_blank\" rel=\"noopener\" onclick=\"return confirm('Open this link?\\n\\n'+this.href);\"><b>Девятый вал</b></a>: нанесли массированный <a href=\"https://t.me/mod_russia/67546\" target=\"_blank\" rel=\"noopener\" onclick=\"return confirm('Open this link?\\n\\n'+this.href);\">удар</a> по предприятиям металлургической и химической промышленности, топливно-энергетического и военно-промышленного комплекса, объектам портовой инфраструктуры Украины, а также морским судам, задействованным в интересах ВСУ. <br/><br/><tg-emoji emoji-id=\"5447486370761176298\"><i class=\"emoji\" style=\"background-image:url('//telegram.org/img/emoji/40/F09F92AC.png')\"><b>💬</b></i></tg-emoji> <b>Отрезаем маршруты и «накидываем» в тыл</b>: подразделения группировки «Север» продолжают уверенно <a href=\"https://t.me/mod_russia/67550\" target=\"_blank\" rel=\"noopener\" onclick=\"return confirm('Open this link?\\n\\n'+this.href);\">затягивать петлю</a> вокруг сил противника в Харьковской области. <br/><br/><i class=\"emoji\" style=\"background-image:url('//telegram.org/img/emoji/40/F09F918A.png')\"><b>👊</b></i> <b>Вбиваем аргументы ФАБам</b>: экипажи ВКС России <a href=\"https://t.me/mod_russia/67545\" target=\"_blank\" rel=\"noopener\" onclick=\"return confirm('Open this link?\\n\\n'+this.href);\">ударили</a> по пунктам управления БПЛА противника в ДНР и Сумской области. <br/><br/><i class=\"emoji\" style=\"background-image:url('//telegram.org/img/emoji/40/E298A6.png')\"><b>☦️</b></i> <b>Подвиги Дмитрия Донского – наш ориентир</b>: в полковом храме в Тамбовской области <a href=\"https://t.me/mod_russia/67537\" target=\"_blank\" rel=\"noopener\" onclick=\"return confirm('Open this link?\\n\\n'+this.href);\">состоялся молебен</a> по случаю обретения святых мощей великого князя. <br/><b> <br/>День был насыщенным. Работаем дальше </b><b><tg-emoji emoji-id=\"5352532894478793783\"><i class=\"emoji\" style=\"background-image:url('//telegram.org/img/emoji/40/E296AB.png')\"><b>▫️</b></i></tg-emoji></b><br/>&nbsp;<br/><a href=\"?q=%23%D0%98%D1%82%D0%BE%D0%B3%D0%B8%D0%94%D0%BD%D1%8F\">#ИтогиДня</a><br/><tg-emoji emoji-id=\"5449403034276751727\"><i class=\"emoji\" style=\"background-image:url('//telegram.org/img/emoji/40/E29C88.png')\"><b>✈️</b></i></tg-emoji> <a href=\"https://max.ru/morf\" target=\"_blank\" rel=\"noopener\" onclick=\"return confirm('Open this link?\\n\\n'+this.href);\">Курс на MAКС&#33;</a>"}},{"type":"Feature","geometry":null,"properties":{"source":"ru_mod","source_name":"Ministry of Defence of Russia","group":"official_ru","id":67559,"posted_utc":"2026-09-22T19:02:51+00:00","link":"https://t.me/mod_russia/67559","text":"💪 Нас небо обнимает навсегда\nА дома ждут любимые глаза❤️\n🔹 Минобороны России","links":["https://max.ru/morf"],"original_html":"<i class=\"emoji\" style=\"background-image:url('//telegram.org/img/emoji/40/F09F92AA.png')\"><b>💪</b></i> Нас небо обнимает навсегда<br/><br/>А дома ждут любимые глаза<i class=\"emoji\" style=\"background-image:url('//telegram.org/img/emoji/40/E29DA4.png')\"><b>❤️</b></i><br/><br/><tg-emoji emoji-id=\"5269510734265483362\"><i class=\"emoji\" style=\"background-image:url('//telegram.org/img/emoji/40/F09F94B9.png')\"><b>🔹</b></i></tg-emoji> <a href=\"https://max.ru/morf\" target=\"_blank\" rel=\"noopener\" onclick=\"return confirm('Open this link?\\n\\n'+this.href);\">Минобороны России</a>"}},{"type":"Feature","geometry":null,"properties":{"source":"ru_mod","source_name":"Ministry of Defence of Russia","group":"official_ru","id":67536,"posted_utc":"2026-09-22T02:06:01+00:00","link":"https://t.me/mod_russia/67536","text":"🌡 Поднимаем ГРАДус\nРасчет РСЗО «Град» группировки «Север» работает по укрепу ВСУ в Сумской области.\n⚔️ Канал Минобороны России в MAКС – боевая работа 24/7","links":["https://max.ru/morf"],"original_html":"<i class=\"emoji\" style=\"background-image:url('//telegram.org/img/emoji/40/F09F8CA1.png')\"><b>🌡</b></i> <b>Поднимаем ГРАДус</b><br/><br/>Расчет РСЗО «Град» группировки «Север» <b>работает по укрепу ВСУ</b> в Сумской области.<br/><br/><tg-emoji emoji-id=\"5352957387571492906\"><i class=\"emoji\" style=\"background-image:url('//telegram.org/img/emoji/40/E29A94.png')\"><b>⚔️</b></i></tg-emoji> <a href=\"https://max.ru/morf\" target=\"_blank\" rel=\"noopener\" onclick=\"return confirm('Open this link?\\n\\n'+this.href);\">Канал Минобороны России в MAКС – боевая работа 24/7</a>"}},{"type":"Feature","geometry":null,"properties":{"source":"ru_mod","source_name":"Ministry of Defence of Russia","group":"official_ru","id":67537,"posted_utc":"2026-09-22T03:33:01+00:00","link":"https://t.me/mod_russia/67537","text":"Подвиги Святого князя Дмитрия Донского – наш ориентир\n☦️ В полковом храме в Тамбовской области состоялся молебен по случаю обретения святых мощей великого князя Дмитрия Донского.\nБогослужения и беседы с личным составом в полковом храме проводятся на постоянной основе. В ходе этих встреч священники рассказывают военнослужащим о духовных основах воинского служения, подвигах святого благоверного князя Дмитрия Донского и традициях русского воинства.\n🔹 Минобороны России","links":["https://max.ru/morf"],"original_html":"<b>Подвиги Святого князя Дмитрия Донского – наш ориентир</b><br/><br/><i class=\"emoji\" style=\"background-image:url('//telegram.org/img/emoji/40/E298A6.png')\"><b>☦️</b></i> В полковом храме в Тамбовской области <b>состоялся молебен по случаю обретения святых мощей великого князя Дмитрия Донского</b>. <br/><br/>Богослужения и беседы с личным составом в полковом храме проводятся на постоянной основе. В ходе этих встреч священники рассказывают военнослужащим о духовных основах воинского служения, подвигах святого благоверного князя Дмитрия Донского и традициях русского воинства.<br/><br/><tg-emoji emoji-id=\"5269510734265483362\"><i class=\"emoji\" style=\"background-image:url('//telegram.org/img/emoji/40/F09F94B9.png')\"><b>🔹</b></i></tg-emoji> <a href=\"https://max.ru/morf\" target=\"_blank\" rel=\"noopener\" onclick=\"return confirm('Open this link?\\n\\n'+this.href);\">Минобороны России</a>"}},{"type":"Feature","geometry":null,"properties":{"source":"ru_mod","source_name":"Ministry of Defence of Russia","group":"official_ru","id":67540,"posted_utc":"2026-09-22T04:51:16+00:00","link":"https://t.me/mod_russia/67540","text":"⚡️ В течение прошедшей ночи дежурными силами ПВО перехвачены и уничтожены 297 беспилотных летательных аппаратов самолетного типа над территориями Белгородской, Брянской, Волгоградской, Воронежской, Курской, Липецкой, Нижегородской, Ростовской, Рязанской, Самарской, Саратовской, Смоленской, Тамбовской, Ульяновской областей и Республики Крым.\n💬 Канал Минобороны России в MAКС – только для своих!","links":["https://max.ru/morf"],"original_html":"<i class=\"emoji\" style=\"background-image:url('//telegram.org/img/emoji/40/E29AA1.png')\"><b>⚡️</b></i> В течение прошедшей ночи дежурными силами ПВО <b>перехвачены и уничтожены 297 беспилотных летательных аппаратов самолетного типа</b> над территориями Белгородской, Брянской, Волгоградской, Воронежской, Курской, Липецкой, Нижегородской, Ростовской, Рязанской, Самарской, Саратовской, Смоленской, Тамбовской, Ульяновской областей и Республики Крым.<br/><br/><tg-emoji emoji-id=\"5447486370761176298\"><i class=\"emoji\" style=\"background-image:url('//telegram.org/img/emoji/40/F09F92AC.png')\"><b>💬</b></i></tg-emoji> <a href=\"https://max.ru/morf\" target=\"_blank\" rel=\"noopener\" onclick=\"return confirm('Open this link?\\n\\n'+this.href);\">Канал Минобороны России в MAКС – только для своих&#33;</a>"}},{"type":"Feature","geometry":null,"properties":{"source":"ru_mod","source_name":"Ministry of Defence of Russia","group":"official_ru","id":67541,"posted_utc":"2026-09-22T05:10:27+00:00","link":"https://t.me/mod_russia/67541","text":"❗️ Сегодня ночью Вооруженными Силами Российской Федерации в результате массированного удара высокоточным оружием наземного, морского и воздушного базирования, беспилотными летательными аппаратами поражены предприятия металлургической и химической промышленности, топливно-энергетического и военно-промышленного комплекса, объекты портовой инфраструктуры Украины в Киеве, Днепропетровской, Полтавской и Одесской областях, а также морские суда, задействованные в интересах ВСУ.\nКанал Минобороны России в MAКС – боевая работа 24/7","links":["https://max.ru/morf"],"original_html":"<tg-emoji emoji-id=\"5447116342148753425\"><i class=\"emoji\" style=\"background-image:url('//telegram.org/img/emoji/40/E29D97.png')\"><b>❗️</b></i></tg-emoji> Сегодня ночью <b>Вооруженными Силами Российской Федерации в результате массированного удара высокоточным оружием наземного, морского и воздушного базирования, беспилотными летательными аппаратами поражены</b> предприятия металлургической и химической промышленности, топливно-энергетического и военно-промышленного комплекса, объекты портовой инфраструктуры Украины в Киеве, Днепропетровской, Полтавской и Одесской областях, а также морские суда, задействованные в интересах ВСУ.<br/><br/><a href=\"https://max.ru/morf\" target=\"_blank\" rel=\"noopener\" onclick=\"return confirm('Open this link?\\n\\n'+this.href);\">Канал Минобороны России в MAКС – боевая работа 24/7</a>"}},{"type":"Feature","geometry":null,"properties":{"source":"ru_mod","source_name":"Ministry of Defence of Russia","group":"official_ru","id":67542,"posted_utc":"2026-09-22T05:18:52+00:00","link":"https://t.me/mod_russia/67542","text":"❗️ Сегодня ночью Вооруженными Силами Российской Федерации в результате массированного удара высокоточным оружием наземного, морского и воздушного базирования, беспилотными летательными аппаратами поражены предприятия металлургической и химической промышленности…","links":[],"original_html":"<tg-emoji emoji-id=\"5447116342148753425\"><i class=\"emoji\" style=\"background-image:url('//telegram.org/img/emoji/40/E29D97.png')\"><b>❗️</b></i></tg-emoji> Сегодня ночью Вооруженными Силами Российской Федерации в результате массированного удара высокоточным оружием наземного, морского и воздушного базирования, беспилотными летательными аппаратами поражены предприятия металлургической и химической промышленности…"}},{"type":"Feature","geometry":null,"properties":{"source":"ru_mod","source_name":"Ministry of Defence of Russia","group":"official_ru","id":67544,"posted_utc":"2026-09-22T05:39:43+00:00","link":"https://t.me/mod_russia/67544","text":"Окружили Доброполье. «Скалу» разносим в камни\n❗️ Подразделения группировки войск «Центр» в результате активных и решительных действий завершили окружение крупного узла обороны ВСУ в городе Доброполье Донецкой Народной Республики и развивают дальнейшее наступление в направлении Александровки.\n▫️ В окружение попали подразделения 4-ой и 15-ой бригад национальной гвардии Украины и 425-го штурмового полка «Скала».\n⚡️ Ведется уничтожение блокированных формирований противника.\n🔹 Канал Минобороны России в MAКС – источник мощных новостей","links":["https://max.ru/morf"],"original_html":"<b>Окружили Доброполье. «Скалу» разносим в камни</b><br/><br/><tg-emoji emoji-id=\"5447116342148753425\"><i class=\"emoji\" style=\"background-image:url('//telegram.org/img/emoji/40/E29D97.png')\"><b>❗️</b></i></tg-emoji> Подразделения группировки войск «Центр» в результате активных и решительных действий <b>завершили окружение крупного узла обороны ВСУ в городе Доброполье</b> Донецкой Народной Республики и <b>развивают дальнейшее наступление в направлении Александровки</b>.<br/><br/><tg-emoji emoji-id=\"5469903849483431273\"><i class=\"emoji\" style=\"background-image:url('//telegram.org/img/emoji/40/E296AB.png')\"><b>▫️</b></i></tg-emoji> В окружение попали подразделения 4-ой и 15-ой бригад национальной гвардии Украины и 425-го штурмового полка «Скала». <br/><br/><tg-emoji emoji-id=\"5449911936361724483\"><i class=\"emoji\" style=\"background-image:url('//telegram.org/img/emoji/40/E29AA1.png')\"><b>⚡️</b></i></tg-emoji> <b>Ведется уничтожение блокированных формирований противника.</b><br/><br/><tg-emoji emoji-id=\"5269510734265483362\"><i class=\"emoji\" style=\"background-image:url('//telegram.org/img/emoji/40/F09F94B9.png')\"><b>🔹</b></i></tg-emoji> <a href=\"https://max.ru/morf\" target=\"_blank\" rel=\"noopener\" onclick=\"return confirm('Open this link?\\n\\n'+this.href);\">Канал Минобороны России в MAКС – источник мощных новостей</a>"}},{"type":"Feature","geometry":null,"properties":{"source":"ru_mod","source_name":"Ministry of Defence of Russia","group":"official_ru","id":67545,"posted_utc":"2026-09-22T06:05:04+00:00","link":"https://t.me/mod_russia/67545","text":"Вбиваем аргументы ФАБами 💥\n✈️ Экипажи ВКС России с применением ФАБ-1500 ударили по пунктам управления БПЛА противника в районе населенного пункта Хотень в Сумской области и Дружковке в ДНР.  Результат – все цели поражены.\n🔹 Канал Минобороны России в MAКС – боевая работа 24/7","links":["https://max.ru/morf"],"original_html":"<b>Вбиваем аргументы ФАБами</b> <tg-emoji emoji-id=\"5449682610877918293\"><i class=\"emoji\" style=\"background-image:url('//telegram.org/img/emoji/40/F09F92A5.png')\"><b>💥</b></i></tg-emoji><br/><br/><tg-emoji emoji-id=\"5449403034276751727\"><i class=\"emoji\" style=\"background-image:url('//telegram.org/img/emoji/40/E29C88.png')\"><b>✈️</b></i></tg-emoji> Экипажи ВКС России с применением ФАБ-1500 <b>ударили по пунктам управления БПЛА противника</b> в районе населенного пункта Хотень в Сумской области и Дружковке в ДНР.  Результат – все цели поражены.<br/><br/><tg-emoji emoji-id=\"5269510734265483362\"><i class=\"emoji\" style=\"background-image:url('//telegram.org/img/emoji/40/F09F94B9.png')\"><b>🔹</b></i></tg-emoji> <a href=\"https://max.ru/morf\" target=\"_blank\" rel=\"noopener\" onclick=\"return confirm('Open this link?\\n\\n'+this.href);\">Канал Минобороны России в MAКС – боевая работа 24/7</a>"}},{"type":"Feature","geometry":null,"properties":{"source":"ru_mod","source_name":"Ministry of Defence of Russia","group":"official_ru","id":67546,"posted_utc":"2026-09-22T06:51:01+00:00","link":"https://t.me/mod_russia/67546","text":"Цирконы с моря принесли врагу цунами и торнадо 🌪  🔹 Минобороны России","links":[],"original_html":"Цирконы с моря принесли врагу цунами и торнадо <i class=\"emoji\" style=\"background-image:url('//telegram.org/img/emoji/40/F09F8CAA.png')\"><b>🌪</b></i>  <tg-emoji emoji-id=\"5269510734265483362\"><i class=\"emoji\" style=\"background-image:url('//telegram.org/img/emoji/40/F09F94B9.png')\"><b>🔹</b></i></tg-emoji> Минобороны России"}},{"type":"Feature","geometry":null,"properties":{"source":"ru_mod","source_name":"Ministry of Defence of Russia","group":"official_ru","id":67547,"posted_utc":"2026-09-22T07:27:43+00:00","link":"https://t.me/mod_russia/67547","text":"💥 В эфире – тишина\nРасчеты БПЛА-К «Герань-4 сикер» поразили три радиолокационные станции и радиорелейную станцию связи ВСУ в Днепропетровской и Одесской областях.\n#ВойскаБПС\n🔹 Минобороны России","links":["https://max.ru/morf"],"original_html":"<b><tg-emoji emoji-id=\"5449682610877918293\"><i class=\"emoji\" style=\"background-image:url('//telegram.org/img/emoji/40/F09F92A5.png')\"><b>💥</b></i></tg-emoji></b><b> В эфире – тишина</b><br/><br/>Расчеты БПЛА-К «Герань-4 сикер» <b>поразили три радиолокационные станции и радиорелейную станцию связи ВСУ</b> в Днепропетровской и Одесской областях.<br/><br/><a href=\"?q=%23%D0%92%D0%BE%D0%B9%D1%81%D0%BA%D0%B0%D0%91%D0%9F%D0%A1\">#ВойскаБПС</a><br/><tg-emoji emoji-id=\"5269510734265483362\"><i class=\"emoji\" style=\"background-image:url('//telegram.org/img/emoji/40/F09F94B9.png')\"><b>🔹</b></i></tg-emoji> <a href=\"https://max.ru/morf\" target=\"_blank\" rel=\"noopener\" onclick=\"return confirm('Open this link?\\n\\n'+this.href);\">Минобороны России</a>"}},{"type":"Feature","geometry":null,"properties":{"source":"ru_mod","source_name":"Ministry of Defence of Russia","group":"official_ru","id":67548,"posted_utc":"2026-09-22T08:47:36+00:00","link":"https://t.me/mod_russia/67548","text":"«Ты можешь сбить тот дрон, который летел к тебе домой».\nВесной мы рассказывали вам о Иване Щербакове, который ушел служить в войска беспилотных систем с третьего курса своего вуза. Сегодня он — начальник расчета ударных БпЛА. Его «птицы» сбивают вражеские дроны, которые летят по нашим мирным жителям.\nВыполняя боевые задачи, Иван думает о родителях, которых сам теперь защищает. Пусть они гордятся сыном!\nРассказываем об участниках СВО в 📲 MAX,  📱 ВКонтакте и в 📱 Дзен","links":["https://t.me/heroesofZ/2207","https://max.ru/heroesofZ","https://vk.com/heroes0fz","http://dzen.ru/heroesofz"],"original_html":"<i>«Ты можешь сбить тот дрон, который летел к тебе домой».</i><br/><br/>Весной мы рассказывали вам о <a href=\"https://t.me/heroesofZ/2207\" target=\"_blank\" rel=\"noopener\" onclick=\"return confirm('Open this link?\\n\\n'+this.href);\"><b>Иване Щербакове</b></a>, который ушел служить в войска беспилотных систем с третьего курса своего вуза. Сегодня он — начальник расчета ударных БпЛА. Его «птицы» сбивают вражеские дроны, которые летят по нашим мирным жителям.<br/><br/>Выполняя боевые задачи, Иван думает о родителях, которых сам теперь защищает. Пусть они гордятся сыном&#33;<br/><br/><i>Рассказываем об участниках СВО в</i> <i><tg-emoji emoji-id=\"5449407131675558756\"><i class=\"emoji\" style=\"background-image:url('//telegram.org/img/emoji/40/F09F93B2.png')\"><b>📲</b></i></tg-emoji></i><i> </i><a href=\"https://max.ru/heroesofZ\" target=\"_blank\" rel=\"noopener\" onclick=\"return confirm('Open this link?\\n\\n'+this.href);\"><i>MAX</i></a>,<i>  </i><i><tg-emoji emoji-id=\"5334853932915114338\"><i class=\"emoji\" style=\"background-image:url('//telegram.org/img/emoji/40/F09F93B1.png')\"><b>📱</b></i></tg-emoji></i><i> </i><a href=\"https://vk.com/heroes0fz\" target=\"_blank\" rel=\"noopener\" onclick=\"return confirm('Open this link?\\n\\n'+this.href);\"><i>ВКонтакте</i></a> <i>и в </i><i><tg-emoji emoji-id=\"5321533581472842536\"><i class=\"emoji\" style=\"background-image:url('//telegram.org/img/emoji/40/F09F93B1.png')\"><b>📱</b></i></tg-emoji></i><i> </i><a href=\"http://dzen.ru/heroesofz\" target=\"_blank\" rel=\"noopener\" onclick=\"return confirm('Open this link?\\n\\n'+this.href);\"><i>Дзен</i></a>"}}]}