{"type":"FeatureCollection","features":[{"type":"Feature","geometry":{"type":"Point","coordinates":[30.83044,50.51959]},"properties":{"original":{"Date":"2026-08-18","Name":"18 AUG 2026","Faction":"Russia","Origin":"PIC","Latitude":"50.51959","Longitude":"30.83044","PlusCode":"9G2GGR9J+R5 Brovary, Kyiv Oblast, Ukraine","Description":"Point of view in an eastern direction - smoke is coming from a distribution center, reportedly the EVA distribution center, after a reported Russian drone strike.","Source":"https://x.com/zarGEOINT/status/2089640738262860080, https://t.me/smolii_ukraine/155867, , More information, https://www.ukrinform.net/amp/rubric-ato/4155102-russian-drones-attack-brovary-damage-office-building-warehouses.html","Geolocation":"https://x.com/zarGEOINT/status/2089642498125688891","Equipment":"","EquipmentItems":"","Units":"","OrbatUnits":"","Id":"ac5ce243-cad3-4be7-b337-04f6cb1a9536","icon":"/api/icons/E00000/False/template/20.png"},"source":"geoconfirmed","source_name":"GeoConfirmed","source_url":"https://geoconfirmed.org/map/ukraine","id":"ac5ce243-cad3-4be7-b337-04f6cb1a9536","date":"2026-08-18","link":"https://geoconfirmed.org/map/ukraine/ac5ce243-cad3-4be7-b337-04f6cb1a9536","category":"Picture - Always Point of View in description - - In the colour of who is doing the attack or is responsable for the incident in the picture.","side":"Russia","color":"#E00000","description":"Point of view in an eastern direction - smoke is coming from a distribution center, reportedly the EVA distribution center, after a reported Russian drone strike.","orbat":[],"geolocation":["https://x.com/zarGEOINT/status/2089642498125688891"],"sources":["https://x.com/zarGEOINT/status/2089640738262860080","https://t.me/smolii_ukraine/155867","https://www.ukrinform.net/amp/rubric-ato/4155102-russian-drones-attack-brovary-damage-office-building-warehouses.html"]}},{"type":"Feature","geometry":{"type":"Point","coordinates":[38.2739,48.434169]},"properties":{"original":{"Date":"2026-08-18","Name":"18 AUG 2026","Faction":"Russia","Origin":"UAV","Latitude":"48.434169","Longitude":"38.2739","PlusCode":"8GWWC7MF+MH Luhans'ke, Donetsk Oblast, Ukraine","Description":"2:36-2:44 - A Russian KamAZ truck was destroyed by Ukrainian drone Unmanned Systems Regiment \"Phoenix\" / \"Фенікс.","Source":"https://x.com/99Dominik_/status/2089618005734924401, https://www.youtube.com/watch?v=Rt_bd1LQ_PY","Geolocation":"https://x.com/99Dominik_/status/2089617495384551903","Equipment":"UNK (Type of KamAZ)","EquipmentItems":"","Units":"","OrbatUnits":"Unmanned Systems Regiment \"Phoenix\" / \"Фенікс\"","Id":"f3d3fd0b-851a-4264-82f8-10ec983ea13a","icon":"/api/icons/E00000/False/template/62.png"},"source":"geoconfirmed","source_name":"GeoConfirmed","source_url":"https://geoconfirmed.org/map/ukraine","id":"f3d3fd0b-851a-4264-82f8-10ec983ea13a","date":"2026-08-18","link":"https://geoconfirmed.org/map/ukraine/f3d3fd0b-851a-4264-82f8-10ec983ea13a","category":"Recently Destroyed/Damaged[Visible in footage] Logistical Trucks (Soft skin OR armoured)","side":"Russia","color":"#E00000","description":"2:36-2:44 - A Russian KamAZ truck was destroyed by Ukrainian drone Unmanned Systems Regiment \"Phoenix\" / \"Фенікс.","orbat":["Unmanned Systems Regiment \"Phoenix\" / \"Фенікс\""],"geolocation":["https://x.com/99Dominik_/status/2089617495384551903"],"sources":["https://x.com/99Dominik_/status/2089618005734924401","https://www.youtube.com/watch?v=Rt_bd1LQ_PY"]}},{"type":"Feature","geometry":{"type":"Point","coordinates":[37.723078,48.542316]},"properties":{"original":{"Date":"2026-08-18","Name":"18 AUG 2026","Faction":"Russia","Origin":"UAV","Latitude":"48.542316","Longitude":"37.723078","PlusCode":"8GWVGPRF+W6 Kostyantynivka, Donetsk Oblast, Ukraine","Description":"Russian soldier throws an anti-tank mine into a Ukrainian-held dugout near Kostyantynivka - blowing it up. recon by the 3rd Motorized Rifle Battalion, 136th Separate Guards Motorized Rifle Brigade","Source":"https://x.com/AudaxonX/status/2093292723516092784, https://t.me/pexotinesss/4608, ","Geolocation":"https://x.com/AudaxonX/status/2093292689114419545","Equipment":"","EquipmentItems":"TM-62","Units":"","OrbatUnits":"3rd Motorized Rifle Battalion","Id":"c60f3376-e7b2-4fb4-8b57-1a01902003fa","icon":"/api/icons/E00000/False/template/100.png"},"source":"geoconfirmed","source_name":"GeoConfirmed","source_url":"https://geoconfirmed.org/map/ukraine","id":"c60f3376-e7b2-4fb4-8b57-1a01902003fa","date":"2026-08-18","link":"https://geoconfirmed.org/map/ukraine/c60f3376-e7b2-4fb4-8b57-1a01902003fa","category":"Civilian or Soldier or Militant (Depending on the colour)","side":"Russia","color":"#E00000","description":"Russian soldier throws an anti-tank mine into a Ukrainian-held dugout near Kostyantynivka - blowing it up. recon by the 3rd Motorized Rifle Battalion, 136th Separate Guards Motorized Rifle Brigade","orbat":["3rd Motorized Rifle Battalion"],"geolocation":["https://x.com/AudaxonX/status/2093292689114419545"],"sources":["https://x.com/AudaxonX/status/2093292723516092784","https://t.me/pexotinesss/4608"]}},{"type":"Feature","geometry":{"type":"Point","coordinates":[36.08069,47.7293]},"properties":{"original":{"Date":"2026-08-18","Name":"18 AUG 2026","Faction":"Russia","Origin":"UAV","Latitude":"47.7293","Longitude":"36.08069","PlusCode":"","Description":"0:08-0:23,  - Russian artillery from the Vostok Grouping shelling claimed Ukrainian positions. (Date estimated)","Source":"https://x.com/moklasen/status/2096307335425622125, https://t.me/RtrDonetsk/38198","Geolocation":"https://x.com/moklasen/status/2096307326923813265","Equipment":"","EquipmentItems":"2S19 Msta-S","Units":"Vostok Grouping","OrbatUnits":"","Id":"8de37dde-8912-4c08-bf88-25ce111197fe","icon":"/api/icons/E00000/False/template/10.png"},"source":"geoconfirmed","source_name":"GeoConfirmed","source_url":"https://geoconfirmed.org/map/ukraine","id":"8de37dde-8912-4c08-bf88-25ce111197fe","date":"2026-08-18","link":"https://geoconfirmed.org/map/ukraine/8de37dde-8912-4c08-bf88-25ce111197fe","category":"Shelling by artillery or aerial bombings - Location of the shelling, colour of who is shelling; Brown = UXO","side":"Russia","color":"#E00000","description":"0:08-0:23,  - Russian artillery from the Vostok Grouping shelling claimed Ukrainian positions. (Date estimated)","orbat":["Vostok Grouping"],"geolocation":["https://x.com/moklasen/status/2096307326923813265"],"sources":["https://x.com/moklasen/status/2096307335425622125","https://t.me/RtrDonetsk/38198"]}},{"type":"Feature","geometry":{"type":"Point","coordinates":[37.694016,48.510722]},"properties":{"original":{"Date":"2026-08-18","Name":"18 AUG 2026","Faction":"Ukraine","Origin":"UAV","Latitude":"48.510722","Longitude":"37.694016","PlusCode":"8GWVGM6V+7J Kostyantynivka, Donetsk Oblast, Ukraine","Description":"0:37-0:38 - Fire Support Regiment \"Dnipro-1\" shells a claimed Russian position in Kostyantynivka with a 2A65 Msta-B.","Source":"https://x.com/AudaxonX/status/2090026017859506349, https://www.instagram.com/polk.dnipro1.npu/reel/DcLf5wzonA1/, https://t.me/liut_npu/1823","Geolocation":"https://x.com/GeoConfirmed/status/2090163691266216282, https://x.com/AudaxonX/status/2090026028210987129","Equipment":"","EquipmentItems":"2A65 Msta-B","Units":"","OrbatUnits":"Fire Support Regiment \"Dnipro-1\"","Id":"267bd730-0e0d-44ea-a295-2ea3fbabc055","icon":"/api/icons/0051CA/False/template/10.png"},"source":"geoconfirmed","source_name":"GeoConfirmed","source_url":"https://geoconfirmed.org/map/ukraine","id":"267bd730-0e0d-44ea-a295-2ea3fbabc055","date":"2026-08-18","link":"https://geoconfirmed.org/map/ukraine/267bd730-0e0d-44ea-a295-2ea3fbabc055","category":"Shelling by artillery or aerial bombings - Location of the shelling, colour of who is shelling; Brown = UXO","side":"Ukraine","color":"#0051CA","description":"0:37-0:38 - Fire Support Regiment \"Dnipro-1\" shells a claimed Russian position in Kostyantynivka with a 2A65 Msta-B.","orbat":["Fire Support Regiment \"Dnipro-1\""],"geolocation":["https://x.com/GeoConfirmed/status/2090163691266216282","https://x.com/AudaxonX/status/2090026028210987129"],"sources":["https://x.com/AudaxonX/status/2090026017859506349","https://www.instagram.com/polk.dnipro1.npu/reel/DcLf5wzonA1/","https://t.me/liut_npu/1823"]}},{"type":"Feature","geometry":{"type":"Point","coordinates":[34.627393,47.639398]},"properties":{"original":{"Date":"2026-08-18","Name":"18 AUG 2026","Faction":"Neutral","Origin":"VID","Latitude":"47.639398","Longitude":"34.627393","PlusCode":"8GVPJJQG+QX Marhanets', Dnipropetrovsk Oblast, Ukraine","Description":"0:03-2:15 - A damaged apartment building is seen, reportedly the result of a Russian drone strike, which resulted in the killing of a three-month-old boy and the injury of eleven other people.","Source":"Vid, https://x.com/99Dominik_/status/2089714203590283572, https://www.youtube.com/watch?v=JaSQKlOJgS8, Pic, https://x.com/99Dominik_/status/2089714669631971403, (2/5&3/5), https://x.com/99Dominik_/status/2089714669631971403, More information, https://armyinform.com.ua/en/2026/08/18/three-month-old-boy-killed-in-russian-strike-on-marhanets/","Geolocation":"https://x.com/99Dominik_/status/2089713854628372540","Equipment":"","EquipmentItems":"","Units":"","OrbatUnits":"","Id":"0bf0224d-ecfe-4d51-bb6b-61778ad59d56","icon":"/api/icons/AC7339/False/template/192.png"},"source":"geoconfirmed","source_name":"GeoConfirmed","source_url":"https://geoconfirmed.org/map/ukraine","id":"0bf0224d-ecfe-4d51-bb6b-61778ad59d56","date":"2026-08-18","link":"https://geoconfirmed.org/map/ukraine/0bf0224d-ecfe-4d51-bb6b-61778ad59d56","category":"Recently destroyed/Damaged[Visible in footage] or still burning infrastucture","side":"Neutral","color":"#AC7339","description":"0:03-2:15 - A damaged apartment building is seen, reportedly the result of a Russian drone strike, which resulted in the killing of a three-month-old boy and the injury of eleven other people.","orbat":[],"geolocation":["https://x.com/99Dominik_/status/2089713854628372540"],"sources":["https://x.com/99Dominik_/status/2089714203590283572","https://www.youtube.com/watch?v=JaSQKlOJgS8","https://x.com/99Dominik_/status/2089714669631971403","https://x.com/99Dominik_/status/2089714669631971403","https://armyinform.com.ua/en/2026/08/18/three-month-old-boy-killed-in-russian-strike-on-marhanets/"]}},{"type":"Feature","geometry":{"type":"Point","coordinates":[30.834685,50.51854]},"properties":{"original":{"Date":"2026-08-18","Name":"18 AUG 2026","Faction":"Russia","Origin":"VID","Latitude":"50.51854","Longitude":"30.834685","PlusCode":"9G2GGR9M+CV Brovary, Kyiv Oblast, Ukraine","Description":"Rough point of view looking in a north-northwest direction - smoke is coming from a distribution center after a reported Russian Geran-4 drone strike.","Source":"(1/2), https://x.com/SU_57R/status/2089777840686567822, (2/2), https://t.me/geranium_chronicles/80212, , More information, https://www.ukrinform.net/amp/rubric-ato/4155102-russian-drones-attack-brovary-damage-office-building-warehouses.html","Geolocation":"https://x.com/Zeldamices/status/2089853839067259176","Equipment":"(Reported)","EquipmentItems":"Geran-4","Units":"","OrbatUnits":"","Id":"7131b8b6-a280-4abb-af93-6a025d8d6a70","icon":"/api/icons/E00000/False/template/30.png"},"source":"geoconfirmed","source_name":"GeoConfirmed","source_url":"https://geoconfirmed.org/map/ukraine","id":"7131b8b6-a280-4abb-af93-6a025d8d6a70","date":"2026-08-18","link":"https://geoconfirmed.org/map/ukraine/7131b8b6-a280-4abb-af93-6a025d8d6a70","category":"Video - Always Point of View in description - In the colour of who is doing the attack or is responsable for the incident in the video.","side":"Russia","color":"#E00000","description":"Rough point of view looking in a north-northwest direction - smoke is coming from a distribution center after a reported Russian Geran-4 drone strike.","orbat":[],"geolocation":["https://x.com/Zeldamices/status/2089853839067259176"],"sources":["https://x.com/SU_57R/status/2089777840686567822","https://t.me/geranium_chronicles/80212","https://www.ukrinform.net/amp/rubric-ato/4155102-russian-drones-attack-brovary-damage-office-building-warehouses.html"]}},{"type":"Feature","geometry":{"type":"Point","coordinates":[37.659729,48.503013]},"properties":{"original":{"Date":"2026-08-18","Name":"18 AUG 2026","Faction":"Russia","Origin":"UAV","Latitude":"48.503013","Longitude":"37.659729","PlusCode":"8GWVGM35+6V Illinivka, Donetsk Oblast, Ukraine","Description":"0:07-0:10 - Russian soldier hit by Ukrainian FPV drone of the 156th Mechanized Brigade","Source":"https://x.com/AudaxonX/status/2093294096605380823, https://t.me/OMBR156/3450","Geolocation":"https://x.com/AudaxonX/status/2093294052485534188","Equipment":"","EquipmentItems":"FPV (First Person View) OWAD (One Way Attack Drone)","Units":"","OrbatUnits":"156th Mechanized Brigade","Id":"550ab161-14ce-429a-ac30-6cfda53794e0","icon":"/api/icons/E00000/False/template/92.png"},"source":"geoconfirmed","source_name":"GeoConfirmed","source_url":"https://geoconfirmed.org/map/ukraine","id":"550ab161-14ce-429a-ac30-6cfda53794e0","date":"2026-08-18","link":"https://geoconfirmed.org/map/ukraine/550ab161-14ce-429a-ac30-6cfda53794e0","category":"WIA/KIA Soldier/Militant","side":"Russia","color":"#E00000","description":"0:07-0:10 - Russian soldier hit by Ukrainian FPV drone of the 156th Mechanized Brigade","orbat":["156th Mechanized Brigade"],"geolocation":["https://x.com/AudaxonX/status/2093294052485534188"],"sources":["https://x.com/AudaxonX/status/2093294096605380823","https://t.me/OMBR156/3450"]}},{"type":"Feature","geometry":{"type":"Point","coordinates":[37.587136,49.737468]},"properties":{"original":{"Date":"2026-08-18","Name":"18 AUG 2026","Faction":"Russia","Origin":"UAV","Latitude":"49.737468","Longitude":"37.587136","PlusCode":"8GXVPHPP+XV Myrove, Kharkiv Oblast, Ukraine","Description":"0:24-end - Rough location - Ukrainian drone intercepted by FPV from Drone Unit \"kcaebirds\".","Source":"https://x.com/Zeldamices/status/2090390684146520538, https://t.me/kcaebirds/3234","Geolocation":"https://x.com/ChaMapping/status/2090347611702378926","Equipment":"","EquipmentItems":"Reconnaissance UAV | FPV (First Person View) OWAD (One Way Attack Drone)","Units":"","OrbatUnits":"Drone Unit \"kcaebirds\"","Id":"0b81f511-5efb-412a-92f4-739ddbc9e04c","icon":"/api/icons/E00000/False/template/82c8f84f-3212-4d5f-8a7f-9fafdcb97265.png"},"source":"geoconfirmed","source_name":"GeoConfirmed","source_url":"https://geoconfirmed.org/map/ukraine","id":"0b81f511-5efb-412a-92f4-739ddbc9e04c","date":"2026-08-18","link":"https://geoconfirmed.org/map/ukraine/0b81f511-5efb-412a-92f4-739ddbc9e04c","category":"Interception of a UAV - Colour of the force intercepting - If UAV destroyed --> Destroyed UAV icon instead.","side":"Russia","color":"#E00000","description":"0:24-end - Rough location - Ukrainian drone intercepted by FPV from Drone Unit \"kcaebirds\".","orbat":["Drone Unit \"kcaebirds\""],"geolocation":["https://x.com/ChaMapping/status/2090347611702378926"],"sources":["https://x.com/Zeldamices/status/2090390684146520538","https://t.me/kcaebirds/3234"]}},{"type":"Feature","geometry":{"type":"Point","coordinates":[37.694028,48.508744]},"properties":{"original":{"Date":"2026-08-18","Name":"18 AUG 2026","Faction":"Ukraine","Origin":"UAV","Latitude":"48.508744","Longitude":"37.694028","PlusCode":"8GWVGM5V+FJ Kostyantynivka, Donetsk Oblast, Ukraine","Description":"0:51-0:55 - Fire Support Regiment \"Dnipro-1\" shells a claimed Russian position in Kostyantynivka with a 2A65 Msta-B. ","Source":"https://x.com/AudaxonX/status/2090026017859506349, https://www.instagram.com/polk.dnipro1.npu/reel/DcLf5wzonA1/, https://t.me/liut_npu/1823","Geolocation":"https://x.com/GeoConfirmed/status/2090163691266216282, https://x.com/AudaxonX/status/2090026049790726570","Equipment":"","EquipmentItems":"2A65 Msta-B","Units":"","OrbatUnits":"Fire Support Regiment \"Dnipro-1\"","Id":"e291ea00-eba4-4d31-b093-7cc819a131de","icon":"/api/icons/0051CA/False/template/10.png"},"source":"geoconfirmed","source_name":"GeoConfirmed","source_url":"https://geoconfirmed.org/map/ukraine","id":"e291ea00-eba4-4d31-b093-7cc819a131de","date":"2026-08-18","link":"https://geoconfirmed.org/map/ukraine/e291ea00-eba4-4d31-b093-7cc819a131de","category":"Shelling by artillery or aerial bombings - Location of the shelling, colour of who is shelling; Brown = UXO","side":"Ukraine","color":"#0051CA","description":"0:51-0:55 - Fire Support Regiment \"Dnipro-1\" shells a claimed Russian position in Kostyantynivka with a 2A65 Msta-B.","orbat":["Fire Support Regiment \"Dnipro-1\""],"geolocation":["https://x.com/GeoConfirmed/status/2090163691266216282","https://x.com/AudaxonX/status/2090026049790726570"],"sources":["https://x.com/AudaxonX/status/2090026017859506349","https://www.instagram.com/polk.dnipro1.npu/reel/DcLf5wzonA1/","https://t.me/liut_npu/1823"]}},{"type":"Feature","geometry":{"type":"Point","coordinates":[36.277564,47.674279]},"properties":{"original":{"Date":"2026-08-18","Name":"18 AUG 2026","Faction":"Russia","Origin":"UAV","Latitude":"47.674279","Longitude":"36.277564","PlusCode":"8GVRM7FH+P2 Hulyaipole, Zaporizhia Oblast, Ukraine","Description":"0:00-0:25 - Russian 2S3 Akatsiya self-propelled gun destroyed by Ukrainian drones of the 44th Artillery Brigade","Source":"https://x.com/99Dominik_/status/2098002230775366065, https://www.youtube.com/watch?v=8w4-Es3D-q0, ","Geolocation":"https://x.com/99Dominik_/status/2098001225136349387","Equipment":"","EquipmentItems":"Fixed Wing OWAD (One Way Attack Drone) | 2S3 Akatsiya (US Army: M1973; GRAU: 2S3) ","Units":"","OrbatUnits":"44th Artillery Brigade","Id":"99b914b9-3446-41b5-83f7-7e174353dc94","icon":"/api/icons/E00000/False/template/02.png"},"source":"geoconfirmed","source_name":"GeoConfirmed","source_url":"https://geoconfirmed.org/map/ukraine","id":"99b914b9-3446-41b5-83f7-7e174353dc94","date":"2026-08-18","link":"https://geoconfirmed.org/map/ukraine/99b914b9-3446-41b5-83f7-7e174353dc94","category":"Recently Destroyed/Damaged[Visible in footage] Artillery","side":"Russia","color":"#E00000","description":"0:00-0:25 - Russian 2S3 Akatsiya self-propelled gun destroyed by Ukrainian drones of the 44th Artillery Brigade","orbat":["44th Artillery Brigade"],"geolocation":["https://x.com/99Dominik_/status/2098001225136349387"],"sources":["https://x.com/99Dominik_/status/2098002230775366065","https://www.youtube.com/watch?v=8w4-Es3D-q0"]}},{"type":"Feature","geometry":{"type":"Point","coordinates":[37.631345,48.562556]},"properties":{"original":{"Date":"2026-08-18","Name":"18 AUG 2026","Faction":"Ukraine","Origin":"UAV","Latitude":"48.562556","Longitude":"37.631345","PlusCode":"8GWVHJ7J+2G Kostyantynivka, Donetsk Oblast, Ukraine","Description":"0:41-0:42 - Fire Support Regiment \"Dnipro-1\" shells a claimed Russian position in Kostyantynivka with a 2A65 Msta-B.","Source":"https://x.com/AudaxonX/status/2090026017859506349, https://www.instagram.com/polk.dnipro1.npu/reel/DcLf5wzonA1/, https://t.me/liut_npu/1823","Geolocation":"https://x.com/GeoConfirmed/status/2090163691266216282, https://x.com/AudaxonX/status/2090026039581753764","Equipment":"","EquipmentItems":"2A65 Msta-B","Units":"","OrbatUnits":"Fire Support Regiment \"Dnipro-1\"","Id":"ded1c8d6-63a9-49f5-8b02-813e3c3477ac","icon":"/api/icons/0051CA/False/template/10.png"},"source":"geoconfirmed","source_name":"GeoConfirmed","source_url":"https://geoconfirmed.org/map/ukraine","id":"ded1c8d6-63a9-49f5-8b02-813e3c3477ac","date":"2026-08-18","link":"https://geoconfirmed.org/map/ukraine/ded1c8d6-63a9-49f5-8b02-813e3c3477ac","category":"Shelling by artillery or aerial bombings - Location of the shelling, colour of who is shelling; Brown = UXO","side":"Ukraine","color":"#0051CA","description":"0:41-0:42 - Fire Support Regiment \"Dnipro-1\" shells a claimed Russian position in Kostyantynivka with a 2A65 Msta-B.","orbat":["Fire Support Regiment \"Dnipro-1\""],"geolocation":["https://x.com/GeoConfirmed/status/2090163691266216282","https://x.com/AudaxonX/status/2090026039581753764"],"sources":["https://x.com/AudaxonX/status/2090026017859506349","https://www.instagram.com/polk.dnipro1.npu/reel/DcLf5wzonA1/","https://t.me/liut_npu/1823"]}},{"type":"Feature","geometry":{"type":"Point","coordinates":[37.676013,48.505974]},"properties":{"original":{"Date":"2026-08-18","Name":"18 AUG 2026","Faction":"Ukraine","Origin":"UAV","Latitude":"48.505974","Longitude":"37.676013","PlusCode":"8GWVGM4G+9C Kostyantynivka, Donetsk Oblast, Ukraine","Description":"1:08-1:11 - Rough location - Fire Support Regiment \"Dnipro-1\" shells a claimed Russian position in Kostyantynivka with a 2A65 Msta-B. ","Source":"https://x.com/AudaxonX/status/2090026017859506349, https://www.instagram.com/polk.dnipro1.npu/reel/DcLf5wzonA1/, https://t.me/liut_npu/1823","Geolocation":"https://x.com/GeoConfirmed/status/2090163691266216282, https://x.com/AudaxonX/status/2090026064013574479","Equipment":"","EquipmentItems":"2A65 Msta-B","Units":"","OrbatUnits":"Fire Support Regiment \"Dnipro-1\"","Id":"2524e092-f6bf-4578-b427-87db604b2cae","icon":"/api/icons/0051CA/False/template/10.png"},"source":"geoconfirmed","source_name":"GeoConfirmed","source_url":"https://geoconfirmed.org/map/ukraine","id":"2524e092-f6bf-4578-b427-87db604b2cae","date":"2026-08-18","link":"https://geoconfirmed.org/map/ukraine/2524e092-f6bf-4578-b427-87db604b2cae","category":"Shelling by artillery or aerial bombings - Location of the shelling, colour of who is shelling; Brown = UXO","side":"Ukraine","color":"#0051CA","description":"1:08-1:11 - Rough location - Fire Support Regiment \"Dnipro-1\" shells a claimed Russian position in Kostyantynivka with a 2A65 Msta-B.","orbat":["Fire Support Regiment \"Dnipro-1\""],"geolocation":["https://x.com/GeoConfirmed/status/2090163691266216282","https://x.com/AudaxonX/status/2090026064013574479"],"sources":["https://x.com/AudaxonX/status/2090026017859506349","https://www.instagram.com/polk.dnipro1.npu/reel/DcLf5wzonA1/","https://t.me/liut_npu/1823"]}},{"type":"Feature","geometry":{"type":"Point","coordinates":[37.668197,48.536542]},"properties":{"original":{"Date":"2026-08-18","Name":"18 AUG 2026","Faction":"Ukraine","Origin":"UAV","Latitude":"48.536542","Longitude":"37.668197","PlusCode":"8GWVGMP9+J7 Kostyantynivka, Donetsk Oblast, Ukraine","Description":"0:34-0:36 - Fire Support Regiment \"Dnipro-1\" shells a claimed Russian position in Kostyantynivka with a 2A65 Msta-B.","Source":"https://x.com/AudaxonX/status/2090026017859506349, https://www.instagram.com/polk.dnipro1.npu/reel/DcLf5wzonA1/, https://t.me/liut_npu/1823","Geolocation":"https://x.com/GeoConfirmed/status/2090163691266216282, https://x.com/AudaxonX/status/2090026024004198888","Equipment":"","EquipmentItems":"2A65 Msta-B","Units":"","OrbatUnits":"Fire Support Regiment \"Dnipro-1\"","Id":"621dcf1a-7b2c-4ce8-b2e5-89f90a73e9c7","icon":"/api/icons/0051CA/False/template/10.png"},"source":"geoconfirmed","source_name":"GeoConfirmed","source_url":"https://geoconfirmed.org/map/ukraine","id":"621dcf1a-7b2c-4ce8-b2e5-89f90a73e9c7","date":"2026-08-18","link":"https://geoconfirmed.org/map/ukraine/621dcf1a-7b2c-4ce8-b2e5-89f90a73e9c7","category":"Shelling by artillery or aerial bombings - Location of the shelling, colour of who is shelling; Brown = UXO","side":"Ukraine","color":"#0051CA","description":"0:34-0:36 - Fire Support Regiment \"Dnipro-1\" shells a claimed Russian position in Kostyantynivka with a 2A65 Msta-B.","orbat":["Fire Support Regiment \"Dnipro-1\""],"geolocation":["https://x.com/GeoConfirmed/status/2090163691266216282","https://x.com/AudaxonX/status/2090026024004198888"],"sources":["https://x.com/AudaxonX/status/2090026017859506349","https://www.instagram.com/polk.dnipro1.npu/reel/DcLf5wzonA1/","https://t.me/liut_npu/1823"]}},{"type":"Feature","geometry":{"type":"Point","coordinates":[36.0927,47.71235]},"properties":{"original":{"Date":"2026-08-18","Name":"18 AUG 2026","Faction":"Russia","Origin":"UAV","Latitude":"47.71235","Longitude":"36.0927","PlusCode":"","Description":"0:39-0:42 - Russian artillery from the Vostok Grouping shelling claimed Ukrainian positions. (Date estimated)","Source":"https://x.com/moklasen/status/2096307335425622125, https://t.me/RtrDonetsk/38198","Geolocation":"https://x.com/moklasen/status/2096307331470356929","Equipment":"","EquipmentItems":"2S19 Msta-S","Units":"Vostok Grouping","OrbatUnits":"","Id":"77301691-d0d4-459f-b844-8c6b3a91a181","icon":"/api/icons/E00000/False/template/10.png"},"source":"geoconfirmed","source_name":"GeoConfirmed","source_url":"https://geoconfirmed.org/map/ukraine","id":"77301691-d0d4-459f-b844-8c6b3a91a181","date":"2026-08-18","link":"https://geoconfirmed.org/map/ukraine/77301691-d0d4-459f-b844-8c6b3a91a181","category":"Shelling by artillery or aerial bombings - Location of the shelling, colour of who is shelling; Brown = UXO","side":"Russia","color":"#E00000","description":"0:39-0:42 - Russian artillery from the Vostok Grouping shelling claimed Ukrainian positions. (Date estimated)","orbat":["Vostok Grouping"],"geolocation":["https://x.com/moklasen/status/2096307331470356929"],"sources":["https://x.com/moklasen/status/2096307335425622125","https://t.me/RtrDonetsk/38198"]}},{"type":"Feature","geometry":{"type":"Point","coordinates":[37.702039,48.514859]},"properties":{"original":{"Date":"2026-08-18","Name":"18 AUG 2026","Faction":"Ukraine","Origin":"UAV","Latitude":"48.514859","Longitude":"37.702039","PlusCode":"8GWVGP72+WR Kostyantynivka, Donetsk Oblast, Ukraine","Description":"1:23-end - Fire Support Regiment \"Dnipro-1\" shells a claimed Russian position in Kostyantynivka with a 2A65 Msta-B. ","Source":"https://x.com/AudaxonX/status/2090026017859506349, https://www.instagram.com/polk.dnipro1.npu/reel/DcLf5wzonA1/, https://t.me/liut_npu/1823","Geolocation":"https://x.com/GeoConfirmed/status/2090163691266216282, https://x.com/AudaxonX/status/2090026070976159776","Equipment":"","EquipmentItems":"2A65 Msta-B","Units":"","OrbatUnits":"Fire Support Regiment \"Dnipro-1\"","Id":"bc88d93d-e498-40d0-ac0b-8cc2590ecaf3","icon":"/api/icons/0051CA/False/template/10.png"},"source":"geoconfirmed","source_name":"GeoConfirmed","source_url":"https://geoconfirmed.org/map/ukraine","id":"bc88d93d-e498-40d0-ac0b-8cc2590ecaf3","date":"2026-08-18","link":"https://geoconfirmed.org/map/ukraine/bc88d93d-e498-40d0-ac0b-8cc2590ecaf3","category":"Shelling by artillery or aerial bombings - Location of the shelling, colour of who is shelling; Brown = UXO","side":"Ukraine","color":"#0051CA","description":"1:23-end - Fire Support Regiment \"Dnipro-1\" shells a claimed Russian position in Kostyantynivka with a 2A65 Msta-B.","orbat":["Fire Support Regiment \"Dnipro-1\""],"geolocation":["https://x.com/GeoConfirmed/status/2090163691266216282","https://x.com/AudaxonX/status/2090026070976159776"],"sources":["https://x.com/AudaxonX/status/2090026017859506349","https://www.instagram.com/polk.dnipro1.npu/reel/DcLf5wzonA1/","https://t.me/liut_npu/1823"]}},{"type":"Feature","geometry":{"type":"Point","coordinates":[30.828642,50.536164]},"properties":{"original":{"Date":"2026-08-18","Name":"18 AUG 2026","Faction":"Neutral","Origin":"UAV","Latitude":"50.536164","Longitude":"30.828642","PlusCode":"9G2GGRPH+FF Brovary, Kyiv Oblast, Ukraine","Description":"0:00-0:09 - Rough location - Russian Geran-4 drone attacked a 'Berger Cargo' warehouse. Satellite imagery reveals the damage.","Source":"Vid, Moment of attack, https://x.com/AMK_Mapping_/status/2090316968612212891, , SAT, Aftermath, https://x.com/Zeldamices/status/2090336993364349188","Geolocation":"https://x.com/Zeldamices/status/2090325672132538643","Equipment":"","EquipmentItems":"Geran-4","Units":"","OrbatUnits":"","Id":"c3f7c503-c92a-4349-be01-8fad3a437f0c","icon":"/api/icons/AC7339/False/template/192.png"},"source":"geoconfirmed","source_name":"GeoConfirmed","source_url":"https://geoconfirmed.org/map/ukraine","id":"c3f7c503-c92a-4349-be01-8fad3a437f0c","date":"2026-08-18","link":"https://geoconfirmed.org/map/ukraine/c3f7c503-c92a-4349-be01-8fad3a437f0c","category":"Recently destroyed/Damaged[Visible in footage] or still burning infrastucture","side":"Neutral","color":"#AC7339","description":"0:00-0:09 - Rough location - Russian Geran-4 drone attacked a 'Berger Cargo' warehouse. Satellite imagery reveals the damage.","orbat":[],"geolocation":["https://x.com/Zeldamices/status/2090325672132538643"],"sources":["https://x.com/AMK_Mapping_/status/2090316968612212891","https://x.com/Zeldamices/status/2090336993364349188"]}},{"type":"Feature","geometry":{"type":"Point","coordinates":[37.692894,48.515362]},"properties":{"original":{"Date":"2026-08-18","Name":"18 AUG 2026","Faction":"Ukraine","Origin":"UAV","Latitude":"48.515362","Longitude":"37.692894","PlusCode":"8GWVGM8V+45 Kostyantynivka, Donetsk Oblast, Ukraine","Description":"0:44-0:46 - Fire Support Regiment \"Dnipro-1\" shells a claimed Russian position near the damaged building of Fire station N°41 in Kostyantynivka with a 2A65 Msta-B., ","Source":"https://x.com/AudaxonX/status/2090026017859506349, https://www.instagram.com/polk.dnipro1.npu/reel/DcLf5wzonA1/, https://t.me/liut_npu/1823","Geolocation":"https://x.com/GeoConfirmed/status/2090163691266216282, https://x.com/AudaxonX/status/2090026043184755085","Equipment":"","EquipmentItems":"2A65 Msta-B","Units":"","OrbatUnits":"Fire Support Regiment \"Dnipro-1\"","Id":"a3622113-72c3-42f2-8ef9-9c6ae4b0f0f7","icon":"/api/icons/0051CA/False/template/10.png"},"source":"geoconfirmed","source_name":"GeoConfirmed","source_url":"https://geoconfirmed.org/map/ukraine","id":"a3622113-72c3-42f2-8ef9-9c6ae4b0f0f7","date":"2026-08-18","link":"https://geoconfirmed.org/map/ukraine/a3622113-72c3-42f2-8ef9-9c6ae4b0f0f7","category":"Shelling by artillery or aerial bombings - Location of the shelling, colour of who is shelling; Brown = UXO","side":"Ukraine","color":"#0051CA","description":"0:44-0:46 - Fire Support Regiment \"Dnipro-1\" shells a claimed Russian position near the damaged building of Fire station N°41 in Kostyantynivka with a 2A65 Msta-B.,","orbat":["Fire Support Regiment \"Dnipro-1\""],"geolocation":["https://x.com/GeoConfirmed/status/2090163691266216282","https://x.com/AudaxonX/status/2090026043184755085"],"sources":["https://x.com/AudaxonX/status/2090026017859506349","https://www.instagram.com/polk.dnipro1.npu/reel/DcLf5wzonA1/","https://t.me/liut_npu/1823"]}},{"type":"Feature","geometry":{"type":"Point","coordinates":[37.697057,48.517162]},"properties":{"original":{"Date":"2026-08-18","Name":"18 AUG 2026","Faction":"Ukraine","Origin":"UAV","Latitude":"48.517162","Longitude":"37.697057","PlusCode":"8GWVGM8W+VR Kostyantynivka, Donetsk Oblast, Ukraine","Description":"1:18-1:22 - Rough location - Fire Support Regiment \"Dnipro-1\" shells a claimed Russian position in Kostyantynivka with a 2A65 Msta-B. ","Source":"https://x.com/AudaxonX/status/2090026017859506349, https://www.instagram.com/polk.dnipro1.npu/reel/DcLf5wzonA1/, https://t.me/liut_npu/1823","Geolocation":"https://x.com/GeoConfirmed/status/2090163691266216282, https://x.com/AudaxonX/status/2090026067411017991","Equipment":"","EquipmentItems":"2A65 Msta-B","Units":"","OrbatUnits":"Fire Support Regiment \"Dnipro-1\"","Id":"752d62c2-cf97-47f2-bee4-aa2c2e47276c","icon":"/api/icons/0051CA/False/template/10.png"},"source":"geoconfirmed","source_name":"GeoConfirmed","source_url":"https://geoconfirmed.org/map/ukraine","id":"752d62c2-cf97-47f2-bee4-aa2c2e47276c","date":"2026-08-18","link":"https://geoconfirmed.org/map/ukraine/752d62c2-cf97-47f2-bee4-aa2c2e47276c","category":"Shelling by artillery or aerial bombings - Location of the shelling, colour of who is shelling; Brown = UXO","side":"Ukraine","color":"#0051CA","description":"1:18-1:22 - Rough location - Fire Support Regiment \"Dnipro-1\" shells a claimed Russian position in Kostyantynivka with a 2A65 Msta-B.","orbat":["Fire Support Regiment \"Dnipro-1\""],"geolocation":["https://x.com/GeoConfirmed/status/2090163691266216282","https://x.com/AudaxonX/status/2090026067411017991"],"sources":["https://x.com/AudaxonX/status/2090026017859506349","https://www.instagram.com/polk.dnipro1.npu/reel/DcLf5wzonA1/","https://t.me/liut_npu/1823"]}},{"type":"Feature","geometry":{"type":"Point","coordinates":[35.552607,47.780119]},"properties":{"original":{"Date":"2026-08-18","Name":"18 AUG 2026","Faction":"Russia","Origin":"","Latitude":"47.780119","Longitude":"35.552607","PlusCode":"8GVQQHJ3+22 Shchaslyve, Zaporizhia Oblast, Ukraine","Description":"A Russian FPV drone reportedly attacked a combine harvester. One man was killed and another was injured.","Source":"https://x.com/99Dominik_/status/2089738570214805672, https://t.me/police_zp_news/30898, https://www.youtube.com/watch?v=HiyBdpPj6EY","Geolocation":"https://x.com/99Dominik_/status/2089737388452876744","Equipment":"Combine Harvester","EquipmentItems":"FPV (First Person View) OWAD (One Way Attack Drone)","Units":"","OrbatUnits":"","Id":"19877d1e-be53-401e-8c05-ba155677cf9c","icon":"/api/icons/E00000/False/template/50.png"},"source":"geoconfirmed","source_name":"GeoConfirmed","source_url":"https://geoconfirmed.org/map/ukraine","id":"19877d1e-be53-401e-8c05-ba155677cf9c","date":"2026-08-18","link":"https://geoconfirmed.org/map/ukraine/19877d1e-be53-401e-8c05-ba155677cf9c","category":"Killed or wounded civilian. Potential Warcrime. In the colour of who is assessed as doing the attack/killing.","side":"Russia","color":"#E00000","description":"A Russian FPV drone reportedly attacked a combine harvester. One man was killed and another was injured.","orbat":[],"geolocation":["https://x.com/99Dominik_/status/2089737388452876744"],"sources":["https://x.com/99Dominik_/status/2089738570214805672","https://t.me/police_zp_news/30898","https://www.youtube.com/watch?v=HiyBdpPj6EY"]}},{"type":"Feature","geometry":{"type":"Point","coordinates":[37.692764,48.515109]},"properties":{"original":{"Date":"2026-08-18","Name":"18 AUG 2026","Faction":"Ukraine","Origin":"UAV","Latitude":"48.515109","Longitude":"37.692764","PlusCode":"8GWVGM8V+24 Kostyantynivka, Donetsk Oblast, Ukraine","Description":"1:03-1:04 - Rough location - Fire Support Regiment \"Dnipro-1\" shells a claimed Russian position at the damaged building of Fire station N°41 in Kostyantynivka with a 2A65 Msta-B., ","Source":"https://x.com/AudaxonX/status/2090026017859506349, https://www.instagram.com/polk.dnipro1.npu/reel/DcLf5wzonA1/, https://t.me/liut_npu/1823","Geolocation":"https://x.com/GeoConfirmed/status/2090163691266216282, https://x.com/AudaxonX/status/2090026057281769847","Equipment":"","EquipmentItems":"2A65 Msta-B","Units":"","OrbatUnits":"Fire Support Regiment \"Dnipro-1\"","Id":"ec814770-6626-4f18-abb7-bb196625600c","icon":"/api/icons/0051CA/False/template/10.png"},"source":"geoconfirmed","source_name":"GeoConfirmed","source_url":"https://geoconfirmed.org/map/ukraine","id":"ec814770-6626-4f18-abb7-bb196625600c","date":"2026-08-18","link":"https://geoconfirmed.org/map/ukraine/ec814770-6626-4f18-abb7-bb196625600c","category":"Shelling by artillery or aerial bombings - Location of the shelling, colour of who is shelling; Brown = UXO","side":"Ukraine","color":"#0051CA","description":"1:03-1:04 - Rough location - Fire Support Regiment \"Dnipro-1\" shells a claimed Russian position at the damaged building of Fire station N°41 in Kostyantynivka with a 2A65 Msta-B.,","orbat":["Fire Support Regiment \"Dnipro-1\""],"geolocation":["https://x.com/GeoConfirmed/status/2090163691266216282","https://x.com/AudaxonX/status/2090026057281769847"],"sources":["https://x.com/AudaxonX/status/2090026017859506349","https://www.instagram.com/polk.dnipro1.npu/reel/DcLf5wzonA1/","https://t.me/liut_npu/1823"]}},{"type":"Feature","geometry":{"type":"Point","coordinates":[37.687527,48.512227]},"properties":{"original":{"Date":"2026-08-18","Name":"18 AUG 2026","Faction":"Ukraine","Origin":"UAV","Latitude":"48.512227","Longitude":"37.687527","PlusCode":"8GWVGM6Q+V2 Kostyantynivka, Donetsk Oblast, Ukraine","Description":"0:32-0:33 - Fire Support Regiment \"Dnipro-1\" shells a claimed Russian position in Kostyantynivka with a 2A65 Msta-B.","Source":"https://x.com/AudaxonX/status/2090026017859506349, https://www.instagram.com/polk.dnipro1.npu/reel/DcLf5wzonA1/, https://t.me/liut_npu/1823","Geolocation":"https://x.com/GeoConfirmed/status/2090163691266216282, https://x.com/AudaxonX/status/2090026020891939212","Equipment":"","EquipmentItems":"2A65 Msta-B","Units":"","OrbatUnits":"Fire Support Regiment \"Dnipro-1\"","Id":"b78cebed-ab2f-4731-88da-c0933409ce6e","icon":"/api/icons/0051CA/False/template/10.png"},"source":"geoconfirmed","source_name":"GeoConfirmed","source_url":"https://geoconfirmed.org/map/ukraine","id":"b78cebed-ab2f-4731-88da-c0933409ce6e","date":"2026-08-18","link":"https://geoconfirmed.org/map/ukraine/b78cebed-ab2f-4731-88da-c0933409ce6e","category":"Shelling by artillery or aerial bombings - Location of the shelling, colour of who is shelling; Brown = UXO","side":"Ukraine","color":"#0051CA","description":"0:32-0:33 - Fire Support Regiment \"Dnipro-1\" shells a claimed Russian position in Kostyantynivka with a 2A65 Msta-B.","orbat":["Fire Support Regiment \"Dnipro-1\""],"geolocation":["https://x.com/GeoConfirmed/status/2090163691266216282","https://x.com/AudaxonX/status/2090026020891939212"],"sources":["https://x.com/AudaxonX/status/2090026017859506349","https://www.instagram.com/polk.dnipro1.npu/reel/DcLf5wzonA1/","https://t.me/liut_npu/1823"]}},{"type":"Feature","geometry":{"type":"Point","coordinates":[37.688946,48.521842]},"properties":{"original":{"Date":"2026-08-18","Name":"18 AUG 2026","Faction":"Ukraine","Origin":"UAV","Latitude":"48.521842","Longitude":"37.688946","PlusCode":"8GWVGMCQ+PH Kostyantynivka, Donetsk Oblast, Ukraine","Description":"0:39-0:40 - Fire Support Regiment \"Dnipro-1\" shells a claimed Russian position in Kostyantynivka with a 2A65 Msta-B. The position is located at the Konstantinovsk State Scientific and Production Enterprise \"Kvarsit\".","Source":"https://x.com/AudaxonX/status/2090026017859506349, https://www.instagram.com/polk.dnipro1.npu/reel/DcLf5wzonA1/, https://t.me/liut_npu/1823","Geolocation":"https://x.com/GeoConfirmed/status/2090163691266216282, https://x.com/AudaxonX/status/2090026035102302430","Equipment":"","EquipmentItems":"2A65 Msta-B","Units":"","OrbatUnits":"Fire Support Regiment \"Dnipro-1\"","Id":"5455f227-24db-427c-9109-cb78753201e3","icon":"/api/icons/0051CA/False/template/10.png"},"source":"geoconfirmed","source_name":"GeoConfirmed","source_url":"https://geoconfirmed.org/map/ukraine","id":"5455f227-24db-427c-9109-cb78753201e3","date":"2026-08-18","link":"https://geoconfirmed.org/map/ukraine/5455f227-24db-427c-9109-cb78753201e3","category":"Shelling by artillery or aerial bombings - Location of the shelling, colour of who is shelling; Brown = UXO","side":"Ukraine","color":"#0051CA","description":"0:39-0:40 - Fire Support Regiment \"Dnipro-1\" shells a claimed Russian position in Kostyantynivka with a 2A65 Msta-B. The position is located at the Konstantinovsk State Scientific and Production Enterprise \"Kvarsit\".","orbat":["Fire Support Regiment \"Dnipro-1\""],"geolocation":["https://x.com/GeoConfirmed/status/2090163691266216282","https://x.com/AudaxonX/status/2090026035102302430"],"sources":["https://x.com/AudaxonX/status/2090026017859506349","https://www.instagram.com/polk.dnipro1.npu/reel/DcLf5wzonA1/","https://t.me/liut_npu/1823"]}},{"type":"Feature","geometry":{"type":"Point","coordinates":[35.453075,47.226496]},"properties":{"original":{"Date":"2026-08-18","Name":"18 AUG 2026","Faction":"Russia","Origin":"UAV","Latitude":"47.226496","Longitude":"35.453075","PlusCode":"8GVQ6FG3+H6 Suvore, Zaporizhia Oblast, Ukraine","Description":"A Russian TOR air defense missile system or decoy thereof was attacked by an FPV from the 413th Unmanned Systems Regiment \"RAID\" \"РЕЙД\".","Source":"https://x.com/PuenteUribarri/status/2089677857878380846, https://t.me/ZSU_DVIG/77169","Geolocation":"https://x.com/neonhandrail/status/2089683942056366478","Equipment":"","EquipmentItems":"TOR series | FPV (First Person View) OWAD (One Way Attack Drone)","Units":"","OrbatUnits":"413th Unmanned Systems Regiment \"RAID\" \"РЕЙД\"","Id":"63386026-0b52-48eb-beee-df606a0094eb","icon":"/api/icons/E00000/False/template/201.png"},"source":"geoconfirmed","source_name":"GeoConfirmed","source_url":"https://geoconfirmed.org/map/ukraine","id":"63386026-0b52-48eb-beee-df606a0094eb","date":"2026-08-18","link":"https://geoconfirmed.org/map/ukraine/63386026-0b52-48eb-beee-df606a0094eb","category":"Anti-Air System (Tracked OR Wheeled)","side":"Russia","color":"#E00000","description":"A Russian TOR air defense missile system or decoy thereof was attacked by an FPV from the 413th Unmanned Systems Regiment \"RAID\" \"РЕЙД\".","orbat":["413th Unmanned Systems Regiment \"RAID\" \"РЕЙД\""],"geolocation":["https://x.com/neonhandrail/status/2089683942056366478"],"sources":["https://x.com/PuenteUribarri/status/2089677857878380846","https://t.me/ZSU_DVIG/77169"]}},{"type":"Feature","geometry":{"type":"Point","coordinates":[37.684203,48.525503]},"properties":{"original":{"Date":"2026-08-18","Name":"18 AUG 2026","Faction":"Ukraine","Origin":"UAV","Latitude":"48.525503","Longitude":"37.684203","PlusCode":"8GWVGMGM+6M Kostyantynivka, Donetsk Oblast, Ukraine","Description":"0:55-0:56 - Fire Support Regiment \"Dnipro-1\" shells a claimed Russian position in Kostyantynivka with a 2A65 Msta-B. ","Source":"https://x.com/AudaxonX/status/2090026017859506349, https://www.instagram.com/polk.dnipro1.npu/reel/DcLf5wzonA1/, https://t.me/liut_npu/1823","Geolocation":"https://x.com/GeoConfirmed/status/2090163691266216282, https://x.com/AudaxonX/status/2090026053183918533","Equipment":"","EquipmentItems":"2A65 Msta-B","Units":"","OrbatUnits":"Fire Support Regiment \"Dnipro-1\"","Id":"4d5dba8f-6a3b-445c-9c08-df9b5a75f634","icon":"/api/icons/0051CA/False/template/10.png"},"source":"geoconfirmed","source_name":"GeoConfirmed","source_url":"https://geoconfirmed.org/map/ukraine","id":"4d5dba8f-6a3b-445c-9c08-df9b5a75f634","date":"2026-08-18","link":"https://geoconfirmed.org/map/ukraine/4d5dba8f-6a3b-445c-9c08-df9b5a75f634","category":"Shelling by artillery or aerial bombings - Location of the shelling, colour of who is shelling; Brown = UXO","side":"Ukraine","color":"#0051CA","description":"0:55-0:56 - Fire Support Regiment \"Dnipro-1\" shells a claimed Russian position in Kostyantynivka with a 2A65 Msta-B.","orbat":["Fire Support Regiment \"Dnipro-1\""],"geolocation":["https://x.com/GeoConfirmed/status/2090163691266216282","https://x.com/AudaxonX/status/2090026053183918533"],"sources":["https://x.com/AudaxonX/status/2090026017859506349","https://www.instagram.com/polk.dnipro1.npu/reel/DcLf5wzonA1/","https://t.me/liut_npu/1823"]}},{"type":"Feature","geometry":{"type":"Point","coordinates":[37.705087,48.510195]},"properties":{"original":{"Date":"2026-08-18","Name":"18 AUG 2026","Faction":"Ukraine","Origin":"UAV","Latitude":"48.510195","Longitude":"37.705087","PlusCode":"8GWVGP64+32 Kostyantynivka, Donetsk Oblast, Ukraine","Description":"1:05-1:07 - Rough location - Fire Support Regiment \"Dnipro-1\" shells a claimed Russian position in Kostyantynivka with a 2A65 Msta-B. ","Source":"https://x.com/AudaxonX/status/2090026017859506349, https://www.instagram.com/polk.dnipro1.npu/reel/DcLf5wzonA1/, https://t.me/liut_npu/1823","Geolocation":"https://x.com/GeoConfirmed/status/2090163691266216282, https://x.com/AudaxonX/status/2090026060721078375","Equipment":"","EquipmentItems":"2A65 Msta-B","Units":"","OrbatUnits":"Fire Support Regiment \"Dnipro-1\"","Id":"19b6c388-5cf0-49b6-a261-e97ff50cf9b8","icon":"/api/icons/0051CA/False/template/10.png"},"source":"geoconfirmed","source_name":"GeoConfirmed","source_url":"https://geoconfirmed.org/map/ukraine","id":"19b6c388-5cf0-49b6-a261-e97ff50cf9b8","date":"2026-08-18","link":"https://geoconfirmed.org/map/ukraine/19b6c388-5cf0-49b6-a261-e97ff50cf9b8","category":"Shelling by artillery or aerial bombings - Location of the shelling, colour of who is shelling; Brown = UXO","side":"Ukraine","color":"#0051CA","description":"1:05-1:07 - Rough location - Fire Support Regiment \"Dnipro-1\" shells a claimed Russian position in Kostyantynivka with a 2A65 Msta-B.","orbat":["Fire Support Regiment \"Dnipro-1\""],"geolocation":["https://x.com/GeoConfirmed/status/2090163691266216282","https://x.com/AudaxonX/status/2090026060721078375"],"sources":["https://x.com/AudaxonX/status/2090026017859506349","https://www.instagram.com/polk.dnipro1.npu/reel/DcLf5wzonA1/","https://t.me/liut_npu/1823"]}},{"type":"Feature","geometry":{"type":"Point","coordinates":[38.76362,55.09587]},"properties":{"original":{"Date":"2026-08-18","Name":"18 AUG 2026","Faction":"Neutral","Origin":"VID","Latitude":"55.09587","Longitude":"38.76362","PlusCode":"9G7W3QW7+8C Kolomna, Moscow Oblast, Russia","Description":"\"Globus\" shopping center damaged after reported Ukrainian drone attack and air defense activity.","Source":"https://x.com/zarGEOINT/status/2089620881907515411, https://t.me/supernova_plus/58341, , More information, https://kyivindependent.com/fires-reported-near-moscow-as-ukraine-launches-dozens-of-drones-towards-russian-capital/","Geolocation":"https://x.com/zarGEOINT/status/2089624038687519223","Equipment":"","EquipmentItems":"","Units":"","OrbatUnits":"","Id":"1932d1ef-404b-4a2f-9254-f395ea887445","icon":"/api/icons/AC7339/False/template/192.png"},"source":"geoconfirmed","source_name":"GeoConfirmed","source_url":"https://geoconfirmed.org/map/ukraine","id":"1932d1ef-404b-4a2f-9254-f395ea887445","date":"2026-08-18","link":"https://geoconfirmed.org/map/ukraine/1932d1ef-404b-4a2f-9254-f395ea887445","category":"Recently destroyed/Damaged[Visible in footage] or still burning infrastucture","side":"Neutral","color":"#AC7339","description":"\"Globus\" shopping center damaged after reported Ukrainian drone attack and air defense activity.","orbat":[],"geolocation":["https://x.com/zarGEOINT/status/2089624038687519223"],"sources":["https://x.com/zarGEOINT/status/2089620881907515411","https://t.me/supernova_plus/58341","https://kyivindependent.com/fires-reported-near-moscow-as-ukraine-launches-dozens-of-drones-towards-russian-capital/"]}},{"type":"Feature","geometry":{"type":"Point","coordinates":[37.683191,48.491447]},"properties":{"original":{"Date":"2026-08-18","Name":"18 AUG 2026","Faction":"Ukraine","Origin":"UAV","Latitude":"48.491447","Longitude":"37.683191","PlusCode":"8GWVFMRM+H7 Kostyantynivka, Donetsk Oblast, Ukraine","Description":"0:47-0:50 - Fire Support Regiment \"Dnipro-1\" shells a claimed Russian position in Kostyantynivka with a 2A65 Msta-B. The position is located at the Greenhouse complex \"Perspektiva\".","Source":"https://x.com/AudaxonX/status/2090026017859506349, https://www.instagram.com/polk.dnipro1.npu/reel/DcLf5wzonA1/, https://t.me/liut_npu/1823","Geolocation":"https://x.com/GeoConfirmed/status/2090163691266216282, https://x.com/AudaxonX/status/2090026046439469228","Equipment":"","EquipmentItems":"2A65 Msta-B","Units":"","OrbatUnits":"Fire Support Regiment \"Dnipro-1\"","Id":"4d180a8b-b1b5-4967-a0ac-f43653123bcf","icon":"/api/icons/0051CA/False/template/10.png"},"source":"geoconfirmed","source_name":"GeoConfirmed","source_url":"https://geoconfirmed.org/map/ukraine","id":"4d180a8b-b1b5-4967-a0ac-f43653123bcf","date":"2026-08-18","link":"https://geoconfirmed.org/map/ukraine/4d180a8b-b1b5-4967-a0ac-f43653123bcf","category":"Shelling by artillery or aerial bombings - Location of the shelling, colour of who is shelling; Brown = UXO","side":"Ukraine","color":"#0051CA","description":"0:47-0:50 - Fire Support Regiment \"Dnipro-1\" shells a claimed Russian position in Kostyantynivka with a 2A65 Msta-B. The position is located at the Greenhouse complex \"Perspektiva\".","orbat":["Fire Support Regiment \"Dnipro-1\""],"geolocation":["https://x.com/GeoConfirmed/status/2090163691266216282","https://x.com/AudaxonX/status/2090026046439469228"],"sources":["https://x.com/AudaxonX/status/2090026017859506349","https://www.instagram.com/polk.dnipro1.npu/reel/DcLf5wzonA1/","https://t.me/liut_npu/1823"]}},{"type":"Feature","geometry":{"type":"Point","coordinates":[37.104563,48.387241]},"properties":{"original":{"Date":"2026-08-18","Name":"18 AUG 2026","Faction":"Ukraine","Origin":"UAV","Latitude":"48.387241","Longitude":"37.104563","PlusCode":"8GWV94P3+VR Shevchenko, Donetsk Oblast, Ukraine","Description":"0:40-0:52 - Russian position hit by drone from 3rd Battalion of the 38th Marine Brigade.","Source":"https://x.com/Bielitzling/status/2089756384845856802, https://www.instagram.com/38_recruiting/reel/DcLRMn_qpVQ/?hl=en","Geolocation":"https://x.com/Bielitzling/status/2089756380932591697, https://t.me/creamy_caprice/12738","Equipment":"","EquipmentItems":"FPV (First Person View) OWAD (One Way Attack Drone)","Units":"","OrbatUnits":"38th Marine Brigade","Id":"3bc3ffc2-792c-45e0-b806-f477f75bc4f9","icon":"/api/icons/0051CA/False/template/111.png"},"source":"geoconfirmed","source_name":"GeoConfirmed","source_url":"https://geoconfirmed.org/map/ukraine","id":"3bc3ffc2-792c-45e0-b806-f477f75bc4f9","date":"2026-08-18","link":"https://geoconfirmed.org/map/ukraine/3bc3ffc2-792c-45e0-b806-f477f75bc4f9","category":"Short Range (<50km) OWAD (One Way Attack Drone), mostly rotary wing, Flying OR Attacking a target without knowing the outcome: if something is damaged --> icon of the damaged equipment.","side":"Ukraine","color":"#0051CA","description":"0:40-0:52 - Russian position hit by drone from 3rd Battalion of the 38th Marine Brigade.","orbat":["38th Marine Brigade"],"geolocation":["https://x.com/Bielitzling/status/2089756380932591697","https://t.me/creamy_caprice/12738"],"sources":["https://x.com/Bielitzling/status/2089756384845856802","https://www.instagram.com/38_recruiting/reel/DcLRMn_qpVQ/?hl=en"]}},{"type":"Feature","geometry":{"type":"Point","coordinates":[37.108396,48.380995]},"properties":{"original":{"Date":"2026-08-18","Name":"18 AUG 2026","Faction":"Ukraine","Origin":"UAV","Latitude":"48.380995","Longitude":"37.108396","PlusCode":"8GWV94J5+99 Shevchenko, Donetsk Oblast, Ukraine","Description":"0:16-0:38 - multiple drone attacks against a basement in Shevchenko, Donetsk Oblast.","Source":"https://x.com/Bielitzling/status/2089756384845856802, https://www.instagram.com/38_recruiting/reel/DcLRMn_qpVQ/?hl=en","Geolocation":"https://x.com/Bielitzling/status/2089758528181354635","Equipment":"","EquipmentItems":"(Multi-Purpose) Bomber UAV | FPV (First Person View) OWAD (One Way Attack Drone)","Units":"","OrbatUnits":"38th Marine Brigade","Id":"2fa8f7ba-0c10-49d2-af77-f5d95c440222","icon":"/api/icons/0051CA/False/template/110.png"},"source":"geoconfirmed","source_name":"GeoConfirmed","source_url":"https://geoconfirmed.org/map/ukraine","id":"2fa8f7ba-0c10-49d2-af77-f5d95c440222","date":"2026-08-18","link":"https://geoconfirmed.org/map/ukraine/2fa8f7ba-0c10-49d2-af77-f5d95c440222","category":"Multipurpose Bomber Drone, Flying OR Dropping OR bombing a target without knowing the outcome: if something is damaged --> icon of the damaged equipment.","side":"Ukraine","color":"#0051CA","description":"0:16-0:38 - multiple drone attacks against a basement in Shevchenko, Donetsk Oblast.","orbat":["38th Marine Brigade"],"geolocation":["https://x.com/Bielitzling/status/2089758528181354635"],"sources":["https://x.com/Bielitzling/status/2089756384845856802","https://www.instagram.com/38_recruiting/reel/DcLRMn_qpVQ/?hl=en"]}}]}