{"type":"FeatureCollection","features":[{"type":"Feature","geometry":{"type":"MultiPolygon","coordinates":[[[[37.94326,48.81046],[37.93764,48.81337],[37.9312,48.81295],[37.93017,48.81688],[37.93253,48.81976],[37.92885,48.84052],[37.94297,48.84131],[37.95256,48.84105],[37.95595,48.82625],[37.95712,48.82272],[37.95043,48.81614],[37.94893,48.81071],[37.94326,48.81046]]],[[[37.84543,48.73312],[37.84532,48.73521],[37.85272,48.7394],[37.8565,48.73926],[37.85828,48.73998],[37.8607,48.73981],[37.86638,48.74252],[37.8707,48.74289],[37.87432,48.74291],[37.87786,48.74148],[37.88164,48.74172],[37.88313,48.73868],[37.88197,48.73251],[37.87549,48.72806],[37.87003,48.72565],[37.86375,48.7293],[37.86006,48.72697],[37.85051,48.7276],[37.84397,48.72922],[37.84418,48.73075],[37.84543,48.73312]]],[[[37.83114,48.55801],[37.82612,48.56232],[37.82466,48.56347],[37.82342,48.56475],[37.8226,48.5659],[37.82398,48.56729],[37.82779,48.56931],[37.83181,48.572],[37.83024,48.57605],[37.82962,48.58073],[37.8242,48.58526],[37.82556,48.58688],[37.82415,48.58817],[37.8209,48.58882],[37.81836,48.58857],[37.81633,48.58934],[37.818,48.59052],[37.821,48.59096],[37.82195,48.59034],[37.82251,48.59019],[37.82293,48.59048],[37.82429,48.59123],[37.82562,48.5917],[37.82694,48.59096],[37.82777,48.59152],[37.82949,48.59053],[37.83089,48.58972],[37.82906,48.58829],[37.82886,48.58842],[37.82788,48.58787],[37.83146,48.58563],[37.83319,48.58422],[37.83315,48.58363],[37.83378,48.58331],[37.83405,48.58303],[37.83431,48.58287],[37.83498,48.58269],[37.83503,48.58197],[37.83448,48.58137],[37.83372,48.58035],[37.83466,48.57899],[37.83617,48.57925],[37.83717,48.57809],[37.83754,48.57599],[37.83735,48.57461],[37.83691,48.57216],[37.83729,48.57088],[37.83778,48.57056],[37.83666,48.56774],[37.84038,48.56422],[37.83912,48.56342],[37.83747,48.56187],[37.83734,48.56045],[37.83786,48.55838],[37.8352,48.55665],[37.82868,48.55315],[37.83114,48.55801]]],[[[37.72705,48.47954],[37.74269,48.4809],[37.74795,48.47871],[37.75456,48.47979],[37.76086,48.48208],[37.76197,48.48336],[37.76946,48.47002],[37.76517,48.46941],[37.76264,48.47045],[37.75912,48.47223],[37.74243,48.47267],[37.72048,48.47133],[37.72034,48.47163],[37.72005,48.4745],[37.71795,48.48402],[37.72705,48.47954]]],[[[37.74829,49.65505],[37.73405,49.654],[37.72727,49.65199],[37.72452,49.65494],[37.73044,49.65788],[37.73267,49.66266],[37.73958,49.66782],[37.73997,49.67027],[37.76728,49.66729],[37.7641,49.6629],[37.76457,49.65984],[37.76801,49.65476],[37.74829,49.65505]]],[[[37.24422,48.4376],[37.24719,48.43794],[37.2504,48.44246],[37.24914,48.45077],[37.24953,48.45282],[37.25255,48.45288],[37.27126,48.46059],[37.27673,48.46738],[37.2947,48.4683],[37.30967,48.46928],[37.30623,48.46528],[37.29609,48.46222],[37.28907,48.46316],[37.28661,48.45986],[37.28566,48.45852],[37.28139,48.45271],[37.27798,48.44921],[37.27003,48.44697],[37.25924,48.44277],[37.25379,48.43855],[37.24222,48.43335],[37.24422,48.4376]]],[[[37.18422,48.37343],[37.18855,48.37978],[37.19039,48.38234],[37.19134,48.38378],[37.20804,48.387],[37.21123,48.39278],[37.2146,48.39289],[37.22765,48.39403],[37.22928,48.39794],[37.2432,48.39972],[37.24226,48.40754],[37.24174,48.41143],[37.23559,48.41166],[37.23339,48.41903],[37.2402,48.41832],[37.24228,48.41774],[37.24651,48.41626],[37.25082,48.41546],[37.25127,48.41434],[37.25525,48.41392],[37.25701,48.41346],[37.25764,48.4102],[37.25007,48.40828],[37.25177,48.39788],[37.24796,48.39289],[37.24409,48.39255],[37.24285,48.38861],[37.23684,48.38559],[37.23659,48.38209],[37.23192,48.38147],[37.20495,48.38062],[37.20038,48.37213],[37.19304,48.37409],[37.19061,48.37121],[37.19012,48.36986],[37.18422,48.37343]]],[[[36.61618,47.92344],[36.61,47.92557],[36.60972,47.92683],[36.62063,47.9256],[36.62271,47.92414],[36.61618,47.92344]]],[[[36.50456,47.84647],[36.50285,47.85211],[36.50199,47.86],[36.51177,47.85873],[36.51978,47.85438],[36.51759,47.8527],[36.50716,47.84491],[36.50456,47.84647]]]]},"properties":{"source":"ukrdaily","source_name":"UkrDailyUpdate","source_url":"https://map.ukrdailyupdate.com/","category":"gained","category_label":"Russian advance: became occupied","period":"7d","compared_with":"2026-08-04","snapshot_time":"2026-08-11","area_km2_approx":33.5}},{"type":"Feature","geometry":{"type":"MultiPolygon","coordinates":[[[[36.24488,47.80003],[36.25325,47.80936],[36.26516,47.80924],[36.27799,47.81051],[36.28652,47.81581],[36.2816,47.83783],[36.28276,47.84854],[36.27457,47.85108],[36.2485,47.85234],[36.23462,47.85522],[36.22616,47.86674],[36.22298,47.87221],[36.22539,47.87514],[36.22504,47.87802],[36.22779,47.88061],[36.2332,47.88107],[36.23989,47.88057],[36.24626,47.88076],[36.25097,47.88058],[36.25294,47.8819],[36.25448,47.8838],[36.25766,47.88413],[36.2602,47.88199],[36.25941,47.88055],[36.25959,47.87881],[36.26289,47.87725],[36.26378,47.8774],[36.26558,47.8789],[36.26802,47.87942],[36.27029,47.87801],[36.27377,47.87745],[36.27694,47.87596],[36.29355,47.87755],[36.2984,47.87634],[36.30879,47.87504],[36.34544,47.85882],[36.3677,47.86463],[36.37195,47.87798],[36.37826,47.87917],[36.38598,47.87825],[36.39164,47.87923],[36.4004,47.87906],[36.4056,47.85911],[36.4147,47.85928],[36.4183,47.84753],[36.44008,47.83999],[36.45373,47.83852],[36.47782,47.84079],[36.47426,47.85075],[36.47153,47.86454],[36.46355,47.86905],[36.45299,47.87109],[36.45329,47.87604],[36.46662,47.87506],[36.46534,47.89566],[36.46238,47.90909],[36.46474,47.91608],[36.49298,47.91713],[36.49697,47.91732],[36.51216,47.91799],[36.514,47.90559],[36.51443,47.9031],[36.52409,47.9041],[36.5642,47.9081],[36.56679,47.89827],[36.57007,47.88551],[36.57754,47.88026],[36.58183,47.85803],[36.53522,47.84703],[36.52908,47.84857],[36.52139,47.85954],[36.5121,47.86176],[36.50162,47.86304],[36.49459,47.86148],[36.49721,47.84974],[36.5063,47.84469],[36.50665,47.84433],[36.50574,47.83901],[36.49948,47.83885],[36.50275,47.82744],[36.49893,47.82689],[36.49689,47.81799],[36.4812,47.81593],[36.47073,47.81683],[36.46249,47.81614],[36.45079,47.80806],[36.43436,47.8096],[36.4282,47.81144],[36.42659,47.81311],[36.4235,47.8147],[36.41938,47.81767],[36.39042,47.81377],[36.38828,47.79565],[36.37993,47.79583],[36.36862,47.79749],[36.36004,47.8036],[36.34868,47.80334],[36.27841,47.79683],[36.27684,47.80085],[36.24343,47.79825],[36.227,47.79844],[36.22699,47.79893],[36.24488,47.80003]],[[36.32347,47.83651],[36.32447,47.8351],[36.32729,47.8336],[36.32442,47.83521],[36.32347,47.83651]]],[[[36.5642,47.9081],[36.54149,47.90599],[36.52409,47.9041],[36.52191,47.91735],[36.51902,47.9205],[36.51216,47.92536],[36.5098,47.9316],[36.51422,47.93347],[36.51886,47.9334],[36.52714,47.93348],[36.53104,47.93352],[36.52971,47.93735],[36.52993,47.94626],[36.52349,47.94747],[36.5238,47.95091],[36.52783,47.95264],[36.53029,47.95403],[36.53091,47.956],[36.53099,47.95777],[36.53047,47.95926],[36.53075,47.96099],[36.53033,47.96369],[36.53199,47.96406],[36.53265,47.96768],[36.53555,47.97244],[36.53995,47.97014],[36.56027,47.97015],[36.56229,47.97185],[36.56577,47.97359],[36.56596,47.97452],[36.56742,47.97518],[36.5686,47.97543],[36.5692,47.97705],[36.57229,47.97806],[36.57369,47.97796],[36.5742,47.97628],[36.57848,47.97327],[36.58292,47.96857],[36.58355,47.96634],[36.58427,47.96441],[36.60124,47.96652],[36.60356,47.9662],[36.60579,47.96631],[36.60726,47.96698],[36.60541,47.96873],[36.6,47.97077],[36.59576,47.97192],[36.59515,47.97537],[36.59116,47.97793],[36.59026,47.9814],[36.58967,47.98477],[36.58724,47.99846],[36.6126,48.00113],[36.61857,48.00518],[36.61324,48.02545],[36.61582,48.02631],[36.61556,48.0276],[36.62295,48.02842],[36.62107,48.03478],[36.61304,48.05107],[36.5996,48.04933],[36.59486,48.04674],[36.5913,48.04906],[36.5873,48.05018],[36.58971,48.05279],[36.59101,48.05553],[36.59423,48.05832],[36.59599,48.0645],[36.60543,48.06819],[36.61928,48.07625],[36.63331,48.08236],[36.63359,48.08596],[36.63764,48.08762],[36.64383,48.08659],[36.6516,48.08763],[36.66553,48.08696],[36.67044,48.0903],[36.67341,48.08954],[36.67672,48.08946],[36.6842,48.08471],[36.69317,48.08638],[36.6963,48.08565],[36.69849,48.08434],[36.70019,48.08312],[36.70066,48.08261],[36.70193,48.0823],[36.70516,48.08227],[36.70621,48.08222],[36.70702,48.08179],[36.70768,48.081],[36.70873,48.08021],[36.70974,48.07987],[36.71042,48.07988],[36.71185,48.07991],[36.71302,48.07997],[36.71341,48.08008],[36.71696,48.07302],[36.71622,48.06572],[36.74124,48.05373],[36.74207,48.05294],[36.74384,48.05221],[36.74424,48.05094],[36.74601,48.05045],[36.75184,48.04941],[36.75665,48.04999],[36.75751,48.04558],[36.75695,48.0421],[36.75119,48.03989],[36.75019,48.03625],[36.74857,48.02603],[36.74321,48.02634],[36.74142,48.01509],[36.74878,48.00481],[36.7434,48.00231],[36.73425,48.00417],[36.72558,48.00361],[36.71837,47.99447],[36.71721,47.98549],[36.71292,47.97975],[36.69747,47.97538],[36.67631,47.96356],[36.6684,47.9597],[36.67143,47.94813],[36.65436,47.94607],[36.60204,47.94021],[36.59257,47.93591],[36.59067,47.92311],[36.59245,47.91086],[36.58151,47.90931],[36.5807,47.90909],[36.57594,47.90883],[36.5759,47.90905],[36.57179,47.9088],[36.5642,47.9081]],[[36.65556,48.07667],[36.65612,48.07283],[36.65715,48.06936],[36.65556,48.07667]]]]},"properties":{"source":"ukrdaily","source_name":"UkrDailyUpdate","source_url":"https://map.ukrdailyupdate.com/","category":"lost","category_label":"Ukrainian advance: became Ukrainian-held","period":"7d","compared_with":"2026-08-04","snapshot_time":"2026-08-11","area_km2_approx":332.9}},{"type":"Feature","geometry":{"type":"MultiPolygon","coordinates":[[[[36.76305,48.04516],[36.76428,48.04959],[36.76615,48.05601],[36.76267,48.05652],[36.76039,48.05571],[36.75632,48.05271],[36.7452,48.05256],[36.74374,48.05329],[36.74267,48.05422],[36.74385,48.0564],[36.74372,48.05772],[36.74732,48.05944],[36.75036,48.0622],[36.74745,48.06487],[36.74136,48.06894],[36.74582,48.07864],[36.76717,48.07477],[36.77815,48.06725],[36.77528,48.06566],[36.77861,48.06022],[36.78571,48.05305],[36.78159,48.0499],[36.76305,48.04516]]],[[[36.76305,48.04516],[36.7612,48.0312],[36.76046,48.02624],[36.76998,48.01095],[36.7691,48.00208],[36.76475,48.00625],[36.75702,48.01108],[36.74185,48.01783],[36.74321,48.02634],[36.74857,48.02603],[36.75019,48.03625],[36.75119,48.03989],[36.75695,48.0421],[36.75751,48.04558],[36.76112,48.04554],[36.76305,48.04516]]],[[[36.69808,47.97555],[36.71292,47.97975],[36.71721,47.98549],[36.71837,47.99447],[36.72558,48.00361],[36.73425,48.00417],[36.74605,47.99954],[36.75025,47.99138],[36.74562,47.99269],[36.73974,47.99381],[36.73744,47.99432],[36.73534,47.98958],[36.73686,47.97607],[36.72694,47.97377],[36.70141,47.97055],[36.69808,47.97555]]],[[[36.60264,47.92762],[36.59427,47.93093],[36.5919,47.93139],[36.59257,47.93591],[36.60204,47.94021],[36.65436,47.94607],[36.67143,47.94813],[36.6684,47.9597],[36.67631,47.96356],[36.69355,47.9656],[36.68971,47.95097],[36.6719,47.93957],[36.6556,47.94067],[36.63589,47.93881],[36.60779,47.93534],[36.60972,47.92683],[36.60264,47.92762]]],[[[36.52162,47.8558],[36.52442,47.85521],[36.52908,47.84857],[36.53522,47.84703],[36.58183,47.85803],[36.57754,47.88026],[36.57007,47.88551],[36.56679,47.89827],[36.5642,47.9081],[36.57179,47.9088],[36.5759,47.90905],[36.57594,47.90883],[36.5807,47.90909],[36.58151,47.90931],[36.59245,47.91086],[36.59162,47.91657],[36.59216,47.91637],[36.60587,47.91325],[36.60507,47.91986],[36.61734,47.91774],[36.6351,47.92006],[36.63463,47.92543],[36.63781,47.92577],[36.64217,47.92514],[36.64832,47.91039],[36.64977,47.90289],[36.64282,47.89829],[36.61011,47.90272],[36.5866,47.90347],[36.58239,47.89475],[36.58299,47.89017],[36.58332,47.88903],[36.58485,47.88168],[36.58922,47.87374],[36.59067,47.8685],[36.58808,47.86098],[36.58106,47.84841],[36.53896,47.83933],[36.52626,47.84652],[36.52121,47.85361],[36.51978,47.85438],[36.52162,47.8558]]],[[[36.34595,47.79563],[36.3487,47.80334],[36.36004,47.8036],[36.36862,47.79749],[36.37993,47.79583],[36.38828,47.79565],[36.39042,47.81377],[36.41938,47.81767],[36.4235,47.8147],[36.42659,47.81311],[36.4282,47.81144],[36.43436,47.8096],[36.43825,47.80917],[36.4406,47.80901],[36.45079,47.80806],[36.46249,47.81614],[36.47073,47.81683],[36.4812,47.81593],[36.49689,47.81799],[36.49893,47.82689],[36.50275,47.82744],[36.49948,47.83885],[36.50574,47.83901],[36.5067,47.84456],[36.50716,47.84491],[36.52068,47.83684],[36.52047,47.83384],[36.51561,47.82769],[36.50612,47.82315],[36.50424,47.823],[36.50609,47.81454],[36.47039,47.81163],[36.46372,47.81121],[36.4605,47.80824],[36.4514,47.80372],[36.44294,47.80279],[36.43427,47.80187],[36.43312,47.80712],[36.41955,47.80576],[36.41852,47.80888],[36.41698,47.80891],[36.40737,47.80853],[36.39569,47.8072],[36.3975,47.79619],[36.39209,47.79256],[36.38461,47.79099],[36.3805,47.79377],[36.37455,47.79549],[36.37189,47.7947],[36.34498,47.79147],[36.34595,47.79563]]],[[[35.49988,47.54306],[35.51942,47.54499],[35.52041,47.54001],[35.50298,47.53866],[35.49826,47.5382],[35.48005,47.53788],[35.46975,47.54036],[35.46976,47.54048],[35.49988,47.54306]]]]},"properties":{"source":"ukrdaily","source_name":"UkrDailyUpdate","source_url":"https://map.ukrdailyupdate.com/","category":"occupied_to_contested","category_label":"Occupied became contested","period":"7d","compared_with":"2026-08-04","snapshot_time":"2026-08-11","area_km2_approx":56.2}},{"type":"Feature","geometry":{"type":"MultiPolygon","coordinates":[[[[37.83305,48.79881],[37.82368,48.80372],[37.82462,48.80854],[37.82917,48.8129],[37.82817,48.81444],[37.8257,48.81547],[37.82287,48.81731],[37.82282,48.82169],[37.82183,48.82456],[37.81628,48.8279],[37.81765,48.8292],[37.82365,48.83259],[37.82846,48.82756],[37.83297,48.81849],[37.83761,48.81459],[37.83905,48.81271],[37.8459,48.81073],[37.84654,48.80614],[37.84251,48.80444],[37.83998,48.80256],[37.84008,48.79972],[37.84096,48.79672],[37.83305,48.79881]]],[[[37.77581,48.64684],[37.77062,48.65146],[37.77053,48.65478],[37.77551,48.65605],[37.7792,48.65722],[37.78624,48.6579],[37.79178,48.6581],[37.79087,48.65505],[37.79112,48.65173],[37.7865,48.65138],[37.78367,48.64806],[37.77981,48.64472],[37.77581,48.64684]]],[[[37.70025,49.67252],[37.7018,49.67713],[37.70361,49.67808],[37.70362,49.67956],[37.70242,49.6837],[37.70158,49.69006],[37.70526,49.68971],[37.70705,49.68904],[37.71218,49.68937],[37.72649,49.69464],[37.72963,49.6961],[37.73881,49.69322],[37.73805,49.692],[37.73247,49.68411],[37.7294,49.66682],[37.71565,49.66544],[37.70068,49.66515],[37.69956,49.66723],[37.69771,49.66957],[37.70025,49.67252]]],[[[37.64033,48.52897],[37.63951,48.53389],[37.64258,48.53767],[37.64535,48.54037],[37.64749,48.53937],[37.64988,48.54167],[37.65288,48.54226],[37.65453,48.54113],[37.65771,48.54115],[37.66086,48.54044],[37.66327,48.54054],[37.66585,48.54057],[37.6686,48.53733],[37.66793,48.53697],[37.66759,48.53638],[37.6679,48.53612],[37.66941,48.5362],[37.67133,48.53409],[37.67292,48.53194],[37.6744,48.53035],[37.67405,48.52994],[37.6738,48.52948],[37.67433,48.52892],[37.67358,48.52875],[37.67347,48.52889],[37.6732,48.52924],[37.6725,48.53017],[37.67154,48.53135],[37.67184,48.53148],[37.67172,48.5316],[37.6714,48.53148],[37.66807,48.5352],[37.66858,48.53539],[37.66843,48.53554],[37.66791,48.53536],[37.66757,48.53524],[37.66878,48.53389],[37.66828,48.53372],[37.66848,48.53345],[37.66899,48.53364],[37.67249,48.529],[37.67266,48.52877],[37.672,48.52857],[37.67184,48.52883],[37.67164,48.52878],[37.67181,48.52853],[37.67087,48.52826],[37.67158,48.52732],[37.67167,48.52621],[37.67109,48.52605],[37.67387,48.52045],[37.67573,48.51726],[37.67446,48.51653],[37.67087,48.51631],[37.66297,48.5141],[37.66057,48.51367],[37.65502,48.51203],[37.64552,48.50776],[37.64029,48.522],[37.64033,48.52897]]],[[[37.60715,48.49049],[37.60643,48.49072],[37.6067,48.49158],[37.60718,48.49232],[37.60775,48.49266],[37.60842,48.49359],[37.61074,48.49656],[37.61108,48.49961],[37.61153,48.50106],[37.61082,48.50161],[37.61008,48.50182],[37.60928,48.50263],[37.60966,48.50393],[37.61083,48.50554],[37.61475,48.50571],[37.6199,48.50672],[37.62544,48.51534],[37.62827,48.49887],[37.61309,48.49491],[37.61307,48.49447],[37.61245,48.49438],[37.61266,48.49364],[37.61201,48.4933],[37.61214,48.49268],[37.6113,48.49295],[37.61018,48.49291],[37.61003,48.49132],[37.60787,48.49086],[37.60755,48.49025],[37.60715,48.49049]],[[37.61739,48.50091],[37.61872,48.5008],[37.6191,48.50095],[37.6187,48.50131],[37.61691,48.50147],[37.61739,48.50091]]],[[[37.16376,48.37333],[37.1716,48.38582],[37.17104,48.39058],[37.18889,48.39327],[37.19038,48.38233],[37.18861,48.37986],[37.18415,48.3777],[37.17917,48.3781],[37.17678,48.37579],[37.17656,48.37055],[37.17967,48.36085],[37.17829,48.35928],[37.16327,48.35793],[37.16352,48.36172],[37.1632,48.36401],[37.15963,48.36641],[37.15005,48.37153],[37.16376,48.37333]]],[[[34.76708,51.14501],[34.76813,51.14713],[34.7722,51.14852],[34.77722,51.14987],[34.7831,51.15054],[34.78238,51.14982],[34.7778,51.14702],[34.77185,51.14413],[34.7711,51.14308],[34.76708,51.14501]]]]},"properties":{"source":"ukrdaily","source_name":"UkrDailyUpdate","source_url":"https://map.ukrdailyupdate.com/","category":"ukrainian_to_contested","category_label":"Ukrainian-held became contested","period":"7d","compared_with":"2026-08-04","snapshot_time":"2026-08-11","area_km2_approx":25.4}}]}