{"type":"FeatureCollection","features":[{"type":"Feature","geometry":null,"properties":{"source":"ru_mod","source_name":"Ministry of Defence of Russia","group":"official_ru","id":67508,"posted_utc":"2026-09-20T16:30:22+00:00","link":"https://t.me/mod_russia/67508","text":"↗️ Прокачиваем на максимум скорость и реакцию\n🎮 Операторы БПЛА из артиллерийского соединения 58-й гвардейской армии группировки «Днепр» ежедневно совершенствуют навыки управления дронами.\n📍 Занятия проходят на полигоне, на котором воссозданы условия реального боя. Операторы летают по тренировочному лабиринту на заданной скорости и высоте.\n✅ За полетами следят инструкторы и командиры, которые на месте исправляют ошибки и делятся боевым опытом.\n➡️ Служи по контракту в войсках беспилотных систем – управляй дронами. Подробности на сайте Беспилотныевойска.рф и по телефону 117(доб.4), а бот в мессенджере МАКС, кроме ответов на возникшие вопросы, ещё и назовет точные адреса пунктов отбора в вашем регионе.\n#ВойскаБПС\n🔹 MAКС – территория СВОих","links":["https://xn--80abdlarjifukdg1ajk8m.xn--p1ai/?utm_source=mil&utm_medium=social&utm_campaign=social","https://max.ru/contract_bpla_bot","https://max.ru/morf"],"original_html":"<tg-emoji emoji-id=\"5352838429862296415\"><i class=\"emoji\" style=\"background-image:url('//telegram.org/img/emoji/40/E28697.png')\"><b>↗️</b></i></tg-emoji> <b>Прокачиваем на максимум скорость и реакцию</b><br/><br/><tg-emoji emoji-id=\"5449767024165154360\"><i class=\"emoji\" style=\"background-image:url('//telegram.org/img/emoji/40/F09F8EAE.png')\"><b>🎮</b></i></tg-emoji> Операторы БПЛА из артиллерийского соединения 58-й гвардейской армии группировки «Днепр» ежедневно <b>совершенствуют навыки управления дронами.</b><br/><br/><tg-emoji emoji-id=\"5469680584198483528\"><i class=\"emoji\" style=\"background-image:url('//telegram.org/img/emoji/40/F09F938D.png')\"><b>📍</b></i></tg-emoji> Занятия проходят на полигоне, на котором воссозданы условия реального боя. Операторы <b>летают по тренировочному лабиринту на заданной скорости и высоте.</b><br/><br/><tg-emoji emoji-id=\"5469909785128234267\"><i class=\"emoji\" style=\"background-image:url('//telegram.org/img/emoji/40/E29C85.png')\"><b>✅</b></i></tg-emoji> За полетами<b> следят инструкторы и командиры,</b> которые на месте исправляют ошибки и делятся боевым опытом.<br/><br/><tg-emoji emoji-id=\"5469902676957357453\"><i class=\"emoji\" style=\"background-image:url('//telegram.org/img/emoji/40/E29EA1.png')\"><b>➡️</b></i></tg-emoji> <i>Служи по контракту в войсках беспилотных систем – управляй дронами. Подробности на сайте </i><a href=\"https://xn--80abdlarjifukdg1ajk8m.xn--p1ai/?utm_source=mil&amp;amp;utm_medium=social&amp;amp;utm_campaign=social\" target=\"_blank\" rel=\"noopener\" onclick=\"return confirm('Open this link?\\n\\n'+this.href);\"><i><u>Беспилотныевойска.рф</u></i></a><i> и по телефону 117(доб.4), а </i><a href=\"https://max.ru/contract_bpla_bot\" target=\"_blank\" rel=\"noopener\" onclick=\"return confirm('Open this link?\\n\\n'+this.href);\"><i><u>бот в мессенджере МАКС</u></i></a><i>, кроме ответов на возникшие вопросы, ещё и назовет точные адреса пунктов отбора в вашем регионе.</i><br/><br/><a href=\"?q=%23%D0%92%D0%BE%D0%B9%D1%81%D0%BA%D0%B0%D0%91%D0%9F%D0%A1\">#ВойскаБПС</a><br/><tg-emoji emoji-id=\"5269510734265483362\"><i class=\"emoji\" style=\"background-image:url('//telegram.org/img/emoji/40/F09F94B9.png')\"><b>🔹</b></i></tg-emoji> <a href=\"https://max.ru/morf\" target=\"_blank\" rel=\"noopener\" onclick=\"return confirm('Open this link?\\n\\n'+this.href);\">MAКС – территория СВОих</a>"}},{"type":"Feature","geometry":null,"properties":{"source":"ru_mod","source_name":"Ministry of Defence of Russia","group":"official_ru","id":67509,"posted_utc":"2026-09-20T16:40:51+00:00","link":"https://t.me/mod_russia/67509","text":"❗️ В целях срыва демократического волеизъявления граждан Российской Федерации на выборах в Государственную Думу Федерального собрания Российской Федерации киевский режим в течение 19-го и 20-го сентября т.г. предпринял попытку массированной атаки по территории Российской Федерации с применением БПЛА и крылатых ракет «Фламинго».\n▫️ Благодаря грамотным действиям расчетов зенитных ракетных войск, мобильных огневых групп, а также экипажей истребительной и армейской авиации за сутки над российскими регионами был сбит 1951 ударный беспилотный летательный аппарат и восемь крылатых ракет большой дальности. Ещё одна запущенная противником крылатая ракета отклонилась и упала в безлюдной местности.\n▫️ При этом все запущенные киевским режимом ракеты «Фламинго» уничтожены российскими средствами ПВО на подлёте к гражданским объектам московского региона. Попытка массированной атаки на Москву провалилась. Своих целей противник не достиг.\n▫️ В ответ на атаки киевского режима по гражданским объектам на территории России Вооруженные Силы Российской Федерации продолжат и усилят удары высокоточным оружием по военным объектам в Киеве.\n🔹 Минобороны России","links":["https://max.ru/morf"],"original_html":"<tg-emoji emoji-id=\"5447116342148753425\"><i class=\"emoji\" style=\"background-image:url('//telegram.org/img/emoji/40/E29D97.png')\"><b>❗️</b></i></tg-emoji> В целях срыва демократического волеизъявления граждан Российской Федерации на выборах в Государственную Думу Федерального собрания Российской Федерации <b>киевский режим в течение 19-го и 20-го сентября т.г. предпринял попытку массированной атаки</b> по территории Российской Федерации с применением БПЛА и крылатых ракет «Фламинго».<br/><br/><tg-emoji emoji-id=\"5469903849483431273\"><i class=\"emoji\" style=\"background-image:url('//telegram.org/img/emoji/40/E296AB.png')\"><b>▫️</b></i></tg-emoji> Благодаря грамотным действиям расчетов зенитных ракетных войск, мобильных огневых групп, а также экипажей истребительной и армейской авиации <b>за сутки над российскими регионами был сбит 1951 ударный беспилотный летательный аппарат и восемь крылатых ракет </b>большой дальности. Ещё одна запущенная противником крылатая ракета отклонилась и упала в безлюдной местности.<br/><br/><tg-emoji emoji-id=\"5469903849483431273\"><i class=\"emoji\" style=\"background-image:url('//telegram.org/img/emoji/40/E296AB.png')\"><b>▫️</b></i></tg-emoji> При этом все запущенные киевским режимом ракеты «Фламинго» уничтожены российскими средствами ПВО на подлёте к гражданским объектам московского региона. <b>Попытка массированной атаки на Москву провалилась. Своих целей противник не достиг. </b><br/><br/><tg-emoji emoji-id=\"5469903849483431273\"><i class=\"emoji\" style=\"background-image:url('//telegram.org/img/emoji/40/E296AB.png')\"><b>▫️</b></i></tg-emoji> В ответ на атаки киевского режима по гражданским объектам на территории России <b>Вооруженные Силы Российской Федерации продолжат и усилят удары высокоточным оружием по военным объектам в Киеве.</b><br/><br/><tg-emoji emoji-id=\"5269510734265483362\"><i class=\"emoji\" style=\"background-image:url('//telegram.org/img/emoji/40/F09F94B9.png')\"><b>🔹</b></i></tg-emoji> <a href=\"https://max.ru/morf\" target=\"_blank\" rel=\"noopener\" onclick=\"return confirm('Open this link?\\n\\n'+this.href);\">Минобороны России</a>"}},{"type":"Feature","geometry":null,"properties":{"source":"ru_mod","source_name":"Ministry of Defence of Russia","group":"official_ru","id":67510,"posted_utc":"2026-09-20T17:23:15+00:00","link":"https://t.me/mod_russia/67510","text":"❗️ В течение дня Вооруженными Силами Российской Федерации продолжено нанесение ударов беспилотными летательными аппаратами по портам Украины и морским судам, используемым в интересах ВСУ.\n💥 В результате ударов поражены:\n▫️ в порту Одесса – сухогруз с военным имуществом, предназначенным для обеспечения ВСУ;\n▫️ в населенном пункте Петровка (38 км севернее Одессы) – склад боеприпасов.\n▫️ Канал Минобороны России в MAКС – источник мощных новостей","links":["https://max.ru/morf"],"original_html":"<tg-emoji emoji-id=\"5447116342148753425\"><i class=\"emoji\" style=\"background-image:url('//telegram.org/img/emoji/40/E29D97.png')\"><b>❗️</b></i></tg-emoji> В течение дня Вооруженными Силами Российской Федерации <b>продолжено нанесение ударов</b> беспилотными летательными аппаратами <b>по портам Украины и морским судам</b>, используемым в интересах ВСУ.<br/><br/><tg-emoji emoji-id=\"5449682610877918293\"><i class=\"emoji\" style=\"background-image:url('//telegram.org/img/emoji/40/F09F92A5.png')\"><b>💥</b></i></tg-emoji> В результате ударов поражены:<br/><br/><tg-emoji emoji-id=\"5469903849483431273\"><i class=\"emoji\" style=\"background-image:url('//telegram.org/img/emoji/40/E296AB.png')\"><b>▫️</b></i></tg-emoji> в порту Одесса – <b>сухогруз с военным имуществом</b>, предназначенным для обеспечения ВСУ;<br/><br/><tg-emoji emoji-id=\"5469903849483431273\"><i class=\"emoji\" style=\"background-image:url('//telegram.org/img/emoji/40/E296AB.png')\"><b>▫️</b></i></tg-emoji> в населенном пункте Петровка (38 км севернее Одессы) – <b>склад боеприпасов</b>.<br/><br/><tg-emoji emoji-id=\"5352532894478793783\"><i class=\"emoji\" style=\"background-image:url('//telegram.org/img/emoji/40/E296AB.png')\"><b>▫️</b></i></tg-emoji> <a href=\"https://max.ru/morf\" target=\"_blank\" rel=\"noopener\" onclick=\"return confirm('Open this link?\\n\\n'+this.href);\">Канал Минобороны России в MAКС – источник мощных новостей</a>"}},{"type":"Feature","geometry":null,"properties":{"source":"ru_mod","source_name":"Ministry of Defence of Russia","group":"official_ru","id":67511,"posted_utc":"2026-09-20T17:36:36+00:00","link":"https://t.me/mod_russia/67511","text":"⚡️️ В течение дня в период с 8.00 до 20.00 мск дежурными силами ПВО перехвачены и уничтожены 112 украинских беспилотных летательных аппаратов самолетного типа над территориями Белгородской, Брянской, Калужской, Курской, Орловской, Тульской областей, Московского региона, Республики Крым и над акваторией Черного моря.\n🔹 Канал Минобороны России в MAКС – только для своих!","links":["https://max.ru/morf"],"original_html":"<tg-emoji emoji-id=\"5449911936361724483\"><i class=\"emoji\" style=\"background-image:url('//telegram.org/img/emoji/40/E29AA1.png')\"><b>⚡️</b></i></tg-emoji>️ В течение дня в период с 8.00 до 20.00 мск дежурными силами ПВО<b> перехвачены и уничтожены 112 украинских беспилотных летательных аппаратов самолетного типа</b> над территориями Белгородской, Брянской, Калужской, Курской, Орловской, Тульской областей, Московского региона, Республики Крым и над акваторией Черного моря.<br/><br/><tg-emoji emoji-id=\"5269510734265483362\"><i class=\"emoji\" style=\"background-image:url('//telegram.org/img/emoji/40/F09F94B9.png')\"><b>🔹</b></i></tg-emoji> <a href=\"https://max.ru/morf\" target=\"_blank\" rel=\"noopener\" onclick=\"return confirm('Open this link?\\n\\n'+this.href);\">Канал Минобороны России в MAКС – только для своих&#33;</a>"}},{"type":"Feature","geometry":null,"properties":{"source":"ru_mod","source_name":"Ministry of Defence of Russia","group":"official_ru","id":67512,"posted_utc":"2026-09-20T17:39:16+00:00","link":"https://t.me/mod_russia/67512","text":"🔥 Логистика врага под огнем: группировка «Север» ликвидировала живую силу противника\nАртиллеристы 44-го армейского корпуса из группировки «Север» нанесли точные удары по логистическим маршрутам ВСУ в Сумской области. Живая сила украинских формирований уничтожена.\n⚔️ Канал Минобороны России в MAКС – боевая работа 24/7. Присоединяйся!","links":["https://max.ru/morf"],"original_html":"<b><tg-emoji emoji-id=\"5449590921916082144\"><i class=\"emoji\" style=\"background-image:url('//telegram.org/img/emoji/40/F09F94A5.png')\"><b>🔥</b></i></tg-emoji></b><b> Логистика врага под огнем: группировка «Север» ликвидировала живую силу противника</b><br/><br/>Артиллеристы 44-го армейского корпуса из группировки «Север» <b>нанесли точные удары по логистическим маршрутам ВСУ</b> в Сумской области. Живая сила украинских формирований уничтожена.<br/><br/><tg-emoji emoji-id=\"5355272791555862549\"><i class=\"emoji\" style=\"background-image:url('//telegram.org/img/emoji/40/E29A94.png')\"><b>⚔️</b></i></tg-emoji> <a href=\"https://max.ru/morf\" target=\"_blank\" rel=\"noopener\" onclick=\"return confirm('Open this link?\\n\\n'+this.href);\">Канал Минобороны России в MAКС – боевая работа 24/7. Присоединяйся&#33;</a>"}},{"type":"Feature","geometry":null,"properties":{"source":"ru_mod","source_name":"Ministry of Defence of Russia","group":"official_ru","id":67513,"posted_utc":"2026-09-20T18:30:39+00:00","link":"https://t.me/mod_russia/67513","text":"После заката будет рассвет.\nМы здесь защищаем утренний свет ❤️\n🔹 Минобороны России","links":["https://max.ru/morf"],"original_html":"После заката будет рассвет.<br/><br/>Мы здесь защищаем утренний свет <i class=\"emoji\" style=\"background-image:url('//telegram.org/img/emoji/40/E29DA4.png')\"><b>❤️</b></i><br/><br/><tg-emoji emoji-id=\"5269510734265483362\"><i class=\"emoji\" style=\"background-image:url('//telegram.org/img/emoji/40/F09F94B9.png')\"><b>🔹</b></i></tg-emoji> <a href=\"https://max.ru/morf\" target=\"_blank\" rel=\"noopener\" onclick=\"return confirm('Open this link?\\n\\n'+this.href);\">Минобороны России</a>"}},{"type":"Feature","geometry":null,"properties":{"source":"ru_mod","source_name":"Ministry of Defence of Russia","group":"official_ru","id":67514,"posted_utc":"2026-09-20T22:02:01+00:00","link":"https://t.me/mod_russia/67514","text":"Для нас над полем Куликовым взошла победная заря\n📆 #ВэтотДень отмечается День воинской славы России – День победы русских полков во главе с великим князем Дмитрием Донским над монголо-татарскими войсками в Куликовской битве в 1380 году.\n💥 Столкновение стало одним из самых масштабных для своей эпохи. Русские войска разгромили противника благодаря четкой тактике, стойкости воинов и засадному полку, который вступил в бой в решающий момент.\n▫️ Победа на Куликовом поле сплотила народ и приблизила распад Золотой Орды, закрепив за Москвой роль центра воссоединения земель. Русские князья смогли годами не платить дань и уверенно перешли от обороны к наступлению.\n🙏  Память о победе воинства Дмитрия Донского жива по сей день, обретая глубокое духовное значение для защитников Отечества.\n🔹 Канал Минобороны России в MAКС – только для своих!","links":["https://max.ru/morf"],"original_html":"<b>Для нас над полем Куликовым взошла победная заря</b><br/><br/><tg-emoji emoji-id=\"5472282252048104170\"><i class=\"emoji\" style=\"background-image:url('//telegram.org/img/emoji/40/F09F9386.png')\"><b>📆</b></i></tg-emoji> <a href=\"?q=%23%D0%92%D1%8D%D1%82%D0%BE%D1%82%D0%94%D0%B5%D0%BD%D1%8C\">#ВэтотДень</a> отмечается День воинской славы России – <b>День победы русских полков во главе с великим князем Дмитрием Донским над монголо-татарскими войсками в Куликовской битве </b>в 1380 году.<br/><br/><tg-emoji emoji-id=\"5449682610877918293\"><i class=\"emoji\" style=\"background-image:url('//telegram.org/img/emoji/40/F09F92A5.png')\"><b>💥</b></i></tg-emoji> Столкновение стало одним из самых масштабных для своей эпохи.<b> Русские войска разгромили противника благодаря четкой тактике, стойкости воинов и засадному полку</b>, который вступил в бой в решающий момент.<br/><br/><tg-emoji emoji-id=\"5469903849483431273\"><i class=\"emoji\" style=\"background-image:url('//telegram.org/img/emoji/40/E296AB.png')\"><b>▫️</b></i></tg-emoji> Победа на Куликовом поле <b>сплотила народ и приблизила распад Золотой Орды</b>, закрепив за Москвой роль центра воссоединения земель. Русские князья смогли годами не платить дань и уверенно<b> перешли от обороны к наступлению.</b><br/><br/><i class=\"emoji\" style=\"background-image:url('//telegram.org/img/emoji/40/F09F998F.png')\"><b>🙏</b></i>  Память о победе воинства Дмитрия Донского жива по сей день,<b> обретая глубокое духовное значение для защитников Отечества.</b><br/><br/><tg-emoji emoji-id=\"5269510734265483362\"><i class=\"emoji\" style=\"background-image:url('//telegram.org/img/emoji/40/F09F94B9.png')\"><b>🔹</b></i></tg-emoji> <a href=\"https://max.ru/morf\" target=\"_blank\" rel=\"noopener\" onclick=\"return confirm('Open this link?\\n\\n'+this.href);\">Канал Минобороны России в MAКС – только для своих&#33;</a>"}},{"type":"Feature","geometry":null,"properties":{"source":"ru_mod","source_name":"Ministry of Defence of Russia","group":"official_ru","id":67487,"posted_utc":"2026-09-20T05:27:57+00:00","link":"https://t.me/mod_russia/67487","text":"❗️ Сегодня ночью Вооруженными Силами Российской Федерации нанесены удары беспилотными летательными аппаратами по логистическим центрам, складам и портам Украины, а также судам, задействованным в интересах ВСУ.\n💥  В результате удара поражены:\n📍  в Киевской  области:\n▫️ склад компании «FIRE POINT» в н.п. Боярка (11 км юго-зап. Киева), осуществлявший хранение комплектующих и стартовых ускорителей для БПЛА большой дальности;\n📍  в Одесской области:\n▫️ в порту Одесса морское судно типа «сухогруз», доставивший грузы военного назначения;\n▫️ логистический центр «Новая почта» (1,5 км сев. Одессы), используемый для хранения и распределения военных грузов, доставляемых на Украину.\n🔹 MAКС – территория СВОих","links":["https://max.ru/morf"],"original_html":"<tg-emoji emoji-id=\"5447116342148753425\"><i class=\"emoji\" style=\"background-image:url('//telegram.org/img/emoji/40/E29D97.png')\"><b>❗️</b></i></tg-emoji> <b>Сегодня ночью Вооруженными Силами Российской Федерации нанесены удары беспилотными летательными аппаратами по логистическим центрам, складам и портам Украины, а также судам, задействованным в интересах ВСУ.</b><br/><br/><tg-emoji emoji-id=\"5449682610877918293\"><i class=\"emoji\" style=\"background-image:url('//telegram.org/img/emoji/40/F09F92A5.png')\"><b>💥</b></i></tg-emoji>  В результате удара <b>поражены:</b><br/><br/><tg-emoji emoji-id=\"5449396879588614682\"><i class=\"emoji\" style=\"background-image:url('//telegram.org/img/emoji/40/F09F938D.png')\"><b>📍</b></i></tg-emoji>  в Киевской  области:<br/><br/><tg-emoji emoji-id=\"5469903849483431273\"><i class=\"emoji\" style=\"background-image:url('//telegram.org/img/emoji/40/E296AB.png')\"><b>▫️</b></i></tg-emoji> склад компании «FIRE POINT» в н.п. Боярка (11 км юго-зап. Киева), осуществлявший хранение комплектующих и стартовых ускорителей для БПЛА большой дальности;<br/><br/><tg-emoji emoji-id=\"5449396879588614682\"><i class=\"emoji\" style=\"background-image:url('//telegram.org/img/emoji/40/F09F938D.png')\"><b>📍</b></i></tg-emoji>  в Одесской области:<br/><br/><tg-emoji emoji-id=\"5469903849483431273\"><i class=\"emoji\" style=\"background-image:url('//telegram.org/img/emoji/40/E296AB.png')\"><b>▫️</b></i></tg-emoji> в порту Одесса морское судно типа «сухогруз», доставивший грузы военного назначения;<br/><tg-emoji emoji-id=\"5469903849483431273\"><i class=\"emoji\" style=\"background-image:url('//telegram.org/img/emoji/40/E296AB.png')\"><b>▫️</b></i></tg-emoji> логистический центр «Новая почта» (1,5 км сев. Одессы), используемый для хранения и распределения военных грузов, доставляемых на Украину.<br/><br/><tg-emoji emoji-id=\"5269510734265483362\"><i class=\"emoji\" style=\"background-image:url('//telegram.org/img/emoji/40/F09F94B9.png')\"><b>🔹</b></i></tg-emoji> <a href=\"https://max.ru/morf\" target=\"_blank\" rel=\"noopener\" onclick=\"return confirm('Open this link?\\n\\n'+this.href);\">MAКС – территория СВОих</a>"}},{"type":"Feature","geometry":null,"properties":{"source":"ru_mod","source_name":"Ministry of Defence of Russia","group":"official_ru","id":67488,"posted_utc":"2026-09-20T05:39:39+00:00","link":"https://t.me/mod_russia/67488","text":"💥 Логистика под прицелом «Гераней»\nРасчеты беспилотников поразили танкер, задействованный для доставки военных грузов ВСУ.\n📍 порт Черноморск, Одесская область\n#ВойскаБПС\n🔹 Канал Минобороны России в MAКС – боевая работа 24/7","links":["https://max.ru/morf"],"original_html":"<tg-emoji emoji-id=\"5449682610877918293\"><i class=\"emoji\" style=\"background-image:url('//telegram.org/img/emoji/40/F09F92A5.png')\"><b>💥</b></i></tg-emoji> <b>Логистика под прицелом «Гераней»</b><br/><br/>Расчеты беспилотников поразили танкер, задействованный для доставки военных грузов ВСУ.<br/><br/><tg-emoji emoji-id=\"5469680584198483528\"><i class=\"emoji\" style=\"background-image:url('//telegram.org/img/emoji/40/F09F938D.png')\"><b>📍</b></i></tg-emoji> <i>порт Черноморск, Одесская область<br/></i><br/><a href=\"?q=%23%D0%92%D0%BE%D0%B9%D1%81%D0%BA%D0%B0%D0%91%D0%9F%D0%A1\">#ВойскаБПС</a><br/><tg-emoji emoji-id=\"5269510734265483362\"><i class=\"emoji\" style=\"background-image:url('//telegram.org/img/emoji/40/F09F94B9.png')\"><b>🔹</b></i></tg-emoji> <a href=\"https://max.ru/morf\" target=\"_blank\" rel=\"noopener\" onclick=\"return confirm('Open this link?\\n\\n'+this.href);\">Канал Минобороны России в MAКС – боевая работа 24/7</a>"}},{"type":"Feature","geometry":null,"properties":{"source":"ru_mod","source_name":"Ministry of Defence of Russia","group":"official_ru","id":67489,"posted_utc":"2026-09-20T06:35:14+00:00","link":"https://t.me/mod_russia/67489","text":"⚡️ В течение прошедшей ночи дежурными силами ПВО перехвачены и уничтожены 1110 украинских беспилотных летательных аппаратов самолетного типа над территориями Белгородской, Брянской, Курской, Рязанской, Тульской, Калужской, Владимирской, Нижегородской, Тамбовской, Воронежской, Липецкой, Смоленской, Орловской, Ростовской, Волгоградской, Саратовской, Самарской областей, Краснодарского края, Московского региона, Республики Крым и над акваторией Черного моря.\n🔹 Минобороны России","links":["https://max.ru/morf"],"original_html":"<tg-emoji emoji-id=\"5449911936361724483\"><i class=\"emoji\" style=\"background-image:url('//telegram.org/img/emoji/40/E29AA1.png')\"><b>⚡️</b></i></tg-emoji> В течение прошедшей ночи дежурными силами ПВО <b>перехвачены и уничтожены 1110 украинских беспилотных летательных аппаратов самолетного типа </b>над территориями Белгородской, Брянской, Курской, Рязанской, Тульской, Калужской, Владимирской, Нижегородской, Тамбовской, Воронежской, Липецкой, Смоленской, Орловской, Ростовской, Волгоградской, Саратовской, Самарской областей, Краснодарского края, Московского региона, Республики Крым и над акваторией Черного моря.<br/><br/><tg-emoji emoji-id=\"5269510734265483362\"><i class=\"emoji\" style=\"background-image:url('//telegram.org/img/emoji/40/F09F94B9.png')\"><b>🔹</b></i></tg-emoji> <a href=\"https://max.ru/morf\" target=\"_blank\" rel=\"noopener\" onclick=\"return confirm('Open this link?\\n\\n'+this.href);\">Минобороны России</a>"}},{"type":"Feature","geometry":null,"properties":{"source":"ru_mod","source_name":"Ministry of Defence of Russia","group":"official_ru","id":67490,"posted_utc":"2026-09-20T06:36:51+00:00","link":"https://t.me/mod_russia/67490","text":"💥 Жёсткий перехват: крылатый патруль группировки «Центр» выжигает врага\nРасчёты FPV-дронов группировки «Центр» разнесли очередную попытку ротации противника на подступах к Доброполью. Враг думал проскочить незамеченным, но наши «птички» сработали молниеносно и безжалостно. Никаких шансов на спасение – только точные попадания.\nЖестко и без компромиссов работаем по противнику по всей линии фронта! Скорости не сбавляем! 👊💥\n#ВойскаБПС\n▫️ Канал Минобороны России в MAКС – только для своих!","links":["https://max.ru/morf"],"original_html":"<tg-emoji emoji-id=\"5449682610877918293\"><i class=\"emoji\" style=\"background-image:url('//telegram.org/img/emoji/40/F09F92A5.png')\"><b>💥</b></i></tg-emoji> <b>Жёсткий перехват: крылатый патруль группировки «Центр» выжигает врага</b><br/><br/>Расчёты FPV-дронов группировки «Центр» разнесли очередную попытку ротации противника на подступах к Доброполью. Враг думал проскочить незамеченным, но наши «птички» сработали молниеносно и безжалостно. Никаких шансов на спасение – только точные попадания.<br/><br/>Жестко и без компромиссов работаем по противнику по всей линии фронта&#33; Скорости не сбавляем&#33; <i class=\"emoji\" style=\"background-image:url('//telegram.org/img/emoji/40/F09F918A.png')\"><b>👊</b></i><tg-emoji emoji-id=\"5449682610877918293\"><i class=\"emoji\" style=\"background-image:url('//telegram.org/img/emoji/40/F09F92A5.png')\"><b>💥</b></i></tg-emoji><br/><br/><a href=\"?q=%23%D0%92%D0%BE%D0%B9%D1%81%D0%BA%D0%B0%D0%91%D0%9F%D0%A1\">#ВойскаБПС</a><br/><tg-emoji emoji-id=\"5352532894478793783\"><i class=\"emoji\" style=\"background-image:url('//telegram.org/img/emoji/40/E296AB.png')\"><b>▫️</b></i></tg-emoji> <a href=\"https://max.ru/morf\" target=\"_blank\" rel=\"noopener\" onclick=\"return confirm('Open this link?\\n\\n'+this.href);\">Канал Минобороны России в MAКС – только для своих&#33;</a>"}},{"type":"Feature","geometry":null,"properties":{"source":"ru_mod","source_name":"Ministry of Defence of Russia","group":"official_ru","id":67491,"posted_utc":"2026-09-20T08:26:46+00:00","link":"https://t.me/mod_russia/67491","text":"❗️ Оперативно-тактической авиацией, ударными БПЛА, ракетными войсками и артиллерией группировок войск ВС РФ нанесено поражение объектам транспортной инфраструктуры, складам боеприпасов, военно-технического имущества, цехам производства БПЛА и местам их хранения, а также пунктам временной дислокации украинских вооруженных формирований и иностранных наемников в 146 районах.\nПодробнее о ходе проведения специальной военной операции ➡️ в MAКС","links":["https://max.ru/morf/AaC96aFYY2k"],"original_html":"<tg-emoji emoji-id=\"5447116342148753425\"><i class=\"emoji\" style=\"background-image:url('//telegram.org/img/emoji/40/E29D97.png')\"><b>❗️</b></i></tg-emoji> <b>Оперативно-тактической авиацией, ударными БПЛА, ракетными войсками и артиллерией группировок войск ВС РФ нанесено поражение</b> объектам транспортной инфраструктуры, складам боеприпасов, военно-технического имущества, цехам производства БПЛА и местам их хранения, а также пунктам временной дислокации украинских вооруженных формирований и иностранных наемников <b>в</b> <b>146 районах.</b><br/><br/>Подробнее о ходе проведения специальной военной операции <tg-emoji emoji-id=\"5469902676957357453\"><i class=\"emoji\" style=\"background-image:url('//telegram.org/img/emoji/40/E29EA1.png')\"><b>➡️</b></i></tg-emoji> <a href=\"https://max.ru/morf/AaC96aFYY2k\" target=\"_blank\" rel=\"noopener\" onclick=\"return confirm('Open this link?\\n\\n'+this.href);\">в MAКС</a>"}},{"type":"Feature","geometry":null,"properties":{"source":"ru_mod","source_name":"Ministry of Defence of Russia","group":"official_ru","id":67492,"posted_utc":"2026-09-20T09:23:43+00:00","link":"https://t.me/mod_russia/67492","text":"💥 Бьем по мозгам мостам\nРасчеты «Герани-4 Сикер» поразили новый автомобильный мост, использовавшийся ВСУ для переправы автотранспорта с грузами военного назначения.\n📍 район населенного пункта Маяки, Одесская область\n#ВойскаБПС\n🎮 Канал Минобороны России в MAКС – боевая работа 24/7. Присоединяйся!","links":["https://max.ru/morf"],"original_html":"<b><tg-emoji emoji-id=\"5449682610877918293\"><i class=\"emoji\" style=\"background-image:url('//telegram.org/img/emoji/40/F09F92A5.png')\"><b>💥</b></i></tg-emoji></b><b> Бьем по <s>мозгам</s> мостам</b><br/><br/>Расчеты «Герани-4 Сикер» <b>поразили новый автомобильный мост</b>, использовавшийся ВСУ для переправы автотранспорта с грузами военного назначения.<br/><i><br/></i><i><tg-emoji emoji-id=\"5469680584198483528\"><i class=\"emoji\" style=\"background-image:url('//telegram.org/img/emoji/40/F09F938D.png')\"><b>📍</b></i></tg-emoji></i><i> район населенного пункта Маяки, Одесская область</i><br/><br/><a href=\"?q=%23%D0%92%D0%BE%D0%B9%D1%81%D0%BA%D0%B0%D0%91%D0%9F%D0%A1\">#ВойскаБПС</a><br/><tg-emoji emoji-id=\"5449767024165154360\"><i class=\"emoji\" style=\"background-image:url('//telegram.org/img/emoji/40/F09F8EAE.png')\"><b>🎮</b></i></tg-emoji> <a href=\"https://max.ru/morf\" target=\"_blank\" rel=\"noopener\" onclick=\"return confirm('Open this link?\\n\\n'+this.href);\">Канал Минобороны России в MAКС – боевая работа 24/7. Присоединяйся&#33;</a>"}},{"type":"Feature","geometry":null,"properties":{"source":"ru_mod","source_name":"Ministry of Defence of Russia","group":"official_ru","id":67493,"posted_utc":"2026-09-20T10:13:03+00:00","link":"https://t.me/mod_russia/67493","text":"История чудесного спасения. О том, как иногда на фронте помощь приходит, если очень-очень искренне попросить!\nЕе рассказал штурмовик с позывным «Ветер». Он стоит у храма, куда прибыл ковчег с частицей мощей святого благоверного князя Дмитрия Донского. Послушайте!\nРассказываем об участниках СВО в 📲 MAX,  📱 ВКонтакте и в 📱 Дзен","links":["https://max.ru/heroesofZ","https://vk.com/heroes0fz","http://dzen.ru/heroesofz"],"original_html":"История чудесного спасения. О том, как иногда на фронте помощь приходит, если очень-очень искренне попросить&#33; <br/><br/>Ее рассказал штурмовик с <b>позывным «Ветер»</b>. Он стоит у храма, куда прибыл ковчег с частицей мощей святого благоверного князя Дмитрия Донского. Послушайте&#33; <br/><br/><i>Рассказываем об участниках СВО в</i> <i><tg-emoji emoji-id=\"5449407131675558756\"><i class=\"emoji\" style=\"background-image:url('//telegram.org/img/emoji/40/F09F93B2.png')\"><b>📲</b></i></tg-emoji></i><i> </i><a href=\"https://max.ru/heroesofZ\" target=\"_blank\" rel=\"noopener\" onclick=\"return confirm('Open this link?\\n\\n'+this.href);\"><i>MAX</i></a>,<i>  </i><i><tg-emoji emoji-id=\"5334853932915114338\"><i class=\"emoji\" style=\"background-image:url('//telegram.org/img/emoji/40/F09F93B1.png')\"><b>📱</b></i></tg-emoji></i><i> </i><a href=\"https://vk.com/heroes0fz\" target=\"_blank\" rel=\"noopener\" onclick=\"return confirm('Open this link?\\n\\n'+this.href);\"><i>ВКонтакте</i></a> <i>и в </i><i><tg-emoji emoji-id=\"5321533581472842536\"><i class=\"emoji\" style=\"background-image:url('//telegram.org/img/emoji/40/F09F93B1.png')\"><b>📱</b></i></tg-emoji></i><i> </i><a href=\"http://dzen.ru/heroesofz\" target=\"_blank\" rel=\"noopener\" onclick=\"return confirm('Open this link?\\n\\n'+this.href);\"><i>Дзен</i></a>"}},{"type":"Feature","geometry":null,"properties":{"source":"ru_mod","source_name":"Ministry of Defence of Russia","group":"official_ru","id":67494,"posted_utc":"2026-09-20T10:59:21+00:00","link":"https://t.me/mod_russia/67494","text":"👊 В оба глаза: наносим ослепляющие удары\nБеспилотники «Герань-4 Сикер» отработали по двум украинским РЛС 35Д6 в районах Староказачьего Одесской области и Андреевки Днепропетровской области.\n#ВойскаБПС\n✈️ Курс на MAКС!","links":["https://max.ru/morf"],"original_html":"<b><i class=\"emoji\" style=\"background-image:url('//telegram.org/img/emoji/40/F09F918A.png')\"><b>👊</b></i> В оба глаза: наносим ослепляющие удары</b><br/><br/>Беспилотники «Герань-4 Сикер» о<b>тработали по двум украинским РЛС 35Д6 </b>в районах Староказачьего Одесской области и Андреевки Днепропетровской области.<br/><br/><a href=\"?q=%23%D0%92%D0%BE%D0%B9%D1%81%D0%BA%D0%B0%D0%91%D0%9F%D0%A1\">#ВойскаБПС</a><br/><tg-emoji emoji-id=\"5449403034276751727\"><i class=\"emoji\" style=\"background-image:url('//telegram.org/img/emoji/40/E29C88.png')\"><b>✈️</b></i></tg-emoji> <a href=\"https://max.ru/morf\" target=\"_blank\" rel=\"noopener\" onclick=\"return confirm('Open this link?\\n\\n'+this.href);\">Курс на MAКС&#33;</a>"}},{"type":"Feature","geometry":null,"properties":{"source":"ru_mod","source_name":"Ministry of Defence of Russia","group":"official_ru","id":67495,"posted_utc":"2026-09-20T11:46:23+00:00","link":"https://t.me/mod_russia/67495","text":"Удары по тылу противника, уверенное движение вперед, успешные пуски и духовная жизнь в войсках: главное за неделю\n💥 Удары по инфраструктуре: российские войска нанесли серию массированных ударов по логистическим, портовым и энергетическим объектам, а также по военному транспорту противника.\n⏩ Продвижение на фронте: в ходе успешных действий освобождены населенные пункты в ДНР, Запорожской и Харьковской областях.\n☦️ С верой в сердце: ковчег с мощами Дмитрия Донского встретили в передовых подразделениях российских войск.\n▫️ Курс на космос: Космические войска провели успешный пуск ракеты-носителя «Союз-2.1б» с космическим аппаратом в интересах Минобороны России.\n#СобытияНедели\n🔹 MAКС – территория СВОих","links":["https://max.ru/morf"],"original_html":"<b>Удары по тылу противника, уверенное движение вперед, успешные пуски и духовная жизнь в войсках: главное за неделю<br/><br/></b><b><tg-emoji emoji-id=\"5449682610877918293\"><i class=\"emoji\" style=\"background-image:url('//telegram.org/img/emoji/40/F09F92A5.png')\"><b>💥</b></i></tg-emoji></b><b> Удары по инфраструктуре: </b>российские войска нанесли серию массированных ударов по логистическим, портовым и энергетическим объектам, а также по военному транспорту противника.<br/><b><br/></b><b><tg-emoji emoji-id=\"5470088953983955103\"><i class=\"emoji\" style=\"background-image:url('//telegram.org/img/emoji/40/E28FA9.png')\"><b>⏩</b></i></tg-emoji></b><b> Продвижение на фронте:</b> в ходе успешных действий освобождены населенные пункты в ДНР, Запорожской и Харьковской областях.<br/><b><br/><i class=\"emoji\" style=\"background-image:url('//telegram.org/img/emoji/40/E298A6.png')\"><b>☦️</b></i> С верой в сердце:</b> ковчег с мощами Дмитрия Донского встретили в передовых подразделениях российских войск.<br/><b><br/></b><b><tg-emoji emoji-id=\"5352532894478793783\"><i class=\"emoji\" style=\"background-image:url('//telegram.org/img/emoji/40/E296AB.png')\"><b>▫️</b></i></tg-emoji></b><b> Курс на космос:</b> Космические войска провели успешный пуск ракеты-носителя «Союз-2.1б» с космическим аппаратом в интересах Минобороны России.<br/><br/><a href=\"?q=%23%D0%A1%D0%BE%D0%B1%D1%8B%D1%82%D0%B8%D1%8F%D0%9D%D0%B5%D0%B4%D0%B5%D0%BB%D0%B8\">#СобытияНедели</a><br/><tg-emoji emoji-id=\"5269510734265483362\"><i class=\"emoji\" style=\"background-image:url('//telegram.org/img/emoji/40/F09F94B9.png')\"><b>🔹</b></i></tg-emoji> <a href=\"https://max.ru/morf\" target=\"_blank\" rel=\"noopener\" onclick=\"return confirm('Open this link?\\n\\n'+this.href);\">MAКС – территория СВОих</a>"}},{"type":"Feature","geometry":null,"properties":{"source":"ru_mod","source_name":"Ministry of Defence of Russia","group":"official_ru","id":67505,"posted_utc":"2026-09-20T13:38:59+00:00","link":"https://t.me/mod_russia/67505","text":"Непрерывный конвейер: ремонт, прошивка и снова в бой\n⚙️ Военнослужащие батальона БПС группировки «Центр» организовали полный цикл ремонта, восстановления и подготовки беспилотников.\n💬 Боец с позывным «Бумер» рассказал об особенностях и основных задачах специалистов.\n➡️ Интересуешься дронами? Служба по контракту в войсках беспилотных систем – это твой выбор. Узнай детали на сайте Беспилотныевойска.рф и по телефону 117(доб.4), а бот в мессенджере МАКС ответит на интересующие вопросы.\n#ВойскаБПС\n🔹 Канал Минобороны России в MAКС – только для своих!","links":["https://xn--80abdlarjifukdg1ajk8m.xn--p1ai/?utm_source=mil&utm_medium=social&utm_campaign=social","https://max.ru/contract_bpla_bot","https://max.ru/morf"],"original_html":"<b>Непрерывный конвейер: ремонт, прошивка и снова в бой</b><br/><br/><tg-emoji emoji-id=\"5469709747026421866\"><i class=\"emoji\" style=\"background-image:url('//telegram.org/img/emoji/40/E29A99.png')\"><b>⚙️</b></i></tg-emoji> Военнослужащие батальона БПС группировки «Центр»<b> организовали полный цикл ремонта, восстановления и подготовки беспилотников. </b><br/><br/><tg-emoji emoji-id=\"5447486370761176298\"><i class=\"emoji\" style=\"background-image:url('//telegram.org/img/emoji/40/F09F92AC.png')\"><b>💬</b></i></tg-emoji> Боец с позывным «Бумер» рассказал об особенностях и основных задачах специалистов. <br/><br/><tg-emoji emoji-id=\"5469902676957357453\"><i class=\"emoji\" style=\"background-image:url('//telegram.org/img/emoji/40/E29EA1.png')\"><b>➡️</b></i></tg-emoji> <i>Интересуешься дронами? Служба по контракту в войсках беспилотных систем – это твой выбор. Узнай детали на сайте </i><a href=\"https://xn--80abdlarjifukdg1ajk8m.xn--p1ai/?utm_source=mil&amp;amp;utm_medium=social&amp;amp;utm_campaign=social\" target=\"_blank\" rel=\"noopener\" onclick=\"return confirm('Open this link?\\n\\n'+this.href);\"><i>Беспилотныевойска.рф</i></a><i> и по телефону 117(доб.4), а </i><a href=\"https://max.ru/contract_bpla_bot\" target=\"_blank\" rel=\"noopener\" onclick=\"return confirm('Open this link?\\n\\n'+this.href);\"><i>бот</i></a> <i>в мессенджере МАКС ответит на интересующие вопросы.</i><br/><br/><a href=\"?q=%23%D0%92%D0%BE%D0%B9%D1%81%D0%BA%D0%B0%D0%91%D0%9F%D0%A1\">#ВойскаБПС</a><br/><tg-emoji emoji-id=\"5269510734265483362\"><i class=\"emoji\" style=\"background-image:url('//telegram.org/img/emoji/40/F09F94B9.png')\"><b>🔹</b></i></tg-emoji> <a href=\"https://max.ru/morf\" target=\"_blank\" rel=\"noopener\" onclick=\"return confirm('Open this link?\\n\\n'+this.href);\">Канал Минобороны России в MAКС – только для своих&#33;</a>"}},{"type":"Feature","geometry":null,"properties":{"source":"ru_mod","source_name":"Ministry of Defence of Russia","group":"official_ru","id":67506,"posted_utc":"2026-09-20T14:59:00+00:00","link":"https://t.me/mod_russia/67506","text":"📝 Сдавайтесь! Летят российские дроны\nНа Добропольском направлении операторы беспилотников группировки «Центр» засыпали позиции ВСУ агитационными листовками. Это помогло украинским военнослужащим принять правильное решение – сложить оружие и сдаться в плен.\n#ВойскаБПС\n🔹 Минобороны России","links":["https://max.ru/morf"],"original_html":"<b><i class=\"emoji\" style=\"background-image:url('//telegram.org/img/emoji/40/F09F939D.png')\"><b>📝</b></i> Сдавайтесь&#33; Летят российские дроны</b><br/><br/>На Добропольском направлении операторы беспилотников группировки «Центр»<b> засыпали позиции ВСУ агитационными листовками</b>. Это помогло украинским военнослужащим принять правильное решение – сложить оружие и сдаться в плен.<br/><br/><a href=\"?q=%23%D0%92%D0%BE%D0%B9%D1%81%D0%BA%D0%B0%D0%91%D0%9F%D0%A1\">#ВойскаБПС</a><br/><tg-emoji emoji-id=\"5269510734265483362\"><i class=\"emoji\" style=\"background-image:url('//telegram.org/img/emoji/40/F09F94B9.png')\"><b>🔹</b></i></tg-emoji> <a href=\"https://max.ru/morf\" target=\"_blank\" rel=\"noopener\" onclick=\"return confirm('Open this link?\\n\\n'+this.href);\">Минобороны России</a>"}},{"type":"Feature","geometry":null,"properties":{"source":"ru_mod","source_name":"Ministry of Defence of Russia","group":"official_ru","id":67484,"posted_utc":"2026-09-20T02:07:01+00:00","link":"https://t.me/mod_russia/67484","text":"В деле наш «Лис»-птицелов 🦊\nОператоры БПЛА группировки «Север» таранят беспилотники ВСУ с помощью дрона-перехватчика «Лис-2».\n#ВойскаБПС\n🔹 Канал Минобороны России в MAКС – боевая работа 24/7","links":["https://max.ru/morf"],"original_html":"<b>В деле наш «Лис»-птицелов</b> <i class=\"emoji\" style=\"background-image:url('//telegram.org/img/emoji/40/F09FA68A.png')\"><b>🦊</b></i><br/><br/>Операторы БПЛА группировки «Север» <b>таранят беспилотники ВСУ</b> с помощью дрона-перехватчика «Лис-2».<br/><br/><a href=\"?q=%23%D0%92%D0%BE%D0%B9%D1%81%D0%BA%D0%B0%D0%91%D0%9F%D0%A1\">#ВойскаБПС</a><br/><tg-emoji emoji-id=\"5269510734265483362\"><i class=\"emoji\" style=\"background-image:url('//telegram.org/img/emoji/40/F09F94B9.png')\"><b>🔹</b></i></tg-emoji> <a href=\"https://max.ru/morf\" target=\"_blank\" rel=\"noopener\" onclick=\"return confirm('Open this link?\\n\\n'+this.href);\">Канал Минобороны России в MAКС – боевая работа 24/7</a>"}},{"type":"Feature","geometry":null,"properties":{"source":"ru_mod","source_name":"Ministry of Defence of Russia","group":"official_ru","id":67485,"posted_utc":"2026-09-20T03:34:33+00:00","link":"https://t.me/mod_russia/67485","text":"▫️ Русская смекалка помогает побеждать\n💥 Для танкистов 59-го гвардейского полка группировки «Запад» учеба не прекращается никогда: каждую свободную от боевых задач минуту экипажи проводят на тыловых полигонах, до автоматизма оттачивая слаженность и стрельбу.\nКомандир танка с позывным «Кадет» рассказал о боевом эпизоде, который доказывает, что идеальная точность – это не просто везение, а тонкий расчет. Подробности – в нашем материале ▶️\n🔹 Канал Минобороны России в MAКС – источник мощных новостей","links":["https://max.ru/morf"],"original_html":"<tg-emoji emoji-id=\"5352532894478793783\"><i class=\"emoji\" style=\"background-image:url('//telegram.org/img/emoji/40/E296AB.png')\"><b>▫️</b></i></tg-emoji> <b>Русская смекалка помогает побеждать<br/></b><br/><tg-emoji emoji-id=\"5447408202356389121\"><i class=\"emoji\" style=\"background-image:url('//telegram.org/img/emoji/40/F09F92A5.png')\"><b>💥</b></i></tg-emoji> Для танкистов 59-го гвардейского полка группировки «Запад» учеба не прекращается никогда: <b>каждую свободную от боевых задач минуту экипажи проводят на тыловых полигонах</b>, до автоматизма оттачивая слаженность и стрельбу. <br/><br/>Командир танка с позывным «Кадет» рассказал о боевом эпизоде, который доказывает, что идеальная точность – это не просто везение, а тонкий расчет. Подробности – в нашем материале <tg-emoji emoji-id=\"5469788413647416310\"><i class=\"emoji\" style=\"background-image:url('//telegram.org/img/emoji/40/E296B6.png')\"><b>▶️</b></i></tg-emoji><br/><br/><tg-emoji emoji-id=\"5269510734265483362\"><i class=\"emoji\" style=\"background-image:url('//telegram.org/img/emoji/40/F09F94B9.png')\"><b>🔹</b></i></tg-emoji> <a href=\"https://max.ru/morf\" target=\"_blank\" rel=\"noopener\" onclick=\"return confirm('Open this link?\\n\\n'+this.href);\">Канал Минобороны России в MAКС – источник мощных новостей</a>"}}]}