{"type":"FeatureCollection","features":[{"type":"Feature","geometry":{"type":"MultiPolygon","coordinates":[[[[37.10002,48.3827],[37.10637,48.38701],[37.10856,48.38655],[37.11444,48.38396],[37.11594,48.38282],[37.11758,48.38094],[37.1201,48.37737],[37.11126,48.38219],[37.10946,48.38139],[37.10671,48.37868],[37.10002,48.3827]]],[[[37.04344,48.35657],[37.04183,48.36051],[37.042,48.36178],[37.04668,48.36681],[37.05046,48.36756],[37.06436,48.36462],[37.07392,48.36154],[37.04757,48.35723],[37.04037,48.35082],[37.0403,48.35088],[37.04344,48.35657]]]]},"properties":{"source":"ukrdaily","source_name":"UkrDailyUpdate","source_url":"https://map.ukrdailyupdate.com/","category":"gained","category_label":"Newly Russian-occupied","period":"1d","compared_with":"2026-09-27","snapshot_time":"2026-09-28","area_km2_approx":2.3}}]}