{"type":"FeatureCollection","features":[{"type":"Feature","geometry":{"type":"Point","coordinates":[37.45044,48.39971]},"properties":{"source":"lost_warinua","source_name":"lost_warinua (Telegram)","source_url":"https://t.me/s/lost_warinua","id":141198,"date":"2026-10-01","date_note":null,"posted_utc":"2026-10-02T14:22:02+00:00","link":"https://t.me/lost_warinua/141198","category":"Telegram post","side":"Claimed loss: Russia","color":"#E00000","description":"Уничтоженный российский танк-сарай Т-80БВ с мангалом рядом с н.п. Попов Яр Донецкой области","orbat":[],"sources":["https://t.me/pomochfronty/50723"],"original_html":"<div class=\"tgme_widget_message_text js-message_text\" dir=\"auto\">01.10.26<br/>Уничтоженный российский танк-сарай Т-80БВ с мангалом рядом с н.п. Попов Яр Донецкой области<br/>(<code>48.39971, 37.45044</code>)<br/><a href=\"https://t.me/pomochfronty/50723\" target=\"_blank\" rel=\"noopener\" onclick=\"return confirm('Open this link?\\n\\n'+this.href);\">Источник.</a>"}}]}