{"type":"FeatureCollection","features":[{"type":"Feature","geometry":{"type":"Point","coordinates":[38.233286,49.649383]},"properties":{"original":{"id":46687,"type":"Transport","model":"KamAZ 6x6","status":"Destroyed","lost_by":"Russia","date":"2026-08-25","nearest_location":"Novonykanorivka, Svatove raion","geo":"49.649383,38.233286","unit":null,"tags":"Cope cage, Loitering"},"source":"warspotting","source_name":"WarSpotting","source_url":"https://ukr.warspotting.net/","id":46687,"date":"2026-08-25","link":"https://ukr.warspotting.net/view/46687/","category":"Transport","side":"Lost by Russia","color":"#E00000","description":"KamAZ 6x6 · Destroyed · near Novonykanorivka, Svatove raion · tags: Cope cage, Loitering","orbat":[]}},{"type":"Feature","geometry":{"type":"Point","coordinates":[38.724849,49.551644]},"properties":{"original":{"id":46702,"type":"Transport","model":"KamAZ 6x6","status":"Destroyed","lost_by":"Russia","date":"2026-08-25","nearest_location":"Bilokurakyne, Svatove raion","geo":"49.551644,38.724849","unit":null,"tags":"Cope cage, Flipped, Loitering, Jammer"},"source":"warspotting","source_name":"WarSpotting","source_url":"https://ukr.warspotting.net/","id":46702,"date":"2026-08-25","link":"https://ukr.warspotting.net/view/46702/","category":"Transport","side":"Lost by Russia","color":"#E00000","description":"KamAZ 6x6 · Destroyed · near Bilokurakyne, Svatove raion · tags: Cope cage, Flipped, Loitering, Jammer","orbat":[]}}]}