{"type":"FeatureCollection","features":[{"type":"Feature","geometry":{"type":"Polygon","coordinates":[[[37.18678,48.37367],[37.19119,48.38121],[37.21035,48.39198],[37.2156,48.39146],[37.22768,48.39767],[37.23609,48.39807],[37.22973,48.38724],[37.22819,48.38171],[37.21652,48.38052],[37.21594,48.37573],[37.20288,48.37779],[37.20003,48.37198],[37.1921,48.37424],[37.18947,48.37186],[37.18678,48.37367]]]},"properties":{"source":"deepstate","source_name":"DeepStateMap","source_url":"https://deepstatemap.live/en","category":"gained","category_label":"Newly Russian-occupied","period":"1d","compared_with":"2026-08-08","snapshot_time":"2026-08-09","area_km2_approx":4.5}}]}