{"type":"FeatureCollection","features":[{"type":"Feature","geometry":{"type":"Point","coordinates":[37.7424253,48.5698359]},"properties":{"original":{"Date":"2026-09-04","Name":"04 SEP 2026","Faction":"Ukraine","Origin":"UAV","Latitude":"48.5698359","Longitude":"37.7424253","PlusCode":"8GWVHP9R+WX Stinky, Donetsk Oblast, Ukraine","Description":"0:23-0:30 - The 46th Airmobile Brigade hits a presumed Russian soldier south of Stinky with a Nightvision Fibre Optic FPV Drone, following reconnaissance by the 2nd Mechanized Battalion, 24th Mechanized Brigade","Source":"https://x.com/AudaxonX/status/2096985566357213521, https://t.me/oaembr46/2975","Geolocation":"https://x.com/AudaxonX/status/2096985569758785727","Equipment":"","EquipmentItems":"Fiber Optic (FO) FPV (First Person View) OWAD (One Way Attack Drone)","Units":"","OrbatUnits":" 2nd Mechanized Battalion | 46th Airmobile Brigade | 24th Mechanized Brigade","Id":"ec63eb2b-d0ee-46a2-b4d2-073aa7b9d04b","icon":"/api/icons/0051CA/False/template/111.png"},"source":"geoconfirmed","source_name":"GeoConfirmed","source_url":"https://geoconfirmed.org/map/ukraine","id":"ec63eb2b-d0ee-46a2-b4d2-073aa7b9d04b","date":"2026-09-04","link":"https://geoconfirmed.org/map/ukraine/ec63eb2b-d0ee-46a2-b4d2-073aa7b9d04b","category":"Short Range (<50km) OWAD (One Way Attack Drone), mostly rotary wing, Flying OR Attacking a target without knowing the outcome: if something is damaged --> icon of the damaged equipment.","side":"Ukraine","color":"#0051CA","description":"0:23-0:30 - The 46th Airmobile Brigade hits a presumed Russian soldier south of Stinky with a Nightvision Fibre Optic FPV Drone, following reconnaissance by the 2nd Mechanized Battalion, 24th Mechanized Brigade","orbat":["2nd Mechanized Battalion","46th Airmobile Brigade","24th Mechanized Brigade"],"geolocation":["https://x.com/AudaxonX/status/2096985569758785727"],"sources":["https://x.com/AudaxonX/status/2096985566357213521","https://t.me/oaembr46/2975"]}},{"type":"Feature","geometry":{"type":"Point","coordinates":[40.00128,43.39927]},"properties":{"original":{"Date":"2026-09-04","Name":"04 SEP 2026","Faction":"Russia","Origin":"VID","Latitude":"43.39927","Longitude":"40.00128","PlusCode":"8HM292X2+PG Adlerskiy, Krasnodar Krai, Russia","Description":"POV - An explosion in the direction of a Russian S-300/S-400 air defense position.","Source":"https://bsky.app/profile/noelreports.com/post/3munnc7qlxc2g, (1/2) https://x.com/Exilenova_plus/status/2095638887104385231, (1/2) https://t.me/exilenova_plus/30278","Geolocation":"https://bsky.app/profile/did:plc:z4yrc6zhuibeadav357xtsok/post/3munnn7wmlc2p, https://x.com/blinzka/status/2095662060948316326","Equipment":"UNK;, (likely) S-300/S-400 Launcher","EquipmentItems":"","Units":"UNK","OrbatUnits":"","Id":"ff780770-24a9-4263-a589-15d442a564c5","icon":"/api/icons/E00000/False/template/30.png"},"source":"geoconfirmed","source_name":"GeoConfirmed","source_url":"https://geoconfirmed.org/map/ukraine","id":"ff780770-24a9-4263-a589-15d442a564c5","date":"2026-09-04","link":"https://geoconfirmed.org/map/ukraine/ff780770-24a9-4263-a589-15d442a564c5","category":"Video - Always Point of View in description - In the colour of who is doing the attack or is responsable for the incident in the video.","side":"Russia","color":"#E00000","description":"POV - An explosion in the direction of a Russian S-300/S-400 air defense position.","orbat":["UNK"],"geolocation":["https://bsky.app/profile/did:plc:z4yrc6zhuibeadav357xtsok/post/3munnn7wmlc2p","https://x.com/blinzka/status/2095662060948316326"],"sources":["https://bsky.app/profile/noelreports.com/post/3munnc7qlxc2g","https://x.com/Exilenova_plus/status/2095638887104385231","https://t.me/exilenova_plus/30278"]}},{"type":"Feature","geometry":{"type":"Point","coordinates":[37.117659,47.051409]},"properties":{"original":{"Date":"2026-09-04","Name":"04 SEP 2026","Faction":"Russia","Origin":"UAV","Latitude":"47.051409","Longitude":"37.117659","PlusCode":"8GVV3429+H3 Dem'yanivka, Donetsk Oblast, Ukraine","Description":"A Russian KamAZ truck was destroyed by Ukrainian drone. (rough location)","Source":"Vid1 https://x.com/99Dominik_/status/2095941505437274359, https://t.me/exilenova_plus/30366, Vid2 , https://x.com/99Dominik_/status/2095941646604996694, https://t.me/exilenova_plus/30386, Vid3, https://x.com/99Dominik_/status/2096930297723920817, https://t.me/exilenova_plus/30481?single, reference: https://x.com/99Dominik_/status/2095941362575192430, https://www.tiktok.com/@lada92213/video/7521319249764158776","Geolocation":"https://x.com/99Dominik_/status/2095941127601832215","Equipment":"Kamaz","EquipmentItems":"","Units":"","OrbatUnits":"","Id":"d45a3595-789e-46f9-9f73-175bbd61a329","icon":"/api/icons/E00000/False/template/62.png"},"source":"geoconfirmed","source_name":"GeoConfirmed","source_url":"https://geoconfirmed.org/map/ukraine","id":"d45a3595-789e-46f9-9f73-175bbd61a329","date":"2026-09-04","link":"https://geoconfirmed.org/map/ukraine/d45a3595-789e-46f9-9f73-175bbd61a329","category":"Recently Destroyed/Damaged[Visible in footage] Logistical Trucks (Soft skin OR armoured)","side":"Russia","color":"#E00000","description":"A Russian KamAZ truck was destroyed by Ukrainian drone. (rough location)","orbat":[],"geolocation":["https://x.com/99Dominik_/status/2095941127601832215"],"sources":["https://x.com/99Dominik_/status/2095941505437274359","https://t.me/exilenova_plus/30366","https://x.com/99Dominik_/status/2095941646604996694","https://t.me/exilenova_plus/30386","https://x.com/99Dominik_/status/2096930297723920817","https://t.me/exilenova_plus/30481?single","https://x.com/99Dominik_/status/2095941362575192430","https://www.tiktok.com/@lada92213/video/7521319249764158776"]}},{"type":"Feature","geometry":{"type":"Point","coordinates":[37.707934,48.586426]},"properties":{"original":{"Date":"2026-09-04","Name":"04 SEP 2026","Faction":"Ukraine","Origin":"UAV","Latitude":"48.586426","Longitude":"37.707934","PlusCode":"8GWVHPP5+H5 Popasne, Donetsk Oblast, Ukraine","Description":"01:54 - The 46th Airmobile Brigade strikes west of Stinky.","Source":"https://x.com/AudaxonX/status/2096985566357213521, https://t.me/oaembr46/2975","Geolocation":"https://x.com/AudaxonX/status/2096985583272833485","Equipment":"","EquipmentItems":"","Units":"","OrbatUnits":"46th Airmobile Brigade","Id":"897ce887-1d84-42c5-93b3-199368e73a4f","icon":"/api/icons/0051CA/False/template/10.png"},"source":"geoconfirmed","source_name":"GeoConfirmed","source_url":"https://geoconfirmed.org/map/ukraine","id":"897ce887-1d84-42c5-93b3-199368e73a4f","date":"2026-09-04","link":"https://geoconfirmed.org/map/ukraine/897ce887-1d84-42c5-93b3-199368e73a4f","category":"Shelling by artillery or aerial bombings - Location of the shelling, colour of who is shelling; Brown = UXO","side":"Ukraine","color":"#0051CA","description":"01:54 - The 46th Airmobile Brigade strikes west of Stinky.","orbat":["46th Airmobile Brigade"],"geolocation":["https://x.com/AudaxonX/status/2096985583272833485"],"sources":["https://x.com/AudaxonX/status/2096985566357213521","https://t.me/oaembr46/2975"]}},{"type":"Feature","geometry":{"type":"Point","coordinates":[32.483323,45.401743]},"properties":{"original":{"Date":"2026-09-04","Name":"04 SEP 2026","Faction":"Russia","Origin":"UAV","Latitude":"45.401743","Longitude":"32.483323","PlusCode":"8GQJCF2M+M8","Description":"0:10-0:15 - ZU-23-2 anti-aircraft gun mounted on ZIL-130 is destroyed with a drone by the 426th Unmanned Systems Regiment of Ukraine.","Source":"https://bsky.app/profile/militarynewsua.bsky.social/post/3mupptr4fes2o, https://x.com/front_ukrainian/status/2095960022526111791, https://www.facebook.com/reel/1063356876489525, ","Geolocation":"https://bsky.app/profile/eole2002.bsky.social/post/3mur2w4jauk2k","Equipment":"","EquipmentItems":"FPV (First Person View) OWAD (One Way Attack Drone) | ZU-23-2 [2A13] | ZIL-130","Units":"","OrbatUnits":"426th Separate Unmanned Systems Regiment","Id":"74a95b5c-c2f1-4141-9825-1d83a891c5f5","icon":"/api/icons/E00000/False/template/202.png"},"source":"geoconfirmed","source_name":"GeoConfirmed","source_url":"https://geoconfirmed.org/map/ukraine","id":"74a95b5c-c2f1-4141-9825-1d83a891c5f5","date":"2026-09-04","link":"https://geoconfirmed.org/map/ukraine/74a95b5c-c2f1-4141-9825-1d83a891c5f5","category":"Recently Destroyed/Damaged[Visible in footage] Anti-Air System (Tracked OR Wheeled)","side":"Russia","color":"#E00000","description":"0:10-0:15 - ZU-23-2 anti-aircraft gun mounted on ZIL-130 is destroyed with a drone by the 426th Unmanned Systems Regiment of Ukraine.","orbat":["426th Separate Unmanned Systems Regiment"],"geolocation":["https://bsky.app/profile/eole2002.bsky.social/post/3mur2w4jauk2k"],"sources":["https://bsky.app/profile/militarynewsua.bsky.social/post/3mupptr4fes2o","https://x.com/front_ukrainian/status/2095960022526111791","https://www.facebook.com/reel/1063356876489525"]}},{"type":"Feature","geometry":{"type":"Point","coordinates":[32.039986,46.959077]},"properties":{"original":{"Date":"2026-09-04","Name":"04 SEP 2026","Faction":"Neutral","Origin":"VID","Latitude":"46.959077","Longitude":"32.039986","PlusCode":"8GRJX25Q+JX Mykolaiv, Mykolaiv Oblast, Ukraine","Description":"The moment of attack - An Epicentr shopping center in Mykolaiv was hit by Russian drone.","Source":"https://x.com/UkrReview/status/2095926638957539716, https://t.me/mykolaiv_nikolaeve/58838, SAT, https://x.com/Zeldamices/status/2096460575781871791","Geolocation":"https://x.com/ne_kotletka/status/2095872965850075268, https://x.com/zarGEOINT/status/2095995674277875902","Equipment":"","EquipmentItems":"Geran/Shahed UNK Type","Units":"","OrbatUnits":"","Id":"b2f15da6-ce0f-4649-8a46-2496d8e03973","icon":"/api/icons/AC7339/False/template/192.png"},"source":"geoconfirmed","source_name":"GeoConfirmed","source_url":"https://geoconfirmed.org/map/ukraine","id":"b2f15da6-ce0f-4649-8a46-2496d8e03973","date":"2026-09-04","link":"https://geoconfirmed.org/map/ukraine/b2f15da6-ce0f-4649-8a46-2496d8e03973","category":"Recently destroyed/Damaged[Visible in footage] or still burning infrastucture","side":"Neutral","color":"#AC7339","description":"The moment of attack - An Epicentr shopping center in Mykolaiv was hit by Russian drone.","orbat":[],"geolocation":["https://x.com/ne_kotletka/status/2095872965850075268","https://x.com/zarGEOINT/status/2095995674277875902"],"sources":["https://x.com/UkrReview/status/2095926638957539716","https://t.me/mykolaiv_nikolaeve/58838","https://x.com/Zeldamices/status/2096460575781871791"]}},{"type":"Feature","geometry":{"type":"Point","coordinates":[39.919911,43.443341]},"properties":{"original":{"Date":"2026-09-04","Name":"04 SEP 2026","Faction":"Russia","Origin":"PIC","Latitude":"43.443341","Longitude":"39.919911","PlusCode":"8GMXCWV9+8X Adlerskiy, Krasnodar Krai, Russia","Description":"Russian ORL-A radar station of the Black Sea Air Traffic Control Center damaged after a reported Ukrainian strike","Source":"https://x.com/MikiValbuena/status/2095849342775042149, https://t.me/exilenova_plus/30370","Geolocation":"https://x.com/MikiValbuena/status/2095849337892810856, https://x.com/zarGEOINT/status/2095898891589734561","Equipment":"ORL-A radar station","EquipmentItems":"","Units":"","OrbatUnits":"","Id":"cb11a039-302f-42c6-bf50-266af1e12675","icon":"/api/icons/E00000/False/template/15380368-63be-4bf9-8373-a30ef0d31bed.png"},"source":"geoconfirmed","source_name":"GeoConfirmed","source_url":"https://geoconfirmed.org/map/ukraine","id":"cb11a039-302f-42c6-bf50-266af1e12675","date":"2026-09-04","link":"https://geoconfirmed.org/map/ukraine/cb11a039-302f-42c6-bf50-266af1e12675","category":"Recently Destroyed/Damaged[Visible in footage] Radar System (Mobile or fixed)","side":"Russia","color":"#E00000","description":"Russian ORL-A radar station of the Black Sea Air Traffic Control Center damaged after a reported Ukrainian strike","orbat":[],"geolocation":["https://x.com/MikiValbuena/status/2095849337892810856","https://x.com/zarGEOINT/status/2095898891589734561"],"sources":["https://x.com/MikiValbuena/status/2095849342775042149","https://t.me/exilenova_plus/30370"]}},{"type":"Feature","geometry":{"type":"Point","coordinates":[37.730076,48.575364]},"properties":{"original":{"Date":"2026-09-04","Name":"04 SEP 2026","Faction":"Ukraine","Origin":"UAV","Latitude":"48.575364","Longitude":"37.730076","PlusCode":"8GWVHPGJ+42 Stinky, Donetsk Oblast, Ukraine","Description":"1:45-1:50 - Unmanned Systems Battalion \"Fobos\", 46th Airmobile Brigade blows up a Russian-held trench west of Stinky with a Vampire Drone Dropped TM-62","Source":"https://x.com/AudaxonX/status/2096985566357213521, https://t.me/oaembr46/2975","Geolocation":"https://x.com/AudaxonX/status/2096985573521055888","Equipment":"","EquipmentItems":"Vampire | TM-62","Units":"","OrbatUnits":"","Id":"7b97c015-02a0-49db-85d6-31de619f5ccc","icon":"/api/icons/0051CA/False/template/110.png"},"source":"geoconfirmed","source_name":"GeoConfirmed","source_url":"https://geoconfirmed.org/map/ukraine","id":"7b97c015-02a0-49db-85d6-31de619f5ccc","date":"2026-09-04","link":"https://geoconfirmed.org/map/ukraine/7b97c015-02a0-49db-85d6-31de619f5ccc","category":"Multipurpose Bomber Drone, Flying OR Dropping OR bombing a target without knowing the outcome: if something is damaged --> icon of the damaged equipment.","side":"Ukraine","color":"#0051CA","description":"1:45-1:50 - Unmanned Systems Battalion \"Fobos\", 46th Airmobile Brigade blows up a Russian-held trench west of Stinky with a Vampire Drone Dropped TM-62","orbat":[],"geolocation":["https://x.com/AudaxonX/status/2096985573521055888"],"sources":["https://x.com/AudaxonX/status/2096985566357213521","https://t.me/oaembr46/2975"]}},{"type":"Feature","geometry":{"type":"Point","coordinates":[30.515472,50.450578]},"properties":{"original":{"Date":"2026-09-04","Name":"04 SEP 2026","Faction":"Ukraine","Origin":"PIC","Latitude":"50.450578","Longitude":"30.515472","PlusCode":"9G2GFG28+65 Kyiv, Kyiv city, Ukraine","Description":"Reported Russian Geran-4 struck the central SBU building in Kyiv","Source":"https://x.com/ne_kotletka/status/2095863521074352273, https://t.me/ukrpravda_news/83355","Geolocation":"https://x.com/GeoConfirmed/status/2096165111945711844, https://x.com/ne_kotletka/status/2095863521074352273","Equipment":"(reported)","EquipmentItems":"Geran-4","Units":"","OrbatUnits":"Security Service of Ukraine (SBU/SSU)","Id":"28e9a33e-17ae-4d28-bf62-343fd84914ea","icon":"/api/icons/0051CA/False/template/192.png"},"source":"geoconfirmed","source_name":"GeoConfirmed","source_url":"https://geoconfirmed.org/map/ukraine","id":"28e9a33e-17ae-4d28-bf62-343fd84914ea","date":"2026-09-04","link":"https://geoconfirmed.org/map/ukraine/28e9a33e-17ae-4d28-bf62-343fd84914ea","category":"Recently destroyed/Damaged[Visible in footage] or still burning infrastucture","side":"Ukraine","color":"#0051CA","description":"Reported Russian Geran-4 struck the central SBU building in Kyiv","orbat":["Security Service of Ukraine (SBU/SSU)"],"geolocation":["https://x.com/GeoConfirmed/status/2096165111945711844","https://x.com/ne_kotletka/status/2095863521074352273"],"sources":["https://x.com/ne_kotletka/status/2095863521074352273","https://t.me/ukrpravda_news/83355"]}},{"type":"Feature","geometry":{"type":"Point","coordinates":[37.463612,48.322841]},"properties":{"original":{"Date":"2026-09-04","Name":"04 SEP 2026","Faction":"Russia","Origin":"UAV","Latitude":"48.322841","Longitude":"37.463612","PlusCode":"8GWV8FF7+4C Malynivka, Donetsk Oblast, Ukraine","Description":"0:36-0:39 & 1:36-1:40 - Drone of the SBU UAV Unit \"Ivan Franko Group\" destroying a Russian vehicle.","Source":"https://x.com/PuenteUribarri/status/2095959029407273094, https://t.me/ivanfrankogroup/245","Geolocation":"https://x.com/Kukulkan415/status/2096289426666127857","Equipment":"","EquipmentItems":"FPV (First Person View) OWAD (One Way Attack Drone) | Truck","Units":"","OrbatUnits":"UAV Unit \"Ivan Franko Group\"","Id":"5f011ce1-301a-453b-ac14-38ad3f2927d4","icon":"/api/icons/E00000/False/template/62.png"},"source":"geoconfirmed","source_name":"GeoConfirmed","source_url":"https://geoconfirmed.org/map/ukraine","id":"5f011ce1-301a-453b-ac14-38ad3f2927d4","date":"2026-09-04","link":"https://geoconfirmed.org/map/ukraine/5f011ce1-301a-453b-ac14-38ad3f2927d4","category":"Recently Destroyed/Damaged[Visible in footage] Logistical Trucks (Soft skin OR armoured)","side":"Russia","color":"#E00000","description":"0:36-0:39 & 1:36-1:40 - Drone of the SBU UAV Unit \"Ivan Franko Group\" destroying a Russian vehicle.","orbat":["UAV Unit \"Ivan Franko Group\""],"geolocation":["https://x.com/Kukulkan415/status/2096289426666127857"],"sources":["https://x.com/PuenteUribarri/status/2095959029407273094","https://t.me/ivanfrankogroup/245"]}},{"type":"Feature","geometry":{"type":"Point","coordinates":[39.98957,43.39045]},"properties":{"original":{"Date":"2026-09-04","Name":"04 SEP 2026","Faction":"Ukraine","Origin":"VID","Latitude":"43.39045","Longitude":"39.98957","PlusCode":"8GMX9XRQ+5R Adlerskiy, Krasnodar Krai, Russia","Description":"Point of view looking in north direction -Another oil depot was targeted in a Ukrainian strike in Adlerskiy, Krasnodar Krai.","Source":"https://x.com/zarGEOINT/status/2095773605120352719, https://t.me/exilenova_plus/30337, , More information, https://www.ukrinform.net/rubric-ato/4160752-oil-depot-catches-fire-in-sochi-after-drone-attack.html","Geolocation":"https://x.com/zarGEOINT/status/2095777580666286420","Equipment":"","EquipmentItems":"","Units":"","OrbatUnits":"","Id":"a53ba8ed-f277-4bf6-9448-3b3b23cd10f6","icon":"/api/icons/0051CA/False/template/30.png"},"source":"geoconfirmed","source_name":"GeoConfirmed","source_url":"https://geoconfirmed.org/map/ukraine","id":"a53ba8ed-f277-4bf6-9448-3b3b23cd10f6","date":"2026-09-04","link":"https://geoconfirmed.org/map/ukraine/a53ba8ed-f277-4bf6-9448-3b3b23cd10f6","category":"Video - Always Point of View in description - In the colour of who is doing the attack or is responsable for the incident in the video.","side":"Ukraine","color":"#0051CA","description":"Point of view looking in north direction -Another oil depot was targeted in a Ukrainian strike in Adlerskiy, Krasnodar Krai.","orbat":[],"geolocation":["https://x.com/zarGEOINT/status/2095777580666286420"],"sources":["https://x.com/zarGEOINT/status/2095773605120352719","https://t.me/exilenova_plus/30337","https://www.ukrinform.net/rubric-ato/4160752-oil-depot-catches-fire-in-sochi-after-drone-attack.html"]}},{"type":"Feature","geometry":{"type":"Point","coordinates":[37.903116,48.767271]},"properties":{"original":{"Date":"2026-09-04","Name":"04 SEP 2026","Faction":"Ukraine","Origin":"UAV","Latitude":"48.767271","Longitude":"37.903116","PlusCode":"8GWVQW83+W6 Nykyforivka, Donetsk Oblast, Ukraine","Description":"0:00-0:23 - FPV Drone of the 85th Brigade destroys Ukrainian UGV in Nykyforivka, Donetsk Oblast","Source":"https://x.com/Bielitzling/status/2097326349799092380, https://t.me/shock3OA/9043","Geolocation":"https://x.com/Bielitzling/status/2097326345634095147","Equipment":"","EquipmentItems":"FPV (First Person View) OWAD (One Way Attack Drone) | Unmanned Ground Vehicle (UGV)","Units":"","OrbatUnits":"85th Motorized Rifle Brigade","Id":"2c431daf-8875-4a40-9fad-3bac9c2002ee","icon":"/api/icons/0051CA/False/template/25508da3-5341-4843-b7e6-b955eaad7ce8.png"},"source":"geoconfirmed","source_name":"GeoConfirmed","source_url":"https://geoconfirmed.org/map/ukraine","id":"2c431daf-8875-4a40-9fad-3bac9c2002ee","date":"2026-09-04","link":"https://geoconfirmed.org/map/ukraine/2c431daf-8875-4a40-9fad-3bac9c2002ee","category":"Recently Destroyed/Damaged[Visible in footage] Multipurpose UGV","side":"Ukraine","color":"#0051CA","description":"0:00-0:23 - FPV Drone of the 85th Brigade destroys Ukrainian UGV in Nykyforivka, Donetsk Oblast","orbat":["85th Motorized Rifle Brigade"],"geolocation":["https://x.com/Bielitzling/status/2097326345634095147"],"sources":["https://x.com/Bielitzling/status/2097326349799092380","https://t.me/shock3OA/9043"]}},{"type":"Feature","geometry":{"type":"Point","coordinates":[35.388449,45.065413]},"properties":{"original":{"Date":"2026-09-04","Name":"04 SEP 2026","Faction":"Ukraine","Origin":"UAV","Latitude":"45.065413","Longitude":"35.388449","PlusCode":"8GQQ398Q+59 Feodosia","Description":"0:24-0:40 -  Drone from Group 13 attacked  a fuel truck.","Source":"https://x.com/PuenteUribarri/status/2095767567537250773, https://t.me/DIUkraine/9314","Geolocation":"https://x.com/GeoConfirmed/status/2096166447177257128, https://x.com/MikiValbuena/status/2095793341392658901","Equipment":"","EquipmentItems":"Fixed Wing OWAD (One Way Attack Drone) | Truck","Units":"","OrbatUnits":"Group 13","Id":"119f2e16-86c9-4157-ab3f-3f0d2b566073","icon":"/api/icons/0051CA/False/template/181.png"},"source":"geoconfirmed","source_name":"GeoConfirmed","source_url":"https://geoconfirmed.org/map/ukraine","id":"119f2e16-86c9-4157-ab3f-3f0d2b566073","date":"2026-09-04","link":"https://geoconfirmed.org/map/ukraine/119f2e16-86c9-4157-ab3f-3f0d2b566073","category":"Longe Range (>50km) OWAD (One Way Attack Drone) or Loitering munition, mostly fixed wing, Flying OR Attacking a target without knowing the outcome: if something is damaged --> icon of the damaged equipment.","side":"Ukraine","color":"#0051CA","description":"0:24-0:40 -  Drone from Group 13 attacked  a fuel truck.","orbat":["Group 13"],"geolocation":["https://x.com/GeoConfirmed/status/2096166447177257128","https://x.com/MikiValbuena/status/2095793341392658901"],"sources":["https://x.com/PuenteUribarri/status/2095767567537250773","https://t.me/DIUkraine/9314"]}},{"type":"Feature","geometry":{"type":"Point","coordinates":[31.729505,52.44652]},"properties":{"original":{"Date":"2026-09-04","Name":"04 SEP 2026","Faction":"Ukraine","Origin":"UAV","Latitude":"52.44652","Longitude":"31.729505","PlusCode":"9G4HCPWH+JR Zlynka, Bryansk Oblast, Russia","Description":"0:00-0:10 - Ukrainian UAS unit \"Panama Squad targeted a Russian vehicle 8km west of Gomel border crossing, Bryansk Oblast","Source":"https://x.com/Scarecrow_BG/status/2107489601724223714, https://t.me/ssternenko/64455, ","Geolocation":"https://x.com/Scarecrow_BG/status/2107489597026344968","Equipment":"","EquipmentItems":"FPV (First Person View) OWAD (One Way Attack Drone)","Units":"","OrbatUnits":"UAS unit \"Panama Squad\"","Id":"6ec943fa-9073-46d1-a306-42be33035885","icon":"/api/icons/0051CA/False/template/111.png"},"source":"geoconfirmed","source_name":"GeoConfirmed","source_url":"https://geoconfirmed.org/map/ukraine","id":"6ec943fa-9073-46d1-a306-42be33035885","date":"2026-09-04","link":"https://geoconfirmed.org/map/ukraine/6ec943fa-9073-46d1-a306-42be33035885","category":"Short Range (<50km) OWAD (One Way Attack Drone), mostly rotary wing, Flying OR Attacking a target without knowing the outcome: if something is damaged --> icon of the damaged equipment.","side":"Ukraine","color":"#0051CA","description":"0:00-0:10 - Ukrainian UAS unit \"Panama Squad targeted a Russian vehicle 8km west of Gomel border crossing, Bryansk Oblast","orbat":["UAS unit \"Panama Squad\""],"geolocation":["https://x.com/Scarecrow_BG/status/2107489597026344968"],"sources":["https://x.com/Scarecrow_BG/status/2107489601724223714","https://t.me/ssternenko/64455"]}},{"type":"Feature","geometry":{"type":"Point","coordinates":[37.47518,48.302131]},"properties":{"original":{"Date":"2026-09-04","Name":"04 SEP 2026","Faction":"Ukraine","Origin":"UAV","Latitude":"48.302131","Longitude":"37.47518","PlusCode":"8GWV8F2G+V3 Yelyzavetivka, Donetsk Oblast, Ukraine","Description":"0:45-0:48 - Drone of the SBU UAV Unit \"Ivan Franko Group\" attacking a Russian vehicle.","Source":"https://x.com/PuenteUribarri/status/2095959029407273094, https://t.me/ivanfrankogroup/245","Geolocation":"Based on:, https://x.com/Kukulkan415/status/2096318221146079385","Equipment":"","EquipmentItems":"FPV (First Person View) OWAD (One Way Attack Drone) | Pick-up","Units":"","OrbatUnits":"UAV Unit \"Ivan Franko Group\"","Id":"5c7d16e4-b8d4-4fb2-90ab-433519518f38","icon":"/api/icons/0051CA/False/template/111.png"},"source":"geoconfirmed","source_name":"GeoConfirmed","source_url":"https://geoconfirmed.org/map/ukraine","id":"5c7d16e4-b8d4-4fb2-90ab-433519518f38","date":"2026-09-04","link":"https://geoconfirmed.org/map/ukraine/5c7d16e4-b8d4-4fb2-90ab-433519518f38","category":"Short Range (<50km) OWAD (One Way Attack Drone), mostly rotary wing, Flying OR Attacking a target without knowing the outcome: if something is damaged --> icon of the damaged equipment.","side":"Ukraine","color":"#0051CA","description":"0:45-0:48 - Drone of the SBU UAV Unit \"Ivan Franko Group\" attacking a Russian vehicle.","orbat":["UAV Unit \"Ivan Franko Group\""],"geolocation":["https://x.com/Kukulkan415/status/2096318221146079385"],"sources":["https://x.com/PuenteUribarri/status/2095959029407273094","https://t.me/ivanfrankogroup/245"]}},{"type":"Feature","geometry":{"type":"Point","coordinates":[37.790094,48.103687]},"properties":{"original":{"Date":"2026-09-04","Name":"04 SEP 2026","Faction":"Ukraine","Origin":"UAV","Latitude":"48.103687","Longitude":"37.790094","PlusCode":"8GWV4Q3R+F2 Spartak, Donetsk Oblast, Ukraine","Description":"0:10-0:14 - A drone of the SBU UAV Unit \"Ivan Franko Group\" attacking a Russian vehicle.","Source":"https://x.com/PuenteUribarri/status/2095959029407273094, https://t.me/ivanfrankogroup/245","Geolocation":"https://x.com/Kukulkan415/status/2095984695796207928","Equipment":"","EquipmentItems":"FPV (First Person View) OWAD (One Way Attack Drone) | Truck","Units":"","OrbatUnits":"UAV Unit \"Ivan Franko Group\"","Id":"0e2097af-f4c1-4161-84e7-5218df7b43d1","icon":"/api/icons/0051CA/False/template/111.png"},"source":"geoconfirmed","source_name":"GeoConfirmed","source_url":"https://geoconfirmed.org/map/ukraine","id":"0e2097af-f4c1-4161-84e7-5218df7b43d1","date":"2026-09-04","link":"https://geoconfirmed.org/map/ukraine/0e2097af-f4c1-4161-84e7-5218df7b43d1","category":"Short Range (<50km) OWAD (One Way Attack Drone), mostly rotary wing, Flying OR Attacking a target without knowing the outcome: if something is damaged --> icon of the damaged equipment.","side":"Ukraine","color":"#0051CA","description":"0:10-0:14 - A drone of the SBU UAV Unit \"Ivan Franko Group\" attacking a Russian vehicle.","orbat":["UAV Unit \"Ivan Franko Group\""],"geolocation":["https://x.com/Kukulkan415/status/2095984695796207928"],"sources":["https://x.com/PuenteUribarri/status/2095959029407273094","https://t.me/ivanfrankogroup/245"]}},{"type":"Feature","geometry":{"type":"Point","coordinates":[32.616328,46.669105]},"properties":{"original":{"Date":"2026-09-04","Name":"04 SEP 2026","Faction":"Russia","Origin":"UAV","Latitude":"46.669105","Longitude":"32.616328","PlusCode":"8GRJMJ98+JG Kherson, Kherson Oblast, Ukraine","Description":"A Russian drone attack left several civilians injured.","Source":"https://x.com/99Dominik_/status/2095843183871570328, https://www.tiktok.com/@user4078139866147/video/7681630509901843720","Geolocation":"https://x.com/99Dominik_/status/2095842792933089580","Equipment":"","EquipmentItems":"","Units":"","OrbatUnits":"","Id":"38ab0e80-fc1d-4ccf-b695-535c63acb727","icon":"/api/icons/E00000/False/template/50.png"},"source":"geoconfirmed","source_name":"GeoConfirmed","source_url":"https://geoconfirmed.org/map/ukraine","id":"38ab0e80-fc1d-4ccf-b695-535c63acb727","date":"2026-09-04","link":"https://geoconfirmed.org/map/ukraine/38ab0e80-fc1d-4ccf-b695-535c63acb727","category":"Killed or wounded civilian. Potential Warcrime. In the colour of who is assessed as doing the attack/killing.","side":"Russia","color":"#E00000","description":"A Russian drone attack left several civilians injured.","orbat":[],"geolocation":["https://x.com/99Dominik_/status/2095842792933089580"],"sources":["https://x.com/99Dominik_/status/2095843183871570328","https://www.tiktok.com/@user4078139866147/video/7681630509901843720"]}},{"type":"Feature","geometry":{"type":"Point","coordinates":[37.817299,48.126043]},"properties":{"original":{"Date":"2026-09-04","Name":"04 SEP 2026","Faction":"Russia","Origin":"UAV","Latitude":"48.126043","Longitude":"37.817299","PlusCode":"8GWV4RG8+CW Kashtanove, Donetsk Oblast, Ukraine","Description":"Start-0:04 - A drone of the SBU UAV Unit \"Ivan Franko Group\" is attacking a Russian vehicle.","Source":"https://x.com/PuenteUribarri/status/2095959029407273094, https://t.me/ivanfrankogroup/245","Geolocation":"https://x.com/Kukulkan415/status/2095977398722318513","Equipment":"","EquipmentItems":"FPV (First Person View) OWAD (One Way Attack Drone) | Van","Units":"","OrbatUnits":"UAV Unit \"Ivan Franko Group\"","Id":"f38bdc56-f0aa-4ec1-ac90-618bd375f2f9","icon":"/api/icons/E00000/False/template/a8c55b37-7710-40ef-8f00-2a17e58b6f69.png"},"source":"geoconfirmed","source_name":"GeoConfirmed","source_url":"https://geoconfirmed.org/map/ukraine","id":"f38bdc56-f0aa-4ec1-ac90-618bd375f2f9","date":"2026-09-04","link":"https://geoconfirmed.org/map/ukraine/f38bdc56-f0aa-4ec1-ac90-618bd375f2f9","category":"Recently Destroyed/Damaged[Visible in footage] Car OR PickUp (Soft Skin Vehicle)","side":"Russia","color":"#E00000","description":"Start-0:04 - A drone of the SBU UAV Unit \"Ivan Franko Group\" is attacking a Russian vehicle.","orbat":["UAV Unit \"Ivan Franko Group\""],"geolocation":["https://x.com/Kukulkan415/status/2095977398722318513"],"sources":["https://x.com/PuenteUribarri/status/2095959029407273094","https://t.me/ivanfrankogroup/245"]}},{"type":"Feature","geometry":{"type":"Point","coordinates":[37.467018,48.331712]},"properties":{"original":{"Date":"2026-09-04","Name":"04 SEP 2026","Faction":"Russia","Origin":"UAV","Latitude":"48.331712","Longitude":"37.467018","PlusCode":"8GWV8FJ8+MR Malynivka, Donetsk Oblast, Ukraine","Description":"0:19-0:35, left vehicle at 0:21 - Drones of the SBU UAV Unit \"Ivan Franko Group\" destroying two Russian vehicles.","Source":"https://x.com/PuenteUribarri/status/2095959029407273094, https://t.me/ivanfrankogroup/245","Geolocation":"https://x.com/Kukulkan415/status/2095999755587383660","Equipment":"","EquipmentItems":"FPV (First Person View) OWAD (One Way Attack Drone) | Pick-up","Units":"","OrbatUnits":"UAV Unit \"Ivan Franko Group\"","Id":"85d2a8c2-8c8d-4e5d-898c-658f4fcef1a1","icon":"/api/icons/E00000/False/template/a8c55b37-7710-40ef-8f00-2a17e58b6f69.png"},"source":"geoconfirmed","source_name":"GeoConfirmed","source_url":"https://geoconfirmed.org/map/ukraine","id":"85d2a8c2-8c8d-4e5d-898c-658f4fcef1a1","date":"2026-09-04","link":"https://geoconfirmed.org/map/ukraine/85d2a8c2-8c8d-4e5d-898c-658f4fcef1a1","category":"Recently Destroyed/Damaged[Visible in footage] Car OR PickUp (Soft Skin Vehicle)","side":"Russia","color":"#E00000","description":"0:19-0:35, left vehicle at 0:21 - Drones of the SBU UAV Unit \"Ivan Franko Group\" destroying two Russian vehicles.","orbat":["UAV Unit \"Ivan Franko Group\""],"geolocation":["https://x.com/Kukulkan415/status/2095999755587383660"],"sources":["https://x.com/PuenteUribarri/status/2095959029407273094","https://t.me/ivanfrankogroup/245"]}},{"type":"Feature","geometry":{"type":"Point","coordinates":[33.522123,46.45882]},"properties":{"original":{"Date":"2026-09-04","Name":"04 SEP 2026","Faction":"Ukraine","Origin":"UAV","Latitude":"46.45882","Longitude":"33.522123","PlusCode":"8GRMFG5C+GR Novyi Hai, Kherson Oblast, Ukraine","Description":"Ukrainian Airstrike, secondary explosions visible.","Source":"https://x.com/NOELreports/status/2096216782071578986, https://t.me/soniah_hub/18051","Geolocation":"https://x.com/klinger66/status/2096754480633053257","Equipment":"","EquipmentItems":"Airstrike","Units":"","OrbatUnits":"","Id":"22650107-7040-4559-ac61-65f5648427c9","icon":"/api/icons/0051CA/False/template/10.png"},"source":"geoconfirmed","source_name":"GeoConfirmed","source_url":"https://geoconfirmed.org/map/ukraine","id":"22650107-7040-4559-ac61-65f5648427c9","date":"2026-09-04","link":"https://geoconfirmed.org/map/ukraine/22650107-7040-4559-ac61-65f5648427c9","category":"Shelling by artillery or aerial bombings - Location of the shelling, colour of who is shelling; Brown = UXO","side":"Ukraine","color":"#0051CA","description":"Ukrainian Airstrike, secondary explosions visible.","orbat":[],"geolocation":["https://x.com/klinger66/status/2096754480633053257"],"sources":["https://x.com/NOELreports/status/2096216782071578986","https://t.me/soniah_hub/18051"]}},{"type":"Feature","geometry":{"type":"Point","coordinates":[37.484293,48.312816]},"properties":{"original":{"Date":"2026-09-04","Name":"04 SEP 2026","Faction":"Russia","Origin":"UAV","Latitude":"48.312816","Longitude":"37.484293","PlusCode":"8GWV8F7M+4P Yelyzavetivka, Donetsk Oblast, Ukraine","Description":"1:07-1:36 - Drone of the SBU UAV Unit \"Ivan Franko Group\" destroying a Russian vehicle.","Source":"https://x.com/PuenteUribarri/status/2095959029407273094, https://t.me/ivanfrankogroup/245","Geolocation":"https://x.com/Kukulkan415/status/2096306010826690740","Equipment":"","EquipmentItems":"FPV (First Person View) OWAD (One Way Attack Drone) | Truck","Units":"","OrbatUnits":"UAV Unit \"Ivan Franko Group\"","Id":"8f92f267-df81-43d3-a5f0-6b95595b92f2","icon":"/api/icons/E00000/False/template/62.png"},"source":"geoconfirmed","source_name":"GeoConfirmed","source_url":"https://geoconfirmed.org/map/ukraine","id":"8f92f267-df81-43d3-a5f0-6b95595b92f2","date":"2026-09-04","link":"https://geoconfirmed.org/map/ukraine/8f92f267-df81-43d3-a5f0-6b95595b92f2","category":"Recently Destroyed/Damaged[Visible in footage] Logistical Trucks (Soft skin OR armoured)","side":"Russia","color":"#E00000","description":"1:07-1:36 - Drone of the SBU UAV Unit \"Ivan Franko Group\" destroying a Russian vehicle.","orbat":["UAV Unit \"Ivan Franko Group\""],"geolocation":["https://x.com/Kukulkan415/status/2096306010826690740"],"sources":["https://x.com/PuenteUribarri/status/2095959029407273094","https://t.me/ivanfrankogroup/245"]}},{"type":"Feature","geometry":{"type":"Point","coordinates":[38.35578,49.24537]},"properties":{"original":{"Date":"2026-09-04","Name":"04 SEP 2026","Faction":"Russia","Origin":"UAV","Latitude":"49.24537","Longitude":"38.35578","PlusCode":"8GXW69W4+48 Baranykivka, Luhansk Oblast, Ukraine","Description":"0:24-end - A Russian Buk-M2 air defense system was destroyed by HIMARS strike., ","Source":"https://x.com/99Dominik_/status/2097338227879195027, https://t.me/k_2army/1497","Geolocation":"https://x.com/99Dominik_/status/2097337349218693159","Equipment":"","EquipmentItems":"9K37 \"Buk\"","Units":"","OrbatUnits":"20th Unmanned Systems Brigade \"K-2\" | 45th Artillery Brigade","Id":"e8ecef6e-be29-4cf8-b01e-6db80a3cac96","icon":"/api/icons/E00000/False/template/202.png"},"source":"geoconfirmed","source_name":"GeoConfirmed","source_url":"https://geoconfirmed.org/map/ukraine","id":"e8ecef6e-be29-4cf8-b01e-6db80a3cac96","date":"2026-09-04","link":"https://geoconfirmed.org/map/ukraine/e8ecef6e-be29-4cf8-b01e-6db80a3cac96","category":"Recently Destroyed/Damaged[Visible in footage] Anti-Air System (Tracked OR Wheeled)","side":"Russia","color":"#E00000","description":"0:24-end - A Russian Buk-M2 air defense system was destroyed by HIMARS strike.,","orbat":["20th Unmanned Systems Brigade \"K-2\"","45th Artillery Brigade"],"geolocation":["https://x.com/99Dominik_/status/2097337349218693159"],"sources":["https://x.com/99Dominik_/status/2097338227879195027","https://t.me/k_2army/1497"]}},{"type":"Feature","geometry":{"type":"Point","coordinates":[40.001817,43.3985]},"properties":{"original":{"Date":"2026-09-04","Name":"04 SEP 2026","Faction":"Russia","Origin":"PIC","Latitude":"43.3985","Longitude":"40.001817","PlusCode":"8HM292X2+PG Adlerskiy, Krasnodar Krai, Russia","Description":"POV - An explosion in the direction of a Russian S-300/S-400 air defense position.","Source":"https://t.me/exilenova_plus/30282, https://x.com/Grimm_Intel/status/2095660672835084610","Geolocation":"https://x.com/Grimm_Intel/status/2095661024653238444","Equipment":"UNK;, (likely) S-300/S-400 Launcher","EquipmentItems":"","Units":"UNK","OrbatUnits":"","Id":"2bbd6bfb-bb7d-415e-bab7-6dcf1516c1b6","icon":"/api/icons/E00000/False/template/30.png"},"source":"geoconfirmed","source_name":"GeoConfirmed","source_url":"https://geoconfirmed.org/map/ukraine","id":"2bbd6bfb-bb7d-415e-bab7-6dcf1516c1b6","date":"2026-09-04","link":"https://geoconfirmed.org/map/ukraine/2bbd6bfb-bb7d-415e-bab7-6dcf1516c1b6","category":"Video - Always Point of View in description - In the colour of who is doing the attack or is responsable for the incident in the video.","side":"Russia","color":"#E00000","description":"POV - An explosion in the direction of a Russian S-300/S-400 air defense position.","orbat":["UNK"],"geolocation":["https://x.com/Grimm_Intel/status/2095661024653238444"],"sources":["https://t.me/exilenova_plus/30282","https://x.com/Grimm_Intel/status/2095660672835084610"]}},{"type":"Feature","geometry":{"type":"Point","coordinates":[37.815308,48.125002]},"properties":{"original":{"Date":"2026-09-04","Name":"04 SEP 2026","Faction":"Russia","Origin":"UAV","Latitude":"48.125002","Longitude":"37.815308","PlusCode":"8GWV4RG8+CW Kashtanove, Donetsk Oblast, Ukraine","Description":"0:04-0:10 - A drone of the SBU UAV Unit \"Ivan Franko Group\" hit a Russian vehicle.","Source":"https://x.com/PuenteUribarri/status/2095959029407273094, https://t.me/ivanfrankogroup/245","Geolocation":"https://x.com/Kukulkan415/status/2095979727471161374","Equipment":"","EquipmentItems":"FPV (First Person View) OWAD (One Way Attack Drone) | Pick-up","Units":"","OrbatUnits":"UAV Unit \"Ivan Franko Group\"","Id":"6483bcad-43b5-47d8-98c8-70f3c312bba5","icon":"/api/icons/E00000/False/template/a8c55b37-7710-40ef-8f00-2a17e58b6f69.png"},"source":"geoconfirmed","source_name":"GeoConfirmed","source_url":"https://geoconfirmed.org/map/ukraine","id":"6483bcad-43b5-47d8-98c8-70f3c312bba5","date":"2026-09-04","link":"https://geoconfirmed.org/map/ukraine/6483bcad-43b5-47d8-98c8-70f3c312bba5","category":"Recently Destroyed/Damaged[Visible in footage] Car OR PickUp (Soft Skin Vehicle)","side":"Russia","color":"#E00000","description":"0:04-0:10 - A drone of the SBU UAV Unit \"Ivan Franko Group\" hit a Russian vehicle.","orbat":["UAV Unit \"Ivan Franko Group\""],"geolocation":["https://x.com/Kukulkan415/status/2095979727471161374"],"sources":["https://x.com/PuenteUribarri/status/2095959029407273094","https://t.me/ivanfrankogroup/245"]}},{"type":"Feature","geometry":{"type":"Point","coordinates":[37.574907,48.591254]},"properties":{"original":{"Date":"2026-09-04","Name":"04 SEP 2026","Faction":"Russia","Origin":"VID","Latitude":"48.591254","Longitude":"37.574907","PlusCode":"8GWVHHRF+GX Kindrativka, Donetsk Oblast, Ukraine","Description":"Ukrainian soldiers provided first aid and evacuated an injured man who stepped on a mine","Source":"https://x.com/99Dominik_/status/2095824852158452154, https://t.me/Khyzhak_brigade/3283","Geolocation":"https://x.com/GeoConfirmed/status/2096165841494519901, https://x.com/99Dominik_/status/2095824123163181528","Equipment":"","EquipmentItems":"","Units":"","OrbatUnits":"Special Purpose Police Brigade \"Khyzhak\" / \"Predator\"","Id":"75b4ec15-377a-406b-bde4-7277713e7c31","icon":"/api/icons/E00000/False/template/50.png"},"source":"geoconfirmed","source_name":"GeoConfirmed","source_url":"https://geoconfirmed.org/map/ukraine","id":"75b4ec15-377a-406b-bde4-7277713e7c31","date":"2026-09-04","link":"https://geoconfirmed.org/map/ukraine/75b4ec15-377a-406b-bde4-7277713e7c31","category":"Killed or wounded civilian. Potential Warcrime. In the colour of who is assessed as doing the attack/killing.","side":"Russia","color":"#E00000","description":"Ukrainian soldiers provided first aid and evacuated an injured man who stepped on a mine","orbat":["Special Purpose Police Brigade \"Khyzhak\" / \"Predator\""],"geolocation":["https://x.com/GeoConfirmed/status/2096165841494519901","https://x.com/99Dominik_/status/2095824123163181528"],"sources":["https://x.com/99Dominik_/status/2095824852158452154","https://t.me/Khyzhak_brigade/3283"]}},{"type":"Feature","geometry":{"type":"Point","coordinates":[35.387616,45.062986]},"properties":{"original":{"Date":"2026-09-04","Name":"04 SEP 2026","Faction":"Russia","Origin":"UAV","Latitude":"45.062986","Longitude":"35.387616","PlusCode":"8GQQ397Q+52 Feodosia","Description":"0:34-0:39 -  Drone from Group 13 observes Russian soldiers.","Source":"https://x.com/PuenteUribarri/status/2095767567537250773, https://t.me/DIUkraine/9314","Geolocation":"https://x.com/GeoConfirmed/status/2096166447177257128, https://x.com/MikiValbuena/status/2095793348346823035","Equipment":"","EquipmentItems":"","Units":"","OrbatUnits":"Group 13","Id":"1e17d08b-1eae-4549-8c3e-78a2b2031f8c","icon":"/api/icons/E00000/False/template/100.png"},"source":"geoconfirmed","source_name":"GeoConfirmed","source_url":"https://geoconfirmed.org/map/ukraine","id":"1e17d08b-1eae-4549-8c3e-78a2b2031f8c","date":"2026-09-04","link":"https://geoconfirmed.org/map/ukraine/1e17d08b-1eae-4549-8c3e-78a2b2031f8c","category":"Civilian or Soldier or Militant (Depending on the colour)","side":"Russia","color":"#E00000","description":"0:34-0:39 -  Drone from Group 13 observes Russian soldiers.","orbat":["Group 13"],"geolocation":["https://x.com/GeoConfirmed/status/2096166447177257128","https://x.com/MikiValbuena/status/2095793348346823035"],"sources":["https://x.com/PuenteUribarri/status/2095767567537250773","https://t.me/DIUkraine/9314"]}},{"type":"Feature","geometry":{"type":"Point","coordinates":[35.360415,47.081379]},"properties":{"original":{"Date":"2026-09-04","Name":"04 SEP 2026","Faction":"Russia Civilian","Origin":"UAV","Latitude":"47.081379","Longitude":"35.360415","PlusCode":"8GVQ39J6+H5 Novobohdanivka, Zaporizhia Oblast, Ukraine","Description":"A fuel truck was destroyed by Ukrainian Bulava drone.","Source":"https://x.com/99Dominik_/status/2096121277589147972, https://www.facebook.com/watch/?v=1728312378398036","Geolocation":"https://x.com/99Dominik_/status/2096121173574664589","Equipment":"Bulava","EquipmentItems":"Fuel Tanker | Fixed Wing OWAD (One Way Attack Drone)","Units":"","OrbatUnits":"","Id":"c0efd27d-2fc9-4a93-ad23-7bc191c5e2fe","icon":"/api/icons/FF6666/False/template/62.png"},"source":"geoconfirmed","source_name":"GeoConfirmed","source_url":"https://geoconfirmed.org/map/ukraine","id":"c0efd27d-2fc9-4a93-ad23-7bc191c5e2fe","date":"2026-09-04","link":"https://geoconfirmed.org/map/ukraine/c0efd27d-2fc9-4a93-ad23-7bc191c5e2fe","category":"Recently Destroyed/Damaged[Visible in footage] Logistical Trucks (Soft skin OR armoured)","side":"Russia Civilian","color":"#FF6666","description":"A fuel truck was destroyed by Ukrainian Bulava drone.","orbat":[],"geolocation":["https://x.com/99Dominik_/status/2096121173574664589"],"sources":["https://x.com/99Dominik_/status/2096121277589147972","https://www.facebook.com/watch/?v=1728312378398036"]}},{"type":"Feature","geometry":{"type":"Point","coordinates":[36.853236,50.344385]},"properties":{"original":{"Date":"2026-09-04","Name":"04 SEP 2026","Faction":"Ukraine","Origin":"UAV","Latitude":"50.344385","Longitude":"36.853236","PlusCode":"9G2R8VV3+Q7 Novaya Tavolzhanka, Belgorod Oblast, Russia","Description":"Russian drone position hit by a Ukrainian FPV drone of the Battalion of Unmanned Systems \"Murchiki\"","Source":"https://x.com/PuenteUribarri/status/2095895558632165806, https://t.me/ompbr57/2447","Geolocation":"https://x.com/Kukulkan415/status/2095940904834007093","Equipment":"","EquipmentItems":"FPV (First Person View) OWAD (One Way Attack Drone)","Units":"","OrbatUnits":"Battalion of Unmanned Systems \"Murchiki\"","Id":"8922dc62-7ed5-4b55-ad93-7d94a26db355","icon":"/api/icons/0051CA/False/template/111.png"},"source":"geoconfirmed","source_name":"GeoConfirmed","source_url":"https://geoconfirmed.org/map/ukraine","id":"8922dc62-7ed5-4b55-ad93-7d94a26db355","date":"2026-09-04","link":"https://geoconfirmed.org/map/ukraine/8922dc62-7ed5-4b55-ad93-7d94a26db355","category":"Short Range (<50km) OWAD (One Way Attack Drone), mostly rotary wing, Flying OR Attacking a target without knowing the outcome: if something is damaged --> icon of the damaged equipment.","side":"Ukraine","color":"#0051CA","description":"Russian drone position hit by a Ukrainian FPV drone of the Battalion of Unmanned Systems \"Murchiki\"","orbat":["Battalion of Unmanned Systems \"Murchiki\""],"geolocation":["https://x.com/Kukulkan415/status/2095940904834007093"],"sources":["https://x.com/PuenteUribarri/status/2095895558632165806","https://t.me/ompbr57/2447"]}},{"type":"Feature","geometry":{"type":"Point","coordinates":[36.267773,50.248873]},"properties":{"original":{"Date":"2026-09-04","Name":"04 SEP 2026","Faction":"Russia","Origin":"UAV","Latitude":"50.248873","Longitude":"36.267773","PlusCode":"9G2R67X9+G4 Shopyne, Kharkiv Oblast, Ukraine","Description":"0:06 - 0:13 - Area grid - Russian airstrike on the claimed 475th Assault Battalion UAV command post, south of Shopino, Kharkiv region.","Source":"https://x.com/Volodimyrovich_/status/2095977529110585429, https://t.me/The_Wrong_Side/30958","Geolocation":"https://x.com/Volodimyrovich_/status/2095977345316172050","Equipment":"","EquipmentItems":"Airstrike","Units":"","OrbatUnits":"Russian Aerospace Forces (VKS) | 475th Assault Regiment","Id":"aeeac9c4-dec8-4c6f-be61-7f0b96d550e0","icon":"/api/icons/E00000/False/template/10.png"},"source":"geoconfirmed","source_name":"GeoConfirmed","source_url":"https://geoconfirmed.org/map/ukraine","id":"aeeac9c4-dec8-4c6f-be61-7f0b96d550e0","date":"2026-09-04","link":"https://geoconfirmed.org/map/ukraine/aeeac9c4-dec8-4c6f-be61-7f0b96d550e0","category":"Shelling by artillery or aerial bombings - Location of the shelling, colour of who is shelling; Brown = UXO","side":"Russia","color":"#E00000","description":"0:06 - 0:13 - Area grid - Russian airstrike on the claimed 475th Assault Battalion UAV command post, south of Shopino, Kharkiv region.","orbat":["Russian Aerospace Forces (VKS)","475th Assault Regiment"],"geolocation":["https://x.com/Volodimyrovich_/status/2095977345316172050"],"sources":["https://x.com/Volodimyrovich_/status/2095977529110585429","https://t.me/The_Wrong_Side/30958"]}},{"type":"Feature","geometry":{"type":"Point","coordinates":[30.433,50.40562]},"properties":{"original":{"Date":"2026-09-04","Name":"04 SEP 2026","Faction":"Russia","Origin":"SAT","Latitude":"50.40562","Longitude":"30.433","PlusCode":"9G2GCC4M+65 Kyiv, Kyiv city, Ukraine","Description":"Burn mark near a former Yak-40 aircraft after a Russian strike","Source":"https://x.com/AMK_Mapping_/status/2097660363294867792","Geolocation":"https://x.com/zarGEOINT/status/2097740639861383559","Equipment":"Yak-40","EquipmentItems":"","Units":"","OrbatUnits":"","Id":"07d81ae6-493c-48b9-89fa-807bea41b06d","icon":"/api/icons/E00000/False/template/70.png"},"source":"geoconfirmed","source_name":"GeoConfirmed","source_url":"https://geoconfirmed.org/map/ukraine","id":"07d81ae6-493c-48b9-89fa-807bea41b06d","date":"2026-09-04","link":"https://geoconfirmed.org/map/ukraine/07d81ae6-493c-48b9-89fa-807bea41b06d","category":"Controlled Demolition OR explosion of unknown origin OR fire of unknown origin where no other icon fits","side":"Russia","color":"#E00000","description":"Burn mark near a former Yak-40 aircraft after a Russian strike","orbat":[],"geolocation":["https://x.com/zarGEOINT/status/2097740639861383559"],"sources":["https://x.com/AMK_Mapping_/status/2097660363294867792"]}},{"type":"Feature","geometry":{"type":"Point","coordinates":[34.955014,51.080643]},"properties":{"original":{"Date":"2026-09-04","Name":"04 SEP 2026","Faction":"Ukraine","Origin":"UAV","Latitude":"51.080643","Longitude":"34.955014","PlusCode":"9G3P3XJ4+72 Khrapivshchyna, Sumy Oblast, Ukraine","Description":"0:35-end - 47th Mechanized Brigade denies Russian capture of Khrapivshchyna in Sumy Oblast by showing a Ukrainian flag to  a drone","Source":"https://x.com/front_ukrainian/status/2095827966609563997, https://t.me/brygada47/2552","Geolocation":"https://x.com/Kukulkan415/status/2095893883498418402","Equipment":"","EquipmentItems":"","Units":"","OrbatUnits":"47th Mechanized Brigade \"Magura\"","Id":"ecddb8b6-a446-4ff7-a572-8a0a1aab6f0b","icon":"/api/icons/0051CA/False/template/100.png"},"source":"geoconfirmed","source_name":"GeoConfirmed","source_url":"https://geoconfirmed.org/map/ukraine","id":"ecddb8b6-a446-4ff7-a572-8a0a1aab6f0b","date":"2026-09-04","link":"https://geoconfirmed.org/map/ukraine/ecddb8b6-a446-4ff7-a572-8a0a1aab6f0b","category":"Civilian or Soldier or Militant (Depending on the colour)","side":"Ukraine","color":"#0051CA","description":"0:35-end - 47th Mechanized Brigade denies Russian capture of Khrapivshchyna in Sumy Oblast by showing a Ukrainian flag to  a drone","orbat":["47th Mechanized Brigade \"Magura\""],"geolocation":["https://x.com/Kukulkan415/status/2095893883498418402"],"sources":["https://x.com/front_ukrainian/status/2095827966609563997","https://t.me/brygada47/2552"]}},{"type":"Feature","geometry":{"type":"Point","coordinates":[37.467073,48.331675]},"properties":{"original":{"Date":"2026-09-04","Name":"04 SEP 2026","Faction":"Russia","Origin":"UAV","Latitude":"48.331675","Longitude":"37.467073","PlusCode":"8GWV8FJ8+MR Malynivka, Donetsk Oblast, Ukraine","Description":"0:19-0:35, right vehicle at 0:21 - Drones of the SBU UAV Unit \"Ivan Franko Group\" destroying two Russian vehicles.","Source":"https://x.com/PuenteUribarri/status/2095959029407273094, https://t.me/ivanfrankogroup/245","Geolocation":"https://x.com/Kukulkan415/status/2095999755587383660","Equipment":"","EquipmentItems":"FPV (First Person View) OWAD (One Way Attack Drone) | Pick-up","Units":"","OrbatUnits":"UAV Unit \"Ivan Franko Group\"","Id":"ac959ba7-01e4-461b-8335-960d7d7dce81","icon":"/api/icons/E00000/False/template/a8c55b37-7710-40ef-8f00-2a17e58b6f69.png"},"source":"geoconfirmed","source_name":"GeoConfirmed","source_url":"https://geoconfirmed.org/map/ukraine","id":"ac959ba7-01e4-461b-8335-960d7d7dce81","date":"2026-09-04","link":"https://geoconfirmed.org/map/ukraine/ac959ba7-01e4-461b-8335-960d7d7dce81","category":"Recently Destroyed/Damaged[Visible in footage] Car OR PickUp (Soft Skin Vehicle)","side":"Russia","color":"#E00000","description":"0:19-0:35, right vehicle at 0:21 - Drones of the SBU UAV Unit \"Ivan Franko Group\" destroying two Russian vehicles.","orbat":["UAV Unit \"Ivan Franko Group\""],"geolocation":["https://x.com/Kukulkan415/status/2095999755587383660"],"sources":["https://x.com/PuenteUribarri/status/2095959029407273094","https://t.me/ivanfrankogroup/245"]}},{"type":"Feature","geometry":{"type":"Point","coordinates":[30.43368,50.40423]},"properties":{"original":{"Date":"2026-09-04","Name":"04 SEP 2026","Faction":"Russia","Origin":"UAV","Latitude":"50.40423","Longitude":"30.43368","PlusCode":"9G2GCC3M+MF Kyiv, Kyiv city, Ukraine","Description":"A Russian Geran-4 'seeker' jet-drone of the 50th Separate Unmanned Systems Brigade of the Supreme High Command \"VARYAG\" targeted a Ukrainian UH-60 “Black Hawk” helicopter of the GUR at Zhulanyi Airport","Source":"https://x.com/AMK_Mapping_/status/2097660363294867792","Geolocation":"https://x.com/GeoConfirmed/status/2098438251954458811, https://x.com/zarGEOINT/status/2097740639861383559","Equipment":"(reported) ","EquipmentItems":"Geran-4 \"Seeker\" | UH-60 \"Black Hawk\"","Units":"","OrbatUnits":"Main Directorate of Intelligence (GUR) | 50th Separate Unmanned Systems Brigade of the Supreme High Command \"VARYAG\"","Id":"0daa9763-dbff-4d5c-9657-bbe98446740f","icon":"/api/icons/E00000/False/template/181.png"},"source":"geoconfirmed","source_name":"GeoConfirmed","source_url":"https://geoconfirmed.org/map/ukraine","id":"0daa9763-dbff-4d5c-9657-bbe98446740f","date":"2026-09-04","link":"https://geoconfirmed.org/map/ukraine/0daa9763-dbff-4d5c-9657-bbe98446740f","category":"Longe Range (>50km) OWAD (One Way Attack Drone) or Loitering munition, mostly fixed wing, Flying OR Attacking a target without knowing the outcome: if something is damaged --> icon of the damaged equipment.","side":"Russia","color":"#E00000","description":"A Russian Geran-4 'seeker' jet-drone of the 50th Separate Unmanned Systems Brigade of the Supreme High Command \"VARYAG\" targeted a Ukrainian UH-60 “Black Hawk” helicopter of the GUR at Zhulanyi Airport","orbat":["Main Directorate of Intelligence (GUR)","50th Separate Unmanned Systems Brigade of the Supreme High Command \"VARYAG\""],"geolocation":["https://x.com/GeoConfirmed/status/2098438251954458811","https://x.com/zarGEOINT/status/2097740639861383559"],"sources":["https://x.com/AMK_Mapping_/status/2097660363294867792"]}},{"type":"Feature","geometry":{"type":"Point","coordinates":[32.615706,46.668895]},"properties":{"original":{"Date":"2026-09-04","Name":"04 SEP 2026","Faction":"Russia","Origin":"UAV","Latitude":"46.668895","Longitude":"32.615706","PlusCode":"8GRJMJ98+H7 Kherson, Kherson Oblast, Ukraine","Description":"A Russian drone attack left several civilians injured.","Source":"https://x.com/99Dominik_/status/2095843183871570328, https://www.tiktok.com/@user4078139866147/video/7681630509901843720","Geolocation":"https://x.com/99Dominik_/status/2095842792933089580","Equipment":"","EquipmentItems":"","Units":"","OrbatUnits":"","Id":"6cc5161e-272c-4b5f-a3f7-bd7ee98591ef","icon":"/api/icons/E00000/False/template/50.png"},"source":"geoconfirmed","source_name":"GeoConfirmed","source_url":"https://geoconfirmed.org/map/ukraine","id":"6cc5161e-272c-4b5f-a3f7-bd7ee98591ef","date":"2026-09-04","link":"https://geoconfirmed.org/map/ukraine/6cc5161e-272c-4b5f-a3f7-bd7ee98591ef","category":"Killed or wounded civilian. Potential Warcrime. In the colour of who is assessed as doing the attack/killing.","side":"Russia","color":"#E00000","description":"A Russian drone attack left several civilians injured.","orbat":[],"geolocation":["https://x.com/99Dominik_/status/2095842792933089580"],"sources":["https://x.com/99Dominik_/status/2095843183871570328","https://www.tiktok.com/@user4078139866147/video/7681630509901843720"]}},{"type":"Feature","geometry":{"type":"Point","coordinates":[37.54847,48.38219]},"properties":{"original":{"Date":"2026-09-04","Name":"04 SEP 2026","Faction":"Ukraine","Origin":"UAV","Latitude":"48.38219","Longitude":"37.54847","PlusCode":"8GWV9GJX+V9 Novoolenivka, Donetsk Oblast, Ukraine","Description":"0:14-0:22 - Claimed Russian artillery position hit by the 210th assault regiment 'Berlingo' of Ukraine.","Source":"https://bsky.app/profile/blinzka.bsky.social/post/3mur7iaawus2k, https://x.com/blinzka/status/2096174990445985796, https://www.facebook.com/reel/1495858769231366, https://www.instagram.com/polk_210/reel/Dc3BApiiPYR/, https://t.me/polk_210/7225","Geolocation":"https://x.com/GeoConfirmed/status/2096211561274540043, https://bsky.app/profile/did:plc:mtenhfd6jiq5i5osxpz4en3a/post/3murhle44fc2e, https://bsky.app/profile/blinzka.bsky.social/post/3mur7iacfqs2k, https://x.com/blinzka/status/2096174993675543031","Equipment":"(claimed artillery)","EquipmentItems":"FPV (First Person View) OWAD (One Way Attack Drone) | Artillery","Units":"","OrbatUnits":"210th Assault Regiment \"Berlingo\"","Id":"84f3469f-6b20-475f-8fdf-c122da978a87","icon":"/api/icons/0051CA/False/template/70.png"},"source":"geoconfirmed","source_name":"GeoConfirmed","source_url":"https://geoconfirmed.org/map/ukraine","id":"84f3469f-6b20-475f-8fdf-c122da978a87","date":"2026-09-04","link":"https://geoconfirmed.org/map/ukraine/84f3469f-6b20-475f-8fdf-c122da978a87","category":"Controlled Demolition OR explosion of unknown origin OR fire of unknown origin where no other icon fits","side":"Ukraine","color":"#0051CA","description":"0:14-0:22 - Claimed Russian artillery position hit by the 210th assault regiment 'Berlingo' of Ukraine.","orbat":["210th Assault Regiment \"Berlingo\""],"geolocation":["https://x.com/GeoConfirmed/status/2096211561274540043","https://bsky.app/profile/did:plc:mtenhfd6jiq5i5osxpz4en3a/post/3murhle44fc2e","https://bsky.app/profile/blinzka.bsky.social/post/3mur7iacfqs2k","https://x.com/blinzka/status/2096174993675543031"],"sources":["https://bsky.app/profile/blinzka.bsky.social/post/3mur7iaawus2k","https://x.com/blinzka/status/2096174990445985796","https://www.facebook.com/reel/1495858769231366","https://www.instagram.com/polk_210/reel/Dc3BApiiPYR/","https://t.me/polk_210/7225"]}},{"type":"Feature","geometry":{"type":"Point","coordinates":[32.48767,45.38832]},"properties":{"original":{"Date":"2026-09-04","Name":"04 SEP 2026","Faction":"Ukraine","Origin":"UAV","Latitude":"45.38832","Longitude":"32.48767","PlusCode":"8GQJ9FQQ+83","Description":"0:15-0:18 - A reportedly improvised air defense system built on a Russian MT-LB vehicle is attacked with a drone by the 426th Unmanned Systems Regiment of Ukraine.","Source":"https://bsky.app/profile/militarynewsua.bsky.social/post/3mupptr4fes2o, https://x.com/front_ukrainian/status/2095960022526111791, https://www.facebook.com/reel/1063356876489525","Geolocation":"https://x.com/GeoConfirmed/status/2096164951677157670, https://bsky.app/profile/did:plc:mtenhfd6jiq5i5osxpz4en3a/post/3mur57ss5t22y, https://bsky.app/profile/blinzka.bsky.social/post/3muqahzbmwc26, https://x.com/blinzka/status/2096035938375749688","Equipment":"","EquipmentItems":"FPV (First Person View) OWAD (One Way Attack Drone) | MT-LB","Units":"","OrbatUnits":"426th Separate Unmanned Systems Regiment","Id":"f61ca4ae-fb7b-44c6-88aa-c568e7cf5dfc","icon":"/api/icons/0051CA/False/template/111.png"},"source":"geoconfirmed","source_name":"GeoConfirmed","source_url":"https://geoconfirmed.org/map/ukraine","id":"f61ca4ae-fb7b-44c6-88aa-c568e7cf5dfc","date":"2026-09-04","link":"https://geoconfirmed.org/map/ukraine/f61ca4ae-fb7b-44c6-88aa-c568e7cf5dfc","category":"Short Range (<50km) OWAD (One Way Attack Drone), mostly rotary wing, Flying OR Attacking a target without knowing the outcome: if something is damaged --> icon of the damaged equipment.","side":"Ukraine","color":"#0051CA","description":"0:15-0:18 - A reportedly improvised air defense system built on a Russian MT-LB vehicle is attacked with a drone by the 426th Unmanned Systems Regiment of Ukraine.","orbat":["426th Separate Unmanned Systems Regiment"],"geolocation":["https://x.com/GeoConfirmed/status/2096164951677157670","https://bsky.app/profile/did:plc:mtenhfd6jiq5i5osxpz4en3a/post/3mur57ss5t22y","https://bsky.app/profile/blinzka.bsky.social/post/3muqahzbmwc26","https://x.com/blinzka/status/2096035938375749688"],"sources":["https://bsky.app/profile/militarynewsua.bsky.social/post/3mupptr4fes2o","https://x.com/front_ukrainian/status/2095960022526111791","https://www.facebook.com/reel/1063356876489525"]}},{"type":"Feature","geometry":{"type":"Point","coordinates":[30.92797,50.35288]},"properties":{"original":{"Date":"2026-09-04","Name":"04 SEP 2026","Faction":"Neutral","Origin":"VID","Latitude":"50.35288","Longitude":"30.92797","PlusCode":"9G2G9W3H+55 Boryspil', Kyiv Oblast, Ukraine","Description":"The roof of a residential building is on fire","Source":"https://x.com/zarGEOINT/status/2096000282069000325, https://t.me/tviy_kyivv/71872, ","Geolocation":"https://x.com/zarGEOINT/status/2096002966524236083","Equipment":"","EquipmentItems":"","Units":"","OrbatUnits":"","Id":"1c641906-0ce4-49e4-8b4b-d06c9ceebe34","icon":"/api/icons/AC7339/False/template/192.png"},"source":"geoconfirmed","source_name":"GeoConfirmed","source_url":"https://geoconfirmed.org/map/ukraine","id":"1c641906-0ce4-49e4-8b4b-d06c9ceebe34","date":"2026-09-04","link":"https://geoconfirmed.org/map/ukraine/1c641906-0ce4-49e4-8b4b-d06c9ceebe34","category":"Recently destroyed/Damaged[Visible in footage] or still burning infrastucture","side":"Neutral","color":"#AC7339","description":"The roof of a residential building is on fire","orbat":[],"geolocation":["https://x.com/zarGEOINT/status/2096002966524236083"],"sources":["https://x.com/zarGEOINT/status/2096000282069000325","https://t.me/tviy_kyivv/71872"]}},{"type":"Feature","geometry":{"type":"Point","coordinates":[39.98957,43.39045]},"properties":{"original":{"Date":"2026-09-04","Name":"04 SEP 2026","Faction":"Ukraine","Origin":"VID","Latitude":"43.39045","Longitude":"39.98957","PlusCode":"8GMX9XRQ+5R Adlerskiy, Krasnodar Krai, Russia","Description":"Point of view in northern direction - Fire at a Russian oil depot in Adlerskiy after a reported Ukrainian strike","Source":"https://x.com/zarGEOINT/status/2095773605120352719, https://t.me/exilenova_plus/30337","Geolocation":"https://x.com/zarGEOINT/status/2095777580666286420","Equipment":"","EquipmentItems":"","Units":"","OrbatUnits":"","Id":"c21e0443-09fe-4eec-b2b0-d59798c85d0b","icon":"/api/icons/0051CA/False/template/30.png"},"source":"geoconfirmed","source_name":"GeoConfirmed","source_url":"https://geoconfirmed.org/map/ukraine","id":"c21e0443-09fe-4eec-b2b0-d59798c85d0b","date":"2026-09-04","link":"https://geoconfirmed.org/map/ukraine/c21e0443-09fe-4eec-b2b0-d59798c85d0b","category":"Video - Always Point of View in description - In the colour of who is doing the attack or is responsable for the incident in the video.","side":"Ukraine","color":"#0051CA","description":"Point of view in northern direction - Fire at a Russian oil depot in Adlerskiy after a reported Ukrainian strike","orbat":[],"geolocation":["https://x.com/zarGEOINT/status/2095777580666286420"],"sources":["https://x.com/zarGEOINT/status/2095773605120352719","https://t.me/exilenova_plus/30337"]}},{"type":"Feature","geometry":{"type":"Point","coordinates":[40.005099,43.388567]},"properties":{"original":{"Date":"2026-09-04","Name":"04 SEP 2026","Faction":"Russia","Origin":"VID","Latitude":"43.388567","Longitude":"40.005099","PlusCode":"8HM292Q4+C2 Adlerskiy, Krasnodar Krai, Russia","Description":"An explosion in the area of a known Russian S-300/S-400 air defense position, several missiles cooking off are seen. (area grid)","Source":"https://t.me/exilenova_plus/30282, https://x.com/Grimm_Intel/status/2095660672835084610, and , https://bsky.app/profile/noelreports.com/post/3munnc7qlxc2g, (1/2) https://x.com/Exilenova_plus/status/2095638887104385231, (1/2) https://t.me/exilenova_plus/30278, SAT, https://x.com/zarGEOINT/status/2096234429723152744, ","Geolocation":"based on: https://x.com/Grimm_Intel/status/2095661024653238444, and, https://bsky.app/profile/did:plc:z4yrc6zhuibeadav357xtsok/post/3munnn7wmlc2p, https://x.com/blinzka/status/2095662060948316326, , https://x.com/zarGEOINT/status/2095752279718539665","Equipment":"UNK; Air defense system","EquipmentItems":"","Units":"UNK","OrbatUnits":"","Id":"d40c3d90-d723-41ee-bf2c-d6b0d5128a89","icon":"/api/icons/E00000/False/template/202.png"},"source":"geoconfirmed","source_name":"GeoConfirmed","source_url":"https://geoconfirmed.org/map/ukraine","id":"d40c3d90-d723-41ee-bf2c-d6b0d5128a89","date":"2026-09-04","link":"https://geoconfirmed.org/map/ukraine/d40c3d90-d723-41ee-bf2c-d6b0d5128a89","category":"Recently Destroyed/Damaged[Visible in footage] Anti-Air System (Tracked OR Wheeled)","side":"Russia","color":"#E00000","description":"An explosion in the area of a known Russian S-300/S-400 air defense position, several missiles cooking off are seen. (area grid)","orbat":["UNK"],"geolocation":["https://x.com/Grimm_Intel/status/2095661024653238444","https://bsky.app/profile/did:plc:z4yrc6zhuibeadav357xtsok/post/3munnn7wmlc2p","https://x.com/blinzka/status/2095662060948316326","https://x.com/zarGEOINT/status/2095752279718539665"],"sources":["https://t.me/exilenova_plus/30282","https://x.com/Grimm_Intel/status/2095660672835084610","https://bsky.app/profile/noelreports.com/post/3munnc7qlxc2g","https://x.com/Exilenova_plus/status/2095638887104385231","https://t.me/exilenova_plus/30278","https://x.com/zarGEOINT/status/2096234429723152744"]}},{"type":"Feature","geometry":{"type":"Point","coordinates":[39.98987,43.39666]},"properties":{"original":{"Date":"2026-09-04","Name":"04 SEP 2026","Faction":"Neutral","Origin":"VID","Latitude":"43.39666","Longitude":"39.98987","PlusCode":"8GMX9XWQ+MW Adlerskiy, Krasnodar Krai, Russia","Description":"Fire at a Russian oil depot in Adlerskiy after a reported Ukrainian strike","Source":"Vid, https://x.com/zarGEOINT/status/2095773605120352719, https://t.me/exilenova_plus/30337, SAT, https://x.com/zarGEOINT/status/2096233764837794234","Geolocation":"https://x.com/zarGEOINT/status/2095777580666286420","Equipment":"","EquipmentItems":"","Units":"","OrbatUnits":"","Id":"365f2d57-da5b-46d4-80e3-df487bd1adba","icon":"/api/icons/AC7339/False/template/192.png"},"source":"geoconfirmed","source_name":"GeoConfirmed","source_url":"https://geoconfirmed.org/map/ukraine","id":"365f2d57-da5b-46d4-80e3-df487bd1adba","date":"2026-09-04","link":"https://geoconfirmed.org/map/ukraine/365f2d57-da5b-46d4-80e3-df487bd1adba","category":"Recently destroyed/Damaged[Visible in footage] or still burning infrastucture","side":"Neutral","color":"#AC7339","description":"Fire at a Russian oil depot in Adlerskiy after a reported Ukrainian strike","orbat":[],"geolocation":["https://x.com/zarGEOINT/status/2095777580666286420"],"sources":["https://x.com/zarGEOINT/status/2095773605120352719","https://t.me/exilenova_plus/30337","https://x.com/zarGEOINT/status/2096233764837794234"]}},{"type":"Feature","geometry":{"type":"Point","coordinates":[39.93705,43.43835]},"properties":{"original":{"Date":"2026-09-04","Name":"04 SEP 2026","Faction":"Russia","Origin":"SAT","Latitude":"43.43835","Longitude":"39.93705","PlusCode":"8GMXCWQP+8R Adlerskiy, Krasnodar Krai, Russia","Description":"Reported Mi-28 destroyed after a Ukrainian strike","Source":"https://x.com/UAControlMap/status/2096557538065908053, https://t.me/exilenova_plus/30434","Geolocation":"https://x.com/UAControlMap/status/2096557540708360547","Equipment":"","EquipmentItems":"Mi-28","Units":"","OrbatUnits":"","Id":"1214810b-5eed-4fa6-9e00-e18d8416c0df","icon":"/api/icons/E00000/False/template/22.png"},"source":"geoconfirmed","source_name":"GeoConfirmed","source_url":"https://geoconfirmed.org/map/ukraine","id":"1214810b-5eed-4fa6-9e00-e18d8416c0df","date":"2026-09-04","link":"https://geoconfirmed.org/map/ukraine/1214810b-5eed-4fa6-9e00-e18d8416c0df","category":"Recently Destroyed/Damaged[Visible in footage] Helicopter (Attack or transport)","side":"Russia","color":"#E00000","description":"Reported Mi-28 destroyed after a Ukrainian strike","orbat":[],"geolocation":["https://x.com/UAControlMap/status/2096557540708360547"],"sources":["https://x.com/UAControlMap/status/2096557538065908053","https://t.me/exilenova_plus/30434"]}},{"type":"Feature","geometry":{"type":"Point","coordinates":[37.915747,49.102582]},"properties":{"original":{"Date":"2026-09-04","Name":"04 SEP 2026","Faction":"Russia","Origin":"UAV","Latitude":"49.102582","Longitude":"37.915747","PlusCode":"8GXV4W38+27 Kolodyazi, Donetsk Oblast, Ukraine","Description":"Russian tank destroyed by FPV drones of the Ukrainian Unmanned Systems Battalion \"Mara\" of the 66th Mechanized Brigade","Source":"https://x.com/moklasen/status/2095930174554452401, https://t.me/bbps_mara_66/472, ","Geolocation":"https://x.com/moklasen/status/2095930170876026902","Equipment":"","EquipmentItems":"Tank | FPV (First Person View) OWAD (One Way Attack Drone)","Units":"","OrbatUnits":"Unmanned Systems Battalion \"Mara\"","Id":"69adb3ad-38b0-4086-bf43-e8e5219049ad","icon":"/api/icons/E00000/False/template/42.png"},"source":"geoconfirmed","source_name":"GeoConfirmed","source_url":"https://geoconfirmed.org/map/ukraine","id":"69adb3ad-38b0-4086-bf43-e8e5219049ad","date":"2026-09-04","link":"https://geoconfirmed.org/map/ukraine/69adb3ad-38b0-4086-bf43-e8e5219049ad","category":"Recently Destroyed/Damaged[Visible in footage] Tank","side":"Russia","color":"#E00000","description":"Russian tank destroyed by FPV drones of the Ukrainian Unmanned Systems Battalion \"Mara\" of the 66th Mechanized Brigade","orbat":["Unmanned Systems Battalion \"Mara\""],"geolocation":["https://x.com/moklasen/status/2095930170876026902"],"sources":["https://x.com/moklasen/status/2095930174554452401","https://t.me/bbps_mara_66/472"]}},{"type":"Feature","geometry":{"type":"Point","coordinates":[39.93768,43.43793]},"properties":{"original":{"Date":"2026-09-04","Name":"04 SEP 2026","Faction":"Russia","Origin":"SAT","Latitude":"43.43793","Longitude":"39.93768","PlusCode":"8GMXCWQP+8R Adlerskiy, Krasnodar Krai, Russia","Description":"Reported KA-52 destroyed after a Ukrainian strike","Source":"SAT1, https://x.com/UAControlMap/status/2096557538065908053, https://x.com/MarcinRogowsk14/status/2096591118318162248, https://t.me/exilenova_plus/30434, SAT2, https://x.com/GarbuzYe/status/2096554133360705858, , ","Geolocation":"https://x.com/UAControlMap/status/2096557540708360547","Equipment":"KA-52","EquipmentItems":"Attack Helicopter","Units":"","OrbatUnits":"","Id":"15899aad-1548-4c82-8878-ee74c60a97fe","icon":"/api/icons/E00000/False/template/22.png"},"source":"geoconfirmed","source_name":"GeoConfirmed","source_url":"https://geoconfirmed.org/map/ukraine","id":"15899aad-1548-4c82-8878-ee74c60a97fe","date":"2026-09-04","link":"https://geoconfirmed.org/map/ukraine/15899aad-1548-4c82-8878-ee74c60a97fe","category":"Recently Destroyed/Damaged[Visible in footage] Helicopter (Attack or transport)","side":"Russia","color":"#E00000","description":"Reported KA-52 destroyed after a Ukrainian strike","orbat":[],"geolocation":["https://x.com/UAControlMap/status/2096557540708360547"],"sources":["https://x.com/UAControlMap/status/2096557538065908053","https://x.com/MarcinRogowsk14/status/2096591118318162248","https://t.me/exilenova_plus/30434","https://x.com/GarbuzYe/status/2096554133360705858"]}},{"type":"Feature","geometry":{"type":"Point","coordinates":[37.714811,48.59599]},"properties":{"original":{"Date":"2026-09-04","Name":"04 SEP 2026","Faction":"Russia","Origin":"UAV","Latitude":"48.59599","Longitude":"37.714811","PlusCode":"8GWVHPW7+9W Popasne, Donetsk Oblast, Ukraine","Description":"0:37-0:45 - The 46th Airmobile Brigade hits a Russian soldier east of Popasna with a Nightvision Fibre Optic FPV Drone; the soldier is later seen on fire, presumably killed.","Source":"https://x.com/AudaxonX/status/2096985566357213521, https://t.me/oaembr46/2975","Geolocation":"https://x.com/AudaxonX/status/2096995806058316209","Equipment":"","EquipmentItems":"Fiber Optic (FO) FPV (First Person View) OWAD (One Way Attack Drone)","Units":"","OrbatUnits":"46th Airmobile Brigade","Id":"493f89be-7487-45c2-b9d3-ef7ac71aba79","icon":"/api/icons/E00000/False/template/92.png"},"source":"geoconfirmed","source_name":"GeoConfirmed","source_url":"https://geoconfirmed.org/map/ukraine","id":"493f89be-7487-45c2-b9d3-ef7ac71aba79","date":"2026-09-04","link":"https://geoconfirmed.org/map/ukraine/493f89be-7487-45c2-b9d3-ef7ac71aba79","category":"WIA/KIA Soldier/Militant","side":"Russia","color":"#E00000","description":"0:37-0:45 - The 46th Airmobile Brigade hits a Russian soldier east of Popasna with a Nightvision Fibre Optic FPV Drone; the soldier is later seen on fire, presumably killed.","orbat":["46th Airmobile Brigade"],"geolocation":["https://x.com/AudaxonX/status/2096995806058316209"],"sources":["https://x.com/AudaxonX/status/2096985566357213521","https://t.me/oaembr46/2975"]}},{"type":"Feature","geometry":{"type":"Point","coordinates":[32.4848,45.4049]},"properties":{"original":{"Date":"2026-09-04","Name":"04 SEP 2026","Faction":"Ukraine","Origin":"UAV","Latitude":"45.4049","Longitude":"32.4848","PlusCode":"8GQJCF3M+XW","Description":"0:19-0:20 - A reportedly improvised air defense system built on a Russian MT-LB vehicle is attacked with a drone by the 426th Unmanned Systems Regiment of Ukraine.","Source":"https://bsky.app/profile/militarynewsua.bsky.social/post/3mupptr4fes2o, https://x.com/front_ukrainian/status/2095960022526111791, https://www.facebook.com/reel/1063356876489525, ","Geolocation":"https://bsky.app/profile/did:plc:mtenhfd6jiq5i5osxpz4en3a/post/3mur6z4lwa22m, https://bsky.app/profile/eole2002.bsky.social/post/3mur5vk46sc2j","Equipment":"","EquipmentItems":"FPV (First Person View) OWAD (One Way Attack Drone) | MT-LB","Units":"","OrbatUnits":"426th Separate Unmanned Systems Regiment","Id":"22b8d684-c36d-44ef-99cd-f0b44a5cbd64","icon":"/api/icons/0051CA/False/template/111.png"},"source":"geoconfirmed","source_name":"GeoConfirmed","source_url":"https://geoconfirmed.org/map/ukraine","id":"22b8d684-c36d-44ef-99cd-f0b44a5cbd64","date":"2026-09-04","link":"https://geoconfirmed.org/map/ukraine/22b8d684-c36d-44ef-99cd-f0b44a5cbd64","category":"Short Range (<50km) OWAD (One Way Attack Drone), mostly rotary wing, Flying OR Attacking a target without knowing the outcome: if something is damaged --> icon of the damaged equipment.","side":"Ukraine","color":"#0051CA","description":"0:19-0:20 - A reportedly improvised air defense system built on a Russian MT-LB vehicle is attacked with a drone by the 426th Unmanned Systems Regiment of Ukraine.","orbat":["426th Separate Unmanned Systems Regiment"],"geolocation":["https://bsky.app/profile/did:plc:mtenhfd6jiq5i5osxpz4en3a/post/3mur6z4lwa22m","https://bsky.app/profile/eole2002.bsky.social/post/3mur5vk46sc2j"],"sources":["https://bsky.app/profile/militarynewsua.bsky.social/post/3mupptr4fes2o","https://x.com/front_ukrainian/status/2095960022526111791","https://www.facebook.com/reel/1063356876489525"]}},{"type":"Feature","geometry":{"type":"Point","coordinates":[37.8344,44.7168]},"properties":{"original":{"Date":"2026-09-04","Name":"04 SEP 2026","Faction":"Russia","Origin":"SAT","Latitude":"44.7168","Longitude":"37.8344","PlusCode":"8GPVPR8M+PQ Novorossiysk, Krasnodar Krai, Russia","Description":"Novorossiysk Naval Base workshop building damaged by a Ukrainian strike","Source":"(4/4), https://x.com/Exilenova_plus/status/2097996981679374720, (6/6), https://t.me/exilenova_plus/30677","Geolocation":"https://x.com/tom_bike/status/2098034969989812224, https://x.com/tom_bike/status/2097746387685253300","Equipment":"","EquipmentItems":"","Units":"","OrbatUnits":"","Id":"d881eb6f-558a-4bdd-b9c0-f221254cc15f","icon":"/api/icons/E00000/False/template/192.png"},"source":"geoconfirmed","source_name":"GeoConfirmed","source_url":"https://geoconfirmed.org/map/ukraine","id":"d881eb6f-558a-4bdd-b9c0-f221254cc15f","date":"2026-09-04","link":"https://geoconfirmed.org/map/ukraine/d881eb6f-558a-4bdd-b9c0-f221254cc15f","category":"Recently destroyed/Damaged[Visible in footage] or still burning infrastucture","side":"Russia","color":"#E00000","description":"Novorossiysk Naval Base workshop building damaged by a Ukrainian strike","orbat":[],"geolocation":["https://x.com/tom_bike/status/2098034969989812224","https://x.com/tom_bike/status/2097746387685253300"],"sources":["https://x.com/Exilenova_plus/status/2097996981679374720","https://t.me/exilenova_plus/30677"]}},{"type":"Feature","geometry":{"type":"Point","coordinates":[37.817218,48.12606]},"properties":{"original":{"Date":"2026-09-04","Name":"04 SEP 2026","Faction":"Ukraine","Origin":"UAV","Latitude":"48.12606","Longitude":"37.817218","PlusCode":"8GWV4RG8+CV Kashtanove, Donetsk Oblast, Ukraine","Description":"0:14-0:19 - A drone of the SBU UAV Unit \"Ivan Franko Group\" attacking a Russian vehicle.","Source":"https://x.com/PuenteUribarri/status/2095959029407273094, https://t.me/ivanfrankogroup/245","Geolocation":"https://x.com/Kukulkan415/status/2095988488101376478","Equipment":"","EquipmentItems":"FPV (First Person View) OWAD (One Way Attack Drone) | Pick-up","Units":"","OrbatUnits":"UAV Unit \"Ivan Franko Group\"","Id":"7fe9fa5e-daa2-482b-8225-f642c2bd1e9f","icon":"/api/icons/0051CA/False/template/111.png"},"source":"geoconfirmed","source_name":"GeoConfirmed","source_url":"https://geoconfirmed.org/map/ukraine","id":"7fe9fa5e-daa2-482b-8225-f642c2bd1e9f","date":"2026-09-04","link":"https://geoconfirmed.org/map/ukraine/7fe9fa5e-daa2-482b-8225-f642c2bd1e9f","category":"Short Range (<50km) OWAD (One Way Attack Drone), mostly rotary wing, Flying OR Attacking a target without knowing the outcome: if something is damaged --> icon of the damaged equipment.","side":"Ukraine","color":"#0051CA","description":"0:14-0:19 - A drone of the SBU UAV Unit \"Ivan Franko Group\" attacking a Russian vehicle.","orbat":["UAV Unit \"Ivan Franko Group\""],"geolocation":["https://x.com/Kukulkan415/status/2095988488101376478"],"sources":["https://x.com/PuenteUribarri/status/2095959029407273094","https://t.me/ivanfrankogroup/245"]}},{"type":"Feature","geometry":{"type":"Point","coordinates":[30.319482,50.39692]},"properties":{"original":{"Date":"2026-09-04","Name":"04 SEP 2026","Faction":"Russia","Origin":"VID","Latitude":"50.39692","Longitude":"30.319482","PlusCode":"9G2G98W9+QQ Sofiivska Borschahivka, Kyiv Oblast, Ukraine","Description":"Rough point of view in west direction - the moment of a Russian strike in the distance.","Source":"(1/2), https://x.com/ne_kotletka/status/2095928689049415682, https://t.me/kievinfo_kyiv/96734","Geolocation":"(2/2), https://x.com/ne_kotletka/status/2095928689049415682","Equipment":"","EquipmentItems":"","Units":"","OrbatUnits":"","Id":"6b94a8d7-f46a-419e-922c-f69803af0527","icon":"/api/icons/E00000/False/template/30.png"},"source":"geoconfirmed","source_name":"GeoConfirmed","source_url":"https://geoconfirmed.org/map/ukraine","id":"6b94a8d7-f46a-419e-922c-f69803af0527","date":"2026-09-04","link":"https://geoconfirmed.org/map/ukraine/6b94a8d7-f46a-419e-922c-f69803af0527","category":"Video - Always Point of View in description - In the colour of who is doing the attack or is responsable for the incident in the video.","side":"Russia","color":"#E00000","description":"Rough point of view in west direction - the moment of a Russian strike in the distance.","orbat":[],"geolocation":["https://x.com/ne_kotletka/status/2095928689049415682"],"sources":["https://x.com/ne_kotletka/status/2095928689049415682","https://t.me/kievinfo_kyiv/96734"]}},{"type":"Feature","geometry":{"type":"Point","coordinates":[39.93893,43.43928]},"properties":{"original":{"Date":"2026-09-04","Name":"04 SEP 2026","Faction":"Russia","Origin":"SAT","Latitude":"43.43928","Longitude":"39.93893","PlusCode":"8GMXCWQQ+PH Adlerskiy, Krasnodar Krai, Russia","Description":"Reported Mi-8 damaged after a Ukrainian strike","Source":"https://x.com/UAControlMap/status/2096557538065908053, https://t.me/exilenova_plus/30434","Geolocation":"https://x.com/UAControlMap/status/2096557540708360547","Equipment":"","EquipmentItems":"Mi-8M series","Units":"","OrbatUnits":"","Id":"531a2727-7135-42ef-b166-f6c1d27ab229","icon":"/api/icons/E00000/False/template/22.png"},"source":"geoconfirmed","source_name":"GeoConfirmed","source_url":"https://geoconfirmed.org/map/ukraine","id":"531a2727-7135-42ef-b166-f6c1d27ab229","date":"2026-09-04","link":"https://geoconfirmed.org/map/ukraine/531a2727-7135-42ef-b166-f6c1d27ab229","category":"Recently Destroyed/Damaged[Visible in footage] Helicopter (Attack or transport)","side":"Russia","color":"#E00000","description":"Reported Mi-8 damaged after a Ukrainian strike","orbat":[],"geolocation":["https://x.com/UAControlMap/status/2096557540708360547"],"sources":["https://x.com/UAControlMap/status/2096557538065908053","https://t.me/exilenova_plus/30434"]}}]}