{"type":"FeatureCollection","features":[{"type":"Feature","geometry":{"type":"Point","coordinates":[30.65687,46.30475]},"properties":{"original":{"Date":"2026-09-12","Name":"12 SEP 2026","Faction":"Neutral","Origin":"PIC","Latitude":"46.30475","Longitude":"30.65687","PlusCode":"8GRG8M34+WP Chornomorsk, Odesa Oblast, Ukraine","Description":"The Moryak Hotel was damaged in Chornomorsk following a reported Russian strike. The hotel reportedly housed a rehabilitation center; nearby parked cars were also damaged.","Source":"https://x.com/NOELreports/status/2098664860653391993, , More information, https://culturemeter.od.ua/v-chernomorske-unichtozhen-zhiloy-dom-atakoy-rossii-raneny-5-detey-253116/","Geolocation":"https://x.com/zarGEOINT/status/2098666669048561865, ","Equipment":"(Reported with Kalibr missiles, ballistic missiles and Banderol drones)","EquipmentItems":"Car ","Units":"","OrbatUnits":"","Id":"9533dd0f-2c1c-4fa0-8a99-05cda15d35ec","icon":"/api/icons/AC7339/False/template/192.png"},"source":"geoconfirmed","source_name":"GeoConfirmed","source_url":"https://geoconfirmed.org/map/ukraine","id":"9533dd0f-2c1c-4fa0-8a99-05cda15d35ec","date":"2026-09-12","link":"https://geoconfirmed.org/map/ukraine/9533dd0f-2c1c-4fa0-8a99-05cda15d35ec","category":"Recently destroyed/Damaged[Visible in footage] or still burning infrastucture","side":"Neutral","color":"#AC7339","description":"The Moryak Hotel was damaged in Chornomorsk following a reported Russian strike. The hotel reportedly housed a rehabilitation center; nearby parked cars were also damaged.","orbat":[],"geolocation":["https://x.com/zarGEOINT/status/2098666669048561865"],"sources":["https://x.com/NOELreports/status/2098664860653391993","https://culturemeter.od.ua/v-chernomorske-unichtozhen-zhiloy-dom-atakoy-rossii-raneny-5-detey-253116/"]}},{"type":"Feature","geometry":{"type":"Point","coordinates":[25.35145,50.75707]},"properties":{"original":{"Date":"2026-09-12","Name":"12 SEP 2026","Faction":"Neutral","Origin":"VID","Latitude":"50.75707","Longitude":"25.35145","PlusCode":"9G27Q942+RH Lutsk, Volyn Oblast, Ukraine","Description":"Damaged train following a Russian drone attack.","Source":"Vid1, https://x.com/Maks_NAFO_FELLA/status/2098755477454610653, https://t.me/truexaluck/30317, https://t.me/volyn_golovne_ua/37163, Vid2, From other angle, https://x.com/Shayan86/status/2098777189697138879, More information, https://www.pravda.com.ua/eng/news/2026/09/12/8053101/","Geolocation":"Vid1, https://x.com/zarGEOINT/status/2098758968428429411, Vid2, https://x.com/Shayan86/status/2098777189697138879, https://x.com/Brokenarrow42/status/2098800290065473545","Equipment":"","EquipmentItems":"Locomotive/Train | Geran/Shahed UNK Type","Units":"","OrbatUnits":"","Id":"ff5e574c-1b86-4e7a-8511-0dbbbfa89d6c","icon":"/api/icons/AC7339/False/template/162.png"},"source":"geoconfirmed","source_name":"GeoConfirmed","source_url":"https://geoconfirmed.org/map/ukraine","id":"ff5e574c-1b86-4e7a-8511-0dbbbfa89d6c","date":"2026-09-12","link":"https://geoconfirmed.org/map/ukraine/ff5e574c-1b86-4e7a-8511-0dbbbfa89d6c","category":"Recently Destroyed/Damaged[Visible in footage] Train","side":"Neutral","color":"#AC7339","description":"Damaged train following a Russian drone attack.","orbat":[],"geolocation":["https://x.com/zarGEOINT/status/2098758968428429411","https://x.com/Shayan86/status/2098777189697138879","https://x.com/Brokenarrow42/status/2098800290065473545"],"sources":["https://x.com/Maks_NAFO_FELLA/status/2098755477454610653","https://t.me/truexaluck/30317","https://t.me/volyn_golovne_ua/37163","https://x.com/Shayan86/status/2098777189697138879","https://www.pravda.com.ua/eng/news/2026/09/12/8053101/"]}},{"type":"Feature","geometry":{"type":"Point","coordinates":[38.881561,47.20041]},"properties":{"original":{"Date":"2026-09-12","Name":"12 SEP 2026","Faction":"Neutral","Origin":"SAT","Latitude":"47.20041","Longitude":"38.881561","PlusCode":"8GVW6V2J+5J Taganrog, Rostov Oblast, Russia","Description":"Area grid - Damaged workshop of the \"Atlant Aero\" plant in Taganrog following a  reported Ukrainian attack. (Low satellite imagery), The enterprise reportedly produced strike-reconnaissance UAVs of the \"Molniya\" type and components for the \"Orion\" UAV for Russian troops.","Source":"https://x.com/Exilenova_plus/status/2098769592172548433, , More information, https://english.nv.ua/russian-war/ukraine-strikes-drone-warehouses-fpv-production-and-air-defenses-near-taganrog-50640869.html, https://t.me/SBUkr/18598","Geolocation":"https://x.com/Exilenova_plus/status/2098769592172548433","Equipment":"","EquipmentItems":"","Units":"(Reported)","OrbatUnits":"Alpha Group","Id":"ce191718-9834-451c-9c7b-14110a2409ad","icon":"/api/icons/AC7339/False/template/192.png"},"source":"geoconfirmed","source_name":"GeoConfirmed","source_url":"https://geoconfirmed.org/map/ukraine","id":"ce191718-9834-451c-9c7b-14110a2409ad","date":"2026-09-12","link":"https://geoconfirmed.org/map/ukraine/ce191718-9834-451c-9c7b-14110a2409ad","category":"Recently destroyed/Damaged[Visible in footage] or still burning infrastucture","side":"Neutral","color":"#AC7339","description":"Area grid - Damaged workshop of the \"Atlant Aero\" plant in Taganrog following a  reported Ukrainian attack. (Low satellite imagery), The enterprise reportedly produced strike-reconnaissance UAVs of the \"Molniya\" type and components for the \"Orion\" UAV for Russian troops.","orbat":["Alpha Group"],"geolocation":["https://x.com/Exilenova_plus/status/2098769592172548433"],"sources":["https://x.com/Exilenova_plus/status/2098769592172548433","https://english.nv.ua/russian-war/ukraine-strikes-drone-warehouses-fpv-production-and-air-defenses-near-taganrog-50640869.html","https://t.me/SBUkr/18598"]}},{"type":"Feature","geometry":{"type":"Point","coordinates":[38.861682,47.223804]},"properties":{"original":{"Date":"2026-09-12","Name":"12 SEP 2026","Faction":"Ukraine","Origin":"PIC","Latitude":"47.223804","Longitude":"38.861682","PlusCode":"8GVW6VF6+GM Taganrog, Rostov Oblast, Russia","Description":"Point of view in north direction - Black smoke is visible towards the Taganrog-Central Airport following a reported Ukrainian drone attack.","Source":"https://x.com/neonhandrail/status/2098629373247283495, https://t.me/exilenova_plus/30843, , More information, https://kyivindependent.com/fires-reported-at-manufacturing-sites-in-russia-following-ukrainian-drone-strikes/","Geolocation":"https://x.com/neonhandrail/status/2098629165675339905","Equipment":"","EquipmentItems":"","Units":"","OrbatUnits":"","Id":"3326c4cb-0b66-42ba-8381-18426c203760","icon":"/api/icons/0051CA/False/template/20.png"},"source":"geoconfirmed","source_name":"GeoConfirmed","source_url":"https://geoconfirmed.org/map/ukraine","id":"3326c4cb-0b66-42ba-8381-18426c203760","date":"2026-09-12","link":"https://geoconfirmed.org/map/ukraine/3326c4cb-0b66-42ba-8381-18426c203760","category":"Picture - Always Point of View in description - - In the colour of who is doing the attack or is responsable for the incident in the picture.","side":"Ukraine","color":"#0051CA","description":"Point of view in north direction - Black smoke is visible towards the Taganrog-Central Airport following a reported Ukrainian drone attack.","orbat":[],"geolocation":["https://x.com/neonhandrail/status/2098629165675339905"],"sources":["https://x.com/neonhandrail/status/2098629373247283495","https://t.me/exilenova_plus/30843","https://kyivindependent.com/fires-reported-at-manufacturing-sites-in-russia-following-ukrainian-drone-strikes/"]}},{"type":"Feature","geometry":{"type":"Point","coordinates":[30.76293,46.42363]},"properties":{"original":{"Date":"2026-09-12","Name":"12 SEP 2026","Faction":"Neutral","Origin":"VID","Latitude":"46.42363","Longitude":"30.76293","PlusCode":"8GRGCQF7+F5 Odesa, Odesa Oblast, Ukraine","Description":"A building in the \"44th Pearl\" residential complex on fire following a reported Russian attack. At least 17 people were injured, including a five-month-old child.","Source":"Vid1, https://x.com/blue_eyedKeti/status/2098629957962314203, Vid2, https://x.com/99Dominik_/status/2098664658433356189, https://www.youtube.com/watch?v=KGRg7aCJrJo, https://t.me/dsns_telegram/74527?single, Vid3, https://x.com/99Dominik_/status/2098665105059700924, Vid4, https://x.com/99Dominik_/status/2098665281165926433, https://t.me/OdessaDumskayaNet/126886, , More information, https://unn.ua/en/news/in-odesa-the-number-of-people-injured-after-the-russian-attack-has-risen-among-the-17-injured-is-a-5-month-old-child, https://shelter.in.ua/en/viyna/v-odesi-vnaslidok-raketno-dronovoho-udaru-znyshcheno-verkhni-poverkhy-bahatopoverkhivky-sered-poranenykh-ye-nemovlia, , ","Geolocation":"https://x.com/zarGEOINT/status/2098661798811508939, https://x.com/99Dominik_/status/2098664230161420397","Equipment":"","EquipmentItems":"","Units":"","OrbatUnits":"","Id":"0d5cde7b-7f79-4ec5-b4f1-3358bae50d50","icon":"/api/icons/AC7339/False/template/192.png"},"source":"geoconfirmed","source_name":"GeoConfirmed","source_url":"https://geoconfirmed.org/map/ukraine","id":"0d5cde7b-7f79-4ec5-b4f1-3358bae50d50","date":"2026-09-12","link":"https://geoconfirmed.org/map/ukraine/0d5cde7b-7f79-4ec5-b4f1-3358bae50d50","category":"Recently destroyed/Damaged[Visible in footage] or still burning infrastucture","side":"Neutral","color":"#AC7339","description":"A building in the \"44th Pearl\" residential complex on fire following a reported Russian attack. At least 17 people were injured, including a five-month-old child.","orbat":[],"geolocation":["https://x.com/zarGEOINT/status/2098661798811508939","https://x.com/99Dominik_/status/2098664230161420397"],"sources":["https://x.com/blue_eyedKeti/status/2098629957962314203","https://x.com/99Dominik_/status/2098664658433356189","https://www.youtube.com/watch?v=KGRg7aCJrJo","https://t.me/dsns_telegram/74527?single","https://x.com/99Dominik_/status/2098665105059700924","https://x.com/99Dominik_/status/2098665281165926433","https://t.me/OdessaDumskayaNet/126886","https://unn.ua/en/news/in-odesa-the-number-of-people-injured-after-the-russian-attack-has-risen-among-the-17-injured-is-a-5-month-old-child","https://shelter.in.ua/en/viyna/v-odesi-vnaslidok-raketno-dronovoho-udaru-znyshcheno-verkhni-poverkhy-bahatopoverkhivky-sered-poranenykh-ye-nemovlia"]}},{"type":"Feature","geometry":{"type":"Point","coordinates":[30.497734,50.490542]},"properties":{"original":{"Date":"2026-09-12","Name":"12 SEP 2026","Faction":"Russia","Origin":"VID","Latitude":"50.490542","Longitude":"30.497734","PlusCode":"9G2GFFRX+63 Kyiv, Kyiv city, Ukraine","Description":"0:00-0:54 - Two injured civilians after a Russian drone attack.","Source":"https://x.com/99Dominik_/status/2098804149433270567, https://t.me/OBiloshytskiy/2755","Geolocation":"https://x.com/99Dominik_/status/2098803668946432384","Equipment":"","EquipmentItems":"","Units":"","OrbatUnits":"","Id":"9c2f0053-7b05-46c3-808a-35d4206bcf61","icon":"/api/icons/E00000/False/template/50.png"},"source":"geoconfirmed","source_name":"GeoConfirmed","source_url":"https://geoconfirmed.org/map/ukraine","id":"9c2f0053-7b05-46c3-808a-35d4206bcf61","date":"2026-09-12","link":"https://geoconfirmed.org/map/ukraine/9c2f0053-7b05-46c3-808a-35d4206bcf61","category":"Killed or wounded civilian. Potential Warcrime. In the colour of who is assessed as doing the attack/killing.","side":"Russia","color":"#E00000","description":"0:00-0:54 - Two injured civilians after a Russian drone attack.","orbat":[],"geolocation":["https://x.com/99Dominik_/status/2098803668946432384"],"sources":["https://x.com/99Dominik_/status/2098804149433270567","https://t.me/OBiloshytskiy/2755"]}},{"type":"Feature","geometry":{"type":"Point","coordinates":[35.098083,48.509719]},"properties":{"original":{"Date":"2026-09-12","Name":"12 SEP 2026","Faction":"Neutral","Origin":"UAV","Latitude":"48.509719","Longitude":"35.098083","PlusCode":"8GWQG35X+V6 Dnipro, Dnipropetrovsk Oblast, Ukraine","Description":"An alleged Ukrainian Armed Forces logistics center was hit by a drone in Dnipropetrovsk.","Source":"https://x.com/Brokenarrow42/status/2098790606495445180, https://t.me/ZA_FROHT/59865","Geolocation":"https://x.com/Brokenarrow42/status/2098790603358183792","Equipment":"","EquipmentItems":"","Units":"","OrbatUnits":"","Id":"827314a0-c940-40db-9703-41bc7635f584","icon":"/api/icons/AC7339/False/template/192.png"},"source":"geoconfirmed","source_name":"GeoConfirmed","source_url":"https://geoconfirmed.org/map/ukraine","id":"827314a0-c940-40db-9703-41bc7635f584","date":"2026-09-12","link":"https://geoconfirmed.org/map/ukraine/827314a0-c940-40db-9703-41bc7635f584","category":"Recently destroyed/Damaged[Visible in footage] or still burning infrastucture","side":"Neutral","color":"#AC7339","description":"An alleged Ukrainian Armed Forces logistics center was hit by a drone in Dnipropetrovsk.","orbat":[],"geolocation":["https://x.com/Brokenarrow42/status/2098790603358183792"],"sources":["https://x.com/Brokenarrow42/status/2098790606495445180","https://t.me/ZA_FROHT/59865"]}},{"type":"Feature","geometry":{"type":"Point","coordinates":[38.203961,48.306265]},"properties":{"original":{"Date":"2026-09-12","Name":"12 SEP 2026","Faction":"Ukraine","Origin":"UAV","Latitude":"48.306265","Longitude":"38.203961","PlusCode":"8GWW8643+GH Horlivka, Donetsk Oblast, Ukraine","Description":"0:54-1:11 - A house was hit by a drone from pilots of the 427th Separate Unmanned Systems Brigade \"Rarog\" . Reportedly the house belonged to Russian Major General Anton Grunis, who was reported killed during the strike. , ","Source":"https://x.com/99Dominik_/status/2100147539378884888, https://t.me/robert_magyar/2821, , More information, https://censor.net/en/news/4023688/elimination-of-russian-general-grunis-madiar-releases-video, https://english.nv.ua/russian-war/russian-general-anton-grunis-killed-after-kostiantynivka-capture-briefing-to-putin-50641801.html","Geolocation":"https://x.com/99Dominik_/status/2100147405404385611","Equipment":"","EquipmentItems":"Fixed Wing OWAD (One Way Attack Drone)","Units":"","OrbatUnits":"427th Separate Unmanned Systems Brigade \"Rarog\"","Id":"6f2f89dd-bcad-4696-b64a-42fea480756b","icon":"/api/icons/0051CA/False/template/181.png"},"source":"geoconfirmed","source_name":"GeoConfirmed","source_url":"https://geoconfirmed.org/map/ukraine","id":"6f2f89dd-bcad-4696-b64a-42fea480756b","date":"2026-09-12","link":"https://geoconfirmed.org/map/ukraine/6f2f89dd-bcad-4696-b64a-42fea480756b","category":"Longe Range (>50km) OWAD (One Way Attack Drone) or Loitering munition, mostly fixed wing, Flying OR Attacking a target without knowing the outcome: if something is damaged --> icon of the damaged equipment.","side":"Ukraine","color":"#0051CA","description":"0:54-1:11 - A house was hit by a drone from pilots of the 427th Separate Unmanned Systems Brigade \"Rarog\" . Reportedly the house belonged to Russian Major General Anton Grunis, who was reported killed during the strike. ,","orbat":["427th Separate Unmanned Systems Brigade \"Rarog\""],"geolocation":["https://x.com/99Dominik_/status/2100147405404385611"],"sources":["https://x.com/99Dominik_/status/2100147539378884888","https://t.me/robert_magyar/2821","https://censor.net/en/news/4023688/elimination-of-russian-general-grunis-madiar-releases-video","https://english.nv.ua/russian-war/russian-general-anton-grunis-killed-after-kostiantynivka-capture-briefing-to-putin-50641801.html"]}},{"type":"Feature","geometry":{"type":"Point","coordinates":[38.850891,47.217308]},"properties":{"original":{"Date":"2026-09-12","Name":"12 SEP 2026","Faction":"Ukraine","Origin":"VID","Latitude":"47.217308","Longitude":"38.850891","PlusCode":"8GVW6V82+W9 Taganrog, Rostov Oblast, Russia","Description":"Point of view in north and east direction - Fire and smoke is visible towards the Taganrog-Central Airport and in the east of Taganrog, following a reported Ukrainian drone attack.","Source":"(1/4), https://x.com/Exilenova_plus/status/2098605804823961903, https://t.me/exilenova_plus/30833?single, , More information, https://kyivindependent.com/fires-reported-at-manufacturing-sites-in-russia-following-ukrainian-drone-strikes/","Geolocation":"https://x.com/neonhandrail/status/2098613258601238999","Equipment":"","EquipmentItems":"","Units":"","OrbatUnits":"","Id":"a0518284-79c0-46b2-b24a-5c74851b6759","icon":"/api/icons/0051CA/False/template/30.png"},"source":"geoconfirmed","source_name":"GeoConfirmed","source_url":"https://geoconfirmed.org/map/ukraine","id":"a0518284-79c0-46b2-b24a-5c74851b6759","date":"2026-09-12","link":"https://geoconfirmed.org/map/ukraine/a0518284-79c0-46b2-b24a-5c74851b6759","category":"Video - Always Point of View in description - In the colour of who is doing the attack or is responsable for the incident in the video.","side":"Ukraine","color":"#0051CA","description":"Point of view in north and east direction - Fire and smoke is visible towards the Taganrog-Central Airport and in the east of Taganrog, following a reported Ukrainian drone attack.","orbat":[],"geolocation":["https://x.com/neonhandrail/status/2098613258601238999"],"sources":["https://x.com/Exilenova_plus/status/2098605804823961903","https://t.me/exilenova_plus/30833?single","https://kyivindependent.com/fires-reported-at-manufacturing-sites-in-russia-following-ukrainian-drone-strikes/"]}},{"type":"Feature","geometry":{"type":"Point","coordinates":[30.242936,50.591253]},"properties":{"original":{"Date":"2026-09-12","Name":"12 SEP 2026","Faction":"Neutral","Origin":"UAV","Latitude":"50.591253","Longitude":"30.242936","PlusCode":"9G2GH6RV+G5 Hostomel', Kyiv Oblast, Ukraine","Description":"Area grid - Alleged warehouse containing military supplies for the Ukrainian Armed Forces was hit in Hostomel; one more strike on the adjacent building is visible. The fire was picked up by NASA FIRMS.","Source":"https://x.com/Brokenarrow42/status/2098874586213326935, https://t.me/Secrets_of_Vinakos/17415, ","Geolocation":"https://x.com/Brokenarrow42/status/2098874583289884829","Equipment":"","EquipmentItems":"Fixed Wing OWAD (One Way Attack Drone)","Units":"","OrbatUnits":"","Id":"b25853bf-62ee-45ee-a724-72f45e5978d1","icon":"/api/icons/AC7339/False/template/192.png"},"source":"geoconfirmed","source_name":"GeoConfirmed","source_url":"https://geoconfirmed.org/map/ukraine","id":"b25853bf-62ee-45ee-a724-72f45e5978d1","date":"2026-09-12","link":"https://geoconfirmed.org/map/ukraine/b25853bf-62ee-45ee-a724-72f45e5978d1","category":"Recently destroyed/Damaged[Visible in footage] or still burning infrastucture","side":"Neutral","color":"#AC7339","description":"Area grid - Alleged warehouse containing military supplies for the Ukrainian Armed Forces was hit in Hostomel; one more strike on the adjacent building is visible. The fire was picked up by NASA FIRMS.","orbat":[],"geolocation":["https://x.com/Brokenarrow42/status/2098874583289884829"],"sources":["https://x.com/Brokenarrow42/status/2098874586213326935","https://t.me/Secrets_of_Vinakos/17415"]}},{"type":"Feature","geometry":{"type":"Point","coordinates":[38.882928,47.208744]},"properties":{"original":{"Date":"2026-09-12","Name":"12 SEP 2026","Faction":"Neutral","Origin":"SAT","Latitude":"47.208744","Longitude":"38.882928","PlusCode":"8GVW6V5M+F5 Taganrog, Rostov Oblast, Russia","Description":"Area grid - Damage to the area of workshops of the \"Atlant Aero\" plant in Taganrog following a reported Ukrainian attack. At least one workshop appears to have been destroyed. (Low satellite imagery), The enterprise reportedly produced strike-reconnaissance UAVs of the \"Molniya\" type and components for the \"Orion\" UAV for Russian troops.","Source":"https://x.com/Exilenova_plus/status/2098769592172548433, , More information, https://english.nv.ua/russian-war/ukraine-strikes-drone-warehouses-fpv-production-and-air-defenses-near-taganrog-50640869.html, https://t.me/SBUkr/18598","Geolocation":"https://x.com/Exilenova_plus/status/2098769592172548433","Equipment":"","EquipmentItems":"","Units":"(Reported)","OrbatUnits":"Alpha Group","Id":"cc743624-1aa6-4c7f-8c23-764c07819237","icon":"/api/icons/AC7339/False/template/192.png"},"source":"geoconfirmed","source_name":"GeoConfirmed","source_url":"https://geoconfirmed.org/map/ukraine","id":"cc743624-1aa6-4c7f-8c23-764c07819237","date":"2026-09-12","link":"https://geoconfirmed.org/map/ukraine/cc743624-1aa6-4c7f-8c23-764c07819237","category":"Recently destroyed/Damaged[Visible in footage] or still burning infrastucture","side":"Neutral","color":"#AC7339","description":"Area grid - Damage to the area of workshops of the \"Atlant Aero\" plant in Taganrog following a reported Ukrainian attack. At least one workshop appears to have been destroyed. (Low satellite imagery), The enterprise reportedly produced strike-reconnaissance UAVs of the \"Molniya\" type and components for the \"Orion\" UAV for Russian troops.","orbat":["Alpha Group"],"geolocation":["https://x.com/Exilenova_plus/status/2098769592172548433"],"sources":["https://x.com/Exilenova_plus/status/2098769592172548433","https://english.nv.ua/russian-war/ukraine-strikes-drone-warehouses-fpv-production-and-air-defenses-near-taganrog-50640869.html","https://t.me/SBUkr/18598"]}},{"type":"Feature","geometry":{"type":"Point","coordinates":[27.605657,50.587098]},"properties":{"original":{"Date":"2026-09-12","Name":"12 SEP 2026","Faction":"Neutral","Origin":"VID","Latitude":"50.587098","Longitude":"27.605657","PlusCode":"9G29HJP4+R7 Zviahel, Zhytomyr Oblast, Ukraine","Description":"A shop was hit by Russian drone.","Source":"Vid1, https://x.com/99Dominik_/status/2098768157468983736, https://t.me/truexazhitomir/49750, Vid2, https://x.com/99Dominik_/status/2098768531953213772, https://t.me/truexazhitomir/49753","Geolocation":"https://x.com/99Dominik_/status/2098767855093236096, https://x.com/zarGEOINT/status/2098779836143579607","Equipment":"","EquipmentItems":"","Units":"","OrbatUnits":"","Id":"e1c247be-4359-4161-8e54-7a11ca60c4cb","icon":"/api/icons/AC7339/False/template/192.png"},"source":"geoconfirmed","source_name":"GeoConfirmed","source_url":"https://geoconfirmed.org/map/ukraine","id":"e1c247be-4359-4161-8e54-7a11ca60c4cb","date":"2026-09-12","link":"https://geoconfirmed.org/map/ukraine/e1c247be-4359-4161-8e54-7a11ca60c4cb","category":"Recently destroyed/Damaged[Visible in footage] or still burning infrastucture","side":"Neutral","color":"#AC7339","description":"A shop was hit by Russian drone.","orbat":[],"geolocation":["https://x.com/99Dominik_/status/2098767855093236096","https://x.com/zarGEOINT/status/2098779836143579607"],"sources":["https://x.com/99Dominik_/status/2098768157468983736","https://t.me/truexazhitomir/49750","https://x.com/99Dominik_/status/2098768531953213772","https://t.me/truexazhitomir/49753"]}},{"type":"Feature","geometry":{"type":"Point","coordinates":[34.601288,46.150775]},"properties":{"original":{"Date":"2026-09-12","Name":"12 SEP 2026","Faction":"Ukraine","Origin":"UAV","Latitude":"46.150775","Longitude":"34.601288","PlusCode":"8GRP5J22+8G Chernihivka, Kherson Oblast, Ukraine","Description":"1:15-1:18 - Russian vehicle targeted by a FPV drone of the Company of attack unmanned aircraft systems \"Ronin\"","Source":"https://x.com/Kukulkan415/status/2099103519944884697, https://t.me/Ronins_65/1440","Geolocation":"https://x.com/Kukulkan415/status/2099103519944884697","Equipment":"","EquipmentItems":"FPV (First Person View) OWAD (One Way Attack Drone)","Units":"","OrbatUnits":"Unmanned Systems Battalion \"Ronin\"","Id":"925d5d73-7f88-423a-898e-7c36fe75545a","icon":"/api/icons/0051CA/False/template/111.png"},"source":"geoconfirmed","source_name":"GeoConfirmed","source_url":"https://geoconfirmed.org/map/ukraine","id":"925d5d73-7f88-423a-898e-7c36fe75545a","date":"2026-09-12","link":"https://geoconfirmed.org/map/ukraine/925d5d73-7f88-423a-898e-7c36fe75545a","category":"Short Range (<50km) OWAD (One Way Attack Drone), mostly rotary wing, Flying OR Attacking a target without knowing the outcome: if something is damaged --> icon of the damaged equipment.","side":"Ukraine","color":"#0051CA","description":"1:15-1:18 - Russian vehicle targeted by a FPV drone of the Company of attack unmanned aircraft systems \"Ronin\"","orbat":["Unmanned Systems Battalion \"Ronin\""],"geolocation":["https://x.com/Kukulkan415/status/2099103519944884697"],"sources":["https://x.com/Kukulkan415/status/2099103519944884697","https://t.me/Ronins_65/1440"]}},{"type":"Feature","geometry":{"type":"Point","coordinates":[38.857009,47.235241]},"properties":{"original":{"Date":"2026-09-12","Name":"12 SEP 2026","Faction":"Russia","Origin":"SAT","Latitude":"47.235241","Longitude":"38.857009","PlusCode":"8GVW6VP4+3R Taganrog, Rostov Oblast, Russia","Description":"Area grid - Smoke plume coming from the area of fuel storage tanks at Taganrog-Central Airport (Taganrog) following a reported Ukrainian attack. (Low satellite imagery)","Source":"https://x.com/Exilenova_plus/status/2098769592172548433, https://x.com/neonhandrail/status/2099482857983086768, , More information, https://english.nv.ua/russian-war/ukraine-strikes-drone-warehouses-fpv-production-and-air-defenses-near-taganrog-50640869.html, https://t.me/SBUkr/18598","Geolocation":"https://x.com/Exilenova_plus/status/2098769592172548433, https://x.com/neonhandrail/status/2099482857983086768","Equipment":" fuel storage tank","EquipmentItems":"","Units":"(Reported)","OrbatUnits":"Alpha Group","Id":"bb95f901-a6f1-42cd-bb5e-80f2270bfc66","icon":"/api/icons/E00000/False/template/192.png"},"source":"geoconfirmed","source_name":"GeoConfirmed","source_url":"https://geoconfirmed.org/map/ukraine","id":"bb95f901-a6f1-42cd-bb5e-80f2270bfc66","date":"2026-09-12","link":"https://geoconfirmed.org/map/ukraine/bb95f901-a6f1-42cd-bb5e-80f2270bfc66","category":"Recently destroyed/Damaged[Visible in footage] or still burning infrastucture","side":"Russia","color":"#E00000","description":"Area grid - Smoke plume coming from the area of fuel storage tanks at Taganrog-Central Airport (Taganrog) following a reported Ukrainian attack. (Low satellite imagery)","orbat":["Alpha Group"],"geolocation":["https://x.com/Exilenova_plus/status/2098769592172548433","https://x.com/neonhandrail/status/2099482857983086768"],"sources":["https://x.com/Exilenova_plus/status/2098769592172548433","https://x.com/neonhandrail/status/2099482857983086768","https://english.nv.ua/russian-war/ukraine-strikes-drone-warehouses-fpv-production-and-air-defenses-near-taganrog-50640869.html","https://t.me/SBUkr/18598"]}},{"type":"Feature","geometry":{"type":"Point","coordinates":[38.10037,48.87168]},"properties":{"original":{"Date":"2026-09-12","Name":"12 SEP 2026","Faction":"Ukraine","Origin":"UAV","Latitude":"48.87168","Longitude":"38.10037","PlusCode":"8GWWV4C2+M4 Sivers'k, Donetsk Oblast, Ukraine","Description":"0:15-0:19 - Russian soldiers on a motorcycle targeted by a Ukrainian FPV drone of the Unmanned Systems Battalion \"Apachi\"","Source":"https://x.com/meowqai/status/2099247482181976550, https://t.me/corps7DSHV/1779","Geolocation":"https://x.com/meowqai/status/2099249028038811763","Equipment":"","EquipmentItems":"FPV (First Person View) OWAD (One Way Attack Drone)","Units":"","OrbatUnits":"Unmanned Systems Battalion \"Apachi/Апачі Strike Group\"","Id":"84222cd3-d36b-47f4-91fb-84acd8c6ccdb","icon":"/api/icons/0051CA/False/template/111.png"},"source":"geoconfirmed","source_name":"GeoConfirmed","source_url":"https://geoconfirmed.org/map/ukraine","id":"84222cd3-d36b-47f4-91fb-84acd8c6ccdb","date":"2026-09-12","link":"https://geoconfirmed.org/map/ukraine/84222cd3-d36b-47f4-91fb-84acd8c6ccdb","category":"Short Range (<50km) OWAD (One Way Attack Drone), mostly rotary wing, Flying OR Attacking a target without knowing the outcome: if something is damaged --> icon of the damaged equipment.","side":"Ukraine","color":"#0051CA","description":"0:15-0:19 - Russian soldiers on a motorcycle targeted by a Ukrainian FPV drone of the Unmanned Systems Battalion \"Apachi\"","orbat":["Unmanned Systems Battalion \"Apachi/Апачі Strike Group\""],"geolocation":["https://x.com/meowqai/status/2099249028038811763"],"sources":["https://x.com/meowqai/status/2099247482181976550","https://t.me/corps7DSHV/1779"]}},{"type":"Feature","geometry":{"type":"Point","coordinates":[38.05609,48.86583]},"properties":{"original":{"Date":"2026-09-12","Name":"12 SEP 2026","Faction":"Ukraine","Origin":"UAV","Latitude":"48.86583","Longitude":"38.05609","PlusCode":"8GWWV384+8C Sivers'k, Donetsk Oblast, Ukraine","Description":"0:00-0:14 - Russian soldiers on a mottorcycle targeted by a Ukrainian FPV drone of the Unmanned Systems Battalion \"Apachi\"","Source":"https://x.com/meowqai/status/2099247482181976550, https://t.me/corps7DSHV/1779","Geolocation":"https://x.com/meowqai/status/2099247482181976550","Equipment":"","EquipmentItems":"FPV (First Person View) OWAD (One Way Attack Drone)","Units":"","OrbatUnits":"Unmanned Systems Battalion \"Apachi/Апачі Strike Group\"","Id":"aa95dc72-65ea-4f3a-b556-9387d427215b","icon":"/api/icons/0051CA/False/template/111.png"},"source":"geoconfirmed","source_name":"GeoConfirmed","source_url":"https://geoconfirmed.org/map/ukraine","id":"aa95dc72-65ea-4f3a-b556-9387d427215b","date":"2026-09-12","link":"https://geoconfirmed.org/map/ukraine/aa95dc72-65ea-4f3a-b556-9387d427215b","category":"Short Range (<50km) OWAD (One Way Attack Drone), mostly rotary wing, Flying OR Attacking a target without knowing the outcome: if something is damaged --> icon of the damaged equipment.","side":"Ukraine","color":"#0051CA","description":"0:00-0:14 - Russian soldiers on a mottorcycle targeted by a Ukrainian FPV drone of the Unmanned Systems Battalion \"Apachi\"","orbat":["Unmanned Systems Battalion \"Apachi/Апачі Strike Group\""],"geolocation":["https://x.com/meowqai/status/2099247482181976550"],"sources":["https://x.com/meowqai/status/2099247482181976550","https://t.me/corps7DSHV/1779"]}},{"type":"Feature","geometry":{"type":"Point","coordinates":[49.380745,53.544874]},"properties":{"original":{"Date":"2026-09-12","Name":"12 SEP 2026","Faction":"Ukraine","Origin":"VID","Latitude":"53.544874","Longitude":"49.380745","PlusCode":"9H5FG9VJ+W7 Tolyatti, Samara Oblast, Russia","Description":"0:09 - Point of view in east direction - Smoke in Tolyatti, russia","Source":"(1/2), https://x.com/Exilenova_plus/status/2098591935627997296, https://x.com/neonhandrail/status/2098598114567573978, https://t.me/exilenova_plus/30820","Geolocation":", https://x.com/neonhandrail/status/2098597604376576014","Equipment":"","EquipmentItems":"","Units":"","OrbatUnits":"","Id":"172abea6-4d42-43a9-a77a-97c8392dc1c8","icon":"/api/icons/0051CA/False/template/30.png"},"source":"geoconfirmed","source_name":"GeoConfirmed","source_url":"https://geoconfirmed.org/map/ukraine","id":"172abea6-4d42-43a9-a77a-97c8392dc1c8","date":"2026-09-12","link":"https://geoconfirmed.org/map/ukraine/172abea6-4d42-43a9-a77a-97c8392dc1c8","category":"Video - Always Point of View in description - In the colour of who is doing the attack or is responsable for the incident in the video.","side":"Ukraine","color":"#0051CA","description":"0:09 - Point of view in east direction - Smoke in Tolyatti, russia","orbat":[],"geolocation":["https://x.com/neonhandrail/status/2098597604376576014"],"sources":["https://x.com/Exilenova_plus/status/2098591935627997296","https://x.com/neonhandrail/status/2098598114567573978","https://t.me/exilenova_plus/30820"]}},{"type":"Feature","geometry":{"type":"Point","coordinates":[37.682091,49.631054]},"properties":{"original":{"Date":"2026-09-12","Name":"12 SEP 2026","Faction":"Russia","Origin":"UAV","Latitude":"49.631054","Longitude":"37.682091","PlusCode":"8GXVJMJJ+CR Kivsharivka, Kharkiv Oblast, Ukraine","Description":"0:04-0:12 - A man was hit by a Russian Vandal FPV drone","Source":"https://x.com/99Dominik_/status/2098870449555882358, https://t.me/mapukrdailyupdate/10355","Geolocation":"https://x.com/99Dominik_/status/2098869795160555723","Equipment":"","EquipmentItems":"Vandal (KVN)","Units":"","OrbatUnits":"","Id":"ceb57765-7405-4187-843c-a0cf18645edd","icon":"/api/icons/E00000/False/template/50.png"},"source":"geoconfirmed","source_name":"GeoConfirmed","source_url":"https://geoconfirmed.org/map/ukraine","id":"ceb57765-7405-4187-843c-a0cf18645edd","date":"2026-09-12","link":"https://geoconfirmed.org/map/ukraine/ceb57765-7405-4187-843c-a0cf18645edd","category":"Killed or wounded civilian. Potential Warcrime. In the colour of who is assessed as doing the attack/killing.","side":"Russia","color":"#E00000","description":"0:04-0:12 - A man was hit by a Russian Vandal FPV drone","orbat":[],"geolocation":["https://x.com/99Dominik_/status/2098869795160555723"],"sources":["https://x.com/99Dominik_/status/2098870449555882358","https://t.me/mapukrdailyupdate/10355"]}},{"type":"Feature","geometry":{"type":"Point","coordinates":[38.755691,48.063275]},"properties":{"original":{"Date":"2026-09-12","Name":"12 SEP 2026","Faction":"Neutral","Origin":"VID","Latitude":"48.063275","Longitude":"38.755691","PlusCode":"8GWW3Q74+87 Snizhne, Donetsk Oblast, Ukraine","Description":"Fire at the Substation \"Pushkinskaya\" - 110 kV (Snezhnoye)","Source":"(2/2), https://x.com/NOELreports/status/2098504240402456605, https://x.com/neonhandrail/status/2098585486671630769, https://t.me/exilenova_plus/30813","Geolocation":"https://x.com/neonhandrail/status/2098583889078038762","Equipment":"","EquipmentItems":"","Units":"","OrbatUnits":"","Id":"b6ec5384-f163-4574-ae1f-a69f779d8cb9","icon":"/api/icons/AC7339/False/template/192.png"},"source":"geoconfirmed","source_name":"GeoConfirmed","source_url":"https://geoconfirmed.org/map/ukraine","id":"b6ec5384-f163-4574-ae1f-a69f779d8cb9","date":"2026-09-12","link":"https://geoconfirmed.org/map/ukraine/b6ec5384-f163-4574-ae1f-a69f779d8cb9","category":"Recently destroyed/Damaged[Visible in footage] or still burning infrastucture","side":"Neutral","color":"#AC7339","description":"Fire at the Substation \"Pushkinskaya\" - 110 kV (Snezhnoye)","orbat":[],"geolocation":["https://x.com/neonhandrail/status/2098583889078038762"],"sources":["https://x.com/NOELreports/status/2098504240402456605","https://x.com/neonhandrail/status/2098585486671630769","https://t.me/exilenova_plus/30813"]}},{"type":"Feature","geometry":{"type":"Point","coordinates":[35.838099,47.560868]},"properties":{"original":{"Date":"2026-09-12","Name":"12 SEP 2026","Faction":"Ukraine","Origin":"UAV","Latitude":"47.560868","Longitude":"35.838099","PlusCode":"8GVQHR6Q+86 Preobrazhenka, Zaporizhia Oblast, Ukraine","Description":"0:20-end - \"ANBU\" of the 188th Mechanized Brigade hits dacha in Preobrazhenka, Zaporizhzhia Oblast","Source":"https://x.com/Bielitzling/status/2098820861314662577, https://t.me/bolgarodessaanbu/286, ","Geolocation":"https://x.com/Bielitzling/status/2098820856352768148","Equipment":"","EquipmentItems":"FPV (First Person View) OWAD (One Way Attack Drone)","Units":"\"ANBU\" of the 188th Mechanized Brigade","OrbatUnits":"","Id":"5b7a8ee7-8c5c-4829-991b-b224e1380e24","icon":"/api/icons/0051CA/False/template/111.png"},"source":"geoconfirmed","source_name":"GeoConfirmed","source_url":"https://geoconfirmed.org/map/ukraine","id":"5b7a8ee7-8c5c-4829-991b-b224e1380e24","date":"2026-09-12","link":"https://geoconfirmed.org/map/ukraine/5b7a8ee7-8c5c-4829-991b-b224e1380e24","category":"Short Range (<50km) OWAD (One Way Attack Drone), mostly rotary wing, Flying OR Attacking a target without knowing the outcome: if something is damaged --> icon of the damaged equipment.","side":"Ukraine","color":"#0051CA","description":"0:20-end - \"ANBU\" of the 188th Mechanized Brigade hits dacha in Preobrazhenka, Zaporizhzhia Oblast","orbat":["\"ANBU\" of the 188th Mechanized Brigade"],"geolocation":["https://x.com/Bielitzling/status/2098820856352768148"],"sources":["https://x.com/Bielitzling/status/2098820861314662577","https://t.me/bolgarodessaanbu/286"]}},{"type":"Feature","geometry":{"type":"Point","coordinates":[36.50245,47.53217]},"properties":{"original":{"Date":"2026-09-12","Name":"12 SEP 2026","Faction":"Ukraine","Origin":"UAV","Latitude":"47.53217","Longitude":"36.50245","PlusCode":"8GVRGGJ2+VX Zolota Polyana, Zaporizhia Oblast, Ukraine","Description":"0:00-0:11 - A vehicle - claimed to be a Buk-M1 air defense system - is hit with a drone by the 411th brigade 'Hawks' of Ukraine.","Source":"https://x.com/ayzin_illya/status/2098813855862268345, https://www.instagram.com/411hawks/reel/DdLhR5pIb4f/","Geolocation":"https://x.com/blinzka/status/2098878250491531418","Equipment":"UNK (claimed Buk-M1 but doesn't resemble it)","EquipmentItems":"FPV (First Person View) OWAD (One Way Attack Drone)","Units":"","OrbatUnits":"411th Regiment of Unmanned Systems","Id":"80e4a5cc-6c75-4845-8682-c6f4c699420a","icon":"/api/icons/0051CA/False/template/111.png"},"source":"geoconfirmed","source_name":"GeoConfirmed","source_url":"https://geoconfirmed.org/map/ukraine","id":"80e4a5cc-6c75-4845-8682-c6f4c699420a","date":"2026-09-12","link":"https://geoconfirmed.org/map/ukraine/80e4a5cc-6c75-4845-8682-c6f4c699420a","category":"Short Range (<50km) OWAD (One Way Attack Drone), mostly rotary wing, Flying OR Attacking a target without knowing the outcome: if something is damaged --> icon of the damaged equipment.","side":"Ukraine","color":"#0051CA","description":"0:00-0:11 - A vehicle - claimed to be a Buk-M1 air defense system - is hit with a drone by the 411th brigade 'Hawks' of Ukraine.","orbat":["411th Regiment of Unmanned Systems"],"geolocation":["https://x.com/blinzka/status/2098878250491531418"],"sources":["https://x.com/ayzin_illya/status/2098813855862268345","https://www.instagram.com/411hawks/reel/DdLhR5pIb4f/"]}},{"type":"Feature","geometry":{"type":"Point","coordinates":[35.706144,47.266767]},"properties":{"original":{"Date":"2026-09-12","Name":"12 SEP 2026","Faction":"Ukraine","Origin":"UAV","Latitude":"47.266767","Longitude":"35.706144","PlusCode":"8GVQ7P84+PF Tokmak, Zaporizhia Oblast, Ukraine","Description":"0:25-0:34 - Russian vehicle targeted by a FPV drone of the Company of attack unmanned aircraft systems \"Ronin\"","Source":"https://x.com/Kukulkan415/status/2099103519944884697, https://t.me/Ronins_65/1440","Geolocation":"https://x.com/Kukulkan415/status/2099227547070255597","Equipment":"","EquipmentItems":"FPV (First Person View) OWAD (One Way Attack Drone)","Units":"","OrbatUnits":"Unmanned Systems Battalion \"Ronin\"","Id":"947eeb8a-dd2c-45d3-9ff3-da0ab3763b78","icon":"/api/icons/0051CA/False/template/111.png"},"source":"geoconfirmed","source_name":"GeoConfirmed","source_url":"https://geoconfirmed.org/map/ukraine","id":"947eeb8a-dd2c-45d3-9ff3-da0ab3763b78","date":"2026-09-12","link":"https://geoconfirmed.org/map/ukraine/947eeb8a-dd2c-45d3-9ff3-da0ab3763b78","category":"Short Range (<50km) OWAD (One Way Attack Drone), mostly rotary wing, Flying OR Attacking a target without knowing the outcome: if something is damaged --> icon of the damaged equipment.","side":"Ukraine","color":"#0051CA","description":"0:25-0:34 - Russian vehicle targeted by a FPV drone of the Company of attack unmanned aircraft systems \"Ronin\"","orbat":["Unmanned Systems Battalion \"Ronin\""],"geolocation":["https://x.com/Kukulkan415/status/2099227547070255597"],"sources":["https://x.com/Kukulkan415/status/2099103519944884697","https://t.me/Ronins_65/1440"]}},{"type":"Feature","geometry":{"type":"Point","coordinates":[34.350861,46.356271]},"properties":{"original":{"Date":"2026-09-12","Name":"12 SEP 2026","Faction":"Neutral","Origin":"VID","Latitude":"46.356271","Longitude":"34.350861","PlusCode":"8GRP9942+G8 Novotroits'ke, Kherson Oblast, Ukraine","Description":"Gas station damaged by alleged Ukrainian drone strike","Source":"https://x.com/hochu_dodomu/status/2098691673295327346, https://t.me/region22ua/4400","Geolocation":"https://x.com/MikiValbuena/status/2099031195069690083","Equipment":"(alleged)","EquipmentItems":"Fixed Wing OWAD (One Way Attack Drone)","Units":"","OrbatUnits":"","Id":"839166ce-e45d-4cc6-9ab4-deeadcb9b4a4","icon":"/api/icons/AC7339/False/template/192.png"},"source":"geoconfirmed","source_name":"GeoConfirmed","source_url":"https://geoconfirmed.org/map/ukraine","id":"839166ce-e45d-4cc6-9ab4-deeadcb9b4a4","date":"2026-09-12","link":"https://geoconfirmed.org/map/ukraine/839166ce-e45d-4cc6-9ab4-deeadcb9b4a4","category":"Recently destroyed/Damaged[Visible in footage] or still burning infrastucture","side":"Neutral","color":"#AC7339","description":"Gas station damaged by alleged Ukrainian drone strike","orbat":[],"geolocation":["https://x.com/MikiValbuena/status/2099031195069690083"],"sources":["https://x.com/hochu_dodomu/status/2098691673295327346","https://t.me/region22ua/4400"]}},{"type":"Feature","geometry":{"type":"Point","coordinates":[37.684256,49.634163]},"properties":{"original":{"Date":"2026-09-12","Name":"12 SEP 2026","Faction":"Neutral","Origin":"UAV","Latitude":"49.634163","Longitude":"37.684256","PlusCode":"8GXVJMMM+MP Kivsharivka, Kharkiv Oblast, Ukraine","Description":"A Russian drone hit the already damaged building of the former clinic 'Kupyansk City Hospital' (Kovsharovka).","Source":"https://x.com/Bielitzling/status/2098830970271002907, https://t.me/kypyansk/10612, , More information, https://zmina.info/en/news-en/kupyansks-only-city-hospital-ceases-operations-amidst-shelling/","Geolocation":"https://x.com/Bielitzling/status/2098830965657280759","Equipment":"(former) hospital","EquipmentItems":"FPV (First Person View) OWAD (One Way Attack Drone)","Units":"","OrbatUnits":"","Id":"8176d4de-ae01-4b23-ad09-e85281c07625","icon":"/api/icons/AC7339/False/template/193.png"},"source":"geoconfirmed","source_name":"GeoConfirmed","source_url":"https://geoconfirmed.org/map/ukraine","id":"8176d4de-ae01-4b23-ad09-e85281c07625","date":"2026-09-12","link":"https://geoconfirmed.org/map/ukraine/8176d4de-ae01-4b23-ad09-e85281c07625","category":"Older destroyed infrastucture","side":"Neutral","color":"#AC7339","description":"A Russian drone hit the already damaged building of the former clinic 'Kupyansk City Hospital' (Kovsharovka).","orbat":[],"geolocation":["https://x.com/Bielitzling/status/2098830965657280759"],"sources":["https://x.com/Bielitzling/status/2098830970271002907","https://t.me/kypyansk/10612","https://zmina.info/en/news-en/kupyansks-only-city-hospital-ceases-operations-amidst-shelling/"]}},{"type":"Feature","geometry":{"type":"Point","coordinates":[38.858534,47.216594]},"properties":{"original":{"Date":"2026-09-12","Name":"12 SEP 2026","Faction":"Ukraine","Origin":"VID","Latitude":"47.216594","Longitude":"38.858534","PlusCode":"8GVW6V85+JC Taganrog, Rostov Oblast, Russia","Description":"Point of view in north and east direction - Fire and smoke is visible towards the Taganrog-Central Airport and in the east of Taganrog, following a reported Ukrainian drone attack.","Source":"(1/3), https://x.com/Exilenova_plus/status/2098602675827011895, https://t.me/exilenova_plus/30829?single, , More information, https://kyivindependent.com/fires-reported-at-manufacturing-sites-in-russia-following-ukrainian-drone-strikes/","Geolocation":"https://x.com/neonhandrail/status/2098620521357443478","Equipment":"","EquipmentItems":"","Units":"","OrbatUnits":"","Id":"b3660374-1d4f-434a-91c4-ec223ac42811","icon":"/api/icons/0051CA/False/template/30.png"},"source":"geoconfirmed","source_name":"GeoConfirmed","source_url":"https://geoconfirmed.org/map/ukraine","id":"b3660374-1d4f-434a-91c4-ec223ac42811","date":"2026-09-12","link":"https://geoconfirmed.org/map/ukraine/b3660374-1d4f-434a-91c4-ec223ac42811","category":"Video - Always Point of View in description - In the colour of who is doing the attack or is responsable for the incident in the video.","side":"Ukraine","color":"#0051CA","description":"Point of view in north and east direction - Fire and smoke is visible towards the Taganrog-Central Airport and in the east of Taganrog, following a reported Ukrainian drone attack.","orbat":[],"geolocation":["https://x.com/neonhandrail/status/2098620521357443478"],"sources":["https://x.com/Exilenova_plus/status/2098602675827011895","https://t.me/exilenova_plus/30829?single","https://kyivindependent.com/fires-reported-at-manufacturing-sites-in-russia-following-ukrainian-drone-strikes/"]}},{"type":"Feature","geometry":{"type":"Point","coordinates":[37.594254,48.727911]},"properties":{"original":{"Date":"2026-09-12","Name":"12 SEP 2026","Faction":"Russia","Origin":"PIC","Latitude":"48.727911","Longitude":"37.594254","PlusCode":"8GWVPHHV+5P Kramatorsk, Donetsk Oblast, Ukraine","Description":"Russian FPV drone killed a man in Kramatorsk","Source":"https://x.com/99Dominik_/status/2099087770157273210, (3:3), https://t.me/kramatorsk_news/39161, ","Geolocation":"https://x.com/99Dominik_/status/2099087624900149750","Equipment":"","EquipmentItems":"","Units":"","OrbatUnits":"","Id":"1941fdee-ade0-458c-91b3-fcb422778761","icon":"/api/icons/E00000/False/template/50.png"},"source":"geoconfirmed","source_name":"GeoConfirmed","source_url":"https://geoconfirmed.org/map/ukraine","id":"1941fdee-ade0-458c-91b3-fcb422778761","date":"2026-09-12","link":"https://geoconfirmed.org/map/ukraine/1941fdee-ade0-458c-91b3-fcb422778761","category":"Killed or wounded civilian. Potential Warcrime. In the colour of who is assessed as doing the attack/killing.","side":"Russia","color":"#E00000","description":"Russian FPV drone killed a man in Kramatorsk","orbat":[],"geolocation":["https://x.com/99Dominik_/status/2099087624900149750"],"sources":["https://x.com/99Dominik_/status/2099087770157273210","https://t.me/kramatorsk_news/39161"]}}]}