{"type":"FeatureCollection","features":[{"type":"Feature","geometry":{"type":"Polygon","coordinates":[[[37.63337,48.47508],[37.62216,48.48564],[37.61511,48.49355],[37.62035,48.49756],[37.62842,48.50675],[37.64252,48.50773],[37.64657,48.5002],[37.66469,48.50368],[37.65949,48.49519],[37.64685,48.49968],[37.64685,48.49968],[37.64348,48.50088],[37.63768,48.49591],[37.62744,48.49466],[37.63188,48.48384],[37.64696,48.48354],[37.65056,48.47572],[37.64721,48.47034],[37.64808,48.45764],[37.63852,48.45482],[37.63849,48.45193],[37.63821,48.4519],[37.63337,48.47508]]]},"properties":{"source":"deepstate","source_name":"DeepStateMap","source_url":"https://deepstatemap.live/en","category":"gained","category_label":"Newly Russian-occupied","period":"1d","compared_with":"2026-08-22","snapshot_time":"2026-08-23","area_km2_approx":6.8}},{"type":"Feature","geometry":{"type":"Polygon","coordinates":[[[37.62621,50.26713],[37.62694,50.2672],[37.6278,50.26178],[37.62705,50.25645],[37.62673,50.25647],[37.62621,50.26713]]]},"properties":{"source":"deepstate","source_name":"DeepStateMap","source_url":"https://deepstatemap.live/en","category":"gained_contested","category_label":"Newly contested","period":"1d","compared_with":"2026-08-22","snapshot_time":"2026-08-23","area_km2_approx":0.1}}]}