{"type":"FeatureCollection","features":[{"type":"Feature","geometry":{"type":"MultiPolygon","coordinates":[[[[37.90042,48.77406],[37.91345,48.78343],[37.92267,48.78527],[37.92045,48.79492],[37.9205,48.79494],[37.92485,48.78843],[37.92276,48.78134],[37.93022,48.77464],[37.92135,48.76929],[37.89956,48.77134],[37.89171,48.77778],[37.89183,48.77796],[37.90042,48.77406]]],[[[37.85104,48.76079],[37.86489,48.76165],[37.88436,48.76645],[37.88728,48.76974],[37.88083,48.77925],[37.89466,48.77177],[37.89041,48.76137],[37.87998,48.75773],[37.86912,48.7594],[37.86359,48.75909],[37.85854,48.75655],[37.85156,48.75819],[37.84093,48.76383],[37.84107,48.76416],[37.85104,48.76079]]]]},"properties":{"source":"deepstate","source_name":"DeepStateMap","source_url":"https://deepstatemap.live/en","category":"gained","category_label":"Newly Russian-occupied","period":"1d","compared_with":"2026-08-26","snapshot_time":"2026-08-27","area_km2_approx":4.9}}]}