{"type":"FeatureCollection","features":[{"type":"Feature","geometry":{"type":"Point","coordinates":[37.466563,47.955516]},"properties":{"source":"warspotting","source_name":"WarSpotting","source_url":"https://ukr.warspotting.net/","id":46980,"date":"2025-09-09","link":"https://ukr.warspotting.net/view/46980/","category":"Infantry fighting vehicles","side":"Lost by Russia","color":"#E00000","description":"BMP-3 688A-sb6-2KP · Destroyed · near Marinka, Pokrovsk raion · tags: Turretless, Cope cage","orbat":[]}}]}