{"type":"FeatureCollection","features":[{"type":"Feature","geometry":{"type":"Point","coordinates":[30.36069,50.49753]},"properties":{"source":"geoconfirmed","source_name":"GeoConfirmed","source_url":"https://geoconfirmed.org/map/ukraine","id":"47dccd9f-6511-4d2c-aeec-02b6f43da07c","date":"2026-09-26","link":"https://geoconfirmed.org/map/ukraine/47dccd9f-6511-4d2c-aeec-02b6f43da07c","category":"Recently destroyed/Damaged[Visible in footage] or still burning infrastucture","side":"Neutral","color":"#AC7339","description":"The Auchan store at Kyiv’s Lavina Mall was damaged in a reported Russian strike.","orbat":[],"geolocation":["https://x.com/zarGEOINT/status/2103786976822587776"],"sources":["https://x.com/AMK_Mapping_/status/2103758144644301133"]}},{"type":"Feature","geometry":{"type":"Point","coordinates":[39.399945,47.102741]},"properties":{"source":"geoconfirmed","source_name":"GeoConfirmed","source_url":"https://geoconfirmed.org/map/ukraine","id":"fdeb2b03-83e6-470e-bf54-060b946bfdcf","date":"2026-09-26","link":"https://geoconfirmed.org/map/ukraine/fdeb2b03-83e6-470e-bf54-060b946bfdcf","category":"Recently destroyed/Damaged[Visible in footage] or still burning infrastucture","side":"Neutral","color":"#AC7339","description":"Damaged residential building following reported Ukrainian strikes in the area.","orbat":[],"geolocation":["https://x.com/Zeldamices/status/2104513034454753471","https://x.com/Magyargeo56/status/2103896973434572979"],"sources":["https://x.com/Zeldamices/status/2104511887744385453","https://t.me/supernova_plus/60654"]}},{"type":"Feature","geometry":{"type":"Point","coordinates":[34.805372,50.919301]},"properties":{"source":"geoconfirmed","source_name":"GeoConfirmed","source_url":"https://geoconfirmed.org/map/ukraine","id":"bf6416b0-1914-4eb5-ba3c-091146854fc9","date":"2026-09-26","link":"https://geoconfirmed.org/map/ukraine/bf6416b0-1914-4eb5-ba3c-091146854fc9","category":"Killed or wounded civilian. Potential Warcrime. In the colour of who is assessed as doing the attack/killing.","side":"Russia","color":"#E00000","description":"Deceased man after a reported Russian attack.","orbat":[],"geolocation":["https://x.com/99Dominik_/status/2103833291350827101"],"sources":["https://x.com/99Dominik_/status/2103833528610009120","https://t.me/kordonmedia/27717"]}},{"type":"Feature","geometry":{"type":"Point","coordinates":[30.505335,50.425352]},"properties":{"source":"geoconfirmed","source_name":"GeoConfirmed","source_url":"https://geoconfirmed.org/map/ukraine","id":"12d3db01-3162-410f-a14e-0bcc519c5694","date":"2026-09-26","link":"https://geoconfirmed.org/map/ukraine/12d3db01-3162-410f-a14e-0bcc519c5694","category":"Recently destroyed/Damaged[Visible in footage] or still burning infrastucture","side":"Neutral","color":"#AC7339","description":"Vid1/Vid2 1:05-1:29 - Fire and huge smoke plume coming from a building located at the Protasov business center following  Russian strikes., Building was reported as datacenter 'Cosmonova'","orbat":["50th Separate Unmanned Systems Brigade of the Supreme High Command \"VARYAG\""],"geolocation":["https://x.com/Zeldamices/status/2104922168304025906","https://x.com/ne_kotletka/status/2103507720251060600"],"sources":["https://x.com/Zeldamices/status/2104922161282720051","https://www.instagram.com/myroslava_kot/reel/DdvVnmSlyE-/","https://x.com/SU_57R/status/2104314648287932510","https://t.me/Brigada_VARYAG/278","https://www.village.com.ua/village/city/city-news/377563-laquo-realnist-yakoyi-ne-mae-isnuvati-raquo-nbsp-ndash-kiyanka-pro-ataki-rf","https://mediasat.info/en/2026/09/26/russia-strikes-kyiv-data-center-cosmonova-again-hits-isp-kolo-tb-for-a-third-time/"]}},{"type":"Feature","geometry":{"type":"Point","coordinates":[39.412268,47.095941]},"properties":{"source":"geoconfirmed","source_name":"GeoConfirmed","source_url":"https://geoconfirmed.org/map/ukraine","id":"669bdcdb-bba1-4b44-b36e-0ee88b04ca8d","date":"2026-09-26","link":"https://geoconfirmed.org/map/ukraine/669bdcdb-bba1-4b44-b36e-0ee88b04ca8d","category":"Recently destroyed/Damaged[Visible in footage] or still burning infrastucture","side":"Russia","color":"#E00000","description":"Visible damage to the Foundry shop (shop 022) building at the  sanctioned AOMZ \"Azovsky Optiko-Mekhanichesky Zavod\" following reported Ukrainian strikes.","orbat":["Ukrainian Navy","Alpha Group"],"geolocation":[],"sources":["https://x.com/Maks_NAFO_FELLA/status/2104197074522673271","https://t.me/absolutely_reliable/133","https://www.pravda.com.ua/eng/news/2026/09/27/8055261/index.amp","https://kyivindependent.com/ukraine-strikes-russian-defense-plant-producing-missile-components-general-staff-says/","https://dallas-analytics.com/aomz-strike/","https://www.opensanctions.org/entities/NK-CpWe5xnGZ3Xvp9PQfmbPp4/"]}},{"type":"Feature","geometry":{"type":"Point","coordinates":[34.33871,51.42834]},"properties":{"source":"geoconfirmed","source_name":"GeoConfirmed","source_url":"https://geoconfirmed.org/map/ukraine","id":"eb4c4e2f-da60-4d41-85b3-10fb43454e14","date":"2026-09-26","link":"https://geoconfirmed.org/map/ukraine/eb4c4e2f-da60-4d41-85b3-10fb43454e14","category":"Short Range (<50km) OWAD (One Way Attack Drone), mostly rotary wing, Flying OR Attacking a target without knowing the outcome: if something is damaged --> icon of the damaged equipment.","side":"Ukraine","color":"#0051CA","description":"0:24-0:28 - A drone hits close to a person - supposedly a soldier - up in a communications tower. Work of the 106th territorial defense brigade of Ukraine.","orbat":["106th Separate Territorial Defense Battalion"],"geolocation":["https://bsky.app/profile/blinzka.bsky.social/post/3mwhhuistuk2s","https://x.com/blinzka/status/2103994964833337432"],"sources":["https://bsky.app/profile/blinzka.bsky.social/post/3mwhhuga2hc2s","https://x.com/blinzka/status/2103994955383632146","https://www.facebook.com/reel/1397657018605034"]}},{"type":"Feature","geometry":{"type":"Point","coordinates":[39.411429,47.096653]},"properties":{"source":"geoconfirmed","source_name":"GeoConfirmed","source_url":"https://geoconfirmed.org/map/ukraine","id":"b92b8eb5-139d-44dc-8851-16a2ed832ac2","date":"2026-09-26","link":"https://geoconfirmed.org/map/ukraine/b92b8eb5-139d-44dc-8851-16a2ed832ac2","category":"Recently destroyed/Damaged[Visible in footage] or still burning infrastucture","side":"Russia","color":"#E00000","description":"Visible damage to the Foundry shop (shop 022) building at the sanctioned AOMZ \"Azovsky Optiko-Mekhanichesky Zavod\" following reported Ukrainian strikes.","orbat":["Ukrainian Navy","Alpha Group"],"geolocation":[],"sources":["https://x.com/Maks_NAFO_FELLA/status/2104197074522673271","https://t.me/absolutely_reliable/133","https://www.pravda.com.ua/eng/news/2026/09/27/8055261/index.amp","https://kyivindependent.com/ukraine-strikes-russian-defense-plant-producing-missile-components-general-staff-says/","https://dallas-analytics.com/aomz-strike/","https://www.opensanctions.org/entities/NK-CpWe5xnGZ3Xvp9PQfmbPp4/"]}},{"type":"Feature","geometry":{"type":"Point","coordinates":[39.413941,47.094301]},"properties":{"source":"geoconfirmed","source_name":"GeoConfirmed","source_url":"https://geoconfirmed.org/map/ukraine","id":"a56917d3-a531-4a10-9f52-2c92e020ac12","date":"2026-09-26","link":"https://geoconfirmed.org/map/ukraine/a56917d3-a531-4a10-9f52-2c92e020ac12","category":"Recently destroyed/Damaged[Visible in footage] or still burning infrastucture","side":"Russia","color":"#E00000","description":"Visible damage to the Workshop No. 009 building at the  sanctioned AOMZ \"Azovsky Optiko-Mekhanichesky Zavod\" following reported Ukrainian strikes.","orbat":["Ukrainian Navy","Alpha Group"],"geolocation":[],"sources":["https://x.com/Maks_NAFO_FELLA/status/2104197074522673271","https://t.me/absolutely_reliable/133","https://www.pravda.com.ua/eng/news/2026/09/27/8055261/index.amp","https://kyivindependent.com/ukraine-strikes-russian-defense-plant-producing-missile-components-general-staff-says/","https://dallas-analytics.com/aomz-strike/","https://www.opensanctions.org/entities/NK-CpWe5xnGZ3Xvp9PQfmbPp4/"]}},{"type":"Feature","geometry":{"type":"Point","coordinates":[37.386212,50.416285]},"properties":{"source":"geoconfirmed","source_name":"GeoConfirmed","source_url":"https://geoconfirmed.org/map/ukraine","id":"d3f2dc9e-5eaf-4dea-862d-39460728d05c","date":"2026-09-26","link":"https://geoconfirmed.org/map/ukraine/d3f2dc9e-5eaf-4dea-862d-39460728d05c","category":"Shelling by artillery or aerial bombings - Location of the shelling, colour of who is shelling; Brown = UXO","side":"Russia","color":"#E00000","description":"0:09-0:15 - Russian shelling of claimed Ukrainian positions.","orbat":["159th Separate Mechanized Brigade","1st Border Combat Detachment - Brigade \"Гарт\" / \"Hart\""],"geolocation":["https://x.com/DELIBERTATES/status/2103908893319377172"],"sources":["https://x.com/GeoRaccoon/status/2103916877097378041","https://t.me/mod_russia/67663"]}},{"type":"Feature","geometry":{"type":"Point","coordinates":[37.781336,48.859165]},"properties":{"source":"geoconfirmed","source_name":"GeoConfirmed","source_url":"https://geoconfirmed.org/map/ukraine","id":"21cab653-e4dc-4cf3-95a8-3ca7a5f80631","date":"2026-09-26","link":"https://geoconfirmed.org/map/ukraine/21cab653-e4dc-4cf3-95a8-3ca7a5f80631","category":"Close fighting between two oposing factions - Colour of the force spreading the footage.","side":"Ukraine","color":"#0051CA","description":"1:54-2:30 - Soldier of the 18th Slavic Brigade fires upon building in  Mykolaivka, Donetsk Oblast","orbat":[],"geolocation":["https://x.com/Bielitzling/status/2103869483701977539"],"sources":["https://x.com/Bielitzling/status/2103869487577497690","https://t.me/bsp_donbas/1291","https://t.me/slav_kram/138572"]}},{"type":"Feature","geometry":{"type":"Point","coordinates":[39.410822,47.095858]},"properties":{"source":"geoconfirmed","source_name":"GeoConfirmed","source_url":"https://geoconfirmed.org/map/ukraine","id":"814bb693-7c37-48c8-8675-4551671dcb93","date":"2026-09-26","link":"https://geoconfirmed.org/map/ukraine/814bb693-7c37-48c8-8675-4551671dcb93","category":"Recently destroyed/Damaged[Visible in footage] or still burning infrastucture","side":"Russia","color":"#E00000","description":"Visible damage to workshop no. 024 building at the sanctioned AOMZ \"Azovsky Optiko-Mekhanichesky Zavod\" following reported Ukrainian strikes. To the left of it is a frame-stamping shop, next to which there is debris - probably there is also a wall hit there.\",","orbat":["Ukrainian Navy","Alpha Group"],"geolocation":[],"sources":["https://x.com/Zeldamices/status/2104498169610400008","https://t.me/absolutely_reliable/133","https://www.pravda.com.ua/eng/news/2026/09/27/8055261/index.amp","https://kyivindependent.com/ukraine-strikes-russian-defense-plant-producing-missile-components-general-staff-says/","https://dallas-analytics.com/aomz-strike/","https://www.opensanctions.org/entities/NK-CpWe5xnGZ3Xvp9PQfmbPp4/"]}},{"type":"Feature","geometry":{"type":"Point","coordinates":[37.420582,50.28631]},"properties":{"source":"geoconfirmed","source_name":"GeoConfirmed","source_url":"https://geoconfirmed.org/map/ukraine","id":"48e95c18-040c-46d0-bb59-47a87c668609","date":"2026-09-26","link":"https://geoconfirmed.org/map/ukraine/48e95c18-040c-46d0-bb59-47a87c668609","category":"Shelling by artillery or aerial bombings - Location of the shelling, colour of who is shelling; Brown = UXO","side":"Russia","color":"#E00000","description":"0:00-0:08 - Russian shelling of claimed Ukrainian positions.","orbat":["159th Separate Mechanized Brigade","1st Border Combat Detachment - Brigade \"Гарт\" / \"Hart\""],"geolocation":["https://x.com/DELIBERTATES/status/2103910996352069651"],"sources":["https://x.com/GeoRaccoon/status/2103916877097378041","https://t.me/mod_russia/67663"]}},{"type":"Feature","geometry":{"type":"Point","coordinates":[30.435554,50.456452]},"properties":{"source":"geoconfirmed","source_name":"GeoConfirmed","source_url":"https://geoconfirmed.org/map/ukraine","id":"8e0d0200-8bc7-4449-a0ae-4e9fd1090315","date":"2026-09-26","link":"https://geoconfirmed.org/map/ukraine/8e0d0200-8bc7-4449-a0ae-4e9fd1090315","category":"Video - Always Point of View in description - In the colour of who is doing the attack or is responsable for the incident in the video.","side":"Russia","color":"#E00000","description":"Rough point of view in a southwest direction - smoke plumes are coming from a building, which reportedly houses a major technical office of the mobile operator Vodafone.","orbat":[],"geolocation":["https://x.com/ne_kotletka/status/2103915875782775207"],"sources":["https://x.com/ne_kotletka/status/2103931062904906201","https://t.me/ASupersharij/60647"]}},{"type":"Feature","geometry":{"type":"Point","coordinates":[35.886956,47.940191]},"properties":{"source":"geoconfirmed","source_name":"GeoConfirmed","source_url":"https://geoconfirmed.org/map/ukraine","id":"ef031fa9-b5e3-4f37-b496-64c6d78500a5","date":"2026-09-26","link":"https://geoconfirmed.org/map/ukraine/ef031fa9-b5e3-4f37-b496-64c6d78500a5","category":"Older Destroyed/Damaged Logistical Trucks (Soft skin OR armoured)","side":"Ukraine","color":"#0051CA","description":"Destroyed Bus, presumably UIkrainian military.","orbat":[],"geolocation":["https://x.com/juss_men/status/2104221206610075868"],"sources":["https://x.com/juss_men/status/2104221258418172315","https://www.tiktok.com/@artur.korpekin/video/7689780771967569173"]}},{"type":"Feature","geometry":{"type":"Point","coordinates":[39.414536,47.095627]},"properties":{"source":"geoconfirmed","source_name":"GeoConfirmed","source_url":"https://geoconfirmed.org/map/ukraine","id":"ef2dfe61-ac40-4e44-a9dd-6b1baf936a25","date":"2026-09-26","link":"https://geoconfirmed.org/map/ukraine/ef2dfe61-ac40-4e44-a9dd-6b1baf936a25","category":"Recently destroyed/Damaged[Visible in footage] or still burning infrastucture","side":"Russia","color":"#E00000","description":"Visible damage to the Workshop No. 008 building at the  sanctioned AOMZ \"Azovsky Optiko-Mekhanichesky Zavod\" following reported Ukrainian strikes.","orbat":["Ukrainian Navy","Alpha Group"],"geolocation":[],"sources":["https://x.com/Maks_NAFO_FELLA/status/2104197074522673271","https://t.me/absolutely_reliable/133","https://www.pravda.com.ua/eng/news/2026/09/27/8055261/index.amp","https://kyivindependent.com/ukraine-strikes-russian-defense-plant-producing-missile-components-general-staff-says/","https://dallas-analytics.com/aomz-strike/","https://www.opensanctions.org/entities/NK-CpWe5xnGZ3Xvp9PQfmbPp4/"]}},{"type":"Feature","geometry":{"type":"Point","coordinates":[37.780965,48.858978]},"properties":{"source":"geoconfirmed","source_name":"GeoConfirmed","source_url":"https://geoconfirmed.org/map/ukraine","id":"c2ac8f6e-10b7-4a54-a3eb-776eaa776eca","date":"2026-09-26","link":"https://geoconfirmed.org/map/ukraine/c2ac8f6e-10b7-4a54-a3eb-776eaa776eca","category":"Close fighting between two oposing factions - Colour of the force spreading the footage.","side":"Ukraine","color":"#0051CA","description":"2:30-2:42 - Soldier of the 18th Slavic Brigade fires rocket building in Mykolaivka, Donetsk Oblast","orbat":[],"geolocation":["https://x.com/Bielitzling/status/2103895762488656371"],"sources":["https://x.com/Bielitzling/status/2103869487577497690","https://t.me/bsp_donbas/1291","https://t.me/slav_kram/138572"]}},{"type":"Feature","geometry":{"type":"Point","coordinates":[34.30686,51.2997]},"properties":{"source":"geoconfirmed","source_name":"GeoConfirmed","source_url":"https://geoconfirmed.org/map/ukraine","id":"ed8e0401-3af6-4b8d-87ca-97f14e10be32","date":"2026-09-26","link":"https://geoconfirmed.org/map/ukraine/ed8e0401-3af6-4b8d-87ca-97f14e10be32","category":"Short Range (<50km) OWAD (One Way Attack Drone), mostly rotary wing, Flying OR Attacking a target without knowing the outcome: if something is damaged --> icon of the damaged equipment.","side":"Ukraine","color":"#0051CA","description":"0:11-0:23 - A person in the water - supposedly Russian soldier - is attacked with drones by the 106th territorial defense brigade of Ukraine.","orbat":["106th Separate Territorial Defense Battalion"],"geolocation":["https://bsky.app/profile/blinzka.bsky.social/post/3mwhhugasuk2s","https://x.com/blinzka/status/2103994959611240908"],"sources":["https://bsky.app/profile/blinzka.bsky.social/post/3mwhhuga2hc2s","https://x.com/blinzka/status/2103994955383632146","https://www.facebook.com/reel/1397657018605034"]}},{"type":"Feature","geometry":{"type":"Point","coordinates":[38.614552,44.860335]},"properties":{"source":"geoconfirmed","source_name":"GeoConfirmed","source_url":"https://geoconfirmed.org/map/ukraine","id":"385958d6-fe0e-4a16-8c54-aeb04d117309","date":"2026-09-26","link":"https://geoconfirmed.org/map/ukraine/385958d6-fe0e-4a16-8c54-aeb04d117309","category":"Recently destroyed/Damaged[Visible in footage] or still burning infrastucture","side":"Neutral","color":"#AC7339","description":"area grid - The Ilsky refinery on fire following a reported Ukrainian drone attack.","orbat":[],"geolocation":["https://x.com/GeoConfirmed/status/2103913470643130386","https://x.com/Grimm_Intel/status/2103631432853954883"],"sources":["https://x.com/Grimm_Intel/status/2103631120491594058","https://t.me/exilenova_plus/31671","https://english.nv.ua/russian-war/drone-attack-reportedly-hits-ilsky-oil-refinery-in-russia-sparks-fire-50644793.html","https://kyivindependent.com/drone-attack-reportedly-hits-russias-ilsky-oil-refinery-sparks-fire/"]}},{"type":"Feature","geometry":{"type":"Point","coordinates":[32.761254,46.626504]},"properties":{"source":"geoconfirmed","source_name":"GeoConfirmed","source_url":"https://geoconfirmed.org/map/ukraine","id":"892c7639-a588-4888-b9fa-af14ce477733","date":"2026-09-26","link":"https://geoconfirmed.org/map/ukraine/892c7639-a588-4888-b9fa-af14ce477733","category":"Moto OR Quad","side":"Ukraine Civilian","color":"#3184FF","description":"Location at 0:00 - A Ukrainian drone observes residents of Oleshky returning from Radensk on bicycles, carrying groceries.","orbat":[],"geolocation":["https://x.com/GeoConfirmed/status/2103912771876241840","https://x.com/99Dominik_/status/2103795375836385774BicycleR"],"sources":["https://x.com/99Dominik_/status/2103795614807126021","https://t.me/region_22ua/67756"]}},{"type":"Feature","geometry":{"type":"Point","coordinates":[39.411464,47.096129]},"properties":{"source":"geoconfirmed","source_name":"GeoConfirmed","source_url":"https://geoconfirmed.org/map/ukraine","id":"a7504817-1eab-4b18-bb21-b1ecde2b6324","date":"2026-09-26","link":"https://geoconfirmed.org/map/ukraine/a7504817-1eab-4b18-bb21-b1ecde2b6324","category":"Recently destroyed/Damaged[Visible in footage] or still burning infrastucture","side":"Russia","color":"#E00000","description":"Visible damage to the Foundry shop (shop 022) building at the  sanctioned AOMZ \"Azovsky Optiko-Mekhanichesky Zavod\" following reported Ukrainian strikes.","orbat":["Ukrainian Navy","Alpha Group"],"geolocation":[],"sources":["https://x.com/Maks_NAFO_FELLA/status/2104197074522673271","https://t.me/absolutely_reliable/133","https://www.pravda.com.ua/eng/news/2026/09/27/8055261/index.amp","https://kyivindependent.com/ukraine-strikes-russian-defense-plant-producing-missile-components-general-staff-says/","https://dallas-analytics.com/aomz-strike/","https://www.opensanctions.org/entities/NK-CpWe5xnGZ3Xvp9PQfmbPp4/"]}},{"type":"Feature","geometry":{"type":"Point","coordinates":[37.4032,50.216421]},"properties":{"source":"geoconfirmed","source_name":"GeoConfirmed","source_url":"https://geoconfirmed.org/map/ukraine","id":"20a907b5-d56c-48aa-a8cf-b2c1cc832acb","date":"2026-09-26","link":"https://geoconfirmed.org/map/ukraine/20a907b5-d56c-48aa-a8cf-b2c1cc832acb","category":"Shelling by artillery or aerial bombings - Location of the shelling, colour of who is shelling; Brown = UXO","side":"Russia","color":"#E00000","description":"0:16-End - Russian shelling of claimed Ukrainian positions.","orbat":["159th Separate Mechanized Brigade","1st Border Combat Detachment - Brigade \"Гарт\" / \"Hart\""],"geolocation":["https://x.com/DELIBERTATES/status/2103908893319377172"],"sources":["https://x.com/GeoRaccoon/status/2103916877097378041","https://t.me/mod_russia/67663"]}},{"type":"Feature","geometry":{"type":"Point","coordinates":[39.413629,47.0935]},"properties":{"source":"geoconfirmed","source_name":"GeoConfirmed","source_url":"https://geoconfirmed.org/map/ukraine","id":"33813434-8f75-479b-aca9-dde470b0f092","date":"2026-09-26","link":"https://geoconfirmed.org/map/ukraine/33813434-8f75-479b-aca9-dde470b0f092","category":"Recently destroyed/Damaged[Visible in footage] or still burning infrastucture","side":"Russia","color":"#E00000","description":"Visible damage to the Workshop No. 010 building at the  sanctioned AOMZ \"Azovsky Optiko-Mekhanichesky Zavod\" following reported Ukrainian strikes.","orbat":["Ukrainian Navy","Alpha Group"],"geolocation":[],"sources":["https://x.com/Maks_NAFO_FELLA/status/2104197074522673271","https://t.me/absolutely_reliable/133","https://www.pravda.com.ua/eng/news/2026/09/27/8055261/index.amp","https://kyivindependent.com/ukraine-strikes-russian-defense-plant-producing-missile-components-general-staff-says/","https://dallas-analytics.com/aomz-strike/","https://www.opensanctions.org/entities/NK-CpWe5xnGZ3Xvp9PQfmbPp4/"]}},{"type":"Feature","geometry":{"type":"Point","coordinates":[39.413311,47.093692]},"properties":{"source":"geoconfirmed","source_name":"GeoConfirmed","source_url":"https://geoconfirmed.org/map/ukraine","id":"a3827dd0-5801-4499-b919-de0fe7767f1e","date":"2026-09-26","link":"https://geoconfirmed.org/map/ukraine/a3827dd0-5801-4499-b919-de0fe7767f1e","category":"Recently destroyed/Damaged[Visible in footage] or still burning infrastucture","side":"Russia","color":"#E00000","description":"Visible damage to the Workshop No. 010 building at the  sanctioned AOMZ \"Azovsky Optiko-Mekhanichesky Zavod\" following reported Ukrainian strikes.","orbat":["Ukrainian Navy","Alpha Group"],"geolocation":[],"sources":["https://x.com/Maks_NAFO_FELLA/status/2104197074522673271","https://t.me/absolutely_reliable/133","https://www.pravda.com.ua/eng/news/2026/09/27/8055261/index.amp","https://kyivindependent.com/ukraine-strikes-russian-defense-plant-producing-missile-components-general-staff-says/","https://dallas-analytics.com/aomz-strike/","https://www.opensanctions.org/entities/NK-CpWe5xnGZ3Xvp9PQfmbPp4/"]}},{"type":"Feature","geometry":{"type":"Point","coordinates":[35.886863,47.939408]},"properties":{"source":"geoconfirmed","source_name":"GeoConfirmed","source_url":"https://geoconfirmed.org/map/ukraine","id":"9b92ecca-b374-4b95-853f-e786ae42568c","date":"2026-09-26","link":"https://geoconfirmed.org/map/ukraine/9b92ecca-b374-4b95-853f-e786ae42568c","category":"Recently Older Destroyed Car OR PickUp (Soft Skin Vehicle)","side":"Ukraine","color":"#0051CA","description":"Damaged UA pickup","orbat":[],"geolocation":["https://x.com/juss_men/status/2104221206610075868"],"sources":["https://x.com/juss_men/status/2104221258418172315","https://www.tiktok.com/@artur.korpekin/video/7689780771967569173"]}},{"type":"Feature","geometry":{"type":"Point","coordinates":[32.579608,46.621594]},"properties":{"source":"geoconfirmed","source_name":"GeoConfirmed","source_url":"https://geoconfirmed.org/map/ukraine","id":"d121068f-73a5-410d-9c7b-e9f448cdc929","date":"2026-09-26","link":"https://geoconfirmed.org/map/ukraine/d121068f-73a5-410d-9c7b-e9f448cdc929","category":"Killed or wounded civilian. Potential Warcrime. In the colour of who is assessed as doing the attack/killing.","side":"Russia","color":"#E00000","description":"Russian 18th CAA drone drop on a civilian walking dogs in Kherson","orbat":["18th Combined Arms Army"],"geolocation":["https://x.com/giK1893/status/2103956391199183069"],"sources":["https://x.com/giK1893/status/2103956388171186656","https://t.me/zona_Red/1728"]}},{"type":"Feature","geometry":{"type":"Point","coordinates":[37.812957,48.854566]},"properties":{"source":"geoconfirmed","source_name":"GeoConfirmed","source_url":"https://geoconfirmed.org/map/ukraine","id":"fa452225-7e29-431d-999c-f255fd0f5f9d","date":"2026-09-26","link":"https://geoconfirmed.org/map/ukraine/fa452225-7e29-431d-999c-f255fd0f5f9d","category":"Short Range (<50km) OWAD (One Way Attack Drone), mostly rotary wing, Flying OR Attacking a target without knowing the outcome: if something is damaged --> icon of the damaged equipment.","side":"Russia","color":"#E00000","description":"Ukrainian infantry targeted by Russian Molynia-2 drones of the 204th Special Purpose Regiment 'Akhmat', Battalion 'Shrama'","orbat":["Battalion \"Shrama\" / \"ШРАМА\""],"geolocation":["https://x.com/ZoamSc2/status/2103985174296002720"],"sources":["https://x.com/ZoamSc2/status/2103985176502276463","https://t.me/specnazahmat/2407"]}},{"type":"Feature","geometry":{"type":"Point","coordinates":[30.490467,50.421364]},"properties":{"source":"geoconfirmed","source_name":"GeoConfirmed","source_url":"https://geoconfirmed.org/map/ukraine","id":"348108da-f8e1-4686-8538-f47475c6718a","date":"2026-09-26","link":"https://geoconfirmed.org/map/ukraine/348108da-f8e1-4686-8538-f47475c6718a","category":"Recently destroyed/Damaged[Visible in footage] or still burning infrastucture","side":"Neutral","color":"#AC7339","description":"A damaged building and ATB market following a reported Russian drone attack, which reportedly wounded at least 4 people and 20 evacuated.","orbat":[],"geolocation":["https://x.com/giK1893/status/2103773098390749506","https://bsky.app/profile/scaratlas.bsky.social/post/3mwhd2t36ak27"],"sources":["https://x.com/giK1893/status/2103773094326280246","https://t.me/dsns_telegram/75820","https://t.me/kievinfo_kyiv/99993","https://t.me/kiev_levyy_bereg/82639","https://t.me/c/1197363285/213580","https://www.youtube.com/watch?v=kOxEmmlb100"]}},{"type":"Feature","geometry":{"type":"Point","coordinates":[34.75007,50.892384]},"properties":{"source":"geoconfirmed","source_name":"GeoConfirmed","source_url":"https://geoconfirmed.org/map/ukraine","id":"3cc2040a-d2ba-4635-b986-fce2f9fe3f7a","date":"2026-09-26","link":"https://geoconfirmed.org/map/ukraine/3cc2040a-d2ba-4635-b986-fce2f9fe3f7a","category":"Recently destroyed/Damaged[Visible in footage] or still burning infrastucture","side":"Neutral","color":"#AC7339","description":"Destroyed house following a reported Russian airstrike.","orbat":[],"geolocation":["https://x.com/giK1893/status/2103887680987635845"],"sources":["https://x.com/giK1893/status/2103887680987635845","https://t.me/suspilnesumy/48105","https://t.me/dsns_sumy/28878"]}}]}