{"type":"FeatureCollection","features":[{"type":"Feature","geometry":null,"properties":{"source":"ua_mod","source_name":"Ministry of Defence of Ukraine","group":"official_ua","id":16180,"posted_utc":"2026-09-11T15:58:02+00:00","link":"https://t.me/ministry_of_defense_ua/16180","text":"Міноборони працює над покращенням умов служби для іноземців та осіб без громадянства, які захищають Україну.\nВідбулося перше засідання міжвідомчої робочої групи, яка напрацьовуватиме відповідні зміни.\nМета — створити зрозумілий алгоритм для іноземця на кожному етапі служби: від вступу до війська до соціального захисту після поранення чи завершення служби.\nЗаступниця Міністра оборони Любов Галан представила концепцію змін. До роботи долучилися представники Генштабу ЗСУ, військового омбудсмана, МЗС, МВС, ДМС, МОЗ, Мінветеранів та інших органів влади.\nОкремо Міноборони готує роз’яснення для військових частин щодо отримання іноземними військовослужбовцями посвідок на тимчасове проживання.","links":["https://mod.gov.ua/news/minoborony-zapustylo-mizhvidomchu-hrupu-dlia-pokrashchennia-umov-sluzhby-inozemnykh-dobrovoltsiv?utm_source=mod-telegram&utm_medium=social"],"original_html":"<b>Міноборони працює над покращенням умов служби для іноземців та осіб без громадянства, які захищають Україну.</b><br/><br/>Відбулося перше засідання міжвідомчої робочої групи, яка напрацьовуватиме відповідні зміни.<br/><br/>Мета — створити зрозумілий алгоритм для іноземця на кожному етапі служби: від вступу до війська до соціального захисту після поранення чи завершення служби.<br/><br/>Заступниця Міністра оборони Любов Галан представила <a href=\"https://mod.gov.ua/news/minoborony-zapustylo-mizhvidomchu-hrupu-dlia-pokrashchennia-umov-sluzhby-inozemnykh-dobrovoltsiv?utm_source=mod-telegram&amp;amp;utm_medium=social\" target=\"_blank\" rel=\"noopener\" onclick=\"return confirm('Open this link?\\n\\n'+this.href);\">концепцію змін</a>. До роботи долучилися представники Генштабу ЗСУ, військового омбудсмана, МЗС, МВС, ДМС, МОЗ, Мінветеранів та інших органів влади.<br/><br/>Окремо Міноборони готує роз’яснення для військових частин щодо отримання іноземними військовослужбовцями посвідок на тимчасове проживання."}},{"type":"Feature","geometry":null,"properties":{"source":"ua_mod","source_name":"Ministry of Defence of Ukraine","group":"official_ua","id":16177,"posted_utc":"2026-09-11T08:29:47+00:00","link":"https://t.me/ministry_of_defense_ua/16177","text":"❗️ Досягли граничного віку перебування в запасі — з військового обліку виключать автоматично.\nТепер особисто звертатися до ТЦК та СП для цього не потрібно. Реєстр «Оберіг» щодня перевірятиме дату народження та військове звання. Якщо людина досягла граничного віку перебування в запасі, її автоматично виключать з військового обліку.\nГраничний вік:\n— 60 років — для більшості військовозобов’язаних і резервістів;\n— 65 років — для осіб вищого офіцерського складу.\nПісля виключення відстрочка або бронювання, якщо вони були, автоматично скасовуються.\nПро зміну статусу повідомить Резерв+. Після оновлення військово-облікового документа в застосунку з’явиться статус «Виключений».\nЯкщо статус не змінився, потрібно повторно авторизуватися в Резерв+ та оновити документ. Якщо це не допомогло — звернутися до ТЦК та СП для перевірки даних.\nВажливо: автоматичне виключення не скасовує порушень правил військового обліку, які були зафіксовані раніше. Їх потрібно врегулювати окремо.","links":["https://mod.gov.ua/explanation/yak-pratsiuie-reiestr-oberih?utm_source=mod-telegram&utm_medium=social"],"original_html":"<i class=\"emoji\" style=\"background-image:url('//telegram.org/img/emoji/40/E29D97.png')\"><b>❗️</b></i> <b>Досягли граничного віку перебування в запасі — з військового обліку виключать автоматично.</b><br/><br/>Тепер особисто звертатися до ТЦК та СП для цього не потрібно. <a href=\"https://mod.gov.ua/explanation/yak-pratsiuie-reiestr-oberih?utm_source=mod-telegram&amp;amp;utm_medium=social\" target=\"_blank\" rel=\"noopener\" onclick=\"return confirm('Open this link?\\n\\n'+this.href);\">Реєстр «Оберіг»</a> щодня перевірятиме дату народження та військове звання. Якщо людина досягла граничного віку перебування в запасі, її автоматично виключать з військового обліку.<br/><br/>Граничний вік:<br/>— <b>60 років</b> — для більшості військовозобов’язаних і резервістів;<br/>— <b>65 років</b> — для осіб вищого офіцерського складу.<br/><br/>Після виключення відстрочка або бронювання, якщо вони були, автоматично скасовуються.<br/>Про зміну статусу повідомить Резерв+. Після оновлення військово-облікового документа в застосунку з’явиться статус <b>«Виключений»</b>.<br/><br/>Якщо статус не змінився, потрібно повторно авторизуватися в Резерв+ та оновити документ. Якщо це не допомогло — звернутися до ТЦК та СП для перевірки даних.<br/><br/><b>Важливо:</b> автоматичне виключення не скасовує порушень правил військового обліку, які були зафіксовані раніше. Їх потрібно врегулювати окремо."}},{"type":"Feature","geometry":null,"properties":{"source":"ua_mod","source_name":"Ministry of Defence of Ukraine","group":"official_ua","id":16178,"posted_utc":"2026-09-11T10:22:35+00:00","link":"https://t.me/ministry_of_defense_ua/16178","text":"❗️ Як підтверджується право на 20 000 або 40 000 грн за добу штурмових дій?\nДля виплати недостатньо самого бойового наказу — участь військовослужбовця має бути підтверджена сукупністю документів:\n— бойовий наказ або бойове розпорядження;\n— журнал бойових дій;\n— бойове донесення з результатами завдання;\n— рапорт командира підрозділу або групи;\n— поіменний список військовослужбовців із зазначенням періоду участі та розміру винагороди.\nДокументи направляють до відповідного органу військового управління, якій протягом 3 днів їх перевіряє та видає наказ про підтвердження виконання штурмових дій. Після цього командир військової частини видає наказ про виплату.\nВажливо: Це не загальна сума на весь підрозділ! 20 000 або 40 000 грн — це виплата кожному військовослужбовцю, чия безпосередня участь підтверджена та внесена до поіменного списку.","links":["https://mod.gov.ua/news/shturmovi-20-000-ta-40-000-hrn-yak-pidtverdzhuietsia-pravo-na-dobovi-vyplaty?utm_source=mod-telegram&utm_medium=social"],"original_html":"<b><i class=\"emoji\" style=\"background-image:url('//telegram.org/img/emoji/40/E29D97.png')\"><b>❗️</b></i> Як підтверджується право на 20 000 або 40 000 грн за добу штурмових дій?</b><br/>&nbsp;<br/>Для виплати недостатньо самого бойового наказу — участь військовослужбовця <a href=\"https://mod.gov.ua/news/shturmovi-20-000-ta-40-000-hrn-yak-pidtverdzhuietsia-pravo-na-dobovi-vyplaty?utm_source=mod-telegram&amp;amp;utm_medium=social\" target=\"_blank\" rel=\"noopener\" onclick=\"return confirm('Open this link?\\n\\n'+this.href);\">має бути підтверджена сукупністю документів</a>:<br/><br/>— бойовий наказ або бойове розпорядження;<br/>— журнал бойових дій;<br/>— бойове донесення з результатами завдання;<br/>— рапорт командира підрозділу або групи;<br/>— поіменний список військовослужбовців із зазначенням періоду участі та розміру винагороди.<br/>&nbsp;<br/>Документи направляють до відповідного органу військового управління, якій протягом 3 днів їх перевіряє та видає наказ про підтвердження виконання штурмових дій. Після цього командир військової частини видає наказ про виплату.<br/>&nbsp;<br/>Важливо: Це не загальна сума на весь підрозділ&#33; 20 000 або 40 000 грн — це виплата кожному військовослужбовцю, чия безпосередня участь підтверджена та внесена до поіменного списку."}},{"type":"Feature","geometry":null,"properties":{"source":"ua_mod","source_name":"Ministry of Defence of Ukraine","group":"official_ua","id":16179,"posted_utc":"2026-09-11T13:16:06+00:00","link":"https://t.me/ministry_of_defense_ua/16179","text":"❗️ Військові, які вчинили СЗЧ за кордоном, можуть скористатися спрощеною процедурою повернення до служби.\nЯк повернутися:\n🔹 подати рапорт через Армія+;\n🔹 обрати нову військову частину з переліку понад 70 підрозділів у межах своєї структури;\n🔹 дочекатися погодження рапорту — до 7 днів для ЗСУ та ДССТ або до 4 днів для НГУ;\n🔹 після появи в Армія+ статусу «У дорозі» прибути до обраної частини протягом 5 діб.\nСтатус «У дорозі» підтверджує добровільне повернення через Армія+, але не є дозволом на перетин державного кордону. Для виїзду з країни потрібен відповідний документ — закордонний паспорт.\nСпрощена процедура діє до 20 вересня 2026 року для військовослужбовців, які вчинили СЗЧ до 12 червня включно.","links":["https://mod.gov.ua/news/szch-za-kordonom-chy-mozhe-viiskovyi-povernutysia-i-yak?utm_source=mod-telegram&utm_medium=social"],"original_html":"<i class=\"emoji\" style=\"background-image:url('//telegram.org/img/emoji/40/E29D97.png')\"><b>❗️</b></i> <b>Військові, які вчинили СЗЧ за кордоном, можуть скористатися спрощеною процедурою повернення до служби.</b><br/><br/>Як повернутися:<br/><i class=\"emoji\" style=\"background-image:url('//telegram.org/img/emoji/40/F09F94B9.png')\"><b>🔹</b></i> подати рапорт через Армія+;<br/><i class=\"emoji\" style=\"background-image:url('//telegram.org/img/emoji/40/F09F94B9.png')\"><b>🔹</b></i> обрати нову військову частину з переліку понад 70 підрозділів у межах своєї структури;<br/><i class=\"emoji\" style=\"background-image:url('//telegram.org/img/emoji/40/F09F94B9.png')\"><b>🔹</b></i> дочекатися погодження рапорту — до 7 днів для ЗСУ та ДССТ або до 4 днів для НГУ;<br/><i class=\"emoji\" style=\"background-image:url('//telegram.org/img/emoji/40/F09F94B9.png')\"><b>🔹</b></i> після появи в Армія+ статусу «У дорозі» прибути до обраної частини протягом 5 діб.<br/><br/>Статус «У дорозі» підтверджує добровільне повернення через Армія+, але не є дозволом на перетин державного кордону. Для виїзду з країни потрібен відповідний документ — закордонний паспорт.<br/><br/><a href=\"https://mod.gov.ua/news/szch-za-kordonom-chy-mozhe-viiskovyi-povernutysia-i-yak?utm_source=mod-telegram&amp;amp;utm_medium=social\" target=\"_blank\" rel=\"noopener\" onclick=\"return confirm('Open this link?\\n\\n'+this.href);\">Спрощена процедура</a> діє до 20 вересня 2026 року для військовослужбовців, які вчинили СЗЧ до 12 червня включно."}}]}