{"type":"FeatureCollection","features":[{"type":"Feature","geometry":{"type":"MultiPolygon","coordinates":[[[[37.89534,48.78412],[37.89178,48.79399],[37.87727,48.79642],[37.88079,48.80416],[37.89126,48.80885],[37.89307,48.81677],[37.89271,48.82261],[37.88904,48.82658],[37.89378,48.82769],[37.90959,48.83394],[37.91443,48.81359],[37.91637,48.81015],[37.93153,48.81126],[37.93437,48.7966],[37.92103,48.79504],[37.91985,48.78545],[37.90278,48.77065],[37.89375,48.77827],[37.89534,48.78412]]],[[[37.04344,48.35657],[37.04183,48.36051],[37.042,48.36178],[37.04668,48.36681],[37.05046,48.36756],[37.09272,48.37249],[37.08847,48.38529],[37.10126,48.38803],[37.09705,48.39393],[37.10044,48.39732],[37.10615,48.39493],[37.10568,48.39111],[37.12375,48.38358],[37.13581,48.37471],[37.14826,48.37206],[37.15289,48.37759],[37.15697,48.38149],[37.16345,48.3807],[37.1677,48.38606],[37.17317,48.39413],[37.17244,48.4003],[37.19403,48.40271],[37.19515,48.40479],[37.1955,48.40153],[37.18718,48.40053],[37.18527,48.39236],[37.17409,48.38983],[37.17,48.37957],[37.16953,48.37842],[37.16954,48.37841],[37.16769,48.37379],[37.1664,48.37224],[37.167,48.3657],[37.15944,48.36613],[37.12852,48.3653],[37.12237,48.37013],[37.1201,48.37737],[37.11126,48.38219],[37.10946,48.38139],[37.10671,48.37868],[37.10325,48.36532],[37.08492,48.36281],[37.07392,48.36154],[37.04757,48.35723],[37.04037,48.35082],[37.0403,48.35088],[37.04344,48.35657]]],[[[36.15233,47.65801],[36.1491,47.6627],[36.13954,47.68412],[36.13825,47.69062],[36.13907,47.69255],[36.1416,47.69388],[36.14287,47.70086],[36.15355,47.69759],[36.16102,47.69316],[36.16409,47.69024],[36.1681,47.68922],[36.17226,47.68081],[36.16741,47.67884],[36.16654,47.67268],[36.16037,47.67053],[36.16381,47.66399],[36.17016,47.65393],[36.16192,47.65173],[36.1586,47.65375],[36.15233,47.65801]]]]},"properties":{"source":"ukrdaily","source_name":"UkrDailyUpdate","source_url":"https://map.ukrdailyupdate.com/","category":"gained","category_label":"Newly Russian-occupied","period":"7d","compared_with":"2026-09-24","snapshot_time":"2026-10-01","area_km2_approx":35.5}},{"type":"Feature","geometry":{"type":"MultiPolygon","coordinates":[[[[37.93454,49.21167],[37.9282,49.21948],[37.92713,49.22217],[37.92476,49.22328],[37.92235,49.22547],[37.92179,49.22658],[37.92535,49.22819],[37.92634,49.23144],[37.92986,49.23088],[37.93357,49.22397],[37.93701,49.22073],[37.94157,49.21867],[37.95211,49.21108],[37.94035,49.20682],[37.93514,49.20325],[37.93454,49.21167]]],[[[36.64977,47.90289],[36.64832,47.91039],[36.64217,47.92514],[36.67435,47.92774],[36.67663,47.91895],[36.67734,47.90984],[36.67655,47.90472],[36.67344,47.89812],[36.67272,47.89609],[36.66821,47.89399],[36.66459,47.89424],[36.6645,47.8941],[36.64282,47.89829],[36.64977,47.90289]]]]},"properties":{"source":"ukrdaily","source_name":"UkrDailyUpdate","source_url":"https://map.ukrdailyupdate.com/","category":"lost","category_label":"No longer Russian-occupied","period":"7d","compared_with":"2026-09-24","snapshot_time":"2026-10-01","area_km2_approx":9.9}}]}