{"type":"FeatureCollection","features":[{"type":"Feature","geometry":{"type":"Point","coordinates":[37.10132,48.38916]},"properties":{"original":{"Date":"2026-09-13","Name":"13 SEP 2026","Faction":"Ukraine","Origin":"UAV","Latitude":"48.38916","Longitude":"37.10132","PlusCode":"8GWV94Q2+MG Shevchenko, Donetsk Oblast, Ukraine","Description":"00:10-0:19 - A Ukrainian FPV drone of the 25th Airborne Brigade FPV struck two Russian soldiers in Shevchenko","Source":"https://x.com/meowqai/status/2099096064951525677, https://t.me/si4eslavskabrygada/2618, ","Geolocation":"https://x.com/meowqai/status/2099096064951525677","Equipment":"","EquipmentItems":"FPV (First Person View) OWAD (One Way Attack Drone)","Units":"","OrbatUnits":"25th Airborne Brigade","Id":"74fa9c23-51ff-4086-9b8e-1bab8b7bd3a9","icon":"/api/icons/0051CA/False/template/111.png"},"source":"geoconfirmed","source_name":"GeoConfirmed","source_url":"https://geoconfirmed.org/map/ukraine","id":"74fa9c23-51ff-4086-9b8e-1bab8b7bd3a9","date":"2026-09-13","link":"https://geoconfirmed.org/map/ukraine/74fa9c23-51ff-4086-9b8e-1bab8b7bd3a9","category":"Short Range (<50km) OWAD (One Way Attack Drone), mostly rotary wing, Flying OR Attacking a target without knowing the outcome: if something is damaged --> icon of the damaged equipment.","side":"Ukraine","color":"#0051CA","description":"00:10-0:19 - A Ukrainian FPV drone of the 25th Airborne Brigade FPV struck two Russian soldiers in Shevchenko","orbat":["25th Airborne Brigade"],"geolocation":["https://x.com/meowqai/status/2099096064951525677"],"sources":["https://x.com/meowqai/status/2099096064951525677","https://t.me/si4eslavskabrygada/2618"]}},{"type":"Feature","geometry":{"type":"Point","coordinates":[37.67435,49.629748]},"properties":{"original":{"Date":"2026-09-13","Name":"13 SEP 2026","Faction":"Ukraine","Origin":"UAV","Latitude":"49.629748","Longitude":"37.67435","PlusCode":"8GXVJMHF+VP Kivsharivka, Kharkiv Oblast, Ukraine","Description":"Claimed Russian position and warehouse hit by a Ukrainian MiG-29MU1 airstrike ","Source":"https://x.com/PuenteUribarri/status/2099186539917947122, https://t.me/soniah_hub/181","Geolocation":"https://x.com/Bielitzling/status/2099189443953344649","Equipment":"","EquipmentItems":"MiG-29MU1  | Airstrike","Units":"","OrbatUnits":"Ukrainian Air Force","Id":"928d5257-36cb-467d-9f6e-231701572c63","icon":"/api/icons/0051CA/False/template/10.png"},"source":"geoconfirmed","source_name":"GeoConfirmed","source_url":"https://geoconfirmed.org/map/ukraine","id":"928d5257-36cb-467d-9f6e-231701572c63","date":"2026-09-13","link":"https://geoconfirmed.org/map/ukraine/928d5257-36cb-467d-9f6e-231701572c63","category":"Shelling by artillery or aerial bombings - Location of the shelling, colour of who is shelling; Brown = UXO","side":"Ukraine","color":"#0051CA","description":"Claimed Russian position and warehouse hit by a Ukrainian MiG-29MU1 airstrike","orbat":["Ukrainian Air Force"],"geolocation":["https://x.com/Bielitzling/status/2099189443953344649"],"sources":["https://x.com/PuenteUribarri/status/2099186539917947122","https://t.me/soniah_hub/181"]}},{"type":"Feature","geometry":{"type":"Point","coordinates":[23.886727,51.197694]},"properties":{"original":{"Date":"2026-09-13","Name":"13 SEP 2026","Faction":"Neutral","Origin":"VID","Latitude":"51.197694","Longitude":"23.886727","PlusCode":"9G355VXP+3M Rymachi, Volyn Oblast, Ukraine","Description":"Russia attacked the locomotive of a train with a seeker drone, with European officials and diplomats on a train nearby.","Source":"Strike footage: , https://x.com/Brokenarrow42/status/2099824153566011420, https://t.me/lost_armour/11291, , Aftermath: https://x.com/nexta_tv/status/2099122172828491980, https://x.com/Maks_NAFO_FELLA/status/2099124850904195422, , More information:, https://www.dailymail.com/news/article-16127805/Boris-Johnson-survives-Russian-drone-strike.html","Geolocation":"https://x.com/Brokenarrow42/status/2099823786891612316, https://x.com/neonhandrail/status/2099132005703393764, https://x.com/zarGEOINT/status/2099131377220309129","Equipment":"","EquipmentItems":"Locomotive/Train | Geran-4 \"Seeker\"","Units":"","OrbatUnits":"","Id":"feb20911-63a6-48a1-b86a-2d1535bedd22","icon":"/api/icons/AC7339/False/template/162.png"},"source":"geoconfirmed","source_name":"GeoConfirmed","source_url":"https://geoconfirmed.org/map/ukraine","id":"feb20911-63a6-48a1-b86a-2d1535bedd22","date":"2026-09-13","link":"https://geoconfirmed.org/map/ukraine/feb20911-63a6-48a1-b86a-2d1535bedd22","category":"Recently Destroyed/Damaged[Visible in footage] Train","side":"Neutral","color":"#AC7339","description":"Russia attacked the locomotive of a train with a seeker drone, with European officials and diplomats on a train nearby.","orbat":[],"geolocation":["https://x.com/Brokenarrow42/status/2099823786891612316","https://x.com/neonhandrail/status/2099132005703393764","https://x.com/zarGEOINT/status/2099131377220309129"],"sources":["https://x.com/Brokenarrow42/status/2099824153566011420","https://t.me/lost_armour/11291","https://x.com/nexta_tv/status/2099122172828491980","https://x.com/Maks_NAFO_FELLA/status/2099124850904195422","https://www.dailymail.com/news/article-16127805/Boris-Johnson-survives-Russian-drone-strike.html"]}},{"type":"Feature","geometry":{"type":"Point","coordinates":[37.109075,48.485826]},"properties":{"original":{"Date":"2026-09-13","Name":"13 SEP 2026","Faction":"Russia","Origin":"UAV","Latitude":"48.485826","Longitude":"37.109075","PlusCode":"8GWVF4Q4+5V Hannivka, Donetsk Oblast, Ukraine","Description":"0:00-0:11, left explosions - Russia bombing Hannivka. ","Source":"https://x.com/jimmhelloman555/status/2099115311395918263, https://t.me/mod_russia_en/29367","Geolocation":"https://x.com/jimmhelloman555/status/2099114856200687641","Equipment":"","EquipmentItems":"Reconnaissance UAV","Units":"Unit?","OrbatUnits":"","Id":"2a007f1a-9409-4dc1-8399-2dc102ed72c6","icon":"/api/icons/E00000/False/template/10.png"},"source":"geoconfirmed","source_name":"GeoConfirmed","source_url":"https://geoconfirmed.org/map/ukraine","id":"2a007f1a-9409-4dc1-8399-2dc102ed72c6","date":"2026-09-13","link":"https://geoconfirmed.org/map/ukraine/2a007f1a-9409-4dc1-8399-2dc102ed72c6","category":"Shelling by artillery or aerial bombings - Location of the shelling, colour of who is shelling; Brown = UXO","side":"Russia","color":"#E00000","description":"0:00-0:11, left explosions - Russia bombing Hannivka.","orbat":["Unit?"],"geolocation":["https://x.com/jimmhelloman555/status/2099114856200687641"],"sources":["https://x.com/jimmhelloman555/status/2099115311395918263","https://t.me/mod_russia_en/29367"]}},{"type":"Feature","geometry":{"type":"Point","coordinates":[30.760893,46.457212]},"properties":{"original":{"Date":"2026-09-13","Name":"13 SEP 2026","Faction":"Neutral","Origin":"PIC","Latitude":"46.457212","Longitude":"30.760893","PlusCode":"8GRGFQ46+V9 Odesa, Odesa Oblast, Ukraine","Description":"Destroyed building following a reported Russian strike","Source":"(1/3&2/3), https://x.com/giK1893/status/2099258574006288512, (1/5&4/5), https://t.me/suspilneodesa/80158, , More information, https://www.ukrinform.ua/rubric-regions/4163748-ataka-na-odesinu-24-postrazdalih-poskodzeni-budinki-skladi-avtoservis.html#, , ","Geolocation":"(3/3), https://x.com/giK1893/status/2099258574006288512","Equipment":"","EquipmentItems":"","Units":"","OrbatUnits":"","Id":"68d3c11d-1e2d-4cde-aac7-38fbd39e54f6","icon":"/api/icons/AC7339/False/template/192.png"},"source":"geoconfirmed","source_name":"GeoConfirmed","source_url":"https://geoconfirmed.org/map/ukraine","id":"68d3c11d-1e2d-4cde-aac7-38fbd39e54f6","date":"2026-09-13","link":"https://geoconfirmed.org/map/ukraine/68d3c11d-1e2d-4cde-aac7-38fbd39e54f6","category":"Recently destroyed/Damaged[Visible in footage] or still burning infrastucture","side":"Neutral","color":"#AC7339","description":"Destroyed building following a reported Russian strike","orbat":[],"geolocation":["https://x.com/giK1893/status/2099258574006288512"],"sources":["https://x.com/giK1893/status/2099258574006288512","https://t.me/suspilneodesa/80158","https://www.ukrinform.ua/rubric-regions/4163748-ataka-na-odesinu-24-postrazdalih-poskodzeni-budinki-skladi-avtoservis.html#"]}},{"type":"Feature","geometry":{"type":"Point","coordinates":[37.107218,48.487921]},"properties":{"original":{"Date":"2026-09-13","Name":"13 SEP 2026","Faction":"Russia","Origin":"UAV","Latitude":"48.487921","Longitude":"37.107218","PlusCode":"8GWVF4Q4+5V Hannivka, Donetsk Oblast, Ukraine","Description":"0:00-0:11, right explosion - Russia bombing Hannivka. ","Source":"https://x.com/jimmhelloman555/status/2099115311395918263, https://t.me/mod_russia_en/29367","Geolocation":"https://x.com/jimmhelloman555/status/2099114856200687641","Equipment":"","EquipmentItems":"Reconnaissance UAV","Units":"Unit?","OrbatUnits":"","Id":"c53ae03f-ce88-44eb-8385-69d54da51872","icon":"/api/icons/E00000/False/template/10.png"},"source":"geoconfirmed","source_name":"GeoConfirmed","source_url":"https://geoconfirmed.org/map/ukraine","id":"c53ae03f-ce88-44eb-8385-69d54da51872","date":"2026-09-13","link":"https://geoconfirmed.org/map/ukraine/c53ae03f-ce88-44eb-8385-69d54da51872","category":"Shelling by artillery or aerial bombings - Location of the shelling, colour of who is shelling; Brown = UXO","side":"Russia","color":"#E00000","description":"0:00-0:11, right explosion - Russia bombing Hannivka.","orbat":["Unit?"],"geolocation":["https://x.com/jimmhelloman555/status/2099114856200687641"],"sources":["https://x.com/jimmhelloman555/status/2099115311395918263","https://t.me/mod_russia_en/29367"]}},{"type":"Feature","geometry":{"type":"Point","coordinates":[37.72473,49.625516]},"properties":{"original":{"Date":"2026-09-13","Name":"13 SEP 2026","Faction":"Russia","Origin":"UAV","Latitude":"49.625516","Longitude":"37.72473","PlusCode":"8GXVJPGF+6V Novoosynove, Kharkiv Oblast, Ukraine","Description":"0:00-0:25 - Five reported Colombian  soldiers fighting for the Russian army  surrendered to the Ukrainian 33rd Mechanized Brigade","Source":"https://x.com/moklasen/status/2099168670459089332, https://t.me/mechanized33/1108, ","Geolocation":"https://x.com/moklasen/status/2099168417198530955","Equipment":"","EquipmentItems":"","Units":"","OrbatUnits":"33rd Mechanized Brigade","Id":"281f28b4-6aa7-40a5-9251-7cf09fd98e17","icon":"/api/icons/E00000/False/template/101.png"},"source":"geoconfirmed","source_name":"GeoConfirmed","source_url":"https://geoconfirmed.org/map/ukraine","id":"281f28b4-6aa7-40a5-9251-7cf09fd98e17","date":"2026-09-13","link":"https://geoconfirmed.org/map/ukraine/281f28b4-6aa7-40a5-9251-7cf09fd98e17","category":"POW - Prisinor of War - In the colour of the faction of the POW","side":"Russia","color":"#E00000","description":"0:00-0:25 - Five reported Colombian  soldiers fighting for the Russian army  surrendered to the Ukrainian 33rd Mechanized Brigade","orbat":["33rd Mechanized Brigade"],"geolocation":["https://x.com/moklasen/status/2099168417198530955"],"sources":["https://x.com/moklasen/status/2099168670459089332","https://t.me/mechanized33/1108"]}},{"type":"Feature","geometry":{"type":"Point","coordinates":[36.8695992,50.3762733]},"properties":{"original":{"Date":"2026-09-13","Name":"13 SEP 2026","Faction":"Ukraine","Origin":"UAV","Latitude":"50.3762733","Longitude":"36.8695992","PlusCode":"9G2R9VG9+GR Shebekino, Belgorod Oblast, Russia","Description":"Ukrainian airstrike on a claimed  logistics center and drone assembly workshop of Shebekinsky  company in Shebekino","Source":"https://x.com/PuenteUribarri/status/2099074782734016600, https://t.me/kharkivnapriamok/4304","Geolocation":"https://x.com/Kukulkan415/status/2099078253671551459","Equipment":"","EquipmentItems":"Airstrike","Units":"(reported)","OrbatUnits":"Ukrainian Air Force | 128th Motorized Rifle Brigade","Id":"29d01b99-f874-40ea-b967-9ab88dc8eecc","icon":"/api/icons/0051CA/False/template/10.png"},"source":"geoconfirmed","source_name":"GeoConfirmed","source_url":"https://geoconfirmed.org/map/ukraine","id":"29d01b99-f874-40ea-b967-9ab88dc8eecc","date":"2026-09-13","link":"https://geoconfirmed.org/map/ukraine/29d01b99-f874-40ea-b967-9ab88dc8eecc","category":"Shelling by artillery or aerial bombings - Location of the shelling, colour of who is shelling; Brown = UXO","side":"Ukraine","color":"#0051CA","description":"Ukrainian airstrike on a claimed  logistics center and drone assembly workshop of Shebekinsky  company in Shebekino","orbat":["Ukrainian Air Force","128th Motorized Rifle Brigade"],"geolocation":["https://x.com/Kukulkan415/status/2099078253671551459"],"sources":["https://x.com/PuenteUribarri/status/2099074782734016600","https://t.me/kharkivnapriamok/4304"]}},{"type":"Feature","geometry":{"type":"Point","coordinates":[32.586999,46.655226]},"properties":{"original":{"Date":"2026-09-13","Name":"13 SEP 2026","Faction":"Ukraine Civilian","Origin":"VID","Latitude":"46.655226","Longitude":"32.586999","PlusCode":"8GRJMH4P+3Q Kherson, Kherson Oblast, Ukraine","Description":"Reported Russian drone strike destroyed a Ukrainian ambulance, reportedly injuring two medical workers","Source":"https://x.com/99Dominik_/status/2099141143560692184, https://t.me/hueviyherson/88947, , PIC 1, https://x.com/99Dominik_/status/2099228701401456882, https://t.me/olexandrprokudin/15277","Geolocation":"https://x.com/99Dominik_/status/2099140899175362967","Equipment":"(reported)","EquipmentItems":"Ambulance | FPV (First Person View) OWAD (One Way Attack Drone)","Units":"","OrbatUnits":"","Id":"7d73c799-7666-4588-b881-af924e7dac65","icon":"/api/icons/3184FF/False/template/62.png"},"source":"geoconfirmed","source_name":"GeoConfirmed","source_url":"https://geoconfirmed.org/map/ukraine","id":"7d73c799-7666-4588-b881-af924e7dac65","date":"2026-09-13","link":"https://geoconfirmed.org/map/ukraine/7d73c799-7666-4588-b881-af924e7dac65","category":"Recently Destroyed/Damaged[Visible in footage] Logistical Trucks (Soft skin OR armoured)","side":"Ukraine Civilian","color":"#3184FF","description":"Reported Russian drone strike destroyed a Ukrainian ambulance, reportedly injuring two medical workers","orbat":[],"geolocation":["https://x.com/99Dominik_/status/2099140899175362967"],"sources":["https://x.com/99Dominik_/status/2099141143560692184","https://t.me/hueviyherson/88947","https://x.com/99Dominik_/status/2099228701401456882","https://t.me/olexandrprokudin/15277"]}},{"type":"Feature","geometry":{"type":"Point","coordinates":[30.682289,46.45822]},"properties":{"original":{"Date":"2026-09-13","Name":"13 SEP 2026","Faction":"Neutral","Origin":"PIC","Latitude":"46.45822","Longitude":"30.682289","PlusCode":"8GRGFM5J+7W Odesa, Odesa Oblast, Ukraine","Description":"Destroyed building following a reported Russian strike","Source":"(2/3), https://x.com/giK1893/status/2099258569656791198, (1/4), https://t.me/suspilneodesa/80168, , , More information, https://www.pravda.com.ua/eng/news/2026/09/13/8053214/, , , ","Geolocation":"(3/3), https://x.com/giK1893/status/2099258569656791198","Equipment":"","EquipmentItems":"","Units":"","OrbatUnits":"","Id":"a595cac0-719d-4478-82b3-b26146dea6bd","icon":"/api/icons/AC7339/False/template/192.png"},"source":"geoconfirmed","source_name":"GeoConfirmed","source_url":"https://geoconfirmed.org/map/ukraine","id":"a595cac0-719d-4478-82b3-b26146dea6bd","date":"2026-09-13","link":"https://geoconfirmed.org/map/ukraine/a595cac0-719d-4478-82b3-b26146dea6bd","category":"Recently destroyed/Damaged[Visible in footage] or still burning infrastucture","side":"Neutral","color":"#AC7339","description":"Destroyed building following a reported Russian strike","orbat":[],"geolocation":["https://x.com/giK1893/status/2099258569656791198"],"sources":["https://x.com/giK1893/status/2099258569656791198","https://t.me/suspilneodesa/80168","https://www.pravda.com.ua/eng/news/2026/09/13/8053214/"]}},{"type":"Feature","geometry":{"type":"Point","coordinates":[30.63381,46.50099]},"properties":{"original":{"Date":"2026-09-13","Name":"13 SEP 2026","Faction":"Neutral","Origin":"VID","Latitude":"46.50099","Longitude":"30.63381","PlusCode":"8GRGGJ2M+9G Odesa, Odesa Oblast, Ukraine","Description":"A Mercedes dealership in Odesa was damaged after Russian attacks. A plume of smoke can also be seen next to the dealership, reportedly rising from a Nova Poshta warehouse that was also hit.","Source":"https://x.com/UkrReview/status/2099077587796402539, , More information, https://newsukraine.rbc.ua/news/russian-strike-damages-mercedes-benz-dealership-1789380899.html","Geolocation":"https://x.com/zarGEOINT/status/2099123023156572471","Equipment":"","EquipmentItems":"","Units":"","OrbatUnits":"","Id":"c47dcb1c-4460-48ee-94a3-b2b815e9bbd9","icon":"/api/icons/AC7339/False/template/192.png"},"source":"geoconfirmed","source_name":"GeoConfirmed","source_url":"https://geoconfirmed.org/map/ukraine","id":"c47dcb1c-4460-48ee-94a3-b2b815e9bbd9","date":"2026-09-13","link":"https://geoconfirmed.org/map/ukraine/c47dcb1c-4460-48ee-94a3-b2b815e9bbd9","category":"Recently destroyed/Damaged[Visible in footage] or still burning infrastucture","side":"Neutral","color":"#AC7339","description":"A Mercedes dealership in Odesa was damaged after Russian attacks. A plume of smoke can also be seen next to the dealership, reportedly rising from a Nova Poshta warehouse that was also hit.","orbat":[],"geolocation":["https://x.com/zarGEOINT/status/2099123023156572471"],"sources":["https://x.com/UkrReview/status/2099077587796402539","https://newsukraine.rbc.ua/news/russian-strike-damages-mercedes-benz-dealership-1789380899.html"]}},{"type":"Feature","geometry":{"type":"Point","coordinates":[32.061814,46.870033]},"properties":{"original":{"Date":"2026-09-13","Name":"13 SEP 2026","Faction":"Neutral","Origin":"UAV","Latitude":"46.870033","Longitude":"32.061814","PlusCode":"8GRJV3C6+2P Mykolaiv, Mykolaiv Oblast, Ukraine","Description":"0:00-0:10 - A Russian Geran-4 seeker hit a reported logistics centre on the perimeter of Brewery \"Yantar\" (Nikolaev) (Wikimapia). A warehouse adjacent to it was also targeted.","Source":"https://x.com/Brokenarrow42/status/2099219812303978928, https://t.me/mod_russia_en/29373, ","Geolocation":"https://x.com/Brokenarrow42/status/2099219809523106135","Equipment":"","EquipmentItems":"Geran-4 \"Seeker\"","Units":"","OrbatUnits":"","Id":"3c4cc3ec-5cfe-4728-8c25-b9c7cc144de5","icon":"/api/icons/AC7339/False/template/192.png"},"source":"geoconfirmed","source_name":"GeoConfirmed","source_url":"https://geoconfirmed.org/map/ukraine","id":"3c4cc3ec-5cfe-4728-8c25-b9c7cc144de5","date":"2026-09-13","link":"https://geoconfirmed.org/map/ukraine/3c4cc3ec-5cfe-4728-8c25-b9c7cc144de5","category":"Recently destroyed/Damaged[Visible in footage] or still burning infrastucture","side":"Neutral","color":"#AC7339","description":"0:00-0:10 - A Russian Geran-4 seeker hit a reported logistics centre on the perimeter of Brewery \"Yantar\" (Nikolaev) (Wikimapia). A warehouse adjacent to it was also targeted.","orbat":[],"geolocation":["https://x.com/Brokenarrow42/status/2099219809523106135"],"sources":["https://x.com/Brokenarrow42/status/2099219812303978928","https://t.me/mod_russia_en/29373"]}},{"type":"Feature","geometry":{"type":"Point","coordinates":[35.208231,47.718984]},"properties":{"original":{"Date":"2026-09-13","Name":"13 SEP 2026","Faction":"Russia","Origin":"PIC","Latitude":"47.718984","Longitude":"35.208231","PlusCode":"8GVQP695+H7 Kushuhum, Zaporizhia Oblast, Ukraine","Description":"Russian FPV drone hit hit a  Ukrainian car and killed the driver","Source":"https://x.com/99Dominik_/status/2099228046255374464, https://t.me/kushugumrada/34646, , reporting: https://x.com/99Dominik_/status/2100152972738957644, https://t.me/kushugumrada/34662","Geolocation":"https://x.com/99Dominik_/status/2099227805305229372","Equipment":"","EquipmentItems":"FPV (First Person View) OWAD (One Way Attack Drone)","Units":"","OrbatUnits":"","Id":"396b99f8-4fbe-4ce5-8d7f-bcfeab8fe2c8","icon":"/api/icons/E00000/False/template/50.png"},"source":"geoconfirmed","source_name":"GeoConfirmed","source_url":"https://geoconfirmed.org/map/ukraine","id":"396b99f8-4fbe-4ce5-8d7f-bcfeab8fe2c8","date":"2026-09-13","link":"https://geoconfirmed.org/map/ukraine/396b99f8-4fbe-4ce5-8d7f-bcfeab8fe2c8","category":"Killed or wounded civilian. Potential Warcrime. In the colour of who is assessed as doing the attack/killing.","side":"Russia","color":"#E00000","description":"Russian FPV drone hit hit a  Ukrainian car and killed the driver","orbat":[],"geolocation":["https://x.com/99Dominik_/status/2099227805305229372"],"sources":["https://x.com/99Dominik_/status/2099228046255374464","https://t.me/kushugumrada/34646","https://x.com/99Dominik_/status/2100152972738957644","https://t.me/kushugumrada/34662"]}},{"type":"Feature","geometry":{"type":"Point","coordinates":[37.100483,48.466773]},"properties":{"original":{"Date":"2026-09-13","Name":"13 SEP 2026","Faction":"Russia","Origin":"UAV","Latitude":"48.466773","Longitude":"37.100483","PlusCode":"8GWVF482+P5 Dobropillya, Donetsk Oblast, Ukraine","Description":"0:11-end - Russia bombing an industrial building in Hannivka. ","Source":"https://x.com/jimmhelloman555/status/2099115311395918263, https://t.me/mod_russia_en/29367","Geolocation":"https://x.com/jimmhelloman555/status/2099114856200687641","Equipment":"","EquipmentItems":"Reconnaissance UAV","Units":"Unit?","OrbatUnits":"","Id":"354084e1-980c-4d4d-86d4-c51f2129d879","icon":"/api/icons/E00000/False/template/10.png"},"source":"geoconfirmed","source_name":"GeoConfirmed","source_url":"https://geoconfirmed.org/map/ukraine","id":"354084e1-980c-4d4d-86d4-c51f2129d879","date":"2026-09-13","link":"https://geoconfirmed.org/map/ukraine/354084e1-980c-4d4d-86d4-c51f2129d879","category":"Shelling by artillery or aerial bombings - Location of the shelling, colour of who is shelling; Brown = UXO","side":"Russia","color":"#E00000","description":"0:11-end - Russia bombing an industrial building in Hannivka.","orbat":["Unit?"],"geolocation":["https://x.com/jimmhelloman555/status/2099114856200687641"],"sources":["https://x.com/jimmhelloman555/status/2099115311395918263","https://t.me/mod_russia_en/29367"]}},{"type":"Feature","geometry":{"type":"Point","coordinates":[32.65233,46.108453]},"properties":{"original":{"Date":"2026-09-13","Name":"13 SEP 2026","Faction":"Russia","Origin":"UAV","Latitude":"46.108453","Longitude":"32.65233","PlusCode":"8GRJ4M52+9W Siabry, Kherson Oblast, Ukraine","Description":"0:00-0:18 - Russian Ural truck destroyed by a Ukrainian FPV drone of the 426th Separate Unmanned Systems Regiment","Source":"https://x.com/99Dominik_/status/2099224558158950732, https://www.facebook.com/reel/1041809598675469, ","Geolocation":"https://x.com/99Dominik_/status/2099223842396750169","Equipment":"","EquipmentItems":"FPV (First Person View) OWAD (One Way Attack Drone) | Truck","Units":"","OrbatUnits":"426th Separate Unmanned Systems Regiment","Id":"6ee209d4-b564-4d31-829b-cb826c582022","icon":"/api/icons/E00000/False/template/62.png"},"source":"geoconfirmed","source_name":"GeoConfirmed","source_url":"https://geoconfirmed.org/map/ukraine","id":"6ee209d4-b564-4d31-829b-cb826c582022","date":"2026-09-13","link":"https://geoconfirmed.org/map/ukraine/6ee209d4-b564-4d31-829b-cb826c582022","category":"Recently Destroyed/Damaged[Visible in footage] Logistical Trucks (Soft skin OR armoured)","side":"Russia","color":"#E00000","description":"0:00-0:18 - Russian Ural truck destroyed by a Ukrainian FPV drone of the 426th Separate Unmanned Systems Regiment","orbat":["426th Separate Unmanned Systems Regiment"],"geolocation":["https://x.com/99Dominik_/status/2099223842396750169"],"sources":["https://x.com/99Dominik_/status/2099224558158950732","https://www.facebook.com/reel/1041809598675469"]}},{"type":"Feature","geometry":{"type":"Point","coordinates":[37.076672,48.485769]},"properties":{"original":{"Date":"2026-09-13","Name":"13 SEP 2026","Faction":"Ukraine","Origin":"UAV","Latitude":"48.485769","Longitude":"37.076672","PlusCode":"8GWVF3PG+8M Dobropillya, Donetsk Oblast, Ukraine","Description":"0:00-0:14 - Rough location: a drone and cargo were attacked in Dobropolye.","Source":"https://x.com/Brokenarrow42/status/2099208495484506422, https://t.me/Secrets_of_Vinakos/17439, ","Geolocation":"https://x.com/Brokenarrow42/status/2099208492569477287","Equipment":"","EquipmentItems":"Fiber Optic (FO) FPV (First Person View) OWAD (One Way Attack Drone) | (Multi-Purpose) Bomber UAV","Units":"Shock Detachment \"The Irish\"","OrbatUnits":"","Id":"b16b7d7c-4e33-482c-aed7-cda3cd445b74","icon":"/api/icons/0051CA/False/template/111.png"},"source":"geoconfirmed","source_name":"GeoConfirmed","source_url":"https://geoconfirmed.org/map/ukraine","id":"b16b7d7c-4e33-482c-aed7-cda3cd445b74","date":"2026-09-13","link":"https://geoconfirmed.org/map/ukraine/b16b7d7c-4e33-482c-aed7-cda3cd445b74","category":"Short Range (<50km) OWAD (One Way Attack Drone), mostly rotary wing, Flying OR Attacking a target without knowing the outcome: if something is damaged --> icon of the damaged equipment.","side":"Ukraine","color":"#0051CA","description":"0:00-0:14 - Rough location: a drone and cargo were attacked in Dobropolye.","orbat":["Shock Detachment \"The Irish\""],"geolocation":["https://x.com/Brokenarrow42/status/2099208492569477287"],"sources":["https://x.com/Brokenarrow42/status/2099208495484506422","https://t.me/Secrets_of_Vinakos/17439"]}},{"type":"Feature","geometry":{"type":"Point","coordinates":[37.664136,48.530736]},"properties":{"original":{"Date":"2026-09-13","Name":"13 SEP 2026","Faction":"Ukraine","Origin":"UAV","Latitude":"48.530736","Longitude":"37.664136","PlusCode":"8GWVGMJ7+7M Kostyantynivka, Donetsk Oblast, Ukraine","Description":"0:25-0:38 - 100th Separate Mechanized Brigade blows up a Russian-held basement in Kostyantynivka with a Vampire Drone Dropped Double TM-62","Source":"https://x.com/AudaxonX/status/2102728939202330840, https://t.me/Volyn100obrTrO/4033","Geolocation":"https://x.com/AudaxonX/status/2102728893715173642","Equipment":"","EquipmentItems":"(Multi-Purpose) Bomber UAV | TM-62","Units":"","OrbatUnits":"100th Mechanized Brigade","Id":"47ec2f5d-2482-4522-8ba7-ce4ee2df0c9d","icon":"/api/icons/0051CA/False/template/110.png"},"source":"geoconfirmed","source_name":"GeoConfirmed","source_url":"https://geoconfirmed.org/map/ukraine","id":"47ec2f5d-2482-4522-8ba7-ce4ee2df0c9d","date":"2026-09-13","link":"https://geoconfirmed.org/map/ukraine/47ec2f5d-2482-4522-8ba7-ce4ee2df0c9d","category":"Multipurpose Bomber Drone, Flying OR Dropping OR bombing a target without knowing the outcome: if something is damaged --> icon of the damaged equipment.","side":"Ukraine","color":"#0051CA","description":"0:25-0:38 - 100th Separate Mechanized Brigade blows up a Russian-held basement in Kostyantynivka with a Vampire Drone Dropped Double TM-62","orbat":["100th Mechanized Brigade"],"geolocation":["https://x.com/AudaxonX/status/2102728893715173642"],"sources":["https://x.com/AudaxonX/status/2102728939202330840","https://t.me/Volyn100obrTrO/4033"]}},{"type":"Feature","geometry":{"type":"Point","coordinates":[23.872261,49.264903]},"properties":{"original":{"Date":"2026-09-13","Name":"13 SEP 2026","Faction":"Neutral","Origin":"VID","Latitude":"49.264903","Longitude":"23.872261","PlusCode":"8GX57V7C+XW Stryi, Lviv Oblast, Ukraine","Description":"Damaged residential building following a reported Russian attack.","Source":"Vid, (1/2), https://x.com/giK1893/status/2099059796301299761, https://t.me/suspilnenews/75312, Pic, 2(/2), https://x.com/giK1893/status/2099059796301299761, https://t.me/suspilnenews/7, ","Geolocation":"https://x.com/giK1893/status/2099059799803453847","Equipment":"","EquipmentItems":"","Units":"","OrbatUnits":"","Id":"e3d255ad-b72f-47aa-adb0-f513b36ace71","icon":"/api/icons/AC7339/False/template/192.png"},"source":"geoconfirmed","source_name":"GeoConfirmed","source_url":"https://geoconfirmed.org/map/ukraine","id":"e3d255ad-b72f-47aa-adb0-f513b36ace71","date":"2026-09-13","link":"https://geoconfirmed.org/map/ukraine/e3d255ad-b72f-47aa-adb0-f513b36ace71","category":"Recently destroyed/Damaged[Visible in footage] or still burning infrastucture","side":"Neutral","color":"#AC7339","description":"Damaged residential building following a reported Russian attack.","orbat":[],"geolocation":["https://x.com/giK1893/status/2099059799803453847"],"sources":["https://x.com/giK1893/status/2099059796301299761","https://t.me/suspilnenews/75312","https://x.com/giK1893/status/2099059796301299761","https://t.me/suspilnenews/7"]}},{"type":"Feature","geometry":{"type":"Point","coordinates":[37.09326,48.40035]},"properties":{"original":{"Date":"2026-09-13","Name":"13 SEP 2026","Faction":"Ukraine","Origin":"UAV","Latitude":"48.40035","Longitude":"37.09326","PlusCode":"8GWVC32V+48 Shevchenko, Donetsk Oblast, Ukraine","Description":"0:00-0:04 - Ukrainian 25th Airborne Brigade drone dropped explosives on a claimed Russian position in Shevchenko","Source":"https://x.com/meowqai/status/2099096064951525677, https://t.me/si4eslavskabrygada/2618, ","Geolocation":"https://x.com/meowqai/status/2099098380190277760","Equipment":"","EquipmentItems":"(Multi-Purpose) Bomber UAV","Units":"","OrbatUnits":"25th Airborne Brigade","Id":"c0b27091-6b17-486e-ae8c-f9f42770f453","icon":"/api/icons/0051CA/False/template/111.png"},"source":"geoconfirmed","source_name":"GeoConfirmed","source_url":"https://geoconfirmed.org/map/ukraine","id":"c0b27091-6b17-486e-ae8c-f9f42770f453","date":"2026-09-13","link":"https://geoconfirmed.org/map/ukraine/c0b27091-6b17-486e-ae8c-f9f42770f453","category":"Short Range (<50km) OWAD (One Way Attack Drone), mostly rotary wing, Flying OR Attacking a target without knowing the outcome: if something is damaged --> icon of the damaged equipment.","side":"Ukraine","color":"#0051CA","description":"0:00-0:04 - Ukrainian 25th Airborne Brigade drone dropped explosives on a claimed Russian position in Shevchenko","orbat":["25th Airborne Brigade"],"geolocation":["https://x.com/meowqai/status/2099098380190277760"],"sources":["https://x.com/meowqai/status/2099096064951525677","https://t.me/si4eslavskabrygada/2618"]}},{"type":"Feature","geometry":{"type":"Point","coordinates":[36.3238605,50.405558]},"properties":{"original":{"Date":"2026-09-13","Name":"13 SEP 2026","Faction":"Ukraine","Origin":"UAV","Latitude":"50.405558","Longitude":"36.3238605","PlusCode":"9G2RC84F+6G Otradnoe, Belgorod Oblast, Russia","Description":"050-0:53 - Claimed Russian position hit by a FPV drone of the 1st UAS Company \"Mamkin Chereshnia\"","Source":"https://x.com/WagnerGeosint/status/2099177541533602194, https://t.me/jacksons_dairy/13319","Geolocation":"https://x.com/WagnerGeosint/status/2099172171494871262","Equipment":"","EquipmentItems":"FPV (First Person View) OWAD (One Way Attack Drone)","Units":"","OrbatUnits":"UAV Unit \"Mum’s Cherry\" / \"Mamkin Chereshnia\"","Id":"6be0b7db-c61a-4828-892e-ffacef4e0d8f","icon":"/api/icons/0051CA/False/template/111.png"},"source":"geoconfirmed","source_name":"GeoConfirmed","source_url":"https://geoconfirmed.org/map/ukraine","id":"6be0b7db-c61a-4828-892e-ffacef4e0d8f","date":"2026-09-13","link":"https://geoconfirmed.org/map/ukraine/6be0b7db-c61a-4828-892e-ffacef4e0d8f","category":"Short Range (<50km) OWAD (One Way Attack Drone), mostly rotary wing, Flying OR Attacking a target without knowing the outcome: if something is damaged --> icon of the damaged equipment.","side":"Ukraine","color":"#0051CA","description":"050-0:53 - Claimed Russian position hit by a FPV drone of the 1st UAS Company \"Mamkin Chereshnia\"","orbat":["UAV Unit \"Mum’s Cherry\" / \"Mamkin Chereshnia\""],"geolocation":["https://x.com/WagnerGeosint/status/2099172171494871262"],"sources":["https://x.com/WagnerGeosint/status/2099177541533602194","https://t.me/jacksons_dairy/13319"]}}]}