{"type":"FeatureCollection","features":[{"type":"Feature","geometry":{"type":"MultiPolygon","coordinates":[[[[37.89534,48.78412],[37.89178,48.79399],[37.87727,48.79642],[37.88079,48.80416],[37.89126,48.80885],[37.89307,48.81677],[37.89271,48.82261],[37.89694,48.8194],[37.89853,48.81635],[37.90097,48.81381],[37.90251,48.8055],[37.91074,48.79889],[37.92041,48.7901],[37.91985,48.78545],[37.90278,48.77065],[37.89375,48.77827],[37.89534,48.78412]]],[[[37.04344,48.35657],[37.04183,48.36051],[37.042,48.36178],[37.04668,48.36681],[37.05046,48.36756],[37.09272,48.37249],[37.08847,48.38529],[37.10126,48.38803],[37.09705,48.39393],[37.10044,48.39732],[37.10615,48.39493],[37.10568,48.39111],[37.12375,48.38358],[37.13581,48.37471],[37.14826,48.37206],[37.15289,48.37759],[37.15697,48.38149],[37.16345,48.3807],[37.1677,48.38606],[37.17317,48.39413],[37.17244,48.4003],[37.19403,48.40271],[37.19515,48.40479],[37.1955,48.40153],[37.18718,48.40053],[37.18527,48.39236],[37.17409,48.38983],[37.17,48.37957],[37.16953,48.37842],[37.16954,48.37841],[37.16769,48.37379],[37.1664,48.37224],[37.167,48.3657],[37.15944,48.36613],[37.12852,48.3653],[37.12237,48.37013],[37.1201,48.37737],[37.11126,48.38219],[37.10946,48.38139],[37.10671,48.37868],[37.10325,48.36532],[37.08492,48.36281],[37.07392,48.36154],[37.04757,48.35723],[37.04037,48.35082],[37.0403,48.35088],[37.04344,48.35657]]],[[[36.15233,47.65801],[36.1491,47.6627],[36.13954,47.68412],[36.13825,47.69062],[36.13907,47.69255],[36.1416,47.69388],[36.14287,47.70086],[36.15355,47.69759],[36.16102,47.69316],[36.16409,47.69024],[36.1681,47.68922],[36.17226,47.68081],[36.16741,47.67884],[36.16654,47.67268],[36.16037,47.67053],[36.16381,47.66399],[36.17016,47.65393],[36.16192,47.65173],[36.1586,47.65375],[36.15233,47.65801]]]]},"properties":{"source":"ukrdaily","source_name":"UkrDailyUpdate","source_url":"https://map.ukrdailyupdate.com/","category":"gained","category_label":"Newly Russian-occupied","period":"7d","compared_with":"2026-09-25","snapshot_time":"2026-10-02","area_km2_approx":29.3}},{"type":"Feature","geometry":{"type":"MultiPolygon","coordinates":[[[[37.83797,48.86314],[37.82929,48.86306],[37.82632,48.86127],[37.82396,48.86101],[37.82275,48.86942],[37.82374,48.87786],[37.83252,48.88378],[37.83251,48.87998],[37.83582,48.87794],[37.83651,48.87348],[37.83951,48.86857],[37.84381,48.86225],[37.84131,48.8603],[37.83797,48.86314]]],[[[37.80614,48.84427],[37.80459,48.84636],[37.8015,48.85379],[37.80236,48.85608],[37.80628,48.85695],[37.80826,48.85127],[37.81328,48.84523],[37.81424,48.84108],[37.81484,48.83662],[37.80861,48.83607],[37.80614,48.84427]]],[[[37.60259,48.52844],[37.60844,48.53965],[37.61745,48.54959],[37.61524,48.55821],[37.62627,48.56435],[37.63047,48.56117],[37.63318,48.56227],[37.64154,48.55855],[37.64227,48.5571],[37.64077,48.55227],[37.63622,48.55531],[37.62982,48.55512],[37.62394,48.5529],[37.62394,48.5496],[37.62167,48.54614],[37.61854,48.53742],[37.61789,48.53361],[37.61583,48.53008],[37.61358,48.52306],[37.61032,48.51476],[37.60552,48.51101],[37.60259,48.52844]]],[[[37.56409,50.19089],[37.53397,50.18548],[37.51362,50.17691],[37.46768,50.17606],[37.48176,50.18562],[37.49171,50.20903],[37.52368,50.22497],[37.53363,50.22436],[37.54745,50.22162],[37.56213,50.22299],[37.56693,50.21777],[37.56736,50.21349],[37.58496,50.20959],[37.56409,50.19089]]],[[[37.15035,48.4239],[37.14565,48.42504],[37.14314,48.42729],[37.14818,48.43204],[37.15408,48.43344],[37.16745,48.43342],[37.16937,48.42371],[37.18042,48.42262],[37.18041,48.42222],[37.16765,48.42178],[37.16076,48.42038],[37.15035,48.4239]]],[[[35.94087,47.62176],[35.94375,47.62578],[35.9591,47.62302],[35.95751,47.61657],[35.94087,47.62176]]]]},"properties":{"source":"ukrdaily","source_name":"UkrDailyUpdate","source_url":"https://map.ukrdailyupdate.com/","category":"gained_contested","category_label":"Newly contested","period":"7d","compared_with":"2026-09-25","snapshot_time":"2026-10-02","area_km2_approx":36.7}},{"type":"Feature","geometry":{"type":"MultiPolygon","coordinates":[[[[37.92535,49.22819],[37.92634,49.23144],[37.92986,49.23088],[37.93357,49.22397],[37.93701,49.22073],[37.94157,49.21867],[37.95211,49.21108],[37.94035,49.20682],[37.93514,49.20325],[37.93456,49.21137],[37.93474,49.20881],[37.92538,49.20453],[37.90504,49.19651],[37.90057,49.19219],[37.87105,49.1872],[37.86967,49.17962],[37.87092,49.17572],[37.86471,49.17307],[37.85089,49.17096],[37.84973,49.15758],[37.84896,49.15225],[37.84458,49.14938],[37.84175,49.15039],[37.82785,49.15135],[37.80836,49.15455],[37.78571,49.15061],[37.78665,49.15181],[37.78588,49.15277],[37.77325,49.15749],[37.76203,49.16313],[37.76379,49.16804],[37.76019,49.17062],[37.75886,49.17276],[37.75408,49.17544],[37.74726,49.17791],[37.74364,49.17501],[37.741,49.17451],[37.73978,49.17573],[37.74027,49.17674],[37.7418,49.17788],[37.74267,49.17909],[37.74297,49.18024],[37.74248,49.18317],[37.74598,49.18666],[37.75673,49.18748],[37.76484,49.19439],[37.77095,49.19152],[37.77537,49.19066],[37.77974,49.18599],[37.79769,49.18123],[37.80619,49.17981],[37.80761,49.18378],[37.80506,49.18646],[37.8079,49.19039],[37.80279,49.19333],[37.80648,49.20121],[37.81488,49.20075],[37.82612,49.19498],[37.8335,49.1943],[37.83894,49.19354],[37.83984,49.19829],[37.84407,49.19873],[37.85833,49.19787],[37.87588,49.19557],[37.87791,49.19895],[37.87828,49.20162],[37.8738,49.20344],[37.87713,49.21209],[37.87472,49.21479],[37.87643,49.21752],[37.87347,49.22206],[37.87351,49.22534],[37.87192,49.23467],[37.86943,49.23826],[37.87091,49.23968],[37.87418,49.24133],[37.87796,49.24248],[37.88313,49.24361],[37.89257,49.23005],[37.89969,49.22913],[37.91145,49.23017],[37.91175,49.23061],[37.916,49.23124],[37.91948,49.23124],[37.91989,49.23234],[37.92323,49.22723],[37.92535,49.22819]]],[[[37.87429,48.9923],[37.86312,48.99182],[37.86245,48.99824],[37.85732,48.99798],[37.85634,49.00492],[37.85197,49.00727],[37.85192,49.01042],[37.83845,49.0102],[37.83768,49.02016],[37.83683,49.02011],[37.83893,49.02338],[37.84193,49.0235],[37.85811,49.02071],[37.86019,49.01727],[37.86607,49.01701],[37.86795,49.02095],[37.88349,49.02216],[37.8839,49.01673],[37.87934,49.01427],[37.87735,49.00612],[37.8734,49.00457],[37.87429,48.9923]]],[[[37.37223,50.4165],[37.37691,50.42114],[37.38129,50.42354],[37.38905,50.42494],[37.39562,50.4207],[37.38965,50.41918],[37.37223,50.4165]]],[[[36.64832,47.91039],[36.64217,47.92514],[36.67435,47.92774],[36.67663,47.91895],[36.67734,47.90984],[36.67655,47.90472],[36.67344,47.89812],[36.67272,47.89609],[36.66821,47.89399],[36.66459,47.89424],[36.6645,47.8941],[36.64282,47.89829],[36.64977,47.90289],[36.64832,47.91039]]],[[[35.80787,47.55212],[35.80552,47.55267],[35.80163,47.55503],[35.79756,47.56051],[35.80008,47.56333],[35.81572,47.5609],[35.82803,47.56344],[35.8298,47.56421],[35.83277,47.56399],[35.84505,47.56104],[35.84033,47.5531],[35.83006,47.54421],[35.83356,47.52975],[35.80757,47.52532],[35.80277,47.54687],[35.80787,47.55212]]]]},"properties":{"source":"ukrdaily","source_name":"UkrDailyUpdate","source_url":"https://map.ukrdailyupdate.com/","category":"lost","category_label":"Less Russian-held (occupied or contested area lost)","period":"7d","compared_with":"2026-09-25","snapshot_time":"2026-10-02","area_km2_approx":76.6}}]}