{"type":"FeatureCollection","features":[{"type":"Feature","geometry":{"type":"MultiPolygon","coordinates":[[[[37.89534,48.78412],[37.89178,48.79399],[37.87727,48.79642],[37.88079,48.80416],[37.89126,48.80885],[37.89307,48.81677],[37.89271,48.82261],[37.88904,48.82658],[37.89378,48.82769],[37.90959,48.83394],[37.91092,48.83561],[37.92071,48.84021],[37.92885,48.84052],[37.93253,48.81976],[37.93017,48.81688],[37.9312,48.81295],[37.93437,48.7966],[37.92103,48.79504],[37.91985,48.78545],[37.90278,48.77065],[37.89375,48.77827],[37.89534,48.78412]]],[[[37.82523,48.75642],[37.81845,48.76191],[37.81295,48.76906],[37.82616,48.78203],[37.83591,48.77845],[37.83682,48.77825],[37.84235,48.77777],[37.84849,48.77511],[37.87119,48.77641],[37.87226,48.78197],[37.88029,48.76967],[37.87951,48.76552],[37.8631,48.76199],[37.84636,48.76167],[37.8419,48.76326],[37.83769,48.76383],[37.83335,48.76157],[37.83141,48.76001],[37.83453,48.75175],[37.82523,48.75642]]],[[[37.80345,48.56436],[37.80315,48.56586],[37.80281,48.56976],[37.80319,48.57236],[37.80772,48.57297],[37.81141,48.5729],[37.81942,48.57537],[37.82127,48.57304],[37.81667,48.57154],[37.81456,48.56953],[37.81277,48.56732],[37.81094,48.5646],[37.80345,48.56436]]],[[[37.78472,48.6217],[37.78528,48.62415],[37.78215,48.62721],[37.77919,48.64139],[37.77404,48.64749],[37.76848,48.65303],[37.76327,48.65421],[37.75918,48.65383],[37.75721,48.65441],[37.75161,48.65733],[37.75165,48.66264],[37.75388,48.66542],[37.76452,48.66704],[37.77713,48.67079],[37.77954,48.67467],[37.78585,48.67637],[37.78648,48.68926],[37.79622,48.68852],[37.79571,48.67999],[37.79708,48.67849],[37.80854,48.68064],[37.81091,48.66559],[37.79862,48.66385],[37.79672,48.66126],[37.79492,48.66044],[37.79414,48.65911],[37.79178,48.6581],[37.78719,48.655],[37.78706,48.65284],[37.78642,48.65157],[37.7902,48.64363],[37.79191,48.64128],[37.79396,48.63926],[37.79981,48.63737],[37.80045,48.63065],[37.7924,48.62163],[37.7815,48.6205],[37.78143,48.62089],[37.78472,48.6217]]],[[[37.79633,48.558],[37.79369,48.55914],[37.7894,48.5586],[37.78679,48.55898],[37.78706,48.56012],[37.78807,48.56073],[37.78942,48.56118],[37.79044,48.56176],[37.79029,48.56242],[37.79216,48.56282],[37.79176,48.56389],[37.79582,48.56406],[37.7964,48.56012],[37.79633,48.558]]],[[[37.71737,48.48653],[37.72036,48.48911],[37.72334,48.49086],[37.72557,48.49241],[37.72626,48.4936],[37.72921,48.49572],[37.73187,48.4963],[37.73342,48.49557],[37.73709,48.49439],[37.73815,48.49628],[37.73987,48.49665],[37.74188,48.49392],[37.74292,48.4909],[37.74758,48.4867],[37.75264,48.4848],[37.75704,48.48564],[37.75922,48.4837],[37.76197,48.48336],[37.76086,48.48208],[37.75456,48.47979],[37.74795,48.47871],[37.74269,48.4809],[37.72705,48.47954],[37.71795,48.48402],[37.71454,48.48502],[37.71737,48.48653]]],[[[37.61311,48.49609],[37.62108,48.49972],[37.62271,48.51866],[37.62405,48.52419],[37.63671,48.52569],[37.64568,48.52481],[37.64929,48.5106],[37.66187,48.50463],[37.64368,48.50287],[37.64252,48.50776],[37.62837,48.5067],[37.6302,48.49639],[37.61261,48.49474],[37.61311,48.49609]]],[[[37.60541,48.45234],[37.60683,48.45673],[37.6091,48.45721],[37.61,48.45919],[37.61125,48.45932],[37.61541,48.45727],[37.62318,48.45815],[37.62416,48.46191],[37.62712,48.46384],[37.62858,48.46677],[37.6268,48.47672],[37.61681,48.48763],[37.6217,48.48626],[37.62677,48.48177],[37.63355,48.47776],[37.63937,48.45358],[37.61597,48.44565],[37.613,48.45128],[37.60588,48.45079],[37.60348,48.45133],[37.60541,48.45234]]],[[[37.605,50.25353],[37.61307,50.25561],[37.62612,50.25575],[37.6264,50.23882],[37.60908,50.24051],[37.59706,50.24594],[37.5914,50.25094],[37.605,50.25353]]],[[[37.24547,48.4597],[37.26452,48.46448],[37.27512,48.46974],[37.28096,48.4723],[37.2934,48.4758],[37.29984,48.47643],[37.30203,48.47609],[37.30237,48.47674],[37.30383,48.47734],[37.30636,48.47586],[37.31194,48.47424],[37.31782,48.47454],[37.30967,48.46928],[37.2947,48.4683],[37.27673,48.46738],[37.27126,48.46059],[37.26344,48.45739],[37.24425,48.45557],[37.24547,48.4597]]],[[[37.0362,48.34896],[37.04016,48.35063],[37.04344,48.35657],[37.04183,48.36051],[37.042,48.36178],[37.04668,48.36681],[37.05046,48.36756],[37.09272,48.37249],[37.08847,48.38529],[37.10126,48.38803],[37.09705,48.39393],[37.10044,48.39732],[37.10615,48.39493],[37.10568,48.39111],[37.12375,48.38358],[37.13581,48.37471],[37.14826,48.37206],[37.15289,48.37759],[37.15697,48.38149],[37.16345,48.3807],[37.1677,48.38606],[37.17317,48.39413],[37.17244,48.4003],[37.19403,48.40271],[37.19515,48.40479],[37.18845,48.41024],[37.18998,48.41406],[37.22282,48.41698],[37.22361,48.41961],[37.22516,48.41979],[37.23339,48.41903],[37.23559,48.41166],[37.24174,48.41143],[37.2432,48.39972],[37.22928,48.39794],[37.18889,48.39327],[37.19134,48.38378],[37.18855,48.37978],[37.17653,48.37861],[37.17739,48.37411],[37.18344,48.37228],[37.18341,48.36136],[37.17118,48.36079],[37.16221,48.36384],[37.14651,48.3643],[37.10449,48.35968],[37.10325,48.36532],[37.08492,48.36281],[37.08525,48.35735],[37.08263,48.35681],[37.07972,48.35593],[37.07697,48.35467],[37.0753,48.35342],[37.0713,48.35219],[37.0674,48.35154],[37.06701,48.34573],[37.06935,48.34054],[37.06466,48.33874],[37.05628,48.34309],[37.05173,48.34354],[37.04783,48.34582],[37.04701,48.34562],[37.04208,48.34839],[37.03968,48.34676],[37.0362,48.34896]],[[37.16998,48.37953],[37.17013,48.37984],[37.17011,48.37985],[37.16998,48.37953]]],[[[37.06078,48.31323],[37.06308,48.31791],[37.06523,48.31666],[37.09644,48.30781],[37.10531,48.30203],[37.113,48.29675],[37.11412,48.28725],[37.10579,48.28586],[37.06613,48.28157],[37.06078,48.31323]]],[[[37.03209,48.25981],[37.03055,48.26721],[37.05666,48.26961],[37.05687,48.26305],[37.05047,48.26165],[37.05236,48.25459],[37.05112,48.25392],[37.05113,48.2539],[37.04611,48.25121],[37.04626,48.24972],[37.03959,48.2464],[37.03471,48.24523],[37.02736,48.244],[37.01594,48.24258],[37.01211,48.25939],[37.01177,48.26197],[37.03209,48.25981]]],[[[36.20784,50.34212],[36.19805,50.33431],[36.19365,50.33327],[36.19003,50.33538],[36.18984,50.33902],[36.19411,50.34519],[36.20732,50.35729],[36.22126,50.36785],[36.21933,50.36412],[36.22237,50.35963],[36.22748,50.3572],[36.20784,50.34212]]],[[[36.16635,47.72946],[36.16446,47.73506],[36.16352,47.74528],[36.16601,47.74678],[36.17364,47.74718],[36.17347,47.7537],[36.17875,47.75699],[36.19525,47.76077],[36.19609,47.75206],[36.20139,47.74941],[36.20358,47.7381],[36.20263,47.73784],[36.20519,47.7238],[36.1942,47.72236],[36.18284,47.71889],[36.18046,47.72139],[36.17008,47.71917],[36.16368,47.72763],[36.16635,47.72946]]],[[[36.15233,47.65801],[36.1491,47.6627],[36.13954,47.68412],[36.13825,47.69062],[36.13907,47.69255],[36.1416,47.69388],[36.14287,47.70086],[36.15355,47.69759],[36.16102,47.69316],[36.16409,47.69024],[36.1681,47.68922],[36.17226,47.68081],[36.16741,47.67884],[36.16654,47.67268],[36.16037,47.67053],[36.16381,47.66399],[36.17016,47.65393],[36.16192,47.65173],[36.1586,47.65375],[36.15233,47.65801]]],[[[36.08036,47.58535],[36.08061,47.58787],[36.06871,47.58904],[36.06962,47.59367],[36.07289,47.59458],[36.08916,47.59011],[36.10852,47.58919],[36.10627,47.58431],[36.10235,47.58397],[36.09403,47.58553],[36.09301,47.58428],[36.08036,47.58535]]],[[[35.53682,47.54717],[35.54291,47.55209],[35.56016,47.55336],[35.57802,47.55562],[35.58561,47.55287],[35.58763,47.53929],[35.59038,47.52578],[35.59312,47.51669],[35.60753,47.49912],[35.59161,47.5018],[35.5814,47.50309],[35.57176,47.5103],[35.5688,47.52168],[35.56615,47.53507],[35.56451,47.54203],[35.546,47.53784],[35.53303,47.53369],[35.52655,47.53295],[35.52208,47.53465],[35.52041,47.54001],[35.53682,47.54717]]]]},"properties":{"source":"ukrdaily","source_name":"UkrDailyUpdate","source_url":"https://map.ukrdailyupdate.com/","category":"gained","category_label":"Newly Russian-occupied","period":"30d","compared_with":"2026-09-02","snapshot_time":"2026-10-02","area_km2_approx":148.4}},{"type":"Feature","geometry":{"type":"MultiPolygon","coordinates":[[[[37.93454,49.21167],[37.9282,49.21948],[37.92713,49.22217],[37.92476,49.22328],[37.92235,49.22547],[37.92179,49.22658],[37.92535,49.22819],[37.92634,49.23144],[37.92986,49.23088],[37.93357,49.22397],[37.93701,49.22073],[37.94157,49.21867],[37.95211,49.21108],[37.94035,49.20682],[37.93514,49.20325],[37.93454,49.21167]]],[[[37.93288,49.1948],[37.93403,49.19576],[37.9352,49.19214],[37.93288,49.1948]]],[[[37.88976,49.09296],[37.88293,49.09133],[37.86653,49.08643],[37.8628,49.07863],[37.84028,49.07851],[37.83014,49.07502],[37.82507,49.07109],[37.82369,49.07021],[37.82189,49.06986],[37.81956,49.07006],[37.81776,49.07108],[37.81712,49.07242],[37.81497,49.07243],[37.80392,49.07022],[37.79726,49.07165],[37.78727,49.07434],[37.78019,49.07024],[37.77431,49.07209],[37.76646,49.06804],[37.75826,49.06858],[37.74981,49.06637],[37.74498,49.06376],[37.73125,49.06568],[37.72838,49.06544],[37.7193,49.0669],[37.71239,49.06623],[37.71123,49.07355],[37.71237,49.07796],[37.71691,49.0801],[37.71923,49.08439],[37.71046,49.08443],[37.70323,49.08628],[37.70342,49.09011],[37.7076,49.09678],[37.70836,49.10134],[37.70089,49.10569],[37.69313,49.10605],[37.6844,49.10526],[37.67729,49.10689],[37.67798,49.11086],[37.68618,49.12618],[37.68994,49.12864],[37.70065,49.13082],[37.71544,49.12902],[37.71522,49.12527],[37.71844,49.12208],[37.72228,49.12023],[37.7308,49.11784],[37.73686,49.11576],[37.74148,49.11574],[37.74492,49.11753],[37.74822,49.12064],[37.75444,49.12554],[37.75383,49.13674],[37.74971,49.14068],[37.74607,49.14234],[37.74552,49.14435],[37.7466,49.14516],[37.75007,49.14592],[37.75417,49.15006],[37.76063,49.14721],[37.76302,49.1445],[37.76469,49.14383],[37.77615,49.14019],[37.78384,49.13253],[37.79059,49.12735],[37.7948,49.12573],[37.80025,49.12439],[37.80413,49.12414],[37.82765,49.12433],[37.83475,49.12379],[37.84838,49.12398],[37.87348,49.12781],[37.87741,49.12865],[37.88313,49.12953],[37.88855,49.12964],[37.89364,49.13226],[37.90203,49.13393],[37.90416,49.13514],[37.9123,49.13919],[37.91643,49.13936],[37.91856,49.14043],[37.91953,49.14575],[37.91931,49.14816],[37.91945,49.15288],[37.9204,49.15529],[37.92074,49.158],[37.91988,49.15895],[37.92102,49.165],[37.9261,49.16107],[37.92796,49.15674],[37.92571,49.14342],[37.92569,49.13642],[37.91899,49.12108],[37.91779,49.11734],[37.91562,49.11405],[37.90941,49.11059],[37.89565,49.10675],[37.8994,49.10251],[37.89454,49.09228],[37.88976,49.09296]]],[[[37.65373,49.85862],[37.64397,49.85959],[37.64962,49.86325],[37.65298,49.86327],[37.65442,49.86047],[37.65965,49.86018],[37.65878,49.85724],[37.65373,49.85862]]],[[[37.61968,49.81595],[37.62118,49.82055],[37.62735,49.82058],[37.63014,49.82266],[37.63242,49.82342],[37.63415,49.82264],[37.62939,49.81656],[37.62461,49.81492],[37.61968,49.81595]]],[[[36.69353,47.96554],[36.70251,47.96667],[36.70141,47.97055],[36.72694,47.97377],[36.73686,47.97607],[36.73534,47.98958],[36.73744,47.99432],[36.73972,47.99387],[36.74075,47.9906],[36.74198,47.98934],[36.74231,47.98823],[36.74149,47.98598],[36.74202,47.98395],[36.74191,47.97896],[36.74122,47.97678],[36.74,47.97605],[36.73951,47.97553],[36.73495,47.96881],[36.7195,47.96674],[36.72226,47.95585],[36.68971,47.95097],[36.69353,47.96554]]],[[[36.64977,47.90289],[36.64832,47.91039],[36.64217,47.92514],[36.67435,47.92774],[36.67663,47.91895],[36.67734,47.90984],[36.67655,47.90472],[36.67344,47.89812],[36.67272,47.89609],[36.66821,47.89399],[36.66459,47.89424],[36.6645,47.8941],[36.64282,47.89829],[36.64977,47.90289]]]]},"properties":{"source":"ukrdaily","source_name":"UkrDailyUpdate","source_url":"https://map.ukrdailyupdate.com/","category":"lost","category_label":"No longer Russian-occupied","period":"30d","compared_with":"2026-09-02","snapshot_time":"2026-10-02","area_km2_approx":109.3}}]}