{"type":"FeatureCollection","features":[{"type":"Feature","geometry":{"type":"Polygon","coordinates":[[[37.8734,49.00457],[37.87429,48.9923],[37.86312,48.99182],[37.86245,48.99824],[37.85732,48.99798],[37.85634,49.00492],[37.85197,49.00727],[37.85192,49.01042],[37.83845,49.0102],[37.83768,49.02016],[37.83683,49.02011],[37.83893,49.02338],[37.84193,49.0235],[37.85015,49.02216],[37.85811,49.02071],[37.86019,49.01727],[37.86607,49.01701],[37.86795,49.02095],[37.88349,49.02216],[37.8839,49.01673],[37.87934,49.01427],[37.87735,49.00612],[37.8734,49.00457]]]},"properties":{"source":"ukrdaily","source_name":"UkrDailyUpdate","source_url":"https://map.ukrdailyupdate.com/","category":"lost","category_label":"Ukrainian advance: became Ukrainian-held","period":"1d","compared_with":"2026-10-01","snapshot_time":"2026-10-02","area_km2_approx":6.4}}]}