{"type":"FeatureCollection","features":[{"type":"Feature","geometry":{"type":"Point","coordinates":[36.825166,47.908114]},"properties":{"original":{"id":46441,"type":"Self-propelled artillery","model":"203mm 2S7(M) 'Pion'/'Malka'","status":"Destroyed","lost_by":"Russia","date":"2026-08-11","nearest_location":"Novoocheretuvate, Volnovakha raion","geo":"47.908114,36.825166","unit":null,"tags":null},"source":"warspotting","source_name":"WarSpotting","source_url":"https://ukr.warspotting.net/","id":46441,"date":"2026-08-11","link":"https://ukr.warspotting.net/view/46441/","category":"Self-propelled artillery","side":"Lost by Russia","color":"#E00000","description":"203mm 2S7(M) 'Pion'/'Malka' · Destroyed · near Novoocheretuvate, Volnovakha raion","orbat":[]}},{"type":"Feature","geometry":{"type":"Point","coordinates":[37.832689,44.711725]},"properties":{"original":{"id":46488,"type":"Vessels","model":"Project 22160 'Vasily Bykov' class patrol ship","status":"Damaged","lost_by":"Russia","date":"2026-08-11","nearest_location":"Novorossiysk, Novorossiysk okrug","geo":"44.711725,37.832689","unit":"Black Sea Fleet","tags":"Loitering"},"source":"warspotting","source_name":"WarSpotting","source_url":"https://ukr.warspotting.net/","id":46488,"date":"2026-08-11","link":"https://ukr.warspotting.net/view/46488/","category":"Vessels","side":"Lost by Russia","color":"#E00000","description":"Project 22160 'Vasily Bykov' class patrol ship · Damaged · near Novorossiysk, Novorossiysk okrug · tags: Loitering","orbat":["Black Sea Fleet"]}},{"type":"Feature","geometry":{"type":"Point","coordinates":[37.834765,44.714939]},"properties":{"original":{"id":46495,"type":"Vessels","model":"Project 21631 'Buyan-M' class corvette","status":"Damaged","lost_by":"Russia","date":"2026-08-11","nearest_location":"Novorossiysk, Novorossiysk okrug","geo":"44.714939,37.834765","unit":"Black Sea Fleet","tags":"Loitering"},"source":"warspotting","source_name":"WarSpotting","source_url":"https://ukr.warspotting.net/","id":46495,"date":"2026-08-11","link":"https://ukr.warspotting.net/view/46495/","category":"Vessels","side":"Lost by Russia","color":"#E00000","description":"Project 21631 'Buyan-M' class corvette · Damaged · near Novorossiysk, Novorossiysk okrug · tags: Loitering","orbat":["Black Sea Fleet"]}}]}