{"type":"FeatureCollection","features":[{"type":"Feature","geometry":{"type":"Point","coordinates":[36.962,48.42899]},"properties":{"source":"lost_warinua","source_name":"lost_warinua (Telegram)","source_url":"https://t.me/s/lost_warinua","id":140967,"date":"2026-06-11","date_note":null,"posted_utc":"2026-09-23T14:30:00+00:00","link":"https://t.me/lost_warinua/140967","category":"Telegram post","side":"Claimed loss: Ukraine (ВСУ)","color":"#0051CA","description":"Уничтоженный БТР VAB №412 с мангалом ВСУ возле н.п. Новофедоровка Донецкой области.","orbat":[],"sources":["https://t.me/icpbtrubicon/1805"],"original_html":"<div class=\"tgme_widget_message_text js-message_text\" dir=\"auto\">11.06.2026<br/>Уничтоженный БТР VAB №412 с мангалом ВСУ возле н.п. Новофедоровка Донецкой области.<br/>(<code>48.42899, 36.962</code>)<br/><a href=\"https://t.me/icpbtrubicon/1805\" target=\"_blank\" rel=\"noopener\">https://t.me/icpbtrubicon/1805</a>"}}]}