{"type":"FeatureCollection","features":[{"type":"Feature","geometry":{"type":"Point","coordinates":[48.394372,53.085134]},"properties":{"original":{"Date":"2026-08-08","Name":"08 AUG 2026","Faction":"Neutral","Origin":"SAT","Latitude":"53.085134","Longitude":"48.394372","PlusCode":"9H5C39PV+3P Syzran, Samara Oblast, Russia","Description":"Center of the damage at the Former location ELOU-AVT-6 unit (Syzran) | industrial equipment) at Syzran Oil Refinery following reported Ukrainian strikes.","Source":"https://x.com/Exilenova_plus/status/2088153357534007572, , More information, https://www.pravda.com.ua/eng/news/2026/08/08/8047863/, https://t.me/GeneralStaffZSU/41807","Geolocation":"https://wikimapia.org/#lang=en&lat=53.085158&lon=48.394432&z=13","Equipment":"","EquipmentItems":"Oil Refinery / Gas processing plant or similar","Units":"","OrbatUnits":"","Id":"80b0bc6e-33bf-4812-a13c-1155cdf82085","icon":"/api/icons/AC7339/False/template/192.png"},"source":"geoconfirmed","source_name":"GeoConfirmed","source_url":"https://geoconfirmed.org/map/ukraine","id":"80b0bc6e-33bf-4812-a13c-1155cdf82085","date":"2026-08-08","link":"https://geoconfirmed.org/map/ukraine/80b0bc6e-33bf-4812-a13c-1155cdf82085","category":"Recently destroyed/Damaged[Visible in footage] or still burning infrastucture","side":"Neutral","color":"#AC7339","description":"Center of the damage at the Former location ELOU-AVT-6 unit (Syzran) | industrial equipment) at Syzran Oil Refinery following reported Ukrainian strikes.","orbat":[],"geolocation":["https://wikimapia.org/#lang=en&lat=53.085158&lon=48.394432&z=13"],"sources":["https://x.com/Exilenova_plus/status/2088153357534007572","https://www.pravda.com.ua/eng/news/2026/08/08/8047863/","https://t.me/GeneralStaffZSU/41807"]}},{"type":"Feature","geometry":{"type":"Point","coordinates":[35.12621,46.61735]},"properties":{"original":{"Date":"2026-08-08","Name":"08 AUG 2026","Faction":"Ukraine","Origin":"UAV","Latitude":"46.61735","Longitude":"35.12621","PlusCode":"8GRQJ48G+WF Yur'ivka, Zaporizhia Oblast, Ukraine","Description":"1:21-1:27 - Drone strike on a Semi-truck.","Source":"https://x.com/umftteam/status/2085288779724591588, https://t.me/umftteam/1068","Geolocation":"https://x.com/meowqai/status/2086771725643968832","Equipment":"Semi-Truck","EquipmentItems":"Fixed Wing OWAD (One Way Attack Drone)","Units":"","OrbatUnits":"Battalion of unmanned strike aerial systems \"Signum\"","Id":"b3a00d4c-2457-4109-9310-207f262d7665","icon":"/api/icons/0051CA/False/template/111.png"},"source":"geoconfirmed","source_name":"GeoConfirmed","source_url":"https://geoconfirmed.org/map/ukraine","id":"b3a00d4c-2457-4109-9310-207f262d7665","date":"2026-08-08","link":"https://geoconfirmed.org/map/ukraine/b3a00d4c-2457-4109-9310-207f262d7665","category":"Short Range (<50km) OWAD (One Way Attack Drone), mostly rotary wing, Flying OR Attacking a target without knowing the outcome: if something is damaged --> icon of the damaged equipment.","side":"Ukraine","color":"#0051CA","description":"1:21-1:27 - Drone strike on a Semi-truck.","orbat":["Battalion of unmanned strike aerial systems \"Signum\""],"geolocation":["https://x.com/meowqai/status/2086771725643968832"],"sources":["https://x.com/umftteam/status/2085288779724591588","https://t.me/umftteam/1068"]}},{"type":"Feature","geometry":{"type":"Point","coordinates":[35.091663,46.59326]},"properties":{"original":{"Date":"2026-08-08","Name":"08 AUG 2026","Faction":"Ukraine","Origin":"UAV","Latitude":"46.59326","Longitude":"35.091663","PlusCode":"8GRQH3VR+8M Vovchans'ke, Zaporizhia Oblast, Ukraine","Description":"0:57-1:00 - Drone strike on a Russian military escorted truck.","Source":"https://x.com/umftteam/status/2085288779724591588, https://t.me/umftteam/1068","Geolocation":"https://x.com/meowqai/status/2086777640271184057","Equipment":"Military 4x4 vehicle","EquipmentItems":"Fixed Wing OWAD (One Way Attack Drone) | Truck","Units":"","OrbatUnits":"Battalion of unmanned strike aerial systems \"Signum\"","Id":"1b3f5c5a-81e3-4c9b-aba0-2922ccec0b5f","icon":"/api/icons/0051CA/False/template/111.png"},"source":"geoconfirmed","source_name":"GeoConfirmed","source_url":"https://geoconfirmed.org/map/ukraine","id":"1b3f5c5a-81e3-4c9b-aba0-2922ccec0b5f","date":"2026-08-08","link":"https://geoconfirmed.org/map/ukraine/1b3f5c5a-81e3-4c9b-aba0-2922ccec0b5f","category":"Short Range (<50km) OWAD (One Way Attack Drone), mostly rotary wing, Flying OR Attacking a target without knowing the outcome: if something is damaged --> icon of the damaged equipment.","side":"Ukraine","color":"#0051CA","description":"0:57-1:00 - Drone strike on a Russian military escorted truck.","orbat":["Battalion of unmanned strike aerial systems \"Signum\""],"geolocation":["https://x.com/meowqai/status/2086777640271184057"],"sources":["https://x.com/umftteam/status/2085288779724591588","https://t.me/umftteam/1068"]}},{"type":"Feature","geometry":{"type":"Point","coordinates":[37.605749,49.775829]},"properties":{"original":{"Date":"2026-08-08","Name":"08 AUG 2026","Faction":"Russia","Origin":"UAV","Latitude":"49.775829","Longitude":"37.605749","PlusCode":"8GXVQJG4+87 Kalynove, Kharkiv Oblast, Ukraine","Description":"0:11 - Russian drone drops explosive into claimed Ukrainian position in a treeline northeast of Kindrashivka, Kharkiv Oblast","Source":"https://x.com/Bielitzling/status/2086085069383336043, https://t.me/hisnikii/1657","Geolocation":"https://x.com/Bielitzling/status/2086085065587458053","Equipment":"","EquipmentItems":"(Multi-Purpose) Bomber UAV","Units":"","OrbatUnits":"","Id":"d1b95b75-52dd-4340-8104-2cbd58a9034c","icon":"/api/icons/E00000/False/template/110.png"},"source":"geoconfirmed","source_name":"GeoConfirmed","source_url":"https://geoconfirmed.org/map/ukraine","id":"d1b95b75-52dd-4340-8104-2cbd58a9034c","date":"2026-08-08","link":"https://geoconfirmed.org/map/ukraine/d1b95b75-52dd-4340-8104-2cbd58a9034c","category":"Multipurpose Bomber Drone, Flying OR Dropping OR bombing a target without knowing the outcome: if something is damaged --> icon of the damaged equipment.","side":"Russia","color":"#E00000","description":"0:11 - Russian drone drops explosive into claimed Ukrainian position in a treeline northeast of Kindrashivka, Kharkiv Oblast","orbat":[],"geolocation":["https://x.com/Bielitzling/status/2086085065587458053"],"sources":["https://x.com/Bielitzling/status/2086085069383336043","https://t.me/hisnikii/1657"]}},{"type":"Feature","geometry":{"type":"Point","coordinates":[35.12866,46.61909]},"properties":{"original":{"Date":"2026-08-08","Name":"08 AUG 2026","Faction":"Ukraine","Origin":"UAV","Latitude":"46.61909","Longitude":"35.12866","PlusCode":"8GRQJ49H+JF Yur'ivka, Zaporizhia Oblast, Ukraine","Description":"01:14 - Drone strike on a Semi-truck.","Source":"https://x.com/umftteam/status/2085288779724591588, https://t.me/umftteam/1068","Geolocation":"https://x.com/meowqai/status/2085778499873165642","Equipment":"Semi-Truck","EquipmentItems":"Fixed Wing OWAD (One Way Attack Drone)","Units":"","OrbatUnits":"Battalion of unmanned strike aerial systems \"Signum\"","Id":"a2c6e321-790d-4392-a8f0-2cfada597e12","icon":"/api/icons/0051CA/False/template/111.png"},"source":"geoconfirmed","source_name":"GeoConfirmed","source_url":"https://geoconfirmed.org/map/ukraine","id":"a2c6e321-790d-4392-a8f0-2cfada597e12","date":"2026-08-08","link":"https://geoconfirmed.org/map/ukraine/a2c6e321-790d-4392-a8f0-2cfada597e12","category":"Short Range (<50km) OWAD (One Way Attack Drone), mostly rotary wing, Flying OR Attacking a target without knowing the outcome: if something is damaged --> icon of the damaged equipment.","side":"Ukraine","color":"#0051CA","description":"01:14 - Drone strike on a Semi-truck.","orbat":["Battalion of unmanned strike aerial systems \"Signum\""],"geolocation":["https://x.com/meowqai/status/2085778499873165642"],"sources":["https://x.com/umftteam/status/2085288779724591588","https://t.me/umftteam/1068"]}},{"type":"Feature","geometry":{"type":"Point","coordinates":[37.644036,49.663655]},"properties":{"original":{"Date":"2026-08-08","Name":"08 AUG 2026","Faction":"Ukraine","Origin":"UAV","Latitude":"49.663655","Longitude":"37.644036","PlusCode":"8GXVMJ7V+FJ Kup'yans'k-Vuzlovyi, Kharkiv Oblast, Ukraine","Description":"0:02 - 9th UAS Brigade drops explosive into a building in Kupiansk-Vuzlovyi.","Source":"https://x.com/Bielitzling/status/2086041605824229670, https://t.me/army_9th_sbus/978","Geolocation":"https://x.com/Bielitzling/status/2086041601739014497","Equipment":"","EquipmentItems":"(Multi-Purpose) Bomber UAV","Units":"","OrbatUnits":"9th Unmanned Systems Brigade","Id":"1eb248b7-c8c1-410d-8ec9-321aa2f788cd","icon":"/api/icons/0051CA/False/template/110.png"},"source":"geoconfirmed","source_name":"GeoConfirmed","source_url":"https://geoconfirmed.org/map/ukraine","id":"1eb248b7-c8c1-410d-8ec9-321aa2f788cd","date":"2026-08-08","link":"https://geoconfirmed.org/map/ukraine/1eb248b7-c8c1-410d-8ec9-321aa2f788cd","category":"Multipurpose Bomber Drone, Flying OR Dropping OR bombing a target without knowing the outcome: if something is damaged --> icon of the damaged equipment.","side":"Ukraine","color":"#0051CA","description":"0:02 - 9th UAS Brigade drops explosive into a building in Kupiansk-Vuzlovyi.","orbat":["9th Unmanned Systems Brigade"],"geolocation":["https://x.com/Bielitzling/status/2086041601739014497"],"sources":["https://x.com/Bielitzling/status/2086041605824229670","https://t.me/army_9th_sbus/978"]}},{"type":"Feature","geometry":{"type":"Point","coordinates":[48.406047,53.12047]},"properties":{"original":{"Date":"2026-08-08","Name":"08 AUG 2026","Faction":"Ukraine","Origin":"UAV","Latitude":"53.12047","Longitude":"48.406047","PlusCode":"9H5C4CC4+5C Syzran, Samara Oblast, Russia","Description":"POV - Reported drone strikes on the refinery in Syzran. ","Source":"https://x.com/Grimm_Intel/status/2085889600233337101, https://t.me/exilenova_plus/28382","Geolocation":"https://x.com/Grimm_Intel/status/2085890133866217827","Equipment":"","EquipmentItems":"Fixed Wing OWAD (One Way Attack Drone)","Units":"","OrbatUnits":"","Id":"dc5f0f46-9587-447b-9fd7-3bb946de82b0","icon":"/api/icons/0051CA/False/template/30.png"},"source":"geoconfirmed","source_name":"GeoConfirmed","source_url":"https://geoconfirmed.org/map/ukraine","id":"dc5f0f46-9587-447b-9fd7-3bb946de82b0","date":"2026-08-08","link":"https://geoconfirmed.org/map/ukraine/dc5f0f46-9587-447b-9fd7-3bb946de82b0","category":"Video - Always Point of View in description - In the colour of who is doing the attack or is responsable for the incident in the video.","side":"Ukraine","color":"#0051CA","description":"POV - Reported drone strikes on the refinery in Syzran.","orbat":[],"geolocation":["https://x.com/Grimm_Intel/status/2085890133866217827"],"sources":["https://x.com/Grimm_Intel/status/2085889600233337101","https://t.me/exilenova_plus/28382"]}},{"type":"Feature","geometry":{"type":"Point","coordinates":[36.97313,48.9233]},"properties":{"original":{"Date":"2026-08-08","Name":"08 AUG 2026","Faction":"Russia","Origin":"UAV","Latitude":"48.9233","Longitude":"36.97313","PlusCode":"8GWRWXFF+87 Barvinkove, Kharkiv Oblast, Ukraine","Description":"0:07 - Geran targets a warehouse.","Source":"https://x.com/franfran2424/status/2086078068121079969, https://t.me/The_Wrong_Side/30426","Geolocation":"https://x.com/franfran2424/status/2086078149872271563","Equipment":"","EquipmentItems":"Geran-4 \"Seeker\"","Units":"","OrbatUnits":"","Id":"8bd599ca-0a97-48db-a74a-3f93d72a2cfc","icon":"/api/icons/E00000/False/template/181.png"},"source":"geoconfirmed","source_name":"GeoConfirmed","source_url":"https://geoconfirmed.org/map/ukraine","id":"8bd599ca-0a97-48db-a74a-3f93d72a2cfc","date":"2026-08-08","link":"https://geoconfirmed.org/map/ukraine/8bd599ca-0a97-48db-a74a-3f93d72a2cfc","category":"Longe Range (>50km) OWAD (One Way Attack Drone) or Loitering munition, mostly fixed wing, Flying OR Attacking a target without knowing the outcome: if something is damaged --> icon of the damaged equipment.","side":"Russia","color":"#E00000","description":"0:07 - Geran targets a warehouse.","orbat":[],"geolocation":["https://x.com/franfran2424/status/2086078149872271563"],"sources":["https://x.com/franfran2424/status/2086078068121079969","https://t.me/The_Wrong_Side/30426"]}},{"type":"Feature","geometry":{"type":"Point","coordinates":[48.399143,53.115732]},"properties":{"original":{"Date":"2026-08-08","Name":"08 AUG 2026","Faction":"Ukraine","Origin":"UAV","Latitude":"53.115732","Longitude":"48.399143","PlusCode":"9H5C498X+7M Syzran, Samara Oblast, Russia","Description":"Point of view- Syzran Oil Refinery on fire.","Source":"https://x.com/neonhandrail/status/2085933067051680019, https://x.com/Exilenova_plus/status/2085930378762838423, https://t.me/exilenova_plus/28390","Geolocation":"https://x.com/GeoConfirmed/status/2086042446035607569, https://x.com/neonhandrail/status/2085932597520253382","Equipment":"(presumably)","EquipmentItems":"Fixed Wing OWAD (One Way Attack Drone)","Units":"","OrbatUnits":"","Id":"1c1b5db2-3a3d-4154-8f4f-43181746bd50","icon":"/api/icons/0051CA/False/template/30.png"},"source":"geoconfirmed","source_name":"GeoConfirmed","source_url":"https://geoconfirmed.org/map/ukraine","id":"1c1b5db2-3a3d-4154-8f4f-43181746bd50","date":"2026-08-08","link":"https://geoconfirmed.org/map/ukraine/1c1b5db2-3a3d-4154-8f4f-43181746bd50","category":"Video - Always Point of View in description - In the colour of who is doing the attack or is responsable for the incident in the video.","side":"Ukraine","color":"#0051CA","description":"Point of view- Syzran Oil Refinery on fire.","orbat":[],"geolocation":["https://x.com/GeoConfirmed/status/2086042446035607569","https://x.com/neonhandrail/status/2085932597520253382"],"sources":["https://x.com/neonhandrail/status/2085933067051680019","https://x.com/Exilenova_plus/status/2085930378762838423","https://t.me/exilenova_plus/28390"]}},{"type":"Feature","geometry":{"type":"Point","coordinates":[36.87162,46.93734]},"properties":{"original":{"Date":"2026-08-08","Name":"08 AUG 2026","Faction":"Ukraine","Origin":"UAV","Latitude":"46.93734","Longitude":"36.87162","PlusCode":"8GRRWVPC+WJ Osypenko, Zaporizhia Oblast, Ukraine","Description":"0:44 - Drone strike on a Semi-truck.","Source":"https://x.com/umftteam/status/2085288779724591588, https://t.me/umftteam/1068","Geolocation":"https://x.com/meowqai/status/2085746937316229453, https://x.com/meowqai/status/2085848009904976352","Equipment":"Semi-Truck","EquipmentItems":"Fixed Wing OWAD (One Way Attack Drone)","Units":"","OrbatUnits":"Battalion of unmanned strike aerial systems \"Signum\"","Id":"0bd9ac3e-74f1-4c1b-b0f9-47b6f0e6c90f","icon":"/api/icons/0051CA/False/template/111.png"},"source":"geoconfirmed","source_name":"GeoConfirmed","source_url":"https://geoconfirmed.org/map/ukraine","id":"0bd9ac3e-74f1-4c1b-b0f9-47b6f0e6c90f","date":"2026-08-08","link":"https://geoconfirmed.org/map/ukraine/0bd9ac3e-74f1-4c1b-b0f9-47b6f0e6c90f","category":"Short Range (<50km) OWAD (One Way Attack Drone), mostly rotary wing, Flying OR Attacking a target without knowing the outcome: if something is damaged --> icon of the damaged equipment.","side":"Ukraine","color":"#0051CA","description":"0:44 - Drone strike on a Semi-truck.","orbat":["Battalion of unmanned strike aerial systems \"Signum\""],"geolocation":["https://x.com/meowqai/status/2085746937316229453","https://x.com/meowqai/status/2085848009904976352"],"sources":["https://x.com/umftteam/status/2085288779724591588","https://t.me/umftteam/1068"]}},{"type":"Feature","geometry":{"type":"Point","coordinates":[36.739752,48.065697]},"properties":{"original":{"Date":"2026-08-08","Name":"08 AUG 2026","Faction":"Russia","Origin":"UAV","Latitude":"48.065697","Longitude":"36.739752","PlusCode":"8GWR3P8Q+7W Yalta, Donetsk Oblast, Ukraine","Description":"0:00-0:26 - 46th Brigade strikes Russian soldier south of Filiya","Source":"https://x.com/jimmhelloman555/status/2086080150584619235, https://t.me/zluki_bobry/197","Geolocation":"https://x.com/jimmhelloman555/status/2086079528632283635","Equipment":"","EquipmentItems":"FPV (First Person View) OWAD (One Way Attack Drone)","Units":"","OrbatUnits":"Drone Unit \"Angry Beavers\"","Id":"142eef38-9612-4298-93cb-654d3eee607c","icon":"/api/icons/E00000/False/template/92.png"},"source":"geoconfirmed","source_name":"GeoConfirmed","source_url":"https://geoconfirmed.org/map/ukraine","id":"142eef38-9612-4298-93cb-654d3eee607c","date":"2026-08-08","link":"https://geoconfirmed.org/map/ukraine/142eef38-9612-4298-93cb-654d3eee607c","category":"WIA/KIA Soldier/Militant","side":"Russia","color":"#E00000","description":"0:00-0:26 - 46th Brigade strikes Russian soldier south of Filiya","orbat":["Drone Unit \"Angry Beavers\""],"geolocation":["https://x.com/jimmhelloman555/status/2086079528632283635"],"sources":["https://x.com/jimmhelloman555/status/2086080150584619235","https://t.me/zluki_bobry/197"]}},{"type":"Feature","geometry":{"type":"Point","coordinates":[30.705327,50.585603]},"properties":{"original":{"Date":"2026-08-08","Name":"08 AUG 2026","Faction":"Russia","Origin":"PIC","Latitude":"50.585603","Longitude":"30.705327","PlusCode":"9G2GHPP4+64 Pukhivka, Kyiv Oblast, Ukraine","Description":"A house and outbuildings were destroyed by Russian drones. Three people were killed, reportedly a 3-year-old boy and his grandparents, and four others were injured.","Source":"Pic1, https://x.com/99Dominik_/status/2085993579449647240, https://t.me/kyivregionpolice/29693, Pic2, https://x.com/99Dominik_/status/2085993990713708951, https://t.me/pgo_gov_ua/39560, Vid , https://x.com/99Dominik_/status/2086114023381098968, https://www.youtube.com/watch?v=waeoCgJ27Uo, , reporting: https://x.com/99Dominik_/status/2086071914410238357, https://t.me/kyivtv/141826","Geolocation":"https://x.com/GeoConfirmed/status/2086042578051277214, https://x.com/99Dominik_/status/2085993393616802285","Equipment":"","EquipmentItems":"","Units":"","OrbatUnits":"","Id":"cd848313-2a16-46e5-990b-6a95b00eafbd","icon":"/api/icons/E00000/False/template/50.png"},"source":"geoconfirmed","source_name":"GeoConfirmed","source_url":"https://geoconfirmed.org/map/ukraine","id":"cd848313-2a16-46e5-990b-6a95b00eafbd","date":"2026-08-08","link":"https://geoconfirmed.org/map/ukraine/cd848313-2a16-46e5-990b-6a95b00eafbd","category":"Killed or wounded civilian. Potential Warcrime. In the colour of who is assessed as doing the attack/killing.","side":"Russia","color":"#E00000","description":"A house and outbuildings were destroyed by Russian drones. Three people were killed, reportedly a 3-year-old boy and his grandparents, and four others were injured.","orbat":[],"geolocation":["https://x.com/GeoConfirmed/status/2086042578051277214","https://x.com/99Dominik_/status/2085993393616802285"],"sources":["https://x.com/99Dominik_/status/2085993579449647240","https://t.me/kyivregionpolice/29693","https://x.com/99Dominik_/status/2085993990713708951","https://t.me/pgo_gov_ua/39560","https://x.com/99Dominik_/status/2086114023381098968","https://www.youtube.com/watch?v=waeoCgJ27Uo","https://x.com/99Dominik_/status/2086071914410238357","https://t.me/kyivtv/141826"]}},{"type":"Feature","geometry":{"type":"Point","coordinates":[36.9968,49.6072]},"properties":{"original":{"Date":"2026-08-08","Name":"08 AUG 2026","Faction":"Russia","Origin":"UAV","Latitude":"49.6072","Longitude":"36.9968","PlusCode":"8GXRJX4W+VP Volokhiv Yar, Kharkiv Oblast, Ukraine","Description":"0:17 - Geran strike (rough location)","Source":"https://x.com/franfran2424/status/2086078068121079969, https://t.me/The_Wrong_Side/30426","Geolocation":"https://x.com/franfran2424/status/2086078149872271563","Equipment":"(reported)","EquipmentItems":"Geran-4 \"Seeker\"","Units":"","OrbatUnits":"","Id":"0b9c2768-c4e6-4e3a-ad76-6b39f3d294e1","icon":"/api/icons/E00000/False/template/181.png"},"source":"geoconfirmed","source_name":"GeoConfirmed","source_url":"https://geoconfirmed.org/map/ukraine","id":"0b9c2768-c4e6-4e3a-ad76-6b39f3d294e1","date":"2026-08-08","link":"https://geoconfirmed.org/map/ukraine/0b9c2768-c4e6-4e3a-ad76-6b39f3d294e1","category":"Longe Range (>50km) OWAD (One Way Attack Drone) or Loitering munition, mostly fixed wing, Flying OR Attacking a target without knowing the outcome: if something is damaged --> icon of the damaged equipment.","side":"Russia","color":"#E00000","description":"0:17 - Geran strike (rough location)","orbat":[],"geolocation":["https://x.com/franfran2424/status/2086078149872271563"],"sources":["https://x.com/franfran2424/status/2086078068121079969","https://t.me/The_Wrong_Side/30426"]}},{"type":"Feature","geometry":{"type":"Point","coordinates":[37.807646,48.992623]},"properties":{"original":{"Date":"2026-08-08","Name":"08 AUG 2026","Faction":"Ukraine Civilian","Origin":"UAV","Latitude":"48.992623","Longitude":"37.807646","PlusCode":"8GWVXRV5+23 Lyman, Donetsk Oblast, Ukraine","Description":"0:00-0:10 - UA Unmanned Systems Battalion \"Fatum\" of the 60th Mechanized Brigade Observes evacuation of civilians from inside Lyman ","Source":"https://x.com/ZoamSc2/status/2088083312405606440","Geolocation":"https://x.com/ZoamSc2/status/2088083310119698762","Equipment":"","EquipmentItems":"Unmanned Ground Vehicle (UGV)","Units":"","OrbatUnits":"Unmanned Systems Battalion \"Fatum\"","Id":"84c2b1bf-1e22-4980-be3a-73ec87773c83","icon":"/api/icons/3184FF/False/template/100.png"},"source":"geoconfirmed","source_name":"GeoConfirmed","source_url":"https://geoconfirmed.org/map/ukraine","id":"84c2b1bf-1e22-4980-be3a-73ec87773c83","date":"2026-08-08","link":"https://geoconfirmed.org/map/ukraine/84c2b1bf-1e22-4980-be3a-73ec87773c83","category":"Civilian or Soldier or Militant (Depending on the colour)","side":"Ukraine Civilian","color":"#3184FF","description":"0:00-0:10 - UA Unmanned Systems Battalion \"Fatum\" of the 60th Mechanized Brigade Observes evacuation of civilians from inside Lyman","orbat":["Unmanned Systems Battalion \"Fatum\""],"geolocation":["https://x.com/ZoamSc2/status/2088083310119698762"],"sources":["https://x.com/ZoamSc2/status/2088083312405606440"]}},{"type":"Feature","geometry":{"type":"Point","coordinates":[48.393074,53.083396]},"properties":{"original":{"Date":"2026-08-08","Name":"08 AUG 2026","Faction":"Neutral","Origin":"SAT","Latitude":"53.083396","Longitude":"48.393074","PlusCode":"9H5C39MV+96 Syzran, Samara Oblast, Russia","Description":"Center of the damage at the Catalytic cracking unit 43-102, block II at Syzran Oil Refinery following reported Ukrainian strikes.","Source":"https://x.com/Exilenova_plus/status/2088153357534007572, , More information, https://www.pravda.com.ua/eng/news/2026/08/08/8047863/, https://t.me/GeneralStaffZSU/41807","Geolocation":"https://wikimapia.org/#lang=en&lat=53.083405&lon=48.393059&z=13","Equipment":"","EquipmentItems":"Oil Refinery / Gas processing plant or similar","Units":"","OrbatUnits":"","Id":"ca8a3d7b-eb51-4b7d-a5a6-7d46648d3fbe","icon":"/api/icons/AC7339/False/template/192.png"},"source":"geoconfirmed","source_name":"GeoConfirmed","source_url":"https://geoconfirmed.org/map/ukraine","id":"ca8a3d7b-eb51-4b7d-a5a6-7d46648d3fbe","date":"2026-08-08","link":"https://geoconfirmed.org/map/ukraine/ca8a3d7b-eb51-4b7d-a5a6-7d46648d3fbe","category":"Recently destroyed/Damaged[Visible in footage] or still burning infrastucture","side":"Neutral","color":"#AC7339","description":"Center of the damage at the Catalytic cracking unit 43-102, block II at Syzran Oil Refinery following reported Ukrainian strikes.","orbat":[],"geolocation":["https://wikimapia.org/#lang=en&lat=53.083405&lon=48.393059&z=13"],"sources":["https://x.com/Exilenova_plus/status/2088153357534007572","https://www.pravda.com.ua/eng/news/2026/08/08/8047863/","https://t.me/GeneralStaffZSU/41807"]}},{"type":"Feature","geometry":{"type":"Point","coordinates":[35.86816,48.52801]},"properties":{"original":{"Date":"2026-08-08","Name":"08 AUG 2026","Faction":"Neutral","Origin":"UAV","Latitude":"48.52801","Longitude":"35.86816","PlusCode":"8GWQGVH9+67 Pavlohrad, Dnipropetrovsk Oblast, Ukraine","Description":" A Russian strike hit a shopping center in Pavlohrad, Ukraine.","Source":"https://x.com/Archer83Able/status/2086165742374850669","Geolocation":"https://x.com/zarGEOINT/status/2086189872306331953","Equipment":"","EquipmentItems":"","Units":"","OrbatUnits":"","Id":"e76ff401-59d5-4cad-898a-8253f91cd688","icon":"/api/icons/AC7339/False/template/192.png"},"source":"geoconfirmed","source_name":"GeoConfirmed","source_url":"https://geoconfirmed.org/map/ukraine","id":"e76ff401-59d5-4cad-898a-8253f91cd688","date":"2026-08-08","link":"https://geoconfirmed.org/map/ukraine/e76ff401-59d5-4cad-898a-8253f91cd688","category":"Recently destroyed/Damaged[Visible in footage] or still burning infrastucture","side":"Neutral","color":"#AC7339","description":"A Russian strike hit a shopping center in Pavlohrad, Ukraine.","orbat":[],"geolocation":["https://x.com/zarGEOINT/status/2086189872306331953"],"sources":["https://x.com/Archer83Able/status/2086165742374850669"]}},{"type":"Feature","geometry":{"type":"Point","coordinates":[35.12917,46.61952]},"properties":{"original":{"Date":"2026-08-08","Name":"08 AUG 2026","Faction":"Ukraine","Origin":"UAV","Latitude":"46.61952","Longitude":"35.12917","PlusCode":"8GRQJ49H+RM Yur'ivka, Zaporizhia Oblast, Ukraine","Description":"01:20 - Drone strike on a Semi-truck.","Source":"https://x.com/umftteam/status/2085288779724591588, https://t.me/umftteam/1068","Geolocation":"https://x.com/meowqai/status/2085780188969730415","Equipment":"Semi-Truck","EquipmentItems":"Fixed Wing OWAD (One Way Attack Drone)","Units":"","OrbatUnits":"Battalion of unmanned strike aerial systems \"Signum\"","Id":"c29a2f6e-2daf-4c59-b55a-8beb4ad875da","icon":"/api/icons/0051CA/False/template/111.png"},"source":"geoconfirmed","source_name":"GeoConfirmed","source_url":"https://geoconfirmed.org/map/ukraine","id":"c29a2f6e-2daf-4c59-b55a-8beb4ad875da","date":"2026-08-08","link":"https://geoconfirmed.org/map/ukraine/c29a2f6e-2daf-4c59-b55a-8beb4ad875da","category":"Short Range (<50km) OWAD (One Way Attack Drone), mostly rotary wing, Flying OR Attacking a target without knowing the outcome: if something is damaged --> icon of the damaged equipment.","side":"Ukraine","color":"#0051CA","description":"01:20 - Drone strike on a Semi-truck.","orbat":["Battalion of unmanned strike aerial systems \"Signum\""],"geolocation":["https://x.com/meowqai/status/2085780188969730415"],"sources":["https://x.com/umftteam/status/2085288779724591588","https://t.me/umftteam/1068"]}},{"type":"Feature","geometry":{"type":"Point","coordinates":[37.0796,49.40104]},"properties":{"original":{"Date":"2026-08-08","Name":"08 AUG 2026","Faction":"Russia","Origin":"UAV","Latitude":"49.40104","Longitude":"37.0796","PlusCode":"8GXVC32H+CR Savyntsi, Kharkiv Oblast, Ukraine","Description":"0:00 - Geran targets a warehouse.","Source":"https://x.com/franfran2424/status/2086078068121079969, https://t.me/The_Wrong_Side/30426","Geolocation":"https://x.com/franfran2424/status/2086078149872271563","Equipment":"","EquipmentItems":"Geran-4 \"Seeker\"","Units":"","OrbatUnits":"","Id":"96f77a84-7081-4fae-a013-92e8f72720f7","icon":"/api/icons/E00000/False/template/181.png"},"source":"geoconfirmed","source_name":"GeoConfirmed","source_url":"https://geoconfirmed.org/map/ukraine","id":"96f77a84-7081-4fae-a013-92e8f72720f7","date":"2026-08-08","link":"https://geoconfirmed.org/map/ukraine/96f77a84-7081-4fae-a013-92e8f72720f7","category":"Longe Range (>50km) OWAD (One Way Attack Drone) or Loitering munition, mostly fixed wing, Flying OR Attacking a target without knowing the outcome: if something is damaged --> icon of the damaged equipment.","side":"Russia","color":"#E00000","description":"0:00 - Geran targets a warehouse.","orbat":[],"geolocation":["https://x.com/franfran2424/status/2086078149872271563"],"sources":["https://x.com/franfran2424/status/2086078068121079969","https://t.me/The_Wrong_Side/30426"]}},{"type":"Feature","geometry":{"type":"Point","coordinates":[48.39724,53.085546]},"properties":{"original":{"Date":"2026-08-08","Name":"08 AUG 2026","Faction":"Neutral","Origin":"SAT","Latitude":"53.085546","Longitude":"48.39724","PlusCode":"9H5C39PW+6V Syzran, Samara Oblast, Russia","Description":"Center of the damage at the Former installation site of ELOU-AVT-5 (Syzran) at Syzran Oil Refinery following reported Ukrainian strikes.","Source":"https://x.com/Exilenova_plus/status/2088153357534007572, , More information, https://www.pravda.com.ua/eng/news/2026/08/08/8047863/, https://t.me/GeneralStaffZSU/41807","Geolocation":"https://wikimapia.org/#lang=en&lat=53.085570&lon=48.397179&z=13","Equipment":"","EquipmentItems":"Oil Refinery / Gas processing plant or similar","Units":"","OrbatUnits":"","Id":"a8f8b9e0-12ad-4d79-83e2-ab0623dcad66","icon":"/api/icons/AC7339/False/template/192.png"},"source":"geoconfirmed","source_name":"GeoConfirmed","source_url":"https://geoconfirmed.org/map/ukraine","id":"a8f8b9e0-12ad-4d79-83e2-ab0623dcad66","date":"2026-08-08","link":"https://geoconfirmed.org/map/ukraine/a8f8b9e0-12ad-4d79-83e2-ab0623dcad66","category":"Recently destroyed/Damaged[Visible in footage] or still burning infrastucture","side":"Neutral","color":"#AC7339","description":"Center of the damage at the Former installation site of ELOU-AVT-5 (Syzran) at Syzran Oil Refinery following reported Ukrainian strikes.","orbat":[],"geolocation":["https://wikimapia.org/#lang=en&lat=53.085570&lon=48.397179&z=13"],"sources":["https://x.com/Exilenova_plus/status/2088153357534007572","https://www.pravda.com.ua/eng/news/2026/08/08/8047863/","https://t.me/GeneralStaffZSU/41807"]}},{"type":"Feature","geometry":{"type":"Point","coordinates":[35.51219,47.293865]},"properties":{"original":{"Date":"2026-08-08","Name":"08 AUG 2026","Faction":"Ukraine","Origin":"UAV","Latitude":"47.293865","Longitude":"35.51219","PlusCode":"8GVQ7GV6+GV Kokhane, Zaporizhia Oblast, Ukraine","Description":"0:33-0:34 & 1:29-1:30 - Ronin Unmanned Systems Battalion of the 65th Brigade targeted a bus with an FPV drone in Kokhane, Zaporizhia Oblast","Source":"https://x.com/PuenteUribarri/status/2086376232699007392, https://t.me/Ronins_65/1361","Geolocation":"https://x.com/neonhandrail/status/2086462262966153431","Equipment":"","EquipmentItems":"FPV (First Person View) OWAD (One Way Attack Drone)","Units":"","OrbatUnits":"Unmanned Systems Battalion \"Ronin\"","Id":"fc716cb2-7079-4b08-a5de-b2d62321b844","icon":"/api/icons/0051CA/False/template/111.png"},"source":"geoconfirmed","source_name":"GeoConfirmed","source_url":"https://geoconfirmed.org/map/ukraine","id":"fc716cb2-7079-4b08-a5de-b2d62321b844","date":"2026-08-08","link":"https://geoconfirmed.org/map/ukraine/fc716cb2-7079-4b08-a5de-b2d62321b844","category":"Short Range (<50km) OWAD (One Way Attack Drone), mostly rotary wing, Flying OR Attacking a target without knowing the outcome: if something is damaged --> icon of the damaged equipment.","side":"Ukraine","color":"#0051CA","description":"0:33-0:34 & 1:29-1:30 - Ronin Unmanned Systems Battalion of the 65th Brigade targeted a bus with an FPV drone in Kokhane, Zaporizhia Oblast","orbat":["Unmanned Systems Battalion \"Ronin\""],"geolocation":["https://x.com/neonhandrail/status/2086462262966153431"],"sources":["https://x.com/PuenteUribarri/status/2086376232699007392","https://t.me/Ronins_65/1361"]}},{"type":"Feature","geometry":{"type":"Point","coordinates":[37.644036,49.663655]},"properties":{"original":{"Date":"2026-08-08","Name":"08 AUG 2026","Faction":"Ukraine","Origin":"UAV","Latitude":"49.663655","Longitude":"37.644036","PlusCode":"8GXVMJ7V+FJ Kup'yans'k-Vuzlovyi, Kharkiv Oblast, Ukraine","Description":"0:02 - 9th UAS Brigade drops explosive into a building in Kupiansk-Vuzlovyi","Source":"https://x.com/Bielitzling/status/2086041605824229670, https://t.me/army_9th_sbus/978","Geolocation":"https://x.com/Bielitzling/status/2086041601739014497","Equipment":"","EquipmentItems":"(Multi-Purpose) Bomber UAV","Units":"","OrbatUnits":"9th Unmanned Systems Brigade","Id":"331c2218-061b-4973-a48c-b7d0afdd59fc","icon":"/api/icons/0051CA/False/template/110.png"},"source":"geoconfirmed","source_name":"GeoConfirmed","source_url":"https://geoconfirmed.org/map/ukraine","id":"331c2218-061b-4973-a48c-b7d0afdd59fc","date":"2026-08-08","link":"https://geoconfirmed.org/map/ukraine/331c2218-061b-4973-a48c-b7d0afdd59fc","category":"Multipurpose Bomber Drone, Flying OR Dropping OR bombing a target without knowing the outcome: if something is damaged --> icon of the damaged equipment.","side":"Ukraine","color":"#0051CA","description":"0:02 - 9th UAS Brigade drops explosive into a building in Kupiansk-Vuzlovyi","orbat":["9th Unmanned Systems Brigade"],"geolocation":["https://x.com/Bielitzling/status/2086041601739014497"],"sources":["https://x.com/Bielitzling/status/2086041605824229670","https://t.me/army_9th_sbus/978"]}},{"type":"Feature","geometry":{"type":"Point","coordinates":[36.22288,48.125841]},"properties":{"original":{"Date":"2026-08-08","Name":"08 AUG 2026","Faction":"Russia","Origin":"UAV","Latitude":"48.125841","Longitude":"36.22288","PlusCode":"8GWR46GF+85 Chaplyne, Dnipropetrovsk Oblast, Ukraine","Description":"Rubicon drone unit claimed to strike a temporary deployment unit for Ukrainian troops in the Chaplyne school.","Source":"https://lostarmour.info/news/fpv-108557--71_80","Geolocation":"https://x.com/Churriqueresque/status/2086153972549615796","Equipment":"","EquipmentItems":"","Units":"","OrbatUnits":"Center for Advanced Unmanned Aerial Technologies \"Rubicon\"","Id":"6726e440-714e-4db8-8e9b-c4f9289ccfee","icon":"/api/icons/E00000/False/template/111.png"},"source":"geoconfirmed","source_name":"GeoConfirmed","source_url":"https://geoconfirmed.org/map/ukraine","id":"6726e440-714e-4db8-8e9b-c4f9289ccfee","date":"2026-08-08","link":"https://geoconfirmed.org/map/ukraine/6726e440-714e-4db8-8e9b-c4f9289ccfee","category":"Short Range (<50km) OWAD (One Way Attack Drone), mostly rotary wing, Flying OR Attacking a target without knowing the outcome: if something is damaged --> icon of the damaged equipment.","side":"Russia","color":"#E00000","description":"Rubicon drone unit claimed to strike a temporary deployment unit for Ukrainian troops in the Chaplyne school.","orbat":["Center for Advanced Unmanned Aerial Technologies \"Rubicon\""],"geolocation":["https://x.com/Churriqueresque/status/2086153972549615796"],"sources":["https://lostarmour.info/news/fpv-108557--71_80"]}},{"type":"Feature","geometry":{"type":"Point","coordinates":[36.00251,46.72521]},"properties":{"original":{"Date":"2026-08-08","Name":"08 AUG 2026","Faction":"Ukraine","Origin":"UAV","Latitude":"46.72521","Longitude":"36.00251","PlusCode":"8GRRP2G3+32 Orlivka, Zaporizhia Oblast, Ukraine","Description":"01:09 - Drone strike on a Semi-truck.","Source":"https://x.com/umftteam/status/2085288779724591588, https://t.me/umftteam/1068","Geolocation":"https://x.com/meowqai/status/2085768818878566425","Equipment":"Semi-Truck","EquipmentItems":"Fixed Wing OWAD (One Way Attack Drone)","Units":"","OrbatUnits":"Battalion of unmanned strike aerial systems \"Signum\"","Id":"720c8741-c841-41cc-9274-c816576ebc00","icon":"/api/icons/0051CA/False/template/111.png"},"source":"geoconfirmed","source_name":"GeoConfirmed","source_url":"https://geoconfirmed.org/map/ukraine","id":"720c8741-c841-41cc-9274-c816576ebc00","date":"2026-08-08","link":"https://geoconfirmed.org/map/ukraine/720c8741-c841-41cc-9274-c816576ebc00","category":"Short Range (<50km) OWAD (One Way Attack Drone), mostly rotary wing, Flying OR Attacking a target without knowing the outcome: if something is damaged --> icon of the damaged equipment.","side":"Ukraine","color":"#0051CA","description":"01:09 - Drone strike on a Semi-truck.","orbat":["Battalion of unmanned strike aerial systems \"Signum\""],"geolocation":["https://x.com/meowqai/status/2085768818878566425"],"sources":["https://x.com/umftteam/status/2085288779724591588","https://t.me/umftteam/1068"]}},{"type":"Feature","geometry":{"type":"Point","coordinates":[34.479391,45.952537]},"properties":{"original":{"Date":"2026-08-08","Name":"08 AUG 2026","Faction":"Neutral","Origin":"SAT","Latitude":"45.952537","Longitude":"34.479391","PlusCode":"8GQPXF3H+2Q Syvash, Kherson Oblast, Ukraine","Description":"Railway brisdge visibly damaged in Sat imagery.","Source":"https://x.com/wtrmln_frm_kyiv/status/2088038501979738580, https://x.com/wtrmln_frm_kyiv/status/2088038147774972406","Geolocation":"https://x.com/giK1893/status/2088020290148114863","Equipment":"","EquipmentItems":"","Units":"","OrbatUnits":"","Id":"569a8a76-d265-428a-a9e9-ceeef005ef2a","icon":"/api/icons/AC7339/False/template/13.png"},"source":"geoconfirmed","source_name":"GeoConfirmed","source_url":"https://geoconfirmed.org/map/ukraine","id":"569a8a76-d265-428a-a9e9-ceeef005ef2a","date":"2026-08-08","link":"https://geoconfirmed.org/map/ukraine/569a8a76-d265-428a-a9e9-ceeef005ef2a","category":"Older destroyed brigde - if colour is used of a fighting faction = pontoon or similar bridge","side":"Neutral","color":"#AC7339","description":"Railway brisdge visibly damaged in Sat imagery.","orbat":[],"geolocation":["https://x.com/giK1893/status/2088020290148114863"],"sources":["https://x.com/wtrmln_frm_kyiv/status/2088038501979738580","https://x.com/wtrmln_frm_kyiv/status/2088038147774972406"]}},{"type":"Feature","geometry":{"type":"Point","coordinates":[48.390382,53.081254]},"properties":{"original":{"Date":"2026-08-08","Name":"08 AUG 2026","Faction":"Neutral","Origin":"SAT","Latitude":"53.081254","Longitude":"48.390382","PlusCode":"9H5C39JR+G5 Syzran, Samara Oblast, Russia","Description":"Area grid - Several destroyed oil tanks at Syzran Oil Refinery following reported Ukrainian strikes.","Source":"https://x.com/Exilenova_plus/status/2088153357534007572, , More information, https://www.pravda.com.ua/eng/news/2026/08/08/8047863/, https://t.me/GeneralStaffZSU/41807","Geolocation":"https://wikimapia.org/#lang=en&lat=53.081472&lon=48.389969&z=14","Equipment":"","EquipmentItems":"Oil Refinery / Gas processing plant or similar","Units":"","OrbatUnits":"","Id":"60214d21-4002-4fb3-88ef-d3fa819fcc2e","icon":"/api/icons/AC7339/False/template/192.png"},"source":"geoconfirmed","source_name":"GeoConfirmed","source_url":"https://geoconfirmed.org/map/ukraine","id":"60214d21-4002-4fb3-88ef-d3fa819fcc2e","date":"2026-08-08","link":"https://geoconfirmed.org/map/ukraine/60214d21-4002-4fb3-88ef-d3fa819fcc2e","category":"Recently destroyed/Damaged[Visible in footage] or still burning infrastucture","side":"Neutral","color":"#AC7339","description":"Area grid - Several destroyed oil tanks at Syzran Oil Refinery following reported Ukrainian strikes.","orbat":[],"geolocation":["https://wikimapia.org/#lang=en&lat=53.081472&lon=48.389969&z=14"],"sources":["https://x.com/Exilenova_plus/status/2088153357534007572","https://www.pravda.com.ua/eng/news/2026/08/08/8047863/","https://t.me/GeneralStaffZSU/41807"]}},{"type":"Feature","geometry":{"type":"Point","coordinates":[34.877941,51.263457]},"properties":{"original":{"Date":"2026-08-08","Name":"08 AUG 2026","Faction":"Russia","Origin":"UAV","Latitude":"51.263457","Longitude":"34.877941","PlusCode":"9G3P7V7H+95 Vnezapnoe, Kursk Oblast, Russia","Description":"Area grid - A column of Russian Ulan ATVs is hit by Ukrainian FPVs (area grid)","Source":"https://x.com/Danspiun/status/2086831440247902448, https://t.me/operationalcommandwest/1885","Geolocation":"https://x.com/Danspiun/status/2086832860330131561","Equipment":"","EquipmentItems":"Ulan-2","Units":"","OrbatUnits":"158th Mechanized Brigade","Id":"8a821ad6-0969-4a00-87a1-de99e4ab62a3","icon":"/api/icons/E00000/False/template/a8c55b37-7710-40ef-8f00-2a17e58b6f69.png"},"source":"geoconfirmed","source_name":"GeoConfirmed","source_url":"https://geoconfirmed.org/map/ukraine","id":"8a821ad6-0969-4a00-87a1-de99e4ab62a3","date":"2026-08-08","link":"https://geoconfirmed.org/map/ukraine/8a821ad6-0969-4a00-87a1-de99e4ab62a3","category":"Recently Destroyed/Damaged[Visible in footage] Car OR PickUp (Soft Skin Vehicle)","side":"Russia","color":"#E00000","description":"Area grid - A column of Russian Ulan ATVs is hit by Ukrainian FPVs (area grid)","orbat":["158th Mechanized Brigade"],"geolocation":["https://x.com/Danspiun/status/2086832860330131561"],"sources":["https://x.com/Danspiun/status/2086831440247902448","https://t.me/operationalcommandwest/1885"]}},{"type":"Feature","geometry":{"type":"Point","coordinates":[36.8364,46.93747]},"properties":{"original":{"Date":"2026-08-08","Name":"08 AUG 2026","Faction":"Ukraine","Origin":"UAV","Latitude":"46.93747","Longitude":"36.8364","PlusCode":"8GRRWRPP+XH Osypenko, Zaporizhia Oblast, Ukraine","Description":"0:16 - Drone strike on a Semi-truck.","Source":"https://x.com/umftteam/status/2085288779724591588, https://t.me/umftteam/1068","Geolocation":"https://x.com/meowqai/status/2085357663353774485","Equipment":"Semi-Truck","EquipmentItems":"Fixed Wing OWAD (One Way Attack Drone)","Units":"","OrbatUnits":"Battalion of unmanned strike aerial systems \"Signum\"","Id":"6b1bb9ba-d22f-4715-bba2-e5719aca52cf","icon":"/api/icons/0051CA/False/template/111.png"},"source":"geoconfirmed","source_name":"GeoConfirmed","source_url":"https://geoconfirmed.org/map/ukraine","id":"6b1bb9ba-d22f-4715-bba2-e5719aca52cf","date":"2026-08-08","link":"https://geoconfirmed.org/map/ukraine/6b1bb9ba-d22f-4715-bba2-e5719aca52cf","category":"Short Range (<50km) OWAD (One Way Attack Drone), mostly rotary wing, Flying OR Attacking a target without knowing the outcome: if something is damaged --> icon of the damaged equipment.","side":"Ukraine","color":"#0051CA","description":"0:16 - Drone strike on a Semi-truck.","orbat":["Battalion of unmanned strike aerial systems \"Signum\""],"geolocation":["https://x.com/meowqai/status/2085357663353774485"],"sources":["https://x.com/umftteam/status/2085288779724591588","https://t.me/umftteam/1068"]}},{"type":"Feature","geometry":{"type":"Point","coordinates":[36.3671,49.7062]},"properties":{"original":{"Date":"2026-08-08","Name":"08 AUG 2026","Faction":"Russia","Origin":"UAV","Latitude":"49.7062","Longitude":"36.3671","PlusCode":"8GXRP948+FR Zmiiv, Kharkiv Oblast, Ukraine","Description":"0:04 - Geran targets a warehouse.","Source":"https://x.com/franfran2424/status/2086078068121079969, https://t.me/The_Wrong_Side/30426","Geolocation":"https://x.com/franfran2424/status/2086078149872271563","Equipment":"","EquipmentItems":"Geran-4 \"Seeker\"","Units":"","OrbatUnits":"","Id":"9b3535fb-e6d5-4a0b-969f-e76253867723","icon":"/api/icons/E00000/False/template/181.png"},"source":"geoconfirmed","source_name":"GeoConfirmed","source_url":"https://geoconfirmed.org/map/ukraine","id":"9b3535fb-e6d5-4a0b-969f-e76253867723","date":"2026-08-08","link":"https://geoconfirmed.org/map/ukraine/9b3535fb-e6d5-4a0b-969f-e76253867723","category":"Longe Range (>50km) OWAD (One Way Attack Drone) or Loitering munition, mostly fixed wing, Flying OR Attacking a target without knowing the outcome: if something is damaged --> icon of the damaged equipment.","side":"Russia","color":"#E00000","description":"0:04 - Geran targets a warehouse.","orbat":[],"geolocation":["https://x.com/franfran2424/status/2086078149872271563"],"sources":["https://x.com/franfran2424/status/2086078068121079969","https://t.me/The_Wrong_Side/30426"]}},{"type":"Feature","geometry":{"type":"Point","coordinates":[35.12708,46.61805]},"properties":{"original":{"Date":"2026-08-08","Name":"08 AUG 2026","Faction":"Ukraine","Origin":"UAV","Latitude":"46.61805","Longitude":"35.12708","PlusCode":"8GRQJ49G+6R Yur'ivka, Zaporizhia Oblast, Ukraine","Description":"01:02 - Drone strike on a Semi-truck.","Source":"https://x.com/umftteam/status/2085288779724591588, https://t.me/umftteam/1068","Geolocation":"https://x.com/meowqai/status/2085756475419378148","Equipment":"Semi-Truck","EquipmentItems":"Fixed Wing OWAD (One Way Attack Drone)","Units":"","OrbatUnits":"Battalion of unmanned strike aerial systems \"Signum\"","Id":"06e9538d-6ec3-406e-b756-ec63c026220f","icon":"/api/icons/0051CA/False/template/111.png"},"source":"geoconfirmed","source_name":"GeoConfirmed","source_url":"https://geoconfirmed.org/map/ukraine","id":"06e9538d-6ec3-406e-b756-ec63c026220f","date":"2026-08-08","link":"https://geoconfirmed.org/map/ukraine/06e9538d-6ec3-406e-b756-ec63c026220f","category":"Short Range (<50km) OWAD (One Way Attack Drone), mostly rotary wing, Flying OR Attacking a target without knowing the outcome: if something is damaged --> icon of the damaged equipment.","side":"Ukraine","color":"#0051CA","description":"01:02 - Drone strike on a Semi-truck.","orbat":["Battalion of unmanned strike aerial systems \"Signum\""],"geolocation":["https://x.com/meowqai/status/2085756475419378148"],"sources":["https://x.com/umftteam/status/2085288779724591588","https://t.me/umftteam/1068"]}},{"type":"Feature","geometry":{"type":"Point","coordinates":[36.77226,48.078296]},"properties":{"original":{"Date":"2026-08-08","Name":"08 AUG 2026","Faction":"Russia","Origin":"UAV","Latitude":"48.078296","Longitude":"36.77226","PlusCode":"8GWR3QHC+8W Filiya, Dnipropetrovsk Oblast, Ukraine","Description":"0:26-0:59 - 46th Brigade strikes Russian soldier south of Filiya, second soldier visible nearby.","Source":"https://x.com/jimmhelloman555/status/2086080150584619235, https://t.me/zluki_bobry/197","Geolocation":"https://x.com/jimmhelloman555/status/2086079937388163108","Equipment":"","EquipmentItems":"FPV (First Person View) OWAD (One Way Attack Drone)","Units":"","OrbatUnits":"Drone Unit \"Angry Beavers\"","Id":"d7093ff5-3593-4287-a447-f1f0ba71c75a","icon":"/api/icons/E00000/False/template/92.png"},"source":"geoconfirmed","source_name":"GeoConfirmed","source_url":"https://geoconfirmed.org/map/ukraine","id":"d7093ff5-3593-4287-a447-f1f0ba71c75a","date":"2026-08-08","link":"https://geoconfirmed.org/map/ukraine/d7093ff5-3593-4287-a447-f1f0ba71c75a","category":"WIA/KIA Soldier/Militant","side":"Russia","color":"#E00000","description":"0:26-0:59 - 46th Brigade strikes Russian soldier south of Filiya, second soldier visible nearby.","orbat":["Drone Unit \"Angry Beavers\""],"geolocation":["https://x.com/jimmhelloman555/status/2086079937388163108"],"sources":["https://x.com/jimmhelloman555/status/2086080150584619235","https://t.me/zluki_bobry/197"]}},{"type":"Feature","geometry":{"type":"Point","coordinates":[35.12823,46.61862]},"properties":{"original":{"Date":"2026-08-08","Name":"08 AUG 2026","Faction":"Ukraine","Origin":"UAV","Latitude":"46.61862","Longitude":"35.12823","PlusCode":"8GRQJ49H+C7 Yur'ivka, Zaporizhia Oblast, Ukraine","Description":"01:10 - Drone strike on a Semi-truck.","Source":"https://x.com/umftteam/status/2085288779724591588, https://t.me/umftteam/1068","Geolocation":"https://x.com/meowqai/status/2085775046321029309","Equipment":"Semi-Truck","EquipmentItems":"Fixed Wing OWAD (One Way Attack Drone)","Units":"","OrbatUnits":"Battalion of unmanned strike aerial systems \"Signum\"","Id":"8c90584a-44e7-4945-ae82-fd6897f30637","icon":"/api/icons/0051CA/False/template/111.png"},"source":"geoconfirmed","source_name":"GeoConfirmed","source_url":"https://geoconfirmed.org/map/ukraine","id":"8c90584a-44e7-4945-ae82-fd6897f30637","date":"2026-08-08","link":"https://geoconfirmed.org/map/ukraine/8c90584a-44e7-4945-ae82-fd6897f30637","category":"Short Range (<50km) OWAD (One Way Attack Drone), mostly rotary wing, Flying OR Attacking a target without knowing the outcome: if something is damaged --> icon of the damaged equipment.","side":"Ukraine","color":"#0051CA","description":"01:10 - Drone strike on a Semi-truck.","orbat":["Battalion of unmanned strike aerial systems \"Signum\""],"geolocation":["https://x.com/meowqai/status/2085775046321029309"],"sources":["https://x.com/umftteam/status/2085288779724591588","https://t.me/umftteam/1068"]}}]}