{"type":"FeatureCollection","features":[{"type":"Feature","geometry":null,"properties":{"source":"ua_mod","source_name":"Ministry of Defence of Ukraine","group":"official_ua","id":16200,"posted_utc":"2026-09-17T06:15:22+00:00","link":"https://t.me/ministry_of_defense_ua/16200","text":"🇺🇦 Міністр оборони України Євгеній Хмара привітав українських рятівників із професійним святом.\nПід час війни та щоденного російського терору робота служб порятунку є критично важливою.\nросія свідомо б’є по цивільній інфраструктурі та по людях, часто — повторно, коли на місці вже працюють рятівники. Але українські фахівці завжди борються за кожне життя, попри будь-які загрози з боку підступного ворога.\nДякуємо за важку і важливу роботу. За збереження надії там, де росія намагається залишити тільки біль і руйнування.\nСлава Україні!","links":[],"original_html":"<i class=\"emoji\" style=\"background-image:url('//telegram.org/img/emoji/40/F09F87BAF09F87A6.png')\"><b>🇺🇦</b></i> <b>Міністр оборони України Євгеній Хмара привітав українських рятівників із професійним святом.<br/></b><br/>Під час війни та щоденного російського терору робота служб порятунку є критично важливою.<br/><br/>росія свідомо б’є по цивільній інфраструктурі та по людях, часто — повторно, коли на місці вже працюють рятівники. Але українські фахівці завжди борються за кожне життя, попри будь-які загрози з боку підступного ворога.<br/><br/>Дякуємо за важку і важливу роботу. За збереження надії там, де росія намагається залишити тільки біль і руйнування.<br/><br/>Слава Україні&#33;"}},{"type":"Feature","geometry":null,"properties":{"source":"ua_mod","source_name":"Ministry of Defence of Ukraine","group":"official_ua","id":16201,"posted_utc":"2026-09-17T08:24:29+00:00","link":"https://t.me/ministry_of_defense_ua/16201","text":"✅ Понад 1 млн дронів та іншої техніки отримали підрозділи Сил оборони через маркетплейс DOT-Chain Defence з початку року.\nПостачання через DOT-Chain Defence доповнює інші шляхи забезпечення воїнів. Маркетплейс — важливий інструмент, завдяки якому бойові підрозділи отримують більше гнучкості, держава — краще розуміння реального попиту фронту, а ОПК — чіткий сигнал, які рішення потрібно масштабувати.\nСтаном на вересень через DOT-Chain Defence АОЗ поставила 1 001 782 одиниці БпЛА та іншої техніки на 71,1 млрд грн. Зокрема — наземні роботизовані комплекси та засоби РЕБ.\nСьогодні на платформі представлено понад 1 200 позицій озброєння та техніки від 300 українських виробників.\nМіноборони робить усе, щоб воїни отримували рішення для успішного виконання завдань з найменшими втратами. 🫡","links":[],"original_html":"<i class=\"emoji\" style=\"background-image:url('//telegram.org/img/emoji/40/E29C85.png')\"><b>✅</b></i> <b>Понад 1 млн дронів та іншої техніки отримали підрозділи Сил оборони через маркетплейс DOT-Chain Defence з початку року.</b><br/><br/>Постачання через DOT-Chain Defence доповнює інші шляхи забезпечення воїнів. Маркетплейс — важливий інструмент, завдяки якому бойові підрозділи отримують більше гнучкості, держава — краще розуміння реального попиту фронту, а ОПК — чіткий сигнал, які рішення потрібно масштабувати.<br/><br/>Станом на вересень через DOT-Chain Defence АОЗ поставила 1 001 782 одиниці БпЛА та іншої техніки на 71,1 млрд грн. Зокрема — наземні роботизовані комплекси та засоби РЕБ.<br/><br/>Сьогодні на платформі представлено понад 1 200 позицій озброєння та техніки від 300 українських виробників. <br/><br/>Міноборони робить усе, щоб воїни отримували рішення для успішного виконання завдань з найменшими втратами. <i class=\"emoji\" style=\"background-image:url('//telegram.org/img/emoji/40/F09FABA1.png')\"><b>🫡</b></i>"}},{"type":"Feature","geometry":null,"properties":{"source":"ua_mod","source_name":"Ministry of Defence of Ukraine","group":"official_ua","id":16202,"posted_utc":"2026-09-17T11:34:45+00:00","link":"https://t.me/ministry_of_defense_ua/16202","text":"🤝 Українські та канадські оборонні компанії шукають можливості для спільного виробництва та технологічної кооперації.\nПро це йшлося під час National Defence Canada: B2B Event у Калгарі, де українську сторону представляла заступниця Міністра оборони України Ганна Гвоздяр.\nЗахід відбувся під час візиту української делегації до Канади за участі Президента України Володимира Зеленського.\nДо заходу долучилися заступниця Міністра національної оборони Канади Крістіана Фокс, командувач Об’єднаних сил Канади генерал-лейтенант Дарсі Молстад та гендиректор з питань оборонно-промислової стратегії Міністерства національної оборони Канади Раві С. К. Сінгх, представники українських і канадських оборонних компаній.\nУкраїнська оборонна промисловість вже об’єднує понад 900 компаній. Наступний крок — масштабувати виробництво, розвивати міжнародні ланцюги постачання, залучати інвестиції та спільно створювати нові технології.","links":[],"original_html":"<i class=\"emoji\" style=\"background-image:url('//telegram.org/img/emoji/40/F09FA49D.png')\"><b>🤝</b></i><b> Українські та канадські оборонні компанії шукають можливості для спільного виробництва та технологічної кооперації.</b><br/><br/>Про це йшлося під час National Defence Canada: B2B Event у Калгарі, де українську сторону представляла заступниця Міністра оборони України Ганна Гвоздяр.<br/>Захід відбувся під час візиту української делегації до Канади за участі Президента України Володимира Зеленського.<br/> <br/>До заходу долучилися заступниця Міністра національної оборони Канади Крістіана Фокс, командувач Об’єднаних сил Канади генерал-лейтенант Дарсі Молстад та гендиректор з питань оборонно-промислової стратегії Міністерства національної оборони Канади Раві С. К. Сінгх, представники українських і канадських оборонних компаній.<br/> <br/>Українська оборонна промисловість вже об’єднує понад 900 компаній. Наступний крок — масштабувати виробництво, розвивати міжнародні ланцюги постачання, залучати інвестиції та спільно створювати нові технології."}},{"type":"Feature","geometry":null,"properties":{"source":"ua_mod","source_name":"Ministry of Defence of Ukraine","group":"official_ua","id":16203,"posted_utc":"2026-09-17T14:00:17+00:00","link":"https://t.me/ministry_of_defense_ua/16203","text":"Понад 3 000 російських наземних роботизованих комплексів уразили українські підрозділи безпілотних систем із початку року.\n💥 460 — у січні;\n💥 293 — у лютому;\n💥 215 — у березні;\n💥 223 — у квітні;\n💥 323 — у травні;\n💥 370 — у червні;\n💥 456 — у липні;\n💥 511 — у серпні.\nУ першій половині вересня вже уражено майже 200 російських НРК. Всі дані підтверджено в бойовій системі DELTA.\nМінус НРК — мінус логістика, розвідка і штурмові можливості ворога.","links":[],"original_html":"<b>Понад 3 000 російських наземних роботизованих комплексів уразили українські підрозділи безпілотних систем із початку року</b>.<br/>&nbsp;<br/><i class=\"emoji\" style=\"background-image:url('//telegram.org/img/emoji/40/F09F92A5.png')\"><b>💥</b></i> 460 — у січні;<br/><i class=\"emoji\" style=\"background-image:url('//telegram.org/img/emoji/40/F09F92A5.png')\"><b>💥</b></i> 293 — у лютому;<br/><i class=\"emoji\" style=\"background-image:url('//telegram.org/img/emoji/40/F09F92A5.png')\"><b>💥</b></i> 215 — у березні;<br/><i class=\"emoji\" style=\"background-image:url('//telegram.org/img/emoji/40/F09F92A5.png')\"><b>💥</b></i> 223 — у квітні;<br/><i class=\"emoji\" style=\"background-image:url('//telegram.org/img/emoji/40/F09F92A5.png')\"><b>💥</b></i> 323 — у травні;<br/><i class=\"emoji\" style=\"background-image:url('//telegram.org/img/emoji/40/F09F92A5.png')\"><b>💥</b></i> 370 — у червні;<br/><i class=\"emoji\" style=\"background-image:url('//telegram.org/img/emoji/40/F09F92A5.png')\"><b>💥</b></i> 456 — у липні;<br/><i class=\"emoji\" style=\"background-image:url('//telegram.org/img/emoji/40/F09F92A5.png')\"><b>💥</b></i> 511 — у серпні.<br/>&nbsp;<br/>У першій половині вересня вже уражено майже 200 російських НРК. Всі дані підтверджено в бойовій системі DELTA.<br/>&nbsp;<br/>Мінус НРК — мінус логістика, розвідка і штурмові можливості ворога."}},{"type":"Feature","geometry":null,"properties":{"source":"ua_mod","source_name":"Ministry of Defence of Ukraine","group":"official_ua","id":16204,"posted_utc":"2026-09-17T17:39:19+00:00","link":"https://t.me/ministry_of_defense_ua/16204","text":"🤝 Україна готова нарощувати взаємовигідну оборонну співпрацю зі Словенією.\nМіністр оборони України Євгеній Хмара зустрівся з Міністром оборони Словенії Валентином Хайдіняком.\nУкраїнська сторона детально поінформувала словенську делегацію про ситуацію на полі бою, загрози з боку росії та дії Сил оборони. Критичний виклик — посилення російських ударів по цивільних об’єктах із застосуванням балістичних ракет і реактивних безпілотників.\nУкраїна розвиває власні асиметричні дії та технологічні рішення. Водночас залишаються дві ключові потреби: додаткове фінансування та поставки засобів ППО.\nТакож обговорили кроки для перехоплення ініціативи на фронті, розвиток middle strike та deep strike. Український ОПК має можливість у рази наростити виробництво необхідних засобів за умови додаткової фінансової підтримки партнерів.\nЗі свого боку Україна пропонує конкретні напрями взаємовигідної співпраці: створення спільних підприємств, Drone Deal, тестування рішень у реальних бойових умовах та обмін унікальним досвідом адаптації у сучасній війні.\nОкремо говорили про співпрацю в когнітивному домені. Євгеній Хмара наголосив, що росія посилює інформаційно-психологічні операції проти України та Європи. Цим загрозам важливо протидіяти спільно.\nМіністр подякував Словенії за важливу підтримку, зокрема за внески в механізм PURL, а також за готовність поглиблювати оборонне партнерство.","links":[],"original_html":"<div class=\"tgme_widget_message_text js-message_text\" dir=\"auto\"><b><i class=\"emoji\" style=\"background-image:url('//telegram.org/img/emoji/40/F09FA49D.png')\"><b>🤝</b></i></b> <b>Україна готова нарощувати взаємовигідну оборонну співпрацю зі Словенією.<br/></b><br/>Міністр оборони України Євгеній Хмара зустрівся з Міністром оборони Словенії Валентином Хайдіняком.<br/><br/>Українська сторона детально поінформувала словенську делегацію про ситуацію на полі бою, загрози з боку росії та дії Сил оборони. Критичний виклик — посилення російських ударів по цивільних об’єктах із застосуванням балістичних ракет і реактивних безпілотників.<br/><br/>Україна розвиває власні асиметричні дії та технологічні рішення. Водночас залишаються дві ключові потреби: додаткове фінансування та поставки засобів ППО.<br/><br/>Також обговорили кроки для перехоплення ініціативи на фронті, розвиток middle strike та deep strike. Український ОПК має можливість у рази наростити виробництво необхідних засобів за умови додаткової фінансової підтримки партнерів.<br/><br/>Зі свого боку Україна пропонує конкретні напрями взаємовигідної співпраці: створення спільних підприємств, Drone Deal, тестування рішень у реальних бойових умовах та обмін унікальним досвідом адаптації у сучасній війні.<br/><br/>Окремо говорили про співпрацю в когнітивному домені. Євгеній Хмара наголосив, що росія посилює інформаційно-психологічні операції проти України та Європи. Цим загрозам важливо протидіяти спільно.<br/><br/>Міністр подякував Словенії за важливу підтримку, зокрема за внески в механізм PURL, а також за готовність поглиблювати оборонне партнерство."}}]}