{"type":"FeatureCollection","features":[{"type":"Feature","geometry":null,"properties":{"source":"ru_mod","source_name":"Ministry of Defence of Russia","group":"official_ru","id":67627,"posted_utc":"2026-09-25T14:28:20+00:00","link":"https://t.me/mod_russia/67627","text":"Андрей Белоусов проинспектировал группировку войск «Север»: полоса безопасности расширяется  Министр обороны РФ Андрей Белоусов в рамках рабочей поездки в зону проведения СВО на пункте управления одного из соединений группировки войск «Север» заслушал доклады…","links":[],"original_html":"Андрей Белоусов проинспектировал группировку войск «Север»: полоса безопасности расширяется  Министр обороны РФ Андрей Белоусов в рамках рабочей поездки в зону проведения СВО на пункте управления одного из соединений группировки войск «Север» заслушал доклады…"}},{"type":"Feature","geometry":null,"properties":{"source":"ru_mod","source_name":"Ministry of Defence of Russia","group":"official_ru","id":67628,"posted_utc":"2026-09-25T14:33:37+00:00","link":"https://t.me/mod_russia/67628","text":"Ключевая роль на поле боя у подразделений войск БПС  💬 Командующий группировкой войск «Север» генерал-полковник Евгений Никифоров доложил Андрею Белоусову, что в целях обеспечения безопасности населения в полосе безопасности продолжается работа по прикрытию…","links":[],"original_html":"Ключевая роль на поле боя у подразделений войск БПС  <tg-emoji emoji-id=\"5447486370761176298\"><i class=\"emoji\" style=\"background-image:url('//telegram.org/img/emoji/40/F09F92AC.png')\"><b>💬</b></i></tg-emoji> Командующий группировкой войск «Север» генерал-полковник Евгений Никифоров доложил Андрею Белоусову, что в целях обеспечения безопасности населения в полосе безопасности продолжается работа по прикрытию…"}},{"type":"Feature","geometry":null,"properties":{"source":"ru_mod","source_name":"Ministry of Defence of Russia","group":"official_ru","id":67629,"posted_utc":"2026-09-25T14:39:21+00:00","link":"https://t.me/mod_russia/67629","text":"❗️ Вооруженные Силы Российской Федерации продолжают наносить удары беспилотными летательными аппаратами по предприятиям военно-промышленного комплекса и логистическим центрам, а также морским судам, задействованным в интересах ВСУ.\n💥 В результате удара поражены:\n▫️ в Киевской области – логистический центр (ООО «Хеви логистик Юкрейн») в населенном пункте Требухов, территория которого использовалась подразделениями министерства обороны и других силовых структур Украины для хранения товаров двойного назначения;\n▫️ в Киеве – дата-центр «Датагрупп», обеспечивавший обработку и передачу данных разведки в интересах ВСУ;\n▫️ в Одесской области – морское судно типа «сухогруз», доставившее грузы военного назначения в порт Черноморска.\n🔹 Минобороны России","links":["https://max.ru/morf"],"original_html":"<tg-emoji emoji-id=\"5447116342148753425\"><i class=\"emoji\" style=\"background-image:url('//telegram.org/img/emoji/40/E29D97.png')\"><b>❗️</b></i></tg-emoji> Вооруженные Силы Российской Федерации <b>продолжают наносить удары беспилотными летательными аппаратами по предприятиям военно-промышленного комплекса и логистическим центрам, а также морским судам</b>, задействованным в интересах ВСУ.<br/><br/><tg-emoji emoji-id=\"5449682610877918293\"><i class=\"emoji\" style=\"background-image:url('//telegram.org/img/emoji/40/F09F92A5.png')\"><b>💥</b></i></tg-emoji> В результате удара поражены:<br/><br/><tg-emoji emoji-id=\"5469903849483431273\"><i class=\"emoji\" style=\"background-image:url('//telegram.org/img/emoji/40/E296AB.png')\"><b>▫️</b></i></tg-emoji> <b>в Киевской области – логистический центр</b> (ООО «Хеви логистик Юкрейн») в населенном пункте Требухов, территория которого использовалась подразделениями министерства обороны и других силовых структур Украины для хранения товаров двойного назначения;<br/><br/><tg-emoji emoji-id=\"5469903849483431273\"><i class=\"emoji\" style=\"background-image:url('//telegram.org/img/emoji/40/E296AB.png')\"><b>▫️</b></i></tg-emoji> <b>в Киеве – дата-центр</b> «Датагрупп», обеспечивавший обработку и передачу данных разведки в интересах ВСУ;<br/><br/><tg-emoji emoji-id=\"5469903849483431273\"><i class=\"emoji\" style=\"background-image:url('//telegram.org/img/emoji/40/E296AB.png')\"><b>▫️</b></i></tg-emoji> <b>в Одесской области – морское судно типа «сухогруз»</b>, доставившее грузы военного назначения в порт Черноморска.<br/><br/><tg-emoji emoji-id=\"5269510734265483362\"><i class=\"emoji\" style=\"background-image:url('//telegram.org/img/emoji/40/F09F94B9.png')\"><b>🔹</b></i></tg-emoji> <a href=\"https://max.ru/morf\" target=\"_blank\" rel=\"noopener\" onclick=\"return confirm('Open this link?\\n\\n'+this.href);\">Минобороны России</a>"}},{"type":"Feature","geometry":null,"properties":{"source":"ru_mod","source_name":"Ministry of Defence of Russia","group":"official_ru","id":67631,"posted_utc":"2026-09-25T15:28:18+00:00","link":"https://t.me/mod_russia/67631","text":"Бьем зверя в огненном капкане\n💥 Огнем из САУ «Гиацинт-К» артиллеристы 11-го армейского корпуса группировки «Север» отработали по опорнику и скоплению боевиков в кольце окружения в Харьковской области.\n🔹 Канал Минобороны России в MAКС – боевая работа 24/7","links":["https://max.ru/morf"],"original_html":"<b>Бьем зверя в огненном капкане</b><br/><br/><tg-emoji emoji-id=\"5449682610877918293\"><i class=\"emoji\" style=\"background-image:url('//telegram.org/img/emoji/40/F09F92A5.png')\"><b>💥</b></i></tg-emoji> Огнем из САУ «Гиацинт-К» артиллеристы 11-го армейского корпуса группировки «Север» <b>отработали по опорнику и скоплению боевиков</b> в кольце окружения в Харьковской области.<br/><br/><tg-emoji emoji-id=\"5269510734265483362\"><i class=\"emoji\" style=\"background-image:url('//telegram.org/img/emoji/40/F09F94B9.png')\"><b>🔹</b></i></tg-emoji> <a href=\"https://max.ru/morf\" target=\"_blank\" rel=\"noopener\" onclick=\"return confirm('Open this link?\\n\\n'+this.href);\">Канал Минобороны России в MAКС – боевая работа 24/7</a>"}},{"type":"Feature","geometry":null,"properties":{"source":"ru_mod","source_name":"Ministry of Defence of Russia","group":"official_ru","id":67632,"posted_utc":"2026-09-25T15:59:24+00:00","link":"https://t.me/mod_russia/67632","text":"💯 И сегодня Вы в боевом строю: Леонид Горнин поздравил ветерана финансово-экономической службы со столетием\n📍 Военный университет имени князя Александра Невского МО РФ.\n🤝 Участнику Великой Отечественной войны генерал-майору в отставке Степану Едыкину вручили ведомственную медаль «За вклад в укрепление обороны Российской Федерации» и ценный подарок от Министра обороны РФ.\n💬 Первый замминистра обороны РФ отметил, что Степан Едыкин наполнил целую эпоху значимыми историческими событиями, бесценным героическим фронтовым опытом и блестящими победами на своем служебном и трудовом пути.\n«И сегодня Вы в боевом строю. Вы мудрый профессиональный наставник молодых военных финансистов, почетный участник военных парадов Победы на Красной площади в Москве, государственных, ведомственных и городских военно-патриотических мероприятий», – сказал первый замглавы военного ведомства.\n❗️ Леонид Горнин подчеркнул, что бесценный опыт Степана Едыкина лег в основу подготовки военных финансистов и в настоящее время.\n🔹 Канал Минобороны России в MAКС – только для своих!","links":["https://vumo.mil.ru/","https://max.ru/morf"],"original_html":"<i class=\"emoji\" style=\"background-image:url('//telegram.org/img/emoji/40/F09F92AF.png')\"><b>💯</b></i> <b>И сегодня Вы в боевом строю: Леонид Горнин поздравил ветерана финансово-экономической службы со столетием</b><br/><br/><tg-emoji emoji-id=\"5449396879588614682\"><i class=\"emoji\" style=\"background-image:url('//telegram.org/img/emoji/40/F09F938D.png')\"><b>📍</b></i></tg-emoji> <a href=\"https://vumo.mil.ru/\" target=\"_blank\" rel=\"noopener\" onclick=\"return confirm('Open this link?\\n\\n'+this.href);\">Военный университет имени князя Александра Невского МО РФ.</a> <br/><br/><tg-emoji emoji-id=\"5447324252925620983\"><i class=\"emoji\" style=\"background-image:url('//telegram.org/img/emoji/40/F09FA49D.png')\"><b>🤝</b></i></tg-emoji> Участнику Великой Отечественной войны генерал-майору в отставке Степану Едыкину вручили <b>ведомственную медаль «За вклад в укрепление обороны Российской Федерации» и ценный подарок от Министра обороны РФ</b>.<br/><br/><tg-emoji emoji-id=\"5447486370761176298\"><i class=\"emoji\" style=\"background-image:url('//telegram.org/img/emoji/40/F09F92AC.png')\"><b>💬</b></i></tg-emoji> Первый замминистра обороны РФ отметил, что <b>Степан Едыкин наполнил целую эпоху значимыми историческими событиями, бесценным героическим фронтовым опытом и блестящими победами на своем служебном и трудовом пути</b>.<br/><br/><blockquote>«И сегодня Вы в боевом строю. Вы мудрый профессиональный наставник молодых военных финансистов, почетный участник военных парадов Победы на Красной площади в Москве, государственных, ведомственных и городских военно-патриотических мероприятий», – сказал первый замглавы военного ведомства.</blockquote><br/><br/><tg-emoji emoji-id=\"5447116342148753425\"><i class=\"emoji\" style=\"background-image:url('//telegram.org/img/emoji/40/E29D97.png')\"><b>❗️</b></i></tg-emoji> Леонид Горнин подчеркнул, что <b>бесценный опыт Степана Едыкина лег в основу подготовки военных финансистов и в настоящее время</b>.<br/><br/><tg-emoji emoji-id=\"5269510734265483362\"><i class=\"emoji\" style=\"background-image:url('//telegram.org/img/emoji/40/F09F94B9.png')\"><b>🔹</b></i></tg-emoji> <a href=\"https://max.ru/morf\" target=\"_blank\" rel=\"noopener\" onclick=\"return confirm('Open this link?\\n\\n'+this.href);\">Канал Минобороны России в MAКС – только для своих&#33;</a>"}},{"type":"Feature","geometry":null,"properties":{"source":"ru_mod","source_name":"Ministry of Defence of Russia","group":"official_ru","id":67636,"posted_utc":"2026-09-25T16:35:22+00:00","link":"https://t.me/mod_russia/67636","text":"🔤🔤🔤🔤🔤🔤\n📃 Статья 31 УК РФ «Добровольный отказ от преступления», устанавливает, что человек не подлежит уголовной ответственности, если он добровольно и окончательно отказался от участия в преступлении.\n☝️ Особенно важно, чтобы это понимали подростки, которые часто становятся жертвами вербовщиков, их угроз и запугивания тем, что после минимального общения с сообщниками человек в любом случае подлежит ответственности.\n🔜 К примеру, в случае, если Вы передали преступникам фото объекта, но отказались от участия в диверсии и сообщили об этом в органы внутренних дел, предварительное общение с злоумышленниками не будет подлежать ответственности.\n📌 Важные условия:\n🟢 человек остановился сам, а не потому что задержали;\n🟢 человек отказался окончательно, а не «отложил» совершение преступления;\n🟢 человек сообщил о готовящемся преступлении в органы внутренних дел.\n🌐 На портале «выход31.рф» можно ознакомиться с реальными историями тех, кто успел остановиться, признаками вербовки в переписке, инструкциями для жертв вербовки и советами для родителей по профилактической работе с детьми.\n‼️ Остановись, пока не стало слишком поздно! Выход есть: выход31.рф\n#ТвояБезопасность #Выход31 #НеИдиНаПоводу #СтопДиверсия\n🖥Подписывайтесь на наши страницы в Telegram | MAКС | VK","links":["http://%D0%B2%D1%8B%D1%85%D0%BE%D0%B431.%D1%80%D1%84/","https://t.me/+3wFpg78U48w5ZDgy","https://max.ru/mvd","https://vk.ru/mvd"],"original_html":"<tg-emoji emoji-id=\"5452109954594939239\"><i class=\"emoji\" style=\"background-image:url('//telegram.org/img/emoji/40/F09F94A4.png')\"><b>🔤</b></i></tg-emoji><tg-emoji emoji-id=\"5453885124707918269\"><i class=\"emoji\" style=\"background-image:url('//telegram.org/img/emoji/40/F09F94A4.png')\"><b>🔤</b></i></tg-emoji><tg-emoji emoji-id=\"5454331041097491785\"><i class=\"emoji\" style=\"background-image:url('//telegram.org/img/emoji/40/F09F94A4.png')\"><b>🔤</b></i></tg-emoji><tg-emoji emoji-id=\"5453953887134326383\"><i class=\"emoji\" style=\"background-image:url('//telegram.org/img/emoji/40/F09F94A4.png')\"><b>🔤</b></i></tg-emoji><tg-emoji emoji-id=\"5454179166758941932\"><i class=\"emoji\" style=\"background-image:url('//telegram.org/img/emoji/40/F09F94A4.png')\"><b>🔤</b></i></tg-emoji><tg-emoji emoji-id=\"5453995810310102532\"><i class=\"emoji\" style=\"background-image:url('//telegram.org/img/emoji/40/F09F94A4.png')\"><b>🔤</b></i></tg-emoji><br/><b><br/></b><b><tg-emoji emoji-id=\"5357449773039239953\"><i class=\"emoji\" style=\"background-image:url('//telegram.org/img/emoji/40/F09F9383.png')\"><b>📃</b></i></tg-emoji></b><b> Статья 31 УК РФ «Добровольный отказ от преступления», устанавливает, что человек не подлежит уголовной ответственности, если он добровольно и окончательно отказался от участия в преступлении.</b><br/><br/><tg-emoji emoji-id=\"5389062952835886404\"><i class=\"emoji\" style=\"background-image:url('//telegram.org/img/emoji/40/E2989D.png')\"><b>☝️</b></i></tg-emoji> Особенно важно, чтобы это понимали подростки, которые часто становятся жертвами вербовщиков, их угроз и запугивания тем, что после минимального общения с сообщниками человек в любом случае подлежит ответственности.<br/><br/><tg-emoji emoji-id=\"5291820628351923127\"><i class=\"emoji\" style=\"background-image:url('//telegram.org/img/emoji/40/F09F949C.png')\"><b>🔜</b></i></tg-emoji> К примеру, в случае, если Вы передали преступникам фото объекта, но отказались от участия в диверсии и сообщили об этом в органы внутренних дел, предварительное общение с злоумышленниками не будет подлежать ответственности.<br/><br/><blockquote><i><tg-emoji emoji-id=\"5292270427391929494\"><i class=\"emoji\" style=\"background-image:url('//telegram.org/img/emoji/40/F09F938C.png')\"><b>📌</b></i></tg-emoji></i><i> <b>Важные условия:</b><br/></i><i><tg-emoji emoji-id=\"5337148141235873758\"><i class=\"emoji\" style=\"background-image:url('//telegram.org/img/emoji/40/F09F9FA2.png')\"><b>🟢</b></i></tg-emoji></i><i> человек остановился сам, а не потому что задержали;<br/></i><i><tg-emoji emoji-id=\"5337148141235873758\"><i class=\"emoji\" style=\"background-image:url('//telegram.org/img/emoji/40/F09F9FA2.png')\"><b>🟢</b></i></tg-emoji></i><i> человек отказался окончательно, а не «отложил» совершение преступления;<br/></i><i><tg-emoji emoji-id=\"5337148141235873758\"><i class=\"emoji\" style=\"background-image:url('//telegram.org/img/emoji/40/F09F9FA2.png')\"><b>🟢</b></i></tg-emoji></i><i> человек сообщил о готовящемся преступлении в органы внутренних дел.</i></blockquote><br/><br/><tg-emoji emoji-id=\"5188381825701021648\"><i class=\"emoji\" style=\"background-image:url('//telegram.org/img/emoji/40/F09F8C90.png')\"><b>🌐</b></i></tg-emoji> На портале «<a href=\"http://%D0%B2%D1%8B%D1%85%D0%BE%D0%B431.%D1%80%D1%84/\" target=\"_blank\" rel=\"noopener\">выход31.рф</a>» можно ознакомиться с реальными историями тех, кто успел остановиться, признаками вербовки в переписке, инструкциями для жертв вербовки и советами для родителей по профилактической работе с детьми.<br/><br/><tg-emoji emoji-id=\"5440660757194744323\"><i class=\"emoji\" style=\"background-image:url('//telegram.org/img/emoji/40/E280BC.png')\"><b>‼️</b></i></tg-emoji> <b>Остановись, пока не стало слишком поздно&#33; Выход есть: </b><a href=\"http://%D0%B2%D1%8B%D1%85%D0%BE%D0%B431.%D1%80%D1%84/\" target=\"_blank\" rel=\"noopener\"><b>выход31.рф</b></a><br/><br/><a href=\"?q=%23%D0%A2%D0%B2%D0%BE%D1%8F%D0%91%D0%B5%D0%B7%D0%BE%D0%BF%D0%B0%D1%81%D0%BD%D0%BE%D1%81%D1%82%D1%8C\"><i>#ТвояБезопасность</i></a><i> </i><a href=\"?q=%23%D0%92%D1%8B%D1%85%D0%BE%D0%B431\"><i>#Выход31</i></a><i> </i><a href=\"?q=%23%D0%9D%D0%B5%D0%98%D0%B4%D0%B8%D0%9D%D0%B0%D0%9F%D0%BE%D0%B2%D0%BE%D0%B4%D1%83\"><i>#НеИдиНаПоводу</i></a><i> </i><a href=\"?q=%23%D0%A1%D1%82%D0%BE%D0%BF%D0%94%D0%B8%D0%B2%D0%B5%D1%80%D1%81%D0%B8%D1%8F\"><i>#СтопДиверсия</i></a><br/><tg-emoji emoji-id=\"5282843764451195532\"><i class=\"emoji\" style=\"background-image:url('//telegram.org/img/emoji/40/F09F96A5.png')\"><b>🖥</b></i></tg-emoji><b>Подписывайтесь на наши страницы в </b><a href=\"https://t.me/+3wFpg78U48w5ZDgy\" target=\"_blank\" rel=\"noopener\" onclick=\"return confirm('Open this link?\\n\\n'+this.href);\"><b>Telegram</b></a><b> | </b><a href=\"https://max.ru/mvd\" target=\"_blank\" rel=\"noopener\" onclick=\"return confirm('Open this link?\\n\\n'+this.href);\"><b>MAКС</b></a><b> | </b><a href=\"https://vk.ru/mvd\" target=\"_blank\" rel=\"noopener\" onclick=\"return confirm('Open this link?\\n\\n'+this.href);\"><b>VK</b></a>"}},{"type":"Feature","geometry":null,"properties":{"source":"ru_mod","source_name":"Ministry of Defence of Russia","group":"official_ru","id":67637,"posted_utc":"2026-09-25T17:25:21+00:00","link":"https://t.me/mod_russia/67637","text":"На каждый хитрый дрон у нас свой убойный прием\n🎮 Расчеты FPV-перехватчиков группировки «Запад» ежедневно зачищают небо над восточным берегом Краснооскольского водохранилища.\n🎯 На разные хитрости идет противник, чтобы достичь наших позиций. Например, отправляет большие БПЛА – «матки», начиненные мелкими ударными дронами. Но наши парни проявили смекалку и нашли, как с этим бороться:\n«Мы уничтожаем не сами дроны, которые с этой «матки» спускаются, а саму «матку». Поражаем, и с нее падают дроны», – рассказал оператор с позывным «Мот».\n➡️ Присоединяйся к нашим бойцам и бей врага, как это делают дроноводы подразделений войск беспилотных систем! Узнай подробности на сайте Беспилотныевойска.рф и по телефону 117(доб.4).\n#ВойскаБПС\n🔹 MAКС – территория СВОих","links":["http://%D0%91%D0%B5%D1%81%D0%BF%D0%B8%D0%BB%D0%BE%D1%82%D0%BD%D1%8B%D0%B5%D0%B2%D0%BE%D0%B9%D1%81%D0%BA%D0%B0.%D1%80%D1%84/","https://max.ru/morf"],"original_html":"<b>На каждый хитрый дрон у нас свой убойный прием</b><br/><br/><tg-emoji emoji-id=\"5449767024165154360\"><i class=\"emoji\" style=\"background-image:url('//telegram.org/img/emoji/40/F09F8EAE.png')\"><b>🎮</b></i></tg-emoji> Расчеты FPV-перехватчиков группировки «Запад» ежедневно зачищают небо над восточным берегом Краснооскольского водохранилища. <br/><br/><tg-emoji emoji-id=\"5467558728620341717\"><i class=\"emoji\" style=\"background-image:url('//telegram.org/img/emoji/40/F09F8EAF.png')\"><b>🎯</b></i></tg-emoji> <b>На разные хитрости идет противник, чтобы достичь наших позиций.</b> Например, отправляет большие БПЛА – «матки», начиненные мелкими ударными дронами. Но наши парни проявили смекалку и <b>нашли, как с этим бороться</b>:<br/><br/><blockquote>«Мы уничтожаем не сами дроны, которые с этой «матки» спускаются, а саму «матку». Поражаем, и с нее падают дроны», – рассказал оператор с позывным «Мот».</blockquote><br/><br/><tg-emoji emoji-id=\"5469902676957357453\"><i class=\"emoji\" style=\"background-image:url('//telegram.org/img/emoji/40/E29EA1.png')\"><b>➡️</b></i></tg-emoji> <i>Присоединяйся к нашим бойцам и бей врага, как это делают дроноводы подразделений войск беспилотных систем&#33; Узнай подробности на сайте </i><a href=\"http://%D0%91%D0%B5%D1%81%D0%BF%D0%B8%D0%BB%D0%BE%D1%82%D0%BD%D1%8B%D0%B5%D0%B2%D0%BE%D0%B9%D1%81%D0%BA%D0%B0.%D1%80%D1%84/\" target=\"_blank\" rel=\"noopener\"><i>Беспилотныевойска.рф</i></a><i> и по телефону 117(доб.4).</i><br/><br/><a href=\"?q=%23%D0%92%D0%BE%D0%B9%D1%81%D0%BA%D0%B0%D0%91%D0%9F%D0%A1\">#ВойскаБПС</a><br/><tg-emoji emoji-id=\"5269510734265483362\"><i class=\"emoji\" style=\"background-image:url('//telegram.org/img/emoji/40/F09F94B9.png')\"><b>🔹</b></i></tg-emoji> <a href=\"https://max.ru/morf\" target=\"_blank\" rel=\"noopener\" onclick=\"return confirm('Open this link?\\n\\n'+this.href);\">MAКС – территория СВОих</a>"}},{"type":"Feature","geometry":null,"properties":{"source":"ru_mod","source_name":"Ministry of Defence of Russia","group":"official_ru","id":67638,"posted_utc":"2026-09-25T17:43:50+00:00","link":"https://t.me/mod_russia/67638","text":"⚡️ В течение дня, с 8.00 до 20.00 мск, дежурными силами ПВО перехвачены и уничтожены 55 украинских беспилотных летательных аппаратов самолетного типа над территориями Белгородской, Брянской, Курской, Ростовской областей, Республики Крым и над акваторией Черного моря.\n🔹 Минобороны России","links":["https://max.ru/morf"],"original_html":"<i class=\"emoji\" style=\"background-image:url('//telegram.org/img/emoji/40/E29AA1.png')\"><b>⚡️</b></i> В течение дня, с 8.00 до 20.00 мск, дежурными силами ПВО <b>перехвачены и уничтожены 55 украинских беспилотных летательных аппаратов самолетного типа</b> над территориями Белгородской, Брянской, Курской, Ростовской областей, Республики Крым и над акваторией Черного моря.<br/><br/><tg-emoji emoji-id=\"5269510734265483362\"><i class=\"emoji\" style=\"background-image:url('//telegram.org/img/emoji/40/F09F94B9.png')\"><b>🔹</b></i></tg-emoji> <a href=\"https://max.ru/morf\" target=\"_blank\" rel=\"noopener\" onclick=\"return confirm('Open this link?\\n\\n'+this.href);\">Минобороны России</a>"}},{"type":"Feature","geometry":null,"properties":{"source":"ru_mod","source_name":"Ministry of Defence of Russia","group":"official_ru","id":67639,"posted_utc":"2026-09-25T18:04:27+00:00","link":"https://t.me/mod_russia/67639","text":"Для противника черная пятница, дальше будет только хуже\n#Цифра\n🔹 Канал Минобороны России в MAКС – только для своих!","links":["https://max.ru/morf"],"original_html":"<b>Для противника черная пятница, дальше будет только хуже<br/></b><br/><a href=\"?q=%23%D0%A6%D0%B8%D1%84%D1%80%D0%B0\">#Цифра</a><br/><tg-emoji emoji-id=\"5269510734265483362\"><i class=\"emoji\" style=\"background-image:url('//telegram.org/img/emoji/40/F09F94B9.png')\"><b>🔹</b></i></tg-emoji> <a href=\"https://max.ru/morf\" target=\"_blank\" rel=\"noopener\" onclick=\"return confirm('Open this link?\\n\\n'+this.href);\">Канал Минобороны России в MAКС – только для своих&#33;</a>"}},{"type":"Feature","geometry":null,"properties":{"source":"ru_mod","source_name":"Ministry of Defence of Russia","group":"official_ru","id":67640,"posted_utc":"2026-09-25T18:15:23+00:00","link":"https://t.me/mod_russia/67640","text":"«Они должны почувствовать ответные удары России и понять, что никакие провокационные действия, никакое нагнетание обстановки к нужному для них результату не приведут, они только ухудшают положение», – Владимир Путин об атаке украинских БПЛА на Москву 19-20 сентября.\nПодробнее – на сайте Кремля.","links":["http://www.kremlin.ru/events/president/news/80839"],"original_html":"<b>«Они должны почувствовать ответные удары России и понять, что никакие провокационные действия, никакое нагнетание обстановки к нужному для них результату не приведут, они только ухудшают положение», – Владимир Путин об атаке украинских БПЛА на Москву 19-20 сентября</b>.<br/><br/>Подробнее – на <a href=\"http://www.kremlin.ru/events/president/news/80839\" target=\"_blank\" rel=\"noopener\" onclick=\"return confirm('Open this link?\\n\\n'+this.href);\">сайте Кремля</a>."}},{"type":"Feature","geometry":null,"properties":{"source":"ru_mod","source_name":"Ministry of Defence of Russia","group":"official_ru","id":67641,"posted_utc":"2026-09-25T18:27:48+00:00","link":"https://t.me/mod_russia/67641","text":"📆 Главное за день\n⏩ Полоса безопасности расширяется: Министр обороны РФ Андрей Белоусов проинспектировал группировку войск «Север». Командующий группировкой доложил об успешных действиях по созданию полосы безопасности в приграничных районах Сумской и Харьковской областей.\n🤝 Продолжение героического пути: Министр обороны РФ поздравил военнослужащих 76-й гвардейской десантно-штурмовой, Черниговской, Краснознаменной, орденов Суворова, Кутузова и Александра Невского дивизии, действующей в составе 51-й армии, с освобождением населенного пункта Доброполье Малое ДНР.\n✂️ Отрезаем снабжение: нанесли удары беспилотниками по предприятиям военно-промышленного комплекса и логистическим центрам, а также морским судам, задействованным в интересах ВСУ.\n💥 Погасили Маяки, выключили Светличный: экипажи ВКС поразили ПВД 10-й отдельной горно-штурмовой бригады ВСУ в районе населенного пункта Маяки Краматорского района в ДНР и пункт управления БПЛА 475-го отдельного штурмового полка ВСУ в районе Светличного в Харьковской области.\n🪤 Морпехи держат капкан в Доброполье: дроноводы 61-й бригады морской пехоты отработали по пунктам временного размещения боевиков и по их огневым позициям в Доброполье в ДНР, а также предотвратили попытки прорыва подразделений ВСУ из кольца окружения.\n🏳️ Закулисье купянских «перемог»: пленный военнослужащий ВСУ поделился положением дел на Купянском направлении.\n🔥 Выявляем и выжигаем: командир взвода противодействия БПЛА с позывным «Пионер» рассказал о боевой работе в населенных пунктах Славянско-Краматорской агломерации.\nМы идем к Победе!\n#ИтогиДня\n🔹 Курс на MAКС!","links":["https://t.me/mod_russia/67626","https://t.me/mod_russia/67620","https://t.me/mod_russia/67613","https://t.me/mod_russia/67617","https://t.me/mod_russia/67622","https://t.me/mod_russia/67624","https://t.me/mod_russia/67623","https://max.ru/morf"],"original_html":"<tg-emoji emoji-id=\"5472282252048104170\"><i class=\"emoji\" style=\"background-image:url('//telegram.org/img/emoji/40/F09F9386.png')\"><b>📆</b></i></tg-emoji> <b>Главное за день</b><br/><br/><tg-emoji emoji-id=\"5470088953983955103\"><i class=\"emoji\" style=\"background-image:url('//telegram.org/img/emoji/40/E28FA9.png')\"><b>⏩</b></i></tg-emoji> <b>Полоса безопасности расширяется</b>: Министр обороны РФ Андрей Белоусов <a href=\"https://t.me/mod_russia/67626\" target=\"_blank\" rel=\"noopener\" onclick=\"return confirm('Open this link?\\n\\n'+this.href);\">проинспектировал</a> группировку войск «Север». Командующий группировкой доложил об успешных действиях по созданию полосы безопасности в приграничных районах Сумской и Харьковской областей.<br/><br/><tg-emoji emoji-id=\"5447324252925620983\"><i class=\"emoji\" style=\"background-image:url('//telegram.org/img/emoji/40/F09FA49D.png')\"><b>🤝</b></i></tg-emoji> <b>Продолжение героического пути</b>: Министр обороны РФ <a href=\"https://t.me/mod_russia/67620\" target=\"_blank\" rel=\"noopener\" onclick=\"return confirm('Open this link?\\n\\n'+this.href);\">поздравил</a> военнослужащих 76-й гвардейской десантно-штурмовой, Черниговской, Краснознаменной, орденов Суворова, Кутузова и Александра Невского дивизии, действующей в составе 51-й армии, с освобождением населенного пункта Доброполье Малое ДНР.<br/><br/><i class=\"emoji\" style=\"background-image:url('//telegram.org/img/emoji/40/E29C82.png')\"><b>✂️</b></i> <b>Отрезаем снабжение</b>: <a href=\"https://t.me/mod_russia/67613\" target=\"_blank\" rel=\"noopener\" onclick=\"return confirm('Open this link?\\n\\n'+this.href);\">нанесли удары</a> беспилотниками по предприятиям военно-промышленного комплекса и логистическим центрам, а также морским судам, задействованным в интересах ВСУ.<br/><br/><tg-emoji emoji-id=\"5449682610877918293\"><i class=\"emoji\" style=\"background-image:url('//telegram.org/img/emoji/40/F09F92A5.png')\"><b>💥</b></i></tg-emoji> <b>Погасили Маяки, выключили Светличный</b>: экипажи ВКС <a href=\"https://t.me/mod_russia/67617\" target=\"_blank\" rel=\"noopener\" onclick=\"return confirm('Open this link?\\n\\n'+this.href);\">поразили</a> ПВД 10-й отдельной горно-штурмовой бригады ВСУ в районе населенного пункта Маяки Краматорского района в ДНР и пункт управления БПЛА 475-го отдельного штурмового полка ВСУ в районе Светличного в Харьковской области. <br/><br/><i class=\"emoji\" style=\"background-image:url('//telegram.org/img/emoji/40/F09FAAA4.png')\"><b>🪤</b></i> <b>Морпехи держат капкан в Доброполье</b>: дроноводы 61-й бригады морской пехоты <a href=\"https://t.me/mod_russia/67622\" target=\"_blank\" rel=\"noopener\" onclick=\"return confirm('Open this link?\\n\\n'+this.href);\">отработали</a> по пунктам временного размещения боевиков и по их огневым позициям в Доброполье в ДНР, а также предотвратили попытки прорыва подразделений ВСУ из кольца окружения.<br/><br/><i class=\"emoji\" style=\"background-image:url('//telegram.org/img/emoji/40/F09F8FB3.png')\"><b>🏳️</b></i> <b>Закулисье купянских «перемог»</b>: пленный военнослужащий ВСУ <a href=\"https://t.me/mod_russia/67624\" target=\"_blank\" rel=\"noopener\" onclick=\"return confirm('Open this link?\\n\\n'+this.href);\">поделился</a> положением дел на Купянском направлении.<br/><br/><tg-emoji emoji-id=\"5449590921916082144\"><i class=\"emoji\" style=\"background-image:url('//telegram.org/img/emoji/40/F09F94A5.png')\"><b>🔥</b></i></tg-emoji> <b>Выявляем и выжигаем</b>: командир взвода противодействия БПЛА с позывным «Пионер» <a href=\"https://t.me/mod_russia/67623\" target=\"_blank\" rel=\"noopener\" onclick=\"return confirm('Open this link?\\n\\n'+this.href);\">рассказал</a> о боевой работе в населенных пунктах Славянско-Краматорской агломерации.<br/><br/><b>Мы идем к Победе&#33;</b><br/>&nbsp;<br/><a href=\"?q=%23%D0%98%D1%82%D0%BE%D0%B3%D0%B8%D0%94%D0%BD%D1%8F\">#ИтогиДня</a><br/><tg-emoji emoji-id=\"5269510734265483362\"><i class=\"emoji\" style=\"background-image:url('//telegram.org/img/emoji/40/F09F94B9.png')\"><b>🔹</b></i></tg-emoji> <a href=\"https://max.ru/morf\" target=\"_blank\" rel=\"noopener\" onclick=\"return confirm('Open this link?\\n\\n'+this.href);\">Курс на MAКС&#33;</a>"}},{"type":"Feature","geometry":null,"properties":{"source":"ru_mod","source_name":"Ministry of Defence of Russia","group":"official_ru","id":67642,"posted_utc":"2026-09-25T19:03:46+00:00","link":"https://t.me/mod_russia/67642","text":"Ради правды и спокойствия семей. Ради чистого неба для наших детей.\nРаботаем, братья ▫️\n🔹 MAКС – территория СВОих","links":["https://max.ru/morf"],"original_html":"<b>Ради правды и спокойствия семей. Ради чистого неба для наших детей. </b><br/><br/>Работаем, братья <tg-emoji emoji-id=\"5447420966999193906\"><i class=\"emoji\" style=\"background-image:url('//telegram.org/img/emoji/40/E296AB.png')\"><b>▫️</b></i></tg-emoji><br/><br/><tg-emoji emoji-id=\"5269510734265483362\"><i class=\"emoji\" style=\"background-image:url('//telegram.org/img/emoji/40/F09F94B9.png')\"><b>🔹</b></i></tg-emoji> <a href=\"https://max.ru/morf\" target=\"_blank\" rel=\"noopener\" onclick=\"return confirm('Open this link?\\n\\n'+this.href);\">MAКС – территория СВОих</a>"}},{"type":"Feature","geometry":null,"properties":{"source":"ru_mod","source_name":"Ministry of Defence of Russia","group":"official_ru","id":67612,"posted_utc":"2026-09-25T03:43:01+00:00","link":"https://t.me/mod_russia/67612","text":"💥  Выгорели на работе\nДроноводы группировки «Восток» серией ударов разнесли вражескую бронетехнику в Запорожской области. За грудой металла выехала бронированная ремонтно-эвакуационная машина Bergepanzer 2, но была также выведена из строя.\n#ВойскаБПС\n▫️ Канал Минобороны России в MAКС – источник мощных новостей","links":["https://max.ru/morf"],"original_html":"<tg-emoji emoji-id=\"5449682610877918293\"><i class=\"emoji\" style=\"background-image:url('//telegram.org/img/emoji/40/F09F92A5.png')\"><b>💥</b></i></tg-emoji> <b> Выгорели на работе</b><br/><br/>Дроноводы группировки «Восток» серией ударов<b> разнесли вражескую бронетехнику в Запорожской области</b>. За грудой металла выехала бронированная ремонтно-эвакуационная машина Bergepanzer 2, но была также выведена из строя.<br/><br/><a href=\"?q=%23%D0%92%D0%BE%D0%B9%D1%81%D0%BA%D0%B0%D0%91%D0%9F%D0%A1\">#ВойскаБПС</a><br/><tg-emoji emoji-id=\"5352532894478793783\"><i class=\"emoji\" style=\"background-image:url('//telegram.org/img/emoji/40/E296AB.png')\"><b>▫️</b></i></tg-emoji> <a href=\"https://max.ru/morf\" target=\"_blank\" rel=\"noopener\" onclick=\"return confirm('Open this link?\\n\\n'+this.href);\">Канал Минобороны России в MAКС – источник мощных новостей</a>"}},{"type":"Feature","geometry":null,"properties":{"source":"ru_mod","source_name":"Ministry of Defence of Russia","group":"official_ru","id":67613,"posted_utc":"2026-09-25T05:03:23+00:00","link":"https://t.me/mod_russia/67613","text":"❗️ Сегодня ночью Вооруженными Силами Российской Федерации продолжено нанесение ударов беспилотными летательными аппаратами по предприятиям военно-промышленного комплекса и логистическим центрам, а также морским судам, задействованным в интересах ВСУ.\n💥  В результате удара поражены:\n📍  в Киевской области – место сборки и хранения беспилотных летательных аппаратов (ООО «Файер Поинт») в н.п. Борисполь, на территории которого осуществлялось хранение двигателей «Хоневелл» TFE731, используемых в качестве силовой установки крылатых ракет большой дальности «Фламинго»;\n📍  в Одесской области:\n▫️ два логистических центра в г. Одессе и н.п. Нерубайское, осуществлявших хранение и распределение грузов военного и двойного назначения, поступивших на Украину из европейских государств;\n▫️ в порту Рени – объекты причальной инфраструктуры и три хранилища с военным имуществом, предназначенным для обеспечения ВСУ.\n💥 Кроме того, на переходе морем поражено морское судно типа «сухогруз», доставлявшее в порт Одессу военное имущество и грузы двойного назначения для обеспечения ВСУ.\n🔹 Минобороны России","links":["https://max.ru/morf"],"original_html":"<tg-emoji emoji-id=\"5447116342148753425\"><i class=\"emoji\" style=\"background-image:url('//telegram.org/img/emoji/40/E29D97.png')\"><b>❗️</b></i></tg-emoji> <b>Сегодня ночью Вооруженными Силами Российской Федерации продолжено нанесение ударов беспилотными летательными аппаратами по предприятиям военно-промышленного комплекса и логистическим центрам, а также морским судам, задействованным в интересах ВСУ.</b><br/><br/><tg-emoji emoji-id=\"5449682610877918293\"><i class=\"emoji\" style=\"background-image:url('//telegram.org/img/emoji/40/F09F92A5.png')\"><b>💥</b></i></tg-emoji>  В результате удара<b> поражены:</b><br/><br/><tg-emoji emoji-id=\"5469680584198483528\"><i class=\"emoji\" style=\"background-image:url('//telegram.org/img/emoji/40/F09F938D.png')\"><b>📍</b></i></tg-emoji>  <b>в Киевской области</b> – место сборки и хранения беспилотных летательных аппаратов (ООО «Файер Поинт») в н.п. Борисполь, на территории которого осуществлялось хранение двигателей «Хоневелл» TFE731, используемых в качестве силовой установки крылатых ракет большой дальности «Фламинго»;<br/><br/><tg-emoji emoji-id=\"5469680584198483528\"><i class=\"emoji\" style=\"background-image:url('//telegram.org/img/emoji/40/F09F938D.png')\"><b>📍</b></i></tg-emoji>  <b>в Одесской области:</b><br/><br/><tg-emoji emoji-id=\"5469903849483431273\"><i class=\"emoji\" style=\"background-image:url('//telegram.org/img/emoji/40/E296AB.png')\"><b>▫️</b></i></tg-emoji> два логистических центра в г. Одессе и н.п. Нерубайское, осуществлявших хранение и распределение грузов военного и двойного назначения, поступивших на Украину из европейских государств; <br/><br/><tg-emoji emoji-id=\"5469903849483431273\"><i class=\"emoji\" style=\"background-image:url('//telegram.org/img/emoji/40/E296AB.png')\"><b>▫️</b></i></tg-emoji> в порту Рени – объекты причальной инфраструктуры и три хранилища с военным имуществом, предназначенным для обеспечения ВСУ.<br/><br/><tg-emoji emoji-id=\"5449682610877918293\"><i class=\"emoji\" style=\"background-image:url('//telegram.org/img/emoji/40/F09F92A5.png')\"><b>💥</b></i></tg-emoji> Кроме того, на переходе морем <b>поражено морское судно типа «сухогруз»</b>, доставлявшее в порт Одессу военное имущество и грузы двойного назначения для обеспечения ВСУ.<br/><br/><tg-emoji emoji-id=\"5269510734265483362\"><i class=\"emoji\" style=\"background-image:url('//telegram.org/img/emoji/40/F09F94B9.png')\"><b>🔹</b></i></tg-emoji> <a href=\"https://max.ru/morf\" target=\"_blank\" rel=\"noopener\" onclick=\"return confirm('Open this link?\\n\\n'+this.href);\">Минобороны России</a>"}},{"type":"Feature","geometry":null,"properties":{"source":"ru_mod","source_name":"Ministry of Defence of Russia","group":"official_ru","id":67614,"posted_utc":"2026-09-25T05:47:15+00:00","link":"https://t.me/mod_russia/67614","text":"⚡️ В течение прошедшей ночи в период с 20.00 мск 24 сентября до 8.00 мск 25 сентября дежурными силами ПВО перехвачены и уничтожены 592 украинских беспилотных летательных аппарата самолетного типа над территориями Белгородской, Брянской, Волгоградской, Воронежской, Калужской, Курской, Липецкой, Орловской, Ростовской, Тверской, Тульской, Самарской, Смоленской областей, Московского региона, Краснодарского края, Пермского края, Удмуртской Республики, Республики Татарстан, Республики Крым и над акваторией Черного моря.\n🔹 MAКС – территория СВОих","links":["https://max.ru/morf"],"original_html":"<i class=\"emoji\" style=\"background-image:url('//telegram.org/img/emoji/40/E29AA1.png')\"><b>⚡️</b></i> В течение прошедшей ночи в период с 20.00 мск 24 сентября до 8.00 мск 25 сентября дежурными силами ПВО <b>перехвачены и уничтожены 592 украинских беспилотных летательных аппарата самолетного типа</b> над территориями Белгородской, Брянской, Волгоградской, Воронежской, Калужской, Курской, Липецкой, Орловской, Ростовской, Тверской, Тульской, Самарской, Смоленской областей, Московского региона, Краснодарского края, Пермского края, Удмуртской Республики, Республики Татарстан, Республики Крым и над акваторией Черного моря.<br/><br/><tg-emoji emoji-id=\"5269510734265483362\"><i class=\"emoji\" style=\"background-image:url('//telegram.org/img/emoji/40/F09F94B9.png')\"><b>🔹</b></i></tg-emoji> <a href=\"https://max.ru/morf\" target=\"_blank\" rel=\"noopener\" onclick=\"return confirm('Open this link?\\n\\n'+this.href);\">MAКС – территория СВОих</a>"}},{"type":"Feature","geometry":null,"properties":{"source":"ru_mod","source_name":"Ministry of Defence of Russia","group":"official_ru","id":67615,"posted_utc":"2026-09-25T05:54:54+00:00","link":"https://t.me/mod_russia/67615","text":"Термобарический прилет\n💥 Расчёт ТОС-2 «Тосочка» подразделения РХБ защиты группировки «Центр» сжег командный пункт ВСУ на Добропольском направлении.\n🔹 Канал Минобороны России в MAКС – боевая работа 24/7","links":["https://max.ru/morf"],"original_html":"<b>Термобарический прилет</b><br/><br/><tg-emoji emoji-id=\"5449682610877918293\"><i class=\"emoji\" style=\"background-image:url('//telegram.org/img/emoji/40/F09F92A5.png')\"><b>💥</b></i></tg-emoji> Расчёт ТОС-2 «Тосочка» подразделения РХБ защиты группировки «Центр» <b>сжег командный пункт ВСУ на Добропольском направлении.</b><br/><br/><tg-emoji emoji-id=\"5269510734265483362\"><i class=\"emoji\" style=\"background-image:url('//telegram.org/img/emoji/40/F09F94B9.png')\"><b>🔹</b></i></tg-emoji> <a href=\"https://max.ru/morf\" target=\"_blank\" rel=\"noopener\" onclick=\"return confirm('Open this link?\\n\\n'+this.href);\">Канал Минобороны России в MAКС – боевая работа 24/7</a>"}},{"type":"Feature","geometry":null,"properties":{"source":"ru_mod","source_name":"Ministry of Defence of Russia","group":"official_ru","id":67616,"posted_utc":"2026-09-25T07:08:43+00:00","link":"https://t.me/mod_russia/67616","text":"«Тихий» — фельдшер роты 145-го полка морской пехоты — только в 2025 году выпустился из Военно-медицинской академии. Первое время обучал тактической медицине на полигоне, но уже в конце сентября начал выполнять боевые задачи в Константиновке.\n«У меня была задача: оборудовать медицинский пост и там принимать раненых бойцов. Нашел место. Выкопал блиндаж. Оборудовал под свои нужды...»\nВ этом самом блиндаже, когда противник пытался контратаковать, «Тихий» оказывал первую помощь раненым, которых выносил с передовой. А однажды ему пришлось эвакуировать и своего командира, получившего тяжелое ранение. Всего «на счету» бойца — более 40 спасенных жизней.\nРассказываем об участниках СВО в 📲 MAX,  📱 ВКонтакте и в 📱 Дзен","links":["https://max.ru/heroesofZ","https://vk.com/heroes0fz","http://dzen.ru/heroesofz"],"original_html":"«Тихий» — фельдшер роты 145-го полка морской пехоты — только в 2025 году выпустился из Военно-медицинской академии. Первое время обучал тактической медицине на полигоне, но уже в конце сентября начал выполнять боевые задачи в Константиновке.<br/><br/><i>«У меня была задача: оборудовать медицинский пост и там принимать раненых бойцов. Нашел место. Выкопал блиндаж. Оборудовал под свои нужды...»</i><br/> <br/>В этом самом блиндаже, когда противник пытался контратаковать, «Тихий» оказывал первую помощь раненым, которых выносил с передовой. А однажды ему пришлось эвакуировать и своего командира, получившего тяжелое ранение. Всего «на счету» бойца — более 40 спасенных жизней.<br/><br/><i>Рассказываем об участниках СВО в</i> <i><tg-emoji emoji-id=\"5449407131675558756\"><i class=\"emoji\" style=\"background-image:url('//telegram.org/img/emoji/40/F09F93B2.png')\"><b>📲</b></i></tg-emoji></i><i> </i><a href=\"https://max.ru/heroesofZ\" target=\"_blank\" rel=\"noopener\" onclick=\"return confirm('Open this link?\\n\\n'+this.href);\"><i>MAX</i></a>,<i>  </i><i><tg-emoji emoji-id=\"5334853932915114338\"><i class=\"emoji\" style=\"background-image:url('//telegram.org/img/emoji/40/F09F93B1.png')\"><b>📱</b></i></tg-emoji></i><i> </i><a href=\"https://vk.com/heroes0fz\" target=\"_blank\" rel=\"noopener\" onclick=\"return confirm('Open this link?\\n\\n'+this.href);\"><i>ВКонтакте</i></a> <i>и в </i><i><tg-emoji emoji-id=\"5321533581472842536\"><i class=\"emoji\" style=\"background-image:url('//telegram.org/img/emoji/40/F09F93B1.png')\"><b>📱</b></i></tg-emoji></i><i> </i><a href=\"http://dzen.ru/heroesofz\" target=\"_blank\" rel=\"noopener\" onclick=\"return confirm('Open this link?\\n\\n'+this.href);\"><i>Дзен</i></a>"}},{"type":"Feature","geometry":null,"properties":{"source":"ru_mod","source_name":"Ministry of Defence of Russia","group":"official_ru","id":67617,"posted_utc":"2026-09-25T07:55:13+00:00","link":"https://t.me/mod_russia/67617","text":"Погасили Маяки, выключили Светличный\n✈️ Экипажи ВКС с применением ФАБ-500 поразили пункт временной дислокации 10-й отдельной горно-штурмовой бригады ВСУ в районе населенного пункта Маяки Краматорского района в ДНР и пункт управления БПЛА 475-го отдельного штурмового полка ВСУ в районе Светличного в Харьковской области.\n▫️ Канал Минобороны России в MAКС – источник мощных новостей","links":["https://max.ru/morf"],"original_html":"<b>Погасили Маяки, выключили Светличный</b><br/><br/><tg-emoji emoji-id=\"5449403034276751727\"><i class=\"emoji\" style=\"background-image:url('//telegram.org/img/emoji/40/E29C88.png')\"><b>✈️</b></i></tg-emoji> Экипажи ВКС с применением ФАБ-500 <b>поразили пункт временной дислокации 10-й отдельной горно-штурмовой бригады ВСУ</b> в районе населенного пункта Маяки Краматорского района в ДНР и <b>пункт управления БПЛА 475-го отдельного штурмового полка ВСУ</b> в районе Светличного в Харьковской области.<br/><br/><tg-emoji emoji-id=\"5352532894478793783\"><i class=\"emoji\" style=\"background-image:url('//telegram.org/img/emoji/40/E296AB.png')\"><b>▫️</b></i></tg-emoji> <a href=\"https://max.ru/morf\" target=\"_blank\" rel=\"noopener\" onclick=\"return confirm('Open this link?\\n\\n'+this.href);\">Канал Минобороны России в MAКС – источник мощных новостей</a>"}},{"type":"Feature","geometry":null,"properties":{"source":"ru_mod","source_name":"Ministry of Defence of Russia","group":"official_ru","id":67618,"posted_utc":"2026-09-25T08:21:50+00:00","link":"https://t.me/mod_russia/67618","text":"💥 Пять из пяти\n«Герани» ударили по пяти морским сухогрузам в акватории Черного моря и в порту Одессы. Суда использовались для доставки грузов военного назначения в интересах ВСУ.\n#ВойскаБПС\n🎮 Канал Минобороны России в MAКС – боевая работа 24/7. Присоединяйся!","links":["https://max.ru/morf"],"original_html":"<tg-emoji emoji-id=\"5449682610877918293\"><i class=\"emoji\" style=\"background-image:url('//telegram.org/img/emoji/40/F09F92A5.png')\"><b>💥</b></i></tg-emoji> <b>Пять из пяти</b><br/><br/><b>«Герани» ударили по пяти морским сухогрузам</b> в акватории Черного моря и в порту Одессы. Суда использовались для доставки грузов военного назначения в интересах ВСУ.<br/><br/><a href=\"?q=%23%D0%92%D0%BE%D0%B9%D1%81%D0%BA%D0%B0%D0%91%D0%9F%D0%A1\">#ВойскаБПС</a><br/><tg-emoji emoji-id=\"5449767024165154360\"><i class=\"emoji\" style=\"background-image:url('//telegram.org/img/emoji/40/F09F8EAE.png')\"><b>🎮</b></i></tg-emoji> <a href=\"https://max.ru/morf\" target=\"_blank\" rel=\"noopener\" onclick=\"return confirm('Open this link?\\n\\n'+this.href);\">Канал Минобороны России в MAКС – боевая работа 24/7. Присоединяйся&#33;</a>"}},{"type":"Feature","geometry":null,"properties":{"source":"ru_mod","source_name":"Ministry of Defence of Russia","group":"official_ru","id":67619,"posted_utc":"2026-09-25T08:55:44+00:00","link":"https://t.me/mod_russia/67619","text":"❗️ С 19 по 25 сентября Вооруженными Силами Российской Федерации нанесены два массированных и семь групповых ударов, в результате которых поражены\n▫️ военные заводы, предприятия металлургической промышленности и топливно-энергетического комплекса Украины, обеспечивавшие их работу,\n▫️ логистические, телекоммуникационные центры,\n▫️ объекты транспортной инфраструктуры, использовавшиеся в интересах ВСУ,\n▫️ военные аэродромы,\n▫️ места производства и хранения беспилотных летательных аппаратов,\n▫️ склады боеприпасов, горючего и военно-технического имущества,\n▫️ пункты временной дислокации украинских вооруженных формирований и иностранных наемников.\n💥 Кроме того, выведен из строя ряд объектов инфраструктуры украинских портов, обеспечивавших прием, хранение и распределение грузов военного назначения, а также горюче-смазочных материалов для ВСУ.\n🔹 В течение недели поражены 18 морских судов, из них 15 сухогрузов и три танкера, задействованных в поставках западного вооружения, военной техники и топлива для нужд ВСУ.\nПодробнее об успехах наших войск ➡️ в MAКС","links":["https://max.ru/morf/AaDX0_-XY4g"],"original_html":"<tg-emoji emoji-id=\"5447116342148753425\"><i class=\"emoji\" style=\"background-image:url('//telegram.org/img/emoji/40/E29D97.png')\"><b>❗️</b></i></tg-emoji> С 19 по 25 сентября <b>Вооруженными Силами Российской Федерации нанесены два массированных и семь групповых ударов, в результате которых поражены</b><br/><br/><tg-emoji emoji-id=\"5469903849483431273\"><i class=\"emoji\" style=\"background-image:url('//telegram.org/img/emoji/40/E296AB.png')\"><b>▫️</b></i></tg-emoji> военные заводы, предприятия металлургической промышленности и топливно-энергетического комплекса Украины, обеспечивавшие их работу, <br/><tg-emoji emoji-id=\"5469903849483431273\"><i class=\"emoji\" style=\"background-image:url('//telegram.org/img/emoji/40/E296AB.png')\"><b>▫️</b></i></tg-emoji> логистические, телекоммуникационные центры, <br/><tg-emoji emoji-id=\"5469903849483431273\"><i class=\"emoji\" style=\"background-image:url('//telegram.org/img/emoji/40/E296AB.png')\"><b>▫️</b></i></tg-emoji> объекты транспортной инфраструктуры, использовавшиеся в интересах ВСУ, <br/><tg-emoji emoji-id=\"5469903849483431273\"><i class=\"emoji\" style=\"background-image:url('//telegram.org/img/emoji/40/E296AB.png')\"><b>▫️</b></i></tg-emoji> военные аэродромы, <br/><tg-emoji emoji-id=\"5469903849483431273\"><i class=\"emoji\" style=\"background-image:url('//telegram.org/img/emoji/40/E296AB.png')\"><b>▫️</b></i></tg-emoji> места производства и хранения беспилотных летательных аппаратов, <br/><tg-emoji emoji-id=\"5469903849483431273\"><i class=\"emoji\" style=\"background-image:url('//telegram.org/img/emoji/40/E296AB.png')\"><b>▫️</b></i></tg-emoji> склады боеприпасов, горючего и военно-технического имущества, <br/><tg-emoji emoji-id=\"5469903849483431273\"><i class=\"emoji\" style=\"background-image:url('//telegram.org/img/emoji/40/E296AB.png')\"><b>▫️</b></i></tg-emoji> пункты временной дислокации украинских вооруженных формирований и иностранных наемников.<br/><br/><tg-emoji emoji-id=\"5449682610877918293\"><i class=\"emoji\" style=\"background-image:url('//telegram.org/img/emoji/40/F09F92A5.png')\"><b>💥</b></i></tg-emoji> Кроме того, <b>выведен из строя ряд объектов инфраструктуры украинских портов</b>, обеспечивавших прием, хранение и распределение грузов военного назначения, а также горюче-смазочных материалов для ВСУ.<br/><br/><tg-emoji emoji-id=\"5470000692406023380\"><i class=\"emoji\" style=\"background-image:url('//telegram.org/img/emoji/40/F09F94B9.png')\"><b>🔹</b></i></tg-emoji> <b>В течение недели поражены 18 морских судов</b>, из них 15 сухогрузов и три танкера, задействованных в поставках западного вооружения, военной техники и топлива для нужд ВСУ.<br/><br/>Подробнее об успехах наших войск <tg-emoji emoji-id=\"5469902676957357453\"><i class=\"emoji\" style=\"background-image:url('//telegram.org/img/emoji/40/E29EA1.png')\"><b>➡️</b></i></tg-emoji> <a href=\"https://max.ru/morf/AaDX0_-XY4g\" target=\"_blank\" rel=\"noopener\" onclick=\"return confirm('Open this link?\\n\\n'+this.href);\">в MAКС</a>"}},{"type":"Feature","geometry":null,"properties":{"source":"ru_mod","source_name":"Ministry of Defence of Russia","group":"official_ru","id":67620,"posted_utc":"2026-09-25T10:23:57+00:00","link":"https://t.me/mod_russia/67620","text":"⚡️ В районе населенного пункта Доброполье подразделения 51-й армии в результате наступательных действий расширили внешнее кольцо окружения и освободили село Доброполье (Малое).  🔹 Минобороны России","links":[],"original_html":"<tg-emoji emoji-id=\"5449911936361724483\"><i class=\"emoji\" style=\"background-image:url('//telegram.org/img/emoji/40/E29AA1.png')\"><b>⚡️</b></i></tg-emoji> В районе населенного пункта Доброполье подразделения 51-й армии в результате наступательных действий расширили внешнее кольцо окружения и освободили село Доброполье (Малое).  <tg-emoji emoji-id=\"5269510734265483362\"><i class=\"emoji\" style=\"background-image:url('//telegram.org/img/emoji/40/F09F94B9.png')\"><b>🔹</b></i></tg-emoji> Минобороны России"}},{"type":"Feature","geometry":null,"properties":{"source":"ru_mod","source_name":"Ministry of Defence of Russia","group":"official_ru","id":67621,"posted_utc":"2026-09-25T11:12:37+00:00","link":"https://t.me/mod_russia/67621","text":"Выкурили врага из подземных укрепов\nШтурмовики 36-й отдельной мотострелковой бригады рассказали об освобождении Светлой Долины в Запорожской области.\n▫️ На подступах к населеннику бойцы преодолевали участки открытой местности и лесополосы, а затем приступили к зачистке укрепов ВСУ.\n💬 О «сюрпризах», которые противник оставляет на покинутых позициях, рассказал штурмовик с позывным «Мельник», а боец с позывным «Мага» поделился, как наши парни действовали при взятии «лисьих нор» ВСУ.\n🔹 Канал Минобороны России в MAКС – только для своих!","links":["https://t.me/mod_russia/67599","https://max.ru/morf"],"original_html":"<b>Выкурили врага из подземных укрепов</b><br/><i><br/>Штурмовики 36-й отдельной мотострелковой бригады рассказали об освобождении </i><a href=\"https://t.me/mod_russia/67599\" target=\"_blank\" rel=\"noopener\" onclick=\"return confirm('Open this link?\\n\\n'+this.href);\"><i>Светлой Долины</i></a><i> в Запорожской области.</i><br/><br/><tg-emoji emoji-id=\"5264796878809099818\"><i class=\"emoji\" style=\"background-image:url('//telegram.org/img/emoji/40/E296AB.png')\"><b>▫️</b></i></tg-emoji> На подступах к населеннику бойцы преодолевали участки открытой местности и лесополосы, а затем приступили к зачистке укрепов ВСУ.<br/><br/><tg-emoji emoji-id=\"5447486370761176298\"><i class=\"emoji\" style=\"background-image:url('//telegram.org/img/emoji/40/F09F92AC.png')\"><b>💬</b></i></tg-emoji> <b>О «сюрпризах», которые противник оставляет на покинутых позициях</b>, рассказал штурмовик с позывным «Мельник», а боец с позывным «Мага» поделился, как наши парни действовали при взятии «лисьих нор» ВСУ.<br/><br/><tg-emoji emoji-id=\"5269510734265483362\"><i class=\"emoji\" style=\"background-image:url('//telegram.org/img/emoji/40/F09F94B9.png')\"><b>🔹</b></i></tg-emoji> <a href=\"https://max.ru/morf\" target=\"_blank\" rel=\"noopener\" onclick=\"return confirm('Open this link?\\n\\n'+this.href);\">Канал Минобороны России в MAКС – только для своих&#33;</a>"}},{"type":"Feature","geometry":null,"properties":{"source":"ru_mod","source_name":"Ministry of Defence of Russia","group":"official_ru","id":67622,"posted_utc":"2026-09-25T11:41:46+00:00","link":"https://t.me/mod_russia/67622","text":"Морпехи держат капкан в Доброполье\n🎮 Расчеты БПЛА 61-й бригады морской пехоты группировки «Центр» работают по пунктам временного размещения боевиков, а также по их огневым позициям в населенном пункте Доброполье в ДНР.\n🔥 Также бойцы предотвращают попытки прорыва подразделений 4-й и 15-й бригад нацгвардии противника из кольца окружения.\n#ВойскаБПС\n🔹 Канал Минобороны России в MAКС – боевая работа 24/7","links":["https://max.ru/morf"],"original_html":"<b>Морпехи держат капкан в Доброполье</b><br/>&nbsp;<br/><tg-emoji emoji-id=\"5449767024165154360\"><i class=\"emoji\" style=\"background-image:url('//telegram.org/img/emoji/40/F09F8EAE.png')\"><b>🎮</b></i></tg-emoji> Расчеты БПЛА 61-й бригады морской пехоты группировки «Центр» <b>работают по пунктам временного размещения боевиков, а также по их огневым позициям</b> в населенном пункте Доброполье в ДНР. <br/><br/><tg-emoji emoji-id=\"5449590921916082144\"><i class=\"emoji\" style=\"background-image:url('//telegram.org/img/emoji/40/F09F94A5.png')\"><b>🔥</b></i></tg-emoji> Также бойцы <b>предотвращают попытки прорыва подразделений 4-й и 15-й бригад нацгвардии противника</b> из кольца окружения.<br/><br/><a href=\"?q=%23%D0%92%D0%BE%D0%B9%D1%81%D0%BA%D0%B0%D0%91%D0%9F%D0%A1\">#ВойскаБПС</a><br/><tg-emoji emoji-id=\"5269510734265483362\"><i class=\"emoji\" style=\"background-image:url('//telegram.org/img/emoji/40/F09F94B9.png')\"><b>🔹</b></i></tg-emoji> <a href=\"https://max.ru/morf\" target=\"_blank\" rel=\"noopener\" onclick=\"return confirm('Open this link?\\n\\n'+this.href);\">Канал Минобороны России в MAКС – боевая работа 24/7</a>"}},{"type":"Feature","geometry":null,"properties":{"source":"ru_mod","source_name":"Ministry of Defence of Russia","group":"official_ru","id":67623,"posted_utc":"2026-09-25T12:21:57+00:00","link":"https://t.me/mod_russia/67623","text":"🔥 Выявляем и выжигаем\nКомандир взвода противодействия БПЛА 103-го мотострелкового полка «Южной» группировки войск с позывным «Пионер» рассказал о боевой работе своего подразделения в населенных пунктах Славянско-Краматорской агломерации:\n«Основные задачи у нас остаются теми же, что были в Константиновке: это противодействие в воздухе, противодействие крупным БПЛА и уничтожение точек взлета в районах Алексеево-Дружковки, Дружковки и Краматорска. Если нужно снести какой-то опорник или какую-то серьезную точку взлета крупногабаритного БПЛА, то мы в тандеме с артиллеристами работаем, уничтожаем точку взлета».\n#ВойскаБПС\n🎮 Курс на MAКС!","links":["https://max.ru/morf"],"original_html":"<tg-emoji emoji-id=\"5449590921916082144\"><i class=\"emoji\" style=\"background-image:url('//telegram.org/img/emoji/40/F09F94A5.png')\"><b>🔥</b></i></tg-emoji> <b>Выявляем и выжигаем </b><br/><br/>Командир взвода противодействия БПЛА 103-го мотострелкового полка «Южной» группировки войск с позывным «Пионер» <b>рассказал о боевой работе своего подразделения в населенных пунктах Славянско-Краматорской агломерации</b>:<br/><br/><blockquote>«Основные задачи у нас остаются теми же, что были в Константиновке: это противодействие в воздухе, противодействие крупным БПЛА и уничтожение точек взлета в районах Алексеево-Дружковки, Дружковки и Краматорска. Если нужно снести какой-то опорник или какую-то серьезную точку взлета крупногабаритного БПЛА, то мы в тандеме с артиллеристами работаем, уничтожаем точку взлета».</blockquote><br/><br/><a href=\"?q=%23%D0%92%D0%BE%D0%B9%D1%81%D0%BA%D0%B0%D0%91%D0%9F%D0%A1\">#ВойскаБПС</a><br/><tg-emoji emoji-id=\"5449767024165154360\"><i class=\"emoji\" style=\"background-image:url('//telegram.org/img/emoji/40/F09F8EAE.png')\"><b>🎮</b></i></tg-emoji> <a href=\"https://max.ru/morf\" target=\"_blank\" rel=\"noopener\" onclick=\"return confirm('Open this link?\\n\\n'+this.href);\">Курс на MAКС&#33;</a>"}},{"type":"Feature","geometry":null,"properties":{"source":"ru_mod","source_name":"Ministry of Defence of Russia","group":"official_ru","id":67624,"posted_utc":"2026-09-25T12:49:39+00:00","link":"https://t.me/mod_russia/67624","text":"Закулисье купянских «перемог»: откровения пленного\nВоеннослужащий ВСУ Юрий Фисенко был взят в плен бойцами группировки «Запад». По его словам, его подразделение бросили на Купянском направлении без воды и снабжения, а их сменщиков... забрали на съёмки.\n«Нас задержали на позициях из-за того, что наших сменщиков забирали на полигон для проведения каких-то там съемок, что они такие «крутые рексы», – поделился закулисьем «перемог» пленный.\n🔹 Минобороны России","links":["https://max.ru/morf"],"original_html":"<b>Закулисье купянских «перемог»: откровения пленного</b><br/><br/>Военнослужащий ВСУ Юрий Фисенко был взят в плен бойцами группировки «Запад». По его словам, <b>его подразделение бросили на Купянском направлении без воды и снабжения, а их сменщиков... забрали на съёмки</b>.<br/><br/><blockquote>«Нас задержали на позициях из-за того, что наших сменщиков забирали на полигон для проведения каких-то там съемок, что они такие «крутые рексы», – поделился закулисьем «перемог» пленный.</blockquote><br/><br/><tg-emoji emoji-id=\"5269510734265483362\"><i class=\"emoji\" style=\"background-image:url('//telegram.org/img/emoji/40/F09F94B9.png')\"><b>🔹</b></i></tg-emoji> <a href=\"https://max.ru/morf\" target=\"_blank\" rel=\"noopener\" onclick=\"return confirm('Open this link?\\n\\n'+this.href);\">Минобороны России</a>"}},{"type":"Feature","geometry":null,"properties":{"source":"ru_mod","source_name":"Ministry of Defence of Russia","group":"official_ru","id":67625,"posted_utc":"2026-09-25T13:46:45+00:00","link":"https://t.me/mod_russia/67625","text":"Довести до автоматизма – то, что в бою спасает жизни\nНа полигонах группировки «Центр» на занятиях по тактической медицине бойцов учат быстро и без суеты оказывать первую помощь раненым.\n▫️ Подготовка хорошего санинструктора – процесс долгий. Мало просто уметь накладывать жгуты и повязки, нужна огромная выносливость – на медике, помимо бронежилета, автомата и БК, рюкзак с медицинским оборудованием весом около 30 килограммов.\n✅ Быстро принимать решения с такой нагрузкой, да ещё и под обстрелом, – тяжело и физически, и психологически. Именно поэтому на тренировках все действия отрабатывают до автоматизма, чтобы в критический момент боец всё сделал правильно.\n➡️ Если тоже не боишься трудностей и готов проявить себя, присоединяйся к СВОим. Подробности на сайте Службапоконтракту.рф и по телефону 117.\n🔹 MAКС – территория СВОих","links":["http://%D0%A1%D0%BB%D1%83%D0%B6%D0%B1%D0%B0%D0%BF%D0%BE%D0%BA%D0%BE%D0%BD%D1%82%D1%80%D0%B0%D0%BA%D1%82%D1%83.%D1%80%D1%84/","https://max.ru/morf"],"original_html":"<b>Довести до автоматизма – то, что в бою спасает жизни</b><br/><br/>На полигонах группировки «Центр» на занятиях по тактической медицине бойцов учат <b>быстро и без суеты оказывать первую помощь раненым</b>.<br/><br/><tg-emoji emoji-id=\"5352532894478793783\"><i class=\"emoji\" style=\"background-image:url('//telegram.org/img/emoji/40/E296AB.png')\"><b>▫️</b></i></tg-emoji> Подготовка хорошего санинструктора – процесс долгий. <b>Мало просто уметь накладывать жгуты и повязки, нужна огромная выносливость</b> – на медике, помимо бронежилета, автомата и БК, рюкзак с медицинским оборудованием весом около 30 килограммов.<br/><br/><tg-emoji emoji-id=\"5469909785128234267\"><i class=\"emoji\" style=\"background-image:url('//telegram.org/img/emoji/40/E29C85.png')\"><b>✅</b></i></tg-emoji> Быстро принимать решения с такой нагрузкой, да ещё и под обстрелом, – тяжело и физически, и психологически. <b>Именно поэтому на тренировках все действия отрабатывают до автоматизма, чтобы в критический момент боец всё сделал правильно.</b><br/><br/><tg-emoji emoji-id=\"5469902676957357453\"><i class=\"emoji\" style=\"background-image:url('//telegram.org/img/emoji/40/E29EA1.png')\"><b>➡️</b></i></tg-emoji> <i>Если тоже не боишься трудностей и готов проявить себя, присоединяйся к СВОим. Подробности на сайте </i><a href=\"http://%D0%A1%D0%BB%D1%83%D0%B6%D0%B1%D0%B0%D0%BF%D0%BE%D0%BA%D0%BE%D0%BD%D1%82%D1%80%D0%B0%D0%BA%D1%82%D1%83.%D1%80%D1%84/\" target=\"_blank\" rel=\"noopener\"><i>Службапоконтракту.рф</i></a><i> и по телефону 117.</i><br/><br/><tg-emoji emoji-id=\"5269510734265483362\"><i class=\"emoji\" style=\"background-image:url('//telegram.org/img/emoji/40/F09F94B9.png')\"><b>🔹</b></i></tg-emoji> <a href=\"https://max.ru/morf\" target=\"_blank\" rel=\"noopener\" onclick=\"return confirm('Open this link?\\n\\n'+this.href);\">MAКС – территория СВОих</a>"}},{"type":"Feature","geometry":null,"properties":{"source":"ru_mod","source_name":"Ministry of Defence of Russia","group":"official_ru","id":67626,"posted_utc":"2026-09-25T14:16:09+00:00","link":"https://t.me/mod_russia/67626","text":"Андрей Белоусов проинспектировал группировку войск «Север»: полоса безопасности расширяется\nМинистр обороны РФ Андрей Белоусов в рамках рабочей поездки в зону проведения СВО на пункте управления одного из соединений группировки войск «Север» заслушал доклады командиров о текущей обстановке в зонах ответственности.\n⏩ Командующий группировкой войск «Север» генерал-полковник Евгений Никифоров доложил Министру обороны об успешных действиях по созданию полосы безопасности в приграничных районах Сумской и Харьковской областей.\n«В частности, на Сумском направлении освободили 10 населённых пунктов и более 250 км² территории. Продолжаем боевые действия по освобождению еще четырех населённых пунктов», – доложил командующий группировкой войск «Север».\n🔹 Минобороны России","links":["https://max.ru/morf"],"original_html":"<b>Андрей Белоусов проинспектировал группировку войск «Север»: полоса безопасности расширяется</b><br/><br/><i>Министр обороны РФ Андрей Белоусов в рамках рабочей поездки в зону проведения СВО на пункте управления одного из соединений группировки войск «Север» заслушал доклады командиров о текущей обстановке в зонах ответственности.</i><br/><br/><i class=\"emoji\" style=\"background-image:url('//telegram.org/img/emoji/40/E28FA9.png')\"><b>⏩</b></i> Командующий группировкой войск «Север» генерал-полковник Евгений Никифоров доложил Министру обороны <b>об успешных действиях по созданию полосы безопасности в приграничных районах Сумской и Харьковской областей</b>. <br/><br/><blockquote>«В частности, <b>на Сумском направлении освободили 10 населённых пунктов и более 250 км² территории</b>. Продолжаем боевые действия по освобождению еще четырех населённых пунктов», – доложил командующий группировкой войск «Север».</blockquote><br/><br/><tg-emoji emoji-id=\"5269510734265483362\"><i class=\"emoji\" style=\"background-image:url('//telegram.org/img/emoji/40/F09F94B9.png')\"><b>🔹</b></i></tg-emoji> <a href=\"https://max.ru/morf\" target=\"_blank\" rel=\"noopener\" onclick=\"return confirm('Open this link?\\n\\n'+this.href);\">Минобороны России</a>"}},{"type":"Feature","geometry":null,"properties":{"source":"ru_mod","source_name":"Ministry of Defence of Russia","group":"official_ru","id":67611,"posted_utc":"2026-09-25T02:07:01+00:00","link":"https://t.me/mod_russia/67611","text":"⚔️  На доброполье сегодня «Град»\nРасчет РСЗО «Град» 177-го гвардейского полка морской пехоты группировки «Центр» накрыл пункт временной дислокации формирований ВСУ.\n📍  Добропольское направление\n🔹 Канал Минобороны России в MAКС – боевая работа 24/7","links":["https://max.ru/morf"],"original_html":"<tg-emoji emoji-id=\"5352957387571492906\"><i class=\"emoji\" style=\"background-image:url('//telegram.org/img/emoji/40/E29A94.png')\"><b>⚔️</b></i></tg-emoji>  <b>На доброполье сегодня «Град»</b><br/><br/>Расчет РСЗО «Град» 177-го гвардейского полка морской пехоты группировки «Центр» накрыл пункт временной дислокации формирований ВСУ.<br/><br/><tg-emoji emoji-id=\"5469680584198483528\"><i class=\"emoji\" style=\"background-image:url('//telegram.org/img/emoji/40/F09F938D.png')\"><b>📍</b></i></tg-emoji>  <i>Добропольское направление<br/><br/></i><i><tg-emoji emoji-id=\"5269510734265483362\"><i class=\"emoji\" style=\"background-image:url('//telegram.org/img/emoji/40/F09F94B9.png')\"><b>🔹</b></i></tg-emoji></i><i> </i><a href=\"https://max.ru/morf\" target=\"_blank\" rel=\"noopener\" onclick=\"return confirm('Open this link?\\n\\n'+this.href);\"><i>Канал Минобороны России в MAКС – боевая работа 24/7</i></a>"}}]}