{"type":"FeatureCollection","features":[{"type":"Feature","geometry":{"type":"Point","coordinates":[31.22162,51.61631]},"properties":{"source":"lost_warinua","source_name":"lost_warinua (Telegram)","source_url":"https://t.me/s/lost_warinua","id":140903,"date":"2026-09-23","date_note":"no date in post; day it was posted","posted_utc":"2026-09-23T13:25:58+00:00","link":"https://t.me/lost_warinua/140903","category":"Telegram post","side":"Claimed loss: Russia","color":"#E00000","description":"Архив. 24.02.2022\nУничтоженная российская МТП-А2.1 на базе грузовика Урал-4320 в с. Равнополье Черниговской области.","orbat":[],"sources":[],"original_html":"<div class=\"tgme_widget_message_text js-message_text\" dir=\"auto\">Архив. 24.02.2022<br/>Уничтоженная российская МТП-А2.1 на базе грузовика Урал-4320 в с. Равнополье Черниговской области.<br/>(<code>51.61631, 31.22162</code>)"}}]}