{"type":"FeatureCollection","features":[{"type":"Feature","geometry":{"type":"Polygon","coordinates":[[[37.63355,48.47776],[37.62677,48.48177],[37.6217,48.48626],[37.61681,48.48763],[37.61132,48.49258],[37.61261,48.49474],[37.6302,48.49639],[37.62837,48.5067],[37.64252,48.50776],[37.64368,48.50287],[37.66187,48.50463],[37.66516,48.50345],[37.65932,48.49507],[37.66122,48.49008],[37.65918,48.49021],[37.65597,48.48976],[37.6547,48.48976],[37.65264,48.48783],[37.6523,48.48781],[37.65259,48.48387],[37.65259,48.47548],[37.64775,48.4682],[37.64745,48.45796],[37.63944,48.45776],[37.6384,48.45762],[37.63355,48.47776]]]},"properties":{"source":"ukrdaily","source_name":"UkrDailyUpdate","source_url":"https://map.ukrdailyupdate.com/","category":"gained","category_label":"Russian advance: became occupied","period":"1d","compared_with":"2026-08-22","snapshot_time":"2026-08-23","area_km2_approx":9.8}},{"type":"Feature","geometry":{"type":"Polygon","coordinates":[[[37.59136,48.46785],[37.59429,48.47357],[37.5962,48.48172],[37.59569,48.48411],[37.5962,48.48798],[37.59723,48.49173],[37.59903,48.4948],[37.60206,48.49605],[37.60414,48.4842],[37.60125,48.4824],[37.59824,48.47647],[37.59834,48.47493],[37.60532,48.4678],[37.60513,48.46545],[37.60351,48.4635],[37.60376,48.46153],[37.60001,48.46104],[37.58813,48.46184],[37.58311,48.46147],[37.58208,48.4652],[37.59136,48.46785]]]},"properties":{"source":"ukrdaily","source_name":"UkrDailyUpdate","source_url":"https://map.ukrdailyupdate.com/","category":"ukrainian_to_contested","category_label":"Ukrainian-held became contested","period":"1d","compared_with":"2026-08-22","snapshot_time":"2026-08-23","area_km2_approx":2.5}}]}