{"type":"FeatureCollection","features":[{"type":"Feature","geometry":{"type":"MultiPolygon","coordinates":[[[[37.9236,48.78056],[37.92103,48.79504],[37.93437,48.7966],[37.9312,48.81295],[37.93764,48.81337],[37.94326,48.81046],[37.94893,48.81071],[37.94995,48.8097],[37.95139,48.80674],[37.95213,48.80078],[37.95703,48.79734],[37.9551,48.78803],[37.95033,48.78099],[37.94604,48.7798],[37.93257,48.77446],[37.9236,48.78056]]],[[[37.80958,48.71169],[37.8075,48.71578],[37.79959,48.72027],[37.79761,48.72273],[37.8176,48.72025],[37.81136,48.71084],[37.80958,48.71169]]],[[[37.63355,48.47776],[37.62677,48.48177],[37.6217,48.48626],[37.61681,48.48763],[37.61132,48.49258],[37.61261,48.49474],[37.6302,48.49639],[37.62837,48.5067],[37.64252,48.50776],[37.64368,48.50287],[37.66187,48.50463],[37.66516,48.50345],[37.65932,48.49507],[37.66122,48.49008],[37.65918,48.49021],[37.65597,48.48976],[37.6547,48.48976],[37.65264,48.48783],[37.6523,48.48781],[37.65259,48.48387],[37.65259,48.47548],[37.64775,48.4682],[37.64745,48.45796],[37.63944,48.45776],[37.6384,48.45762],[37.63355,48.47776]]],[[[37.23949,48.45261],[37.24425,48.45557],[37.26298,48.45735],[37.26301,48.45719],[37.25255,48.45288],[37.24953,48.45282],[37.24914,48.45077],[37.2504,48.44246],[37.24719,48.43794],[37.24422,48.4376],[37.24225,48.43341],[37.23949,48.45261]]],[[[37.0674,48.35154],[37.0713,48.35219],[37.0753,48.35342],[37.07697,48.35467],[37.07972,48.35593],[37.08263,48.35681],[37.08525,48.35735],[37.09057,48.35681],[37.09272,48.35621],[37.09499,48.35604],[37.09568,48.35499],[37.09886,48.35519],[37.10431,48.35359],[37.14362,48.35733],[37.14479,48.3521],[37.16073,48.35098],[37.16181,48.34474],[37.14242,48.34302],[37.13182,48.34696],[37.12539,48.34773],[37.12131,48.34775],[37.11882,48.34869],[37.10526,48.34724],[37.10602,48.34003],[37.10287,48.34137],[37.09758,48.34322],[37.09216,48.34465],[37.0884,48.34552],[37.08195,48.34606],[37.07706,48.34699],[37.07415,48.35067],[37.07093,48.35038],[37.0705,48.34913],[37.07089,48.34626],[37.06701,48.34573],[37.0674,48.35154]]],[[[36.16654,47.67268],[36.16741,47.67884],[36.17226,47.68081],[36.1681,47.68922],[36.16409,47.69024],[36.16102,47.69316],[36.15355,47.69759],[36.14287,47.70086],[36.14021,47.70401],[36.13604,47.71358],[36.14507,47.71828],[36.14703,47.72315],[36.16368,47.72763],[36.17008,47.71917],[36.18046,47.72139],[36.18284,47.71889],[36.19091,47.72135],[36.19105,47.72096],[36.17171,47.71237],[36.17403,47.70832],[36.18176,47.7104],[36.1906,47.7033],[36.20156,47.69347],[36.20602,47.68782],[36.20038,47.68566],[36.2,47.68438],[36.20256,47.6801],[36.19704,47.67801],[36.17064,47.67076],[36.16654,47.67268]]],[[[35.39767,50.74164],[35.39363,50.75245],[35.39137,50.75494],[35.39148,50.7568],[35.39328,50.76695],[35.39453,50.78303],[35.40474,50.77767],[35.4135,50.76882],[35.41952,50.75918],[35.41935,50.75057],[35.42094,50.74071],[35.41142,50.74071],[35.40893,50.73897],[35.40464,50.7381],[35.39767,50.74164]]]]},"properties":{"source":"ukrdaily","source_name":"UkrDailyUpdate","source_url":"https://map.ukrdailyupdate.com/","category":"gained","category_label":"Newly Russian-occupied","period":"7d","compared_with":"2026-08-16","snapshot_time":"2026-08-23","area_km2_approx":49.0}}]}