{"type":"FeatureCollection","features":[{"type":"Feature","geometry":{"type":"Polygon","coordinates":[[[37.81894,48.78002],[37.82403,48.77803],[37.83545,48.7787],[37.84168,48.77771],[37.8485,48.77519],[37.85517,48.77135],[37.84719,48.76643],[37.82991,48.76594],[37.82599,48.76352],[37.81924,48.76073],[37.81014,48.75736],[37.80617,48.75976],[37.81381,48.76887],[37.8118,48.7728],[37.81894,48.78002]]]},"properties":{"source":"ukrdaily","source_name":"UkrDailyUpdate","source_url":"https://map.ukrdailyupdate.com/","category":"gained_contested","category_label":"Newly contested","period":"1d","compared_with":"2026-08-21","snapshot_time":"2026-08-22","area_km2_approx":4.5}}]}