{"type":"FeatureCollection","features":[{"type":"Feature","geometry":{"type":"Polygon","coordinates":[[[37.10671,48.37868],[37.10946,48.38139],[37.11126,48.38219],[37.1201,48.37737],[37.12237,48.37013],[37.12852,48.3653],[37.15944,48.36613],[37.167,48.3657],[37.1664,48.37224],[37.16769,48.37379],[37.17005,48.37965],[37.17653,48.37861],[37.17739,48.37411],[37.18344,48.37228],[37.18341,48.36136],[37.17118,48.36079],[37.16221,48.36384],[37.14651,48.3643],[37.10449,48.35968],[37.10325,48.36532],[37.10671,48.37868]]]},"properties":{"source":"ukrdaily","source_name":"UkrDailyUpdate","source_url":"https://map.ukrdailyupdate.com/","category":"gained","category_label":"Russian advance: became occupied","period":"1d","compared_with":"2026-09-05","snapshot_time":"2026-09-06","area_km2_approx":5.7}},{"type":"Feature","geometry":{"type":"Polygon","coordinates":[[[37.68216,49.63187],[37.67722,49.63022],[37.67716,49.63142],[37.67848,49.63256],[37.68252,49.63708],[37.68822,49.64142],[37.68681,49.636],[37.68603,49.63411],[37.68389,49.63308],[37.68216,49.63187]]]},"properties":{"source":"ukrdaily","source_name":"UkrDailyUpdate","source_url":"https://map.ukrdailyupdate.com/","category":"lost","category_label":"Ukrainian advance: became Ukrainian-held","period":"1d","compared_with":"2026-09-05","snapshot_time":"2026-09-06","area_km2_approx":0.3}},{"type":"Feature","geometry":{"type":"MultiPolygon","coordinates":[[[[37.93288,49.1948],[37.93403,49.19576],[37.9352,49.19214],[37.93288,49.1948]]],[[[37.74978,49.06636],[37.74435,49.06385],[37.73125,49.06568],[37.72838,49.06544],[37.7193,49.0669],[37.71239,49.06623],[37.71123,49.07355],[37.71237,49.07796],[37.71691,49.0801],[37.71923,49.08439],[37.71046,49.08443],[37.70323,49.08628],[37.70342,49.09011],[37.7076,49.09678],[37.70836,49.10134],[37.70089,49.10569],[37.69313,49.10605],[37.6844,49.10526],[37.67729,49.10689],[37.67798,49.11086],[37.68618,49.12618],[37.68994,49.12864],[37.70065,49.13082],[37.71544,49.12902],[37.71522,49.12527],[37.71844,49.12208],[37.72228,49.12023],[37.7308,49.11784],[37.73686,49.11576],[37.74148,49.11574],[37.74492,49.11753],[37.74822,49.12064],[37.75444,49.12554],[37.75383,49.13674],[37.74971,49.14068],[37.74607,49.14234],[37.74552,49.14435],[37.7466,49.14516],[37.75007,49.14592],[37.75417,49.15006],[37.75495,49.14972],[37.75494,49.1497],[37.76088,49.14692],[37.76302,49.1445],[37.76469,49.14383],[37.77615,49.14019],[37.78384,49.13253],[37.79059,49.12735],[37.7948,49.12573],[37.80025,49.12439],[37.80413,49.12414],[37.81903,49.12424],[37.81903,49.12424],[37.81906,49.12424],[37.82045,49.12425],[37.8338,49.11798],[37.84522,49.11161],[37.851,49.11127],[37.86193,49.10941],[37.88782,49.10542],[37.89565,49.10675],[37.8994,49.10251],[37.89454,49.09228],[37.88976,49.09296],[37.88293,49.09133],[37.86653,49.08643],[37.8628,49.07863],[37.84028,49.07851],[37.83014,49.07502],[37.82933,49.07439],[37.82932,49.07441],[37.8237,49.07021],[37.82189,49.06986],[37.81956,49.07006],[37.81776,49.07108],[37.81712,49.07242],[37.81497,49.07243],[37.80392,49.07022],[37.80381,49.07024],[37.78817,49.07412],[37.78817,49.0741],[37.78727,49.07434],[37.78019,49.07024],[37.77431,49.07209],[37.76646,49.06804],[37.75826,49.06858],[37.74978,49.06636]]]]},"properties":{"source":"ukrdaily","source_name":"UkrDailyUpdate","source_url":"https://map.ukrdailyupdate.com/","category":"occupied_to_contested","category_label":"Occupied became contested","period":"1d","compared_with":"2026-09-05","snapshot_time":"2026-09-06","area_km2_approx":77.2}},{"type":"Feature","geometry":{"type":"Polygon","coordinates":[[[37.1517,48.37371],[37.15579,48.37951],[37.15835,48.37904],[37.15921,48.38098],[37.15792,48.38143],[37.16367,48.38927],[37.16727,48.39131],[37.17281,48.39359],[37.17104,48.39058],[37.1716,48.38582],[37.16376,48.37333],[37.15005,48.37153],[37.14123,48.37297],[37.13205,48.37559],[37.12518,48.37895],[37.12329,48.38368],[37.1517,48.37371]]]},"properties":{"source":"ukrdaily","source_name":"UkrDailyUpdate","source_url":"https://map.ukrdailyupdate.com/","category":"ukrainian_to_contested","category_label":"Ukrainian-held became contested","period":"1d","compared_with":"2026-09-05","snapshot_time":"2026-09-06","area_km2_approx":2.5}}]}