{"type":"FeatureCollection","features":[{"type":"Feature","geometry":{"type":"Point","coordinates":[37.946292,48.727765]},"properties":{"original":{"Date":"2026-08-04","Name":"04 AUG 2026","Faction":"Russia","Origin":"UAV","Latitude":"48.727765","Longitude":"37.946292","PlusCode":"8GWVPWHW+4G Bondarne, Donetsk Oblast, Ukraine","Description":"Vid1 0:33/ Vid2 0:20 - D-30 Howitzer hit by FPV","Source":"Vid1 https://x.com/moklasen/status/2084730498627060178, https://t.me/assaultregiment33/3281, , Vid2, https://x.com/moklasen/status/2084739523146080662, https://www.facebook.com/watch/?v=1055267166872849","Geolocation":"based on: https://x.com/moklasen/status/2084730495292657958","Equipment":"","EquipmentItems":"D-30 | FPV (First Person View) OWAD (One Way Attack Drone)","Units":"26th artillery brigade","OrbatUnits":"33rd Separate Assault Regiment","Id":"0df93be5-eea2-4137-85bf-0cda8139b353","icon":"/api/icons/E00000/False/template/02.png"},"source":"geoconfirmed","source_name":"GeoConfirmed","source_url":"https://geoconfirmed.org/map/ukraine","id":"0df93be5-eea2-4137-85bf-0cda8139b353","date":"2026-08-04","link":"https://geoconfirmed.org/map/ukraine/0df93be5-eea2-4137-85bf-0cda8139b353","category":"Recently Destroyed/Damaged[Visible in footage] Artillery","side":"Russia","color":"#E00000","description":"Vid1 0:33/ Vid2 0:20 - D-30 Howitzer hit by FPV","orbat":["33rd Separate Assault Regiment"],"geolocation":["https://x.com/moklasen/status/2084730495292657958"],"sources":["https://x.com/moklasen/status/2084730498627060178","https://t.me/assaultregiment33/3281","https://x.com/moklasen/status/2084739523146080662","https://www.facebook.com/watch/?v=1055267166872849"]}},{"type":"Feature","geometry":{"type":"Point","coordinates":[35.386926,50.705019]},"properties":{"original":{"Date":"2026-08-04","Name":"04 AUG 2026","Faction":"Ukraine","Origin":"UAV","Latitude":"50.705019","Longitude":"35.386926","PlusCode":"9G2QP94P+2Q Ryasne, Sumy Oblast, Ukraine","Description":"0:14-0:25, area grid - the 119th Separate Territorial Defense Brigade strikes a claimed Russian position in the Riasne pig farm, using FPV and bomber UAVs.","Source":"https://x.com/GeoRaccoon/status/2086546580807512235, https://t.me/tro119ua/76","Geolocation":"https://x.com/DELIBERTATES/status/2086501519302525171","Equipment":"(Multiple)","EquipmentItems":"FPV (First Person View) OWAD (One Way Attack Drone) | (Multi-Purpose) Bomber UAV","Units":"","OrbatUnits":"119th Separate Territorial Defense Brigade","Id":"d38e3ae0-bdab-4de1-992d-1233a1573d40","icon":"/api/icons/0051CA/False/template/111.png"},"source":"geoconfirmed","source_name":"GeoConfirmed","source_url":"https://geoconfirmed.org/map/ukraine","id":"d38e3ae0-bdab-4de1-992d-1233a1573d40","date":"2026-08-04","link":"https://geoconfirmed.org/map/ukraine/d38e3ae0-bdab-4de1-992d-1233a1573d40","category":"Short Range (<50km) OWAD (One Way Attack Drone), mostly rotary wing, Flying OR Attacking a target without knowing the outcome: if something is damaged --> icon of the damaged equipment.","side":"Ukraine","color":"#0051CA","description":"0:14-0:25, area grid - the 119th Separate Territorial Defense Brigade strikes a claimed Russian position in the Riasne pig farm, using FPV and bomber UAVs.","orbat":["119th Separate Territorial Defense Brigade"],"geolocation":["https://x.com/DELIBERTATES/status/2086501519302525171"],"sources":["https://x.com/GeoRaccoon/status/2086546580807512235","https://t.me/tro119ua/76"]}},{"type":"Feature","geometry":{"type":"Point","coordinates":[48.391037,53.084885]},"properties":{"original":{"Date":"2026-08-04","Name":"04 AUG 2026","Faction":"Unknown","Origin":"PIC","Latitude":"53.084885","Longitude":"48.391037","PlusCode":"9H5C39MR+XC Syzran, Samara Oblast, Russia","Description":"Syzran refinery on fire (rough location)","Source":"1/2 https://x.com/Exilenova_plus/status/2084459359879548973, https://x.com/cyber_boroshno/status/2084563104831041615, reporting: https://x.com/cyber_boroshno/status/2084929994761949386","Geolocation":"https://x.com/neonhandrail/status/2084700201961611721, https://x.com/cyber_boroshno/status/2084563104831041615","Equipment":"","EquipmentItems":"","Units":"","OrbatUnits":"","Id":"a6fc0fc8-dcc7-4f70-8726-1a79f4384858","icon":"/api/icons/666666/False/template/70.png"},"source":"geoconfirmed","source_name":"GeoConfirmed","source_url":"https://geoconfirmed.org/map/ukraine","id":"a6fc0fc8-dcc7-4f70-8726-1a79f4384858","date":"2026-08-04","link":"https://geoconfirmed.org/map/ukraine/a6fc0fc8-dcc7-4f70-8726-1a79f4384858","category":"Controlled Demolition OR explosion of unknown origin OR fire of unknown origin where no other icon fits","side":"Unknown","color":"#666666","description":"Syzran refinery on fire (rough location)","orbat":[],"geolocation":["https://x.com/neonhandrail/status/2084700201961611721","https://x.com/cyber_boroshno/status/2084563104831041615"],"sources":["https://x.com/Exilenova_plus/status/2084459359879548973","https://x.com/cyber_boroshno/status/2084563104831041615","https://x.com/cyber_boroshno/status/2084929994761949386"]}},{"type":"Feature","geometry":{"type":"Point","coordinates":[31.977811,46.853868]},"properties":{"original":{"Date":"2026-08-04","Name":"04 AUG 2026","Faction":"Russia","Origin":"UAV","Latitude":"46.853868","Longitude":"31.977811","PlusCode":"8GRHVX3H+G4 Mykolaiv, Mykolaiv Oblast, Ukraine","Description":"0:18-0:27 - Russian Geran-4 'seeker' targeted a cargo ship in the port of Mykolaiv","Source":"https://x.com/AMK_Mapping_/status/2084532202906566990, https://t.me/zvezdanews/178819, ","Geolocation":"https://x.com/RedHibana/status/2084539726694937086","Equipment":"","EquipmentItems":"Geran-4 \"Seeker\"","Units":"","OrbatUnits":"","Id":"6c6baf46-e831-4139-8c0f-241d099ae4f1","icon":"/api/icons/E00000/False/template/181.png"},"source":"geoconfirmed","source_name":"GeoConfirmed","source_url":"https://geoconfirmed.org/map/ukraine","id":"6c6baf46-e831-4139-8c0f-241d099ae4f1","date":"2026-08-04","link":"https://geoconfirmed.org/map/ukraine/6c6baf46-e831-4139-8c0f-241d099ae4f1","category":"Longe Range (>50km) OWAD (One Way Attack Drone) or Loitering munition, mostly fixed wing, Flying OR Attacking a target without knowing the outcome: if something is damaged --> icon of the damaged equipment.","side":"Russia","color":"#E00000","description":"0:18-0:27 - Russian Geran-4 'seeker' targeted a cargo ship in the port of Mykolaiv","orbat":[],"geolocation":["https://x.com/RedHibana/status/2084539726694937086"],"sources":["https://x.com/AMK_Mapping_/status/2084532202906566990","https://t.me/zvezdanews/178819"]}},{"type":"Feature","geometry":{"type":"Point","coordinates":[37.946232,48.727723]},"properties":{"original":{"Date":"2026-08-04","Name":"04 AUG 2026","Faction":"Russia","Origin":"UAV","Latitude":"48.727723","Longitude":"37.946232","PlusCode":"8GWVPWHW+3F Bondarne, Donetsk Oblast, Ukraine","Description":"Vid1 0:04 - Russian Ural hit, burns down.","Source":"Vid1 https://x.com/moklasen/status/2084730498627060178, https://t.me/assaultregiment33/3281, , Vid2, https://x.com/moklasen/status/2084739523146080662, https://www.facebook.com/watch/?v=1055267166872849","Geolocation":"based on: https://x.com/moklasen/status/2084730495292657958","Equipment":"","EquipmentItems":"Ural-4320","Units":"26th artillery brigade","OrbatUnits":"33rd Separate Assault Regiment","Id":"16330574-8c69-4363-9728-2c818c62f0f7","icon":"/api/icons/E00000/False/template/62.png"},"source":"geoconfirmed","source_name":"GeoConfirmed","source_url":"https://geoconfirmed.org/map/ukraine","id":"16330574-8c69-4363-9728-2c818c62f0f7","date":"2026-08-04","link":"https://geoconfirmed.org/map/ukraine/16330574-8c69-4363-9728-2c818c62f0f7","category":"Recently Destroyed/Damaged[Visible in footage] Logistical Trucks (Soft skin OR armoured)","side":"Russia","color":"#E00000","description":"Vid1 0:04 - Russian Ural hit, burns down.","orbat":["33rd Separate Assault Regiment"],"geolocation":["https://x.com/moklasen/status/2084730495292657958"],"sources":["https://x.com/moklasen/status/2084730498627060178","https://t.me/assaultregiment33/3281","https://x.com/moklasen/status/2084739523146080662","https://www.facebook.com/watch/?v=1055267166872849"]}},{"type":"Feature","geometry":{"type":"Point","coordinates":[30.611437,59.686011]},"properties":{"original":{"Date":"2026-08-04","Name":"04 AUG 2026","Faction":"Ukraine","Origin":"PIC","Latitude":"59.686011","Longitude":"30.611437","PlusCode":"9GFGMJP6+CH Krasnoborskoye, Leningrad Oblast, Russia","Description":"Point of view - Wildberries distribution centre on fire in Krasnoborskoye after a reported Ukrainian drone attack","Source":"Pic https://x.com/Grimm_Intel/status/2084506037692891229, https://x.com/Vlad_23456/status/2084726182994743776, https://t.me/exilenova_plus/28028?single","Geolocation":"https://x.com/Grimm_Intel/status/2084506270854189320, https://x.com/Vlad_23456/status/2084725799756927130","Equipment":"","EquipmentItems":"","Units":"","OrbatUnits":"","Id":"dfb2f66e-36a7-4c0f-84b6-31f2d87c3761","icon":"/api/icons/0051CA/False/template/20.png"},"source":"geoconfirmed","source_name":"GeoConfirmed","source_url":"https://geoconfirmed.org/map/ukraine","id":"dfb2f66e-36a7-4c0f-84b6-31f2d87c3761","date":"2026-08-04","link":"https://geoconfirmed.org/map/ukraine/dfb2f66e-36a7-4c0f-84b6-31f2d87c3761","category":"Picture - Always Point of View in description - - In the colour of who is doing the attack or is responsable for the incident in the picture.","side":"Ukraine","color":"#0051CA","description":"Point of view - Wildberries distribution centre on fire in Krasnoborskoye after a reported Ukrainian drone attack","orbat":[],"geolocation":["https://x.com/Grimm_Intel/status/2084506270854189320","https://x.com/Vlad_23456/status/2084725799756927130"],"sources":["https://x.com/Grimm_Intel/status/2084506037692891229","https://x.com/Vlad_23456/status/2084726182994743776","https://t.me/exilenova_plus/28028?single"]}},{"type":"Feature","geometry":{"type":"Point","coordinates":[35.38641,50.70439]},"properties":{"original":{"Date":"2026-08-04","Name":"04 AUG 2026","Faction":"Ukraine","Origin":"UAV","Latitude":"50.70439","Longitude":"35.38641","PlusCode":"9G2QP93P+QH Ryasne, Sumy Oblast, Ukraine","Description":"Start-0:08 - 119th Separate Territorial Defense Brigade strikes claimed Russian position in Riasne pigfarm.","Source":"https://x.com/GeoRaccoon/status/2086546580807512235, https://t.me/tro119ua/76","Geolocation":"https://x.com/DELIBERTATES/status/2086501519302525171","Equipment":"(Likely)","EquipmentItems":"FPV (First Person View) OWAD (One Way Attack Drone)","Units":"","OrbatUnits":"119th Separate Territorial Defense Brigade","Id":"45149627-d0c6-41ff-b5e7-3cc2f918c13b","icon":"/api/icons/0051CA/False/template/111.png"},"source":"geoconfirmed","source_name":"GeoConfirmed","source_url":"https://geoconfirmed.org/map/ukraine","id":"45149627-d0c6-41ff-b5e7-3cc2f918c13b","date":"2026-08-04","link":"https://geoconfirmed.org/map/ukraine/45149627-d0c6-41ff-b5e7-3cc2f918c13b","category":"Short Range (<50km) OWAD (One Way Attack Drone), mostly rotary wing, Flying OR Attacking a target without knowing the outcome: if something is damaged --> icon of the damaged equipment.","side":"Ukraine","color":"#0051CA","description":"Start-0:08 - 119th Separate Territorial Defense Brigade strikes claimed Russian position in Riasne pigfarm.","orbat":["119th Separate Territorial Defense Brigade"],"geolocation":["https://x.com/DELIBERTATES/status/2086501519302525171"],"sources":["https://x.com/GeoRaccoon/status/2086546580807512235","https://t.me/tro119ua/76"]}},{"type":"Feature","geometry":{"type":"Point","coordinates":[37.743431,48.558929]},"properties":{"original":{"Date":"2026-08-04","Name":"04 AUG 2026","Faction":"Russia","Origin":"UAV","Latitude":"48.558929","Longitude":"37.743431","PlusCode":"8GWVHP5V+H9 Novodmytrivka, Donetsk Oblast, Ukraine","Description":"0:33-0:48 -  Russian soldier hit by a Fibre Optic Nightvision FPV Drone of the 427th Separate Unmanned Systems Brigade Rarog","Source":"https://x.com/AudaxonX/status/2093262492361253286, https://t.me/Rarog_427/978","Geolocation":"https://x.com/AudaxonX/status/2093262515224318067","Equipment":"","EquipmentItems":"Fiber Optic (FO) FPV (First Person View) OWAD (One Way Attack Drone) | Thermal FPV (First Person View) OWAD (One Way Attack Drone)","Units":"","OrbatUnits":"427th Separate Unmanned Systems Brigade \"Rarog\"","Id":"4f790dd5-beaa-427e-9e2e-3ee1bbf5168e","icon":"/api/icons/E00000/False/template/92.png"},"source":"geoconfirmed","source_name":"GeoConfirmed","source_url":"https://geoconfirmed.org/map/ukraine","id":"4f790dd5-beaa-427e-9e2e-3ee1bbf5168e","date":"2026-08-04","link":"https://geoconfirmed.org/map/ukraine/4f790dd5-beaa-427e-9e2e-3ee1bbf5168e","category":"WIA/KIA Soldier/Militant","side":"Russia","color":"#E00000","description":"0:33-0:48 -  Russian soldier hit by a Fibre Optic Nightvision FPV Drone of the 427th Separate Unmanned Systems Brigade Rarog","orbat":["427th Separate Unmanned Systems Brigade \"Rarog\""],"geolocation":["https://x.com/AudaxonX/status/2093262515224318067"],"sources":["https://x.com/AudaxonX/status/2093262492361253286","https://t.me/Rarog_427/978"]}},{"type":"Feature","geometry":{"type":"Point","coordinates":[35.3971338,50.6836396]},"properties":{"original":{"Date":"2026-08-04","Name":"04 AUG 2026","Faction":"Ukraine","Origin":"VID","Latitude":"50.6836396","Longitude":"35.3971338","PlusCode":"9G2QM9WW+4J Ryasne, Sumy Oblast, Ukraine","Description":"0:28-End - Drone of the 119th Separate Territorial Defense Brigade strikes a claimed Russian position in Ryasne, Sumy Oblast.","Source":"https://x.com/GeoRaccoon/status/2084995677285658965, https://t.me/tro119ua/74","Geolocation":"https://x.com/DELIBERTATES/status/2084662665486459375","Equipment":"(Likely)","EquipmentItems":"FPV (First Person View) OWAD (One Way Attack Drone)","Units":"","OrbatUnits":"","Id":"0fc9235f-7953-4026-9e6b-40a20567ccff","icon":"/api/icons/0051CA/False/template/111.png"},"source":"geoconfirmed","source_name":"GeoConfirmed","source_url":"https://geoconfirmed.org/map/ukraine","id":"0fc9235f-7953-4026-9e6b-40a20567ccff","date":"2026-08-04","link":"https://geoconfirmed.org/map/ukraine/0fc9235f-7953-4026-9e6b-40a20567ccff","category":"Short Range (<50km) OWAD (One Way Attack Drone), mostly rotary wing, Flying OR Attacking a target without knowing the outcome: if something is damaged --> icon of the damaged equipment.","side":"Ukraine","color":"#0051CA","description":"0:28-End - Drone of the 119th Separate Territorial Defense Brigade strikes a claimed Russian position in Ryasne, Sumy Oblast.","orbat":[],"geolocation":["https://x.com/DELIBERTATES/status/2084662665486459375"],"sources":["https://x.com/GeoRaccoon/status/2084995677285658965","https://t.me/tro119ua/74"]}},{"type":"Feature","geometry":{"type":"Point","coordinates":[48.393493,53.114801]},"properties":{"original":{"Date":"2026-08-04","Name":"04 AUG 2026","Faction":"Unknown","Origin":"PIC","Latitude":"53.114801","Longitude":"48.393493","PlusCode":"9H5C497V+W9 Syzran, Samara Oblast, Russia","Description":"POV - Syzran refinery on fire ","Source":"1/2 https://x.com/Exilenova_plus/status/2084459359879548973, , Vid https://x.com/FJK1378126/status/2084685890379481398","Geolocation":"https://x.com/neonhandrail/status/2084700201961611721","Equipment":"","EquipmentItems":"","Units":"","OrbatUnits":"","Id":"c38034cf-4137-45c6-a00e-4595b4dedfde","icon":"/api/icons/666666/False/template/20.png"},"source":"geoconfirmed","source_name":"GeoConfirmed","source_url":"https://geoconfirmed.org/map/ukraine","id":"c38034cf-4137-45c6-a00e-4595b4dedfde","date":"2026-08-04","link":"https://geoconfirmed.org/map/ukraine/c38034cf-4137-45c6-a00e-4595b4dedfde","category":"Picture - Always Point of View in description - - In the colour of who is doing the attack or is responsable for the incident in the picture.","side":"Unknown","color":"#666666","description":"POV - Syzran refinery on fire","orbat":[],"geolocation":["https://x.com/neonhandrail/status/2084700201961611721"],"sources":["https://x.com/Exilenova_plus/status/2084459359879548973","https://x.com/FJK1378126/status/2084685890379481398"]}},{"type":"Feature","geometry":{"type":"Point","coordinates":[31.980953,46.85225]},"properties":{"original":{"Date":"2026-08-04","Name":"04 AUG 2026","Faction":"Russia","Origin":"UAV","Latitude":"46.85225","Longitude":"31.980953","PlusCode":"8GRHVX2J+V9 Mykolaiv, Mykolaiv Oblast, Ukraine","Description":"0:00-0:02 - Russian Geran-4 'seeker' targeted a cargo ship in the port of Mykolaiv","Source":"https://x.com/AMK_Mapping_/status/2084534203786629191, https://t.me/The_Wrong_Side/30322","Geolocation":"https://x.com/RedHibana/status/2084543164396826887","Equipment":"","EquipmentItems":"Geran-4 \"Seeker\"","Units":"","OrbatUnits":"","Id":"b9828450-3e7f-4110-a35d-45e67ec50fad","icon":"/api/icons/E00000/False/template/181.png"},"source":"geoconfirmed","source_name":"GeoConfirmed","source_url":"https://geoconfirmed.org/map/ukraine","id":"b9828450-3e7f-4110-a35d-45e67ec50fad","date":"2026-08-04","link":"https://geoconfirmed.org/map/ukraine/b9828450-3e7f-4110-a35d-45e67ec50fad","category":"Longe Range (>50km) OWAD (One Way Attack Drone) or Loitering munition, mostly fixed wing, Flying OR Attacking a target without knowing the outcome: if something is damaged --> icon of the damaged equipment.","side":"Russia","color":"#E00000","description":"0:00-0:02 - Russian Geran-4 'seeker' targeted a cargo ship in the port of Mykolaiv","orbat":[],"geolocation":["https://x.com/RedHibana/status/2084543164396826887"],"sources":["https://x.com/AMK_Mapping_/status/2084534203786629191","https://t.me/The_Wrong_Side/30322"]}},{"type":"Feature","geometry":{"type":"Point","coordinates":[36.10605,47.776237]},"properties":{"original":{"Date":"2026-08-04","Name":"04 AUG 2026","Faction":"Russia","Origin":"UAV","Latitude":"47.776237","Longitude":"36.10605","PlusCode":"8GVRQ4G4+FC Vozdvyzhivka, Zaporizhia Oblast, Ukraine","Description":"0:38-End - Russian shelling of a claimed Ukrainian position. 10km from the claimed location.","Source":"https://x.com/moklasen/status/2084978320702079383, https://t.me/tass_agency/388588","Geolocation":"https://x.com/GeoConfirmed/status/2085037775510749685, https://x.com/moklasen/status/2084978317304684789, ","Equipment":"Unknown","EquipmentItems":"","Units":"","OrbatUnits":"","Id":"1391110c-bae3-4b88-98d4-50e0370f488b","icon":"/api/icons/E00000/False/template/10.png"},"source":"geoconfirmed","source_name":"GeoConfirmed","source_url":"https://geoconfirmed.org/map/ukraine","id":"1391110c-bae3-4b88-98d4-50e0370f488b","date":"2026-08-04","link":"https://geoconfirmed.org/map/ukraine/1391110c-bae3-4b88-98d4-50e0370f488b","category":"Shelling by artillery or aerial bombings - Location of the shelling, colour of who is shelling; Brown = UXO","side":"Russia","color":"#E00000","description":"0:38-End - Russian shelling of a claimed Ukrainian position. 10km from the claimed location.","orbat":[],"geolocation":["https://x.com/GeoConfirmed/status/2085037775510749685","https://x.com/moklasen/status/2084978317304684789"],"sources":["https://x.com/moklasen/status/2084978320702079383","https://t.me/tass_agency/388588"]}},{"type":"Feature","geometry":{"type":"Point","coordinates":[34.902793,48.559321]},"properties":{"original":{"Date":"2026-08-04","Name":"04 AUG 2026","Faction":"Neutral","Origin":"VID","Latitude":"48.559321","Longitude":"34.902793","PlusCode":"8GWPHW53+P4 Obukhivka, Dnipropetrovsk Oblast, Ukraine","Description":"Destroyed warehouse 'Laktalis Dnipro-Reshetylivka' following reported Russian strikes.","Source":"Vid, https://x.com/Zeldamices/status/2090723871351583078, https://www.instagram.com/azamat96154/reel/DcOiCtWMeIa/, SAT, (3/3), https://x.com/Zeldamices/status/2090719372725678483, More information, NASA Firms, https://x.com/Zeldamices/status/2090723937718051012, https://english.nv.ua/russian-war/russian-attack-wipes-out-major-warehouse-of-ukrainian-ice-cream-giant-lasunka-50629755.html, ","Geolocation":"(2/3), https://x.com/Zeldamices/status/2090719372725678483","Equipment":"","EquipmentItems":"","Units":"","OrbatUnits":"","Id":"1308f20e-416b-42f1-96fb-5f8ea0bcd72e","icon":"/api/icons/AC7339/False/template/192.png"},"source":"geoconfirmed","source_name":"GeoConfirmed","source_url":"https://geoconfirmed.org/map/ukraine","id":"1308f20e-416b-42f1-96fb-5f8ea0bcd72e","date":"2026-08-04","link":"https://geoconfirmed.org/map/ukraine/1308f20e-416b-42f1-96fb-5f8ea0bcd72e","category":"Recently destroyed/Damaged[Visible in footage] or still burning infrastucture","side":"Neutral","color":"#AC7339","description":"Destroyed warehouse 'Laktalis Dnipro-Reshetylivka' following reported Russian strikes.","orbat":[],"geolocation":["https://x.com/Zeldamices/status/2090719372725678483"],"sources":["https://x.com/Zeldamices/status/2090723871351583078","https://www.instagram.com/azamat96154/reel/DcOiCtWMeIa/","https://x.com/Zeldamices/status/2090719372725678483","https://x.com/Zeldamices/status/2090723937718051012","https://english.nv.ua/russian-war/russian-attack-wipes-out-major-warehouse-of-ukrainian-ice-cream-giant-lasunka-50629755.html"]}},{"type":"Feature","geometry":{"type":"Point","coordinates":[35.813267,47.556816]},"properties":{"original":{"Date":"2026-08-04","Name":"04 AUG 2026","Faction":"Ukraine","Origin":"UAV","Latitude":"47.556816","Longitude":"35.813267","PlusCode":"8GVQHR47+P8 Orikhiv, Zaporizhia Oblast, Ukraine","Description":"0:29-end - Ukrainian FPV drone of the 118th Brigade hits a house in Orikhiv, Zaporizhzhia Oblast","Source":"https://x.com/Bielitzling/status/2084602695675986138, https://t.me/bolgarodessaanbu/280, ","Geolocation":"https://x.com/Bielitzling/status/2084602691217424470","Equipment":"","EquipmentItems":"FPV (First Person View) OWAD (One Way Attack Drone)","Units":"ANBU","OrbatUnits":"118th Mechanized Brigade","Id":"fa13cc52-606d-4d7e-aa37-62942049acab","icon":"/api/icons/0051CA/False/template/111.png"},"source":"geoconfirmed","source_name":"GeoConfirmed","source_url":"https://geoconfirmed.org/map/ukraine","id":"fa13cc52-606d-4d7e-aa37-62942049acab","date":"2026-08-04","link":"https://geoconfirmed.org/map/ukraine/fa13cc52-606d-4d7e-aa37-62942049acab","category":"Short Range (<50km) OWAD (One Way Attack Drone), mostly rotary wing, Flying OR Attacking a target without knowing the outcome: if something is damaged --> icon of the damaged equipment.","side":"Ukraine","color":"#0051CA","description":"0:29-end - Ukrainian FPV drone of the 118th Brigade hits a house in Orikhiv, Zaporizhzhia Oblast","orbat":["118th Mechanized Brigade"],"geolocation":["https://x.com/Bielitzling/status/2084602691217424470"],"sources":["https://x.com/Bielitzling/status/2084602695675986138","https://t.me/bolgarodessaanbu/280"]}},{"type":"Feature","geometry":{"type":"Point","coordinates":[37.713361,48.560504]},"properties":{"original":{"Date":"2026-08-04","Name":"04 AUG 2026","Faction":"Russia","Origin":"UAV","Latitude":"48.560504","Longitude":"37.713361","PlusCode":"8GWVHP67+68 Molocharka, Donetsk Oblast, Ukraine","Description":"Russians detonate a TM-62 mine at a presumed Ukrainian position in Molocharka, Donetsk Oblast","Source":"https://x.com/jimmhelloman555/status/2084778446043930725, https://t.me/pexotinesss/4575, https://x.com/AudaxonX/status/2093261750216904711","Geolocation":"https://x.com/jimmhelloman555/status/2084778234239983955, https://x.com/AudaxonX/status/2093261727815082041","Equipment":"","EquipmentItems":"TM-62","Units":"","OrbatUnits":"136th Guards Motorized Rifle Brigade","Id":"78365baa-1016-4e58-af36-657ee169d2b3","icon":"/api/icons/E00000/False/template/70.png"},"source":"geoconfirmed","source_name":"GeoConfirmed","source_url":"https://geoconfirmed.org/map/ukraine","id":"78365baa-1016-4e58-af36-657ee169d2b3","date":"2026-08-04","link":"https://geoconfirmed.org/map/ukraine/78365baa-1016-4e58-af36-657ee169d2b3","category":"Controlled Demolition OR explosion of unknown origin OR fire of unknown origin where no other icon fits","side":"Russia","color":"#E00000","description":"Russians detonate a TM-62 mine at a presumed Ukrainian position in Molocharka, Donetsk Oblast","orbat":["136th Guards Motorized Rifle Brigade"],"geolocation":["https://x.com/jimmhelloman555/status/2084778234239983955","https://x.com/AudaxonX/status/2093261727815082041"],"sources":["https://x.com/jimmhelloman555/status/2084778446043930725","https://t.me/pexotinesss/4575","https://x.com/AudaxonX/status/2093261750216904711"]}},{"type":"Feature","geometry":{"type":"Point","coordinates":[33.545532,44.667533]},"properties":{"original":{"Date":"2026-08-04","Name":"04 AUG 2026","Faction":"Russia","Origin":"PIC","Latitude":"44.667533","Longitude":"33.545532","PlusCode":"8GPMMG9W+26 Sevastopol","Description":"Russian Ural-4320 based mobile air defence stationed in Lyubimovka, Crimea, possibly for defense of Belbek airfield","Source":"https://x.com/MikiValbuena/status/2084614528705143074, https://t.me/Crimeanwind/106377, ","Geolocation":"https://x.com/MikiValbuena/status/2084614523042803954","Equipment":"","EquipmentItems":"Ural-4320","Units":"","OrbatUnits":"","Id":"ec23bbec-979b-4b20-ac49-735bf047f7c8","icon":"/api/icons/E00000/False/template/201.png"},"source":"geoconfirmed","source_name":"GeoConfirmed","source_url":"https://geoconfirmed.org/map/ukraine","id":"ec23bbec-979b-4b20-ac49-735bf047f7c8","date":"2026-08-04","link":"https://geoconfirmed.org/map/ukraine/ec23bbec-979b-4b20-ac49-735bf047f7c8","category":"Anti-Air System (Tracked OR Wheeled)","side":"Russia","color":"#E00000","description":"Russian Ural-4320 based mobile air defence stationed in Lyubimovka, Crimea, possibly for defense of Belbek airfield","orbat":[],"geolocation":["https://x.com/MikiValbuena/status/2084614523042803954"],"sources":["https://x.com/MikiValbuena/status/2084614528705143074","https://t.me/Crimeanwind/106377"]}},{"type":"Feature","geometry":{"type":"Point","coordinates":[37.948832,48.727086]},"properties":{"original":{"Date":"2026-08-04","Name":"04 AUG 2026","Faction":"Ukraine","Origin":"UAV","Latitude":"48.727086","Longitude":"37.948832","PlusCode":"8GWVPWGX+RG Bondarne, Donetsk Oblast, Ukraine","Description":"0:27 -  Static light vehicle hit by FPV","Source":"https://x.com/moklasen/status/2084730498627060178, https://t.me/assaultregiment33/3281, ","Geolocation":"based on: https://x.com/moklasen/status/2084730495292657958","Equipment":"","EquipmentItems":"FPV (First Person View) OWAD (One Way Attack Drone) | Light Vehicle","Units":"","OrbatUnits":"33rd Separate Assault Regiment","Id":"14bc47f0-c1f0-49c9-b525-751800faf8be","icon":"/api/icons/0051CA/False/template/111.png"},"source":"geoconfirmed","source_name":"GeoConfirmed","source_url":"https://geoconfirmed.org/map/ukraine","id":"14bc47f0-c1f0-49c9-b525-751800faf8be","date":"2026-08-04","link":"https://geoconfirmed.org/map/ukraine/14bc47f0-c1f0-49c9-b525-751800faf8be","category":"Short Range (<50km) OWAD (One Way Attack Drone), mostly rotary wing, Flying OR Attacking a target without knowing the outcome: if something is damaged --> icon of the damaged equipment.","side":"Ukraine","color":"#0051CA","description":"0:27 -  Static light vehicle hit by FPV","orbat":["33rd Separate Assault Regiment"],"geolocation":["https://x.com/moklasen/status/2084730495292657958"],"sources":["https://x.com/moklasen/status/2084730498627060178","https://t.me/assaultregiment33/3281"]}},{"type":"Feature","geometry":{"type":"Point","coordinates":[35.3965803,50.6953397]},"properties":{"original":{"Date":"2026-08-04","Name":"04 AUG 2026","Faction":"Ukraine","Origin":"VID","Latitude":"50.6953397","Longitude":"35.3965803","PlusCode":"9G2QM9WW+4J Ryasne, Sumy Oblast, Ukraine","Description":"0:24-0:27 - Drone of the 119th Separate Territorial Defense Brigade strikes a claimed Russian position in Ryasne, Sumy Oblast.","Source":"https://x.com/GeoRaccoon/status/2084995677285658965, https://t.me/tro119ua/74","Geolocation":"https://x.com/DELIBERTATES/status/2084662665486459375","Equipment":"(Likely)","EquipmentItems":"FPV (First Person View) OWAD (One Way Attack Drone)","Units":"","OrbatUnits":"119th Separate Territorial Defense Brigade","Id":"3464552a-1609-431c-a6c2-816b29593ea9","icon":"/api/icons/0051CA/False/template/111.png"},"source":"geoconfirmed","source_name":"GeoConfirmed","source_url":"https://geoconfirmed.org/map/ukraine","id":"3464552a-1609-431c-a6c2-816b29593ea9","date":"2026-08-04","link":"https://geoconfirmed.org/map/ukraine/3464552a-1609-431c-a6c2-816b29593ea9","category":"Short Range (<50km) OWAD (One Way Attack Drone), mostly rotary wing, Flying OR Attacking a target without knowing the outcome: if something is damaged --> icon of the damaged equipment.","side":"Ukraine","color":"#0051CA","description":"0:24-0:27 - Drone of the 119th Separate Territorial Defense Brigade strikes a claimed Russian position in Ryasne, Sumy Oblast.","orbat":["119th Separate Territorial Defense Brigade"],"geolocation":["https://x.com/DELIBERTATES/status/2084662665486459375"],"sources":["https://x.com/GeoRaccoon/status/2084995677285658965","https://t.me/tro119ua/74"]}},{"type":"Feature","geometry":{"type":"Point","coordinates":[35.3969561,50.6835998]},"properties":{"original":{"Date":"2026-08-04","Name":"04 AUG 2026","Faction":"Ukraine","Origin":"VID","Latitude":"50.6835998","Longitude":"35.3969561","PlusCode":"9G2QM9MW+VQ Ryasne, Sumy Oblast, Ukraine","Description":"0:15, right strike - Drone of the 119th Separate Territorial Defense Brigade strikes a claimed Russian position in Ryasne, Sumy Oblast.","Source":"https://x.com/GeoRaccoon/status/2084995677285658965, https://t.me/tro119ua/74","Geolocation":"https://x.com/DELIBERTATES/status/2084665714305114124","Equipment":"(Likely)","EquipmentItems":"FPV (First Person View) OWAD (One Way Attack Drone)","Units":"","OrbatUnits":"119th Separate Territorial Defense Brigade","Id":"ea651f9a-3923-4ae2-911e-8cc9b9fa20c8","icon":"/api/icons/0051CA/False/template/111.png"},"source":"geoconfirmed","source_name":"GeoConfirmed","source_url":"https://geoconfirmed.org/map/ukraine","id":"ea651f9a-3923-4ae2-911e-8cc9b9fa20c8","date":"2026-08-04","link":"https://geoconfirmed.org/map/ukraine/ea651f9a-3923-4ae2-911e-8cc9b9fa20c8","category":"Short Range (<50km) OWAD (One Way Attack Drone), mostly rotary wing, Flying OR Attacking a target without knowing the outcome: if something is damaged --> icon of the damaged equipment.","side":"Ukraine","color":"#0051CA","description":"0:15, right strike - Drone of the 119th Separate Territorial Defense Brigade strikes a claimed Russian position in Ryasne, Sumy Oblast.","orbat":["119th Separate Territorial Defense Brigade"],"geolocation":["https://x.com/DELIBERTATES/status/2084665714305114124"],"sources":["https://x.com/GeoRaccoon/status/2084995677285658965","https://t.me/tro119ua/74"]}},{"type":"Feature","geometry":{"type":"Point","coordinates":[36.287677,47.820161]},"properties":{"original":{"Date":"2026-08-04","Name":"04 AUG 2026","Faction":"Russia","Origin":"UAV","Latitude":"47.820161","Longitude":"36.287677","PlusCode":"8GVRR7CQ+33 Zlahoda, Dnipropetrovsk Oblast, Ukraine","Description":"0:35-0:38 - Russian shelling of a claimed Ukrainian position. 25km from the claimed location.","Source":"https://x.com/moklasen/status/2084978320702079383, https://t.me/tass_agency/388588","Geolocation":"https://x.com/GeoConfirmed/status/2085037775510749685, https://x.com/moklasen/status/2084978313781518438, ","Equipment":"Unknown","EquipmentItems":"","Units":"","OrbatUnits":"","Id":"267029fa-9f26-4896-a1fc-8f73d76e96c6","icon":"/api/icons/E00000/False/template/10.png"},"source":"geoconfirmed","source_name":"GeoConfirmed","source_url":"https://geoconfirmed.org/map/ukraine","id":"267029fa-9f26-4896-a1fc-8f73d76e96c6","date":"2026-08-04","link":"https://geoconfirmed.org/map/ukraine/267029fa-9f26-4896-a1fc-8f73d76e96c6","category":"Shelling by artillery or aerial bombings - Location of the shelling, colour of who is shelling; Brown = UXO","side":"Russia","color":"#E00000","description":"0:35-0:38 - Russian shelling of a claimed Ukrainian position. 25km from the claimed location.","orbat":[],"geolocation":["https://x.com/GeoConfirmed/status/2085037775510749685","https://x.com/moklasen/status/2084978313781518438"],"sources":["https://x.com/moklasen/status/2084978320702079383","https://t.me/tass_agency/388588"]}},{"type":"Feature","geometry":{"type":"Point","coordinates":[36.7126,48.03818]},"properties":{"original":{"Date":"2026-08-04","Name":"04 AUG 2026","Faction":"Russia","Origin":"UAV","Latitude":"48.03818","Longitude":"36.7126","PlusCode":"8GWR2PQ7+72 Zirka, Donetsk Oblast, Ukraine","Description":"0:58-1:06 - Molnya strike by russian 430th motorized rifle regiment, 29th Combined Arms Army in Zirka, Donetsk","Source":"https://x.com/moklasen/status/2084681994613498061, http://t.me/army29th/967","Geolocation":"https://x.com/moklasen/status/2084681990666637573","Equipment":"","EquipmentItems":"Molniya","Units":"","OrbatUnits":"430th Motorized Rifle Regiment","Id":"c73fa601-9ff1-4f24-aeac-95c98b7efbc2","icon":"/api/icons/E00000/False/template/111.png"},"source":"geoconfirmed","source_name":"GeoConfirmed","source_url":"https://geoconfirmed.org/map/ukraine","id":"c73fa601-9ff1-4f24-aeac-95c98b7efbc2","date":"2026-08-04","link":"https://geoconfirmed.org/map/ukraine/c73fa601-9ff1-4f24-aeac-95c98b7efbc2","category":"Short Range (<50km) OWAD (One Way Attack Drone), mostly rotary wing, Flying OR Attacking a target without knowing the outcome: if something is damaged --> icon of the damaged equipment.","side":"Russia","color":"#E00000","description":"0:58-1:06 - Molnya strike by russian 430th motorized rifle regiment, 29th Combined Arms Army in Zirka, Donetsk","orbat":["430th Motorized Rifle Regiment"],"geolocation":["https://x.com/moklasen/status/2084681990666637573"],"sources":["https://x.com/moklasen/status/2084681994613498061","http://t.me/army29th/967"]}},{"type":"Feature","geometry":{"type":"Point","coordinates":[37.21524,48.34656]},"properties":{"original":{"Date":"2026-08-04","Name":"04 AUG 2026","Faction":"Russia","Origin":"VID","Latitude":"48.34656","Longitude":"37.21524","PlusCode":"8GWV86W8+J3 Rodyns'ke, Donetsk Oblast, Ukraine","Description":"The UA 414th Unmanned Strike Aviation Brigade \"Birds of Magyar\" used an FPV to kill a Russian soldier in Rodynske, Donetska Region, Ukraine.","Source":"https://x.com/PuenteUribarri/status/2084564369900175663, https://t.me/robert_magyar/2697","Geolocation":"https://x.com/meowqai/status/2084595243408560254","Equipment":"","EquipmentItems":"Fiber Optic (FO) FPV (First Person View) OWAD (One Way Attack Drone)","Units":"","OrbatUnits":"414th Separate Unmanned Systems Brigade \"Birds of the Magyar\"","Id":"98454e6f-535a-4b79-afda-9cc2a776447d","icon":"/api/icons/E00000/False/template/92.png"},"source":"geoconfirmed","source_name":"GeoConfirmed","source_url":"https://geoconfirmed.org/map/ukraine","id":"98454e6f-535a-4b79-afda-9cc2a776447d","date":"2026-08-04","link":"https://geoconfirmed.org/map/ukraine/98454e6f-535a-4b79-afda-9cc2a776447d","category":"WIA/KIA Soldier/Militant","side":"Russia","color":"#E00000","description":"The UA 414th Unmanned Strike Aviation Brigade \"Birds of Magyar\" used an FPV to kill a Russian soldier in Rodynske, Donetska Region, Ukraine.","orbat":["414th Separate Unmanned Systems Brigade \"Birds of the Magyar\""],"geolocation":["https://x.com/meowqai/status/2084595243408560254"],"sources":["https://x.com/PuenteUribarri/status/2084564369900175663","https://t.me/robert_magyar/2697"]}},{"type":"Feature","geometry":{"type":"Point","coordinates":[31.980428,46.85072]},"properties":{"original":{"Date":"2026-08-04","Name":"04 AUG 2026","Faction":"Russia","Origin":"UAV","Latitude":"46.85072","Longitude":"31.980428","PlusCode":"8GRHVX2J+75 Mykolaiv, Mykolaiv Oblast, Ukraine","Description":"0:03-0:06 - Russian Geran-4 'seeker' targeted a cargo ship in the port of Mykolaiv","Source":"https://x.com/AMK_Mapping_/status/2084534203786629191, https://t.me/The_Wrong_Side/30322","Geolocation":"https://x.com/RedHibana/status/2084543164396826887","Equipment":"","EquipmentItems":"Geran-4 \"Seeker\"","Units":"","OrbatUnits":"","Id":"eabe4963-8262-4705-b5be-a2f8f9e68c84","icon":"/api/icons/E00000/False/template/181.png"},"source":"geoconfirmed","source_name":"GeoConfirmed","source_url":"https://geoconfirmed.org/map/ukraine","id":"eabe4963-8262-4705-b5be-a2f8f9e68c84","date":"2026-08-04","link":"https://geoconfirmed.org/map/ukraine/eabe4963-8262-4705-b5be-a2f8f9e68c84","category":"Longe Range (>50km) OWAD (One Way Attack Drone) or Loitering munition, mostly fixed wing, Flying OR Attacking a target without knowing the outcome: if something is damaged --> icon of the damaged equipment.","side":"Russia","color":"#E00000","description":"0:03-0:06 - Russian Geran-4 'seeker' targeted a cargo ship in the port of Mykolaiv","orbat":[],"geolocation":["https://x.com/RedHibana/status/2084543164396826887"],"sources":["https://x.com/AMK_Mapping_/status/2084534203786629191","https://t.me/The_Wrong_Side/30322"]}},{"type":"Feature","geometry":{"type":"Point","coordinates":[30.620316,59.681212]},"properties":{"original":{"Date":"2026-08-04","Name":"04 AUG 2026","Faction":"Ukraine","Origin":"VID","Latitude":"59.681212","Longitude":"30.620316","PlusCode":"9GFGMJJC+F4 Krasnoborskoye, Leningrad Oblast, Russia","Description":"Point of view - Wildberries distribution centre on fire in Krasnoborskoye after a reported Ukrainian drone attack","Source":"https://x.com/Exilenova_plus/status/2084471917206225136, https://x.com/neonhandrail/status/2084480283152404636, https://t.me/exilenova_plus/28003","Geolocation":"https://x.com/neonhandrail/status/2084477824803733829, https://x.com/Grimm_Intel/status/2084479668145561605, https://x.com/neonhandrail/status/2084481232189182147","Equipment":"","EquipmentItems":"","Units":"","OrbatUnits":"","Id":"571ff9d2-403a-4e30-b93d-a6996e08c414","icon":"/api/icons/0051CA/False/template/30.png"},"source":"geoconfirmed","source_name":"GeoConfirmed","source_url":"https://geoconfirmed.org/map/ukraine","id":"571ff9d2-403a-4e30-b93d-a6996e08c414","date":"2026-08-04","link":"https://geoconfirmed.org/map/ukraine/571ff9d2-403a-4e30-b93d-a6996e08c414","category":"Video - Always Point of View in description - In the colour of who is doing the attack or is responsable for the incident in the video.","side":"Ukraine","color":"#0051CA","description":"Point of view - Wildberries distribution centre on fire in Krasnoborskoye after a reported Ukrainian drone attack","orbat":[],"geolocation":["https://x.com/neonhandrail/status/2084477824803733829","https://x.com/Grimm_Intel/status/2084479668145561605","https://x.com/neonhandrail/status/2084481232189182147"],"sources":["https://x.com/Exilenova_plus/status/2084471917206225136","https://x.com/neonhandrail/status/2084480283152404636","https://t.me/exilenova_plus/28003"]}},{"type":"Feature","geometry":{"type":"Point","coordinates":[36.388083,50.083361]},"properties":{"original":{"Date":"2026-08-04","Name":"04 AUG 2026","Faction":"Ukraine Civilian","Origin":"VID","Latitude":"50.083361","Longitude":"36.388083","PlusCode":"9G2R39MQ+86 Tsyrkuny, Kharkiv Oblast, Ukraine","Description":"A fire truck was damaged by Russian FPV drone.","Source":"https://x.com/UADE2024/status/2084742174944719195","Geolocation":"https://x.com/99Dominik_/status/2090124851822391458","Equipment":"Fire","EquipmentItems":"Fire Truck | FPV (First Person View) OWAD (One Way Attack Drone)","Units":"","OrbatUnits":"","Id":"8e3bfee8-049b-40b6-99fd-a96343d198be","icon":"/api/icons/3184FF/False/template/62.png"},"source":"geoconfirmed","source_name":"GeoConfirmed","source_url":"https://geoconfirmed.org/map/ukraine","id":"8e3bfee8-049b-40b6-99fd-a96343d198be","date":"2026-08-04","link":"https://geoconfirmed.org/map/ukraine/8e3bfee8-049b-40b6-99fd-a96343d198be","category":"Recently Destroyed/Damaged[Visible in footage] Logistical Trucks (Soft skin OR armoured)","side":"Ukraine Civilian","color":"#3184FF","description":"A fire truck was damaged by Russian FPV drone.","orbat":[],"geolocation":["https://x.com/99Dominik_/status/2090124851822391458"],"sources":["https://x.com/UADE2024/status/2084742174944719195"]}},{"type":"Feature","geometry":{"type":"Point","coordinates":[36.01555,47.7082]},"properties":{"original":{"Date":"2026-08-04","Name":"04 AUG 2026","Faction":"Russia","Origin":"UAV","Latitude":"47.7082","Longitude":"36.01555","PlusCode":"8GVRP258+76 Dolynka, Zaporizhia Oblast, Ukraine","Description":"Russian heavy MLRS shelling of a claimed Ukrainian command post in Dolynka, Zaporizhia Oblast, Ukraine","Source":"https://x.com/moklasen/status/2084978320702079383, https://t.me/tass_agency/388588","Geolocation":"https://x.com/GeoConfirmed/status/2085037775510749685, Geo: , https://x.com/moklasen/status/2084978320702079383, Proof:, https://x.com/GeoRaccoon/status/2085031613482651911, ","Equipment":"(implied to be) Tornado-S 9K515 or BM-30 Smersh","EquipmentItems":"","Units":"","OrbatUnits":"","Id":"37f31465-6b68-4ac6-a734-b4e58c30d11f","icon":"/api/icons/E00000/False/template/10.png"},"source":"geoconfirmed","source_name":"GeoConfirmed","source_url":"https://geoconfirmed.org/map/ukraine","id":"37f31465-6b68-4ac6-a734-b4e58c30d11f","date":"2026-08-04","link":"https://geoconfirmed.org/map/ukraine/37f31465-6b68-4ac6-a734-b4e58c30d11f","category":"Shelling by artillery or aerial bombings - Location of the shelling, colour of who is shelling; Brown = UXO","side":"Russia","color":"#E00000","description":"Russian heavy MLRS shelling of a claimed Ukrainian command post in Dolynka, Zaporizhia Oblast, Ukraine","orbat":[],"geolocation":["https://x.com/GeoConfirmed/status/2085037775510749685","https://x.com/moklasen/status/2084978320702079383","https://x.com/GeoRaccoon/status/2085031613482651911"],"sources":["https://x.com/moklasen/status/2084978320702079383","https://t.me/tass_agency/388588"]}},{"type":"Feature","geometry":{"type":"Point","coordinates":[37.71267,48.854306]},"properties":{"original":{"Date":"2026-08-04","Name":"04 AUG 2026","Faction":"Russia","Origin":"VID","Latitude":"48.854306","Longitude":"37.71267","PlusCode":"8GWVVP37+P3 Slovyansk, Donetsk Oblast, Ukraine","Description":"Reported Russian FPV drone killed a mother and injured her son.","Source":"https://x.com/99Dominik_/status/2084625695662022787, https://t.me/rytmonashogozhyttia/331, ","Geolocation":"https://x.com/99Dominik_/status/2084625392405541235","Equipment":"","EquipmentItems":"FPV (First Person View) OWAD (One Way Attack Drone)","Units":"","OrbatUnits":"","Id":"460651e7-5c6c-49f0-b3a1-b6fa748a85b0","icon":"/api/icons/E00000/False/template/50.png"},"source":"geoconfirmed","source_name":"GeoConfirmed","source_url":"https://geoconfirmed.org/map/ukraine","id":"460651e7-5c6c-49f0-b3a1-b6fa748a85b0","date":"2026-08-04","link":"https://geoconfirmed.org/map/ukraine/460651e7-5c6c-49f0-b3a1-b6fa748a85b0","category":"Killed or wounded civilian. Potential Warcrime. In the colour of who is assessed as doing the attack/killing.","side":"Russia","color":"#E00000","description":"Reported Russian FPV drone killed a mother and injured her son.","orbat":[],"geolocation":["https://x.com/99Dominik_/status/2084625392405541235"],"sources":["https://x.com/99Dominik_/status/2084625695662022787","https://t.me/rytmonashogozhyttia/331"]}},{"type":"Feature","geometry":{"type":"Point","coordinates":[37.607823,48.731395]},"properties":{"original":{"Date":"2026-08-04","Name":"04 AUG 2026","Faction":"Russia","Origin":"VID","Latitude":"48.731395","Longitude":"37.607823","PlusCode":"8GWVPJJ5+H4 Kramatorsk, Donetsk Oblast, Ukraine","Description":"24 people reportedly injured after a Russian airstrike on Kramatorsk","Source":"https://x.com/99Dominik_/status/2084665798581248122, https://youtube.com/watch?v=cMccCR","Geolocation":"https://x.com/99Dominik_/status/2084664157022867875","Equipment":"","EquipmentItems":"Airstrike","Units":"","OrbatUnits":"","Id":"817ad63f-c6e1-487f-864a-b6fd1f7ef218","icon":"/api/icons/E00000/False/template/50.png"},"source":"geoconfirmed","source_name":"GeoConfirmed","source_url":"https://geoconfirmed.org/map/ukraine","id":"817ad63f-c6e1-487f-864a-b6fd1f7ef218","date":"2026-08-04","link":"https://geoconfirmed.org/map/ukraine/817ad63f-c6e1-487f-864a-b6fd1f7ef218","category":"Killed or wounded civilian. Potential Warcrime. In the colour of who is assessed as doing the attack/killing.","side":"Russia","color":"#E00000","description":"24 people reportedly injured after a Russian airstrike on Kramatorsk","orbat":[],"geolocation":["https://x.com/99Dominik_/status/2084664157022867875"],"sources":["https://x.com/99Dominik_/status/2084665798581248122","https://youtube.com/watch?v=cMccCR"]}},{"type":"Feature","geometry":{"type":"Point","coordinates":[37.524873,48.616629]},"properties":{"original":{"Date":"2026-08-04","Name":"04 AUG 2026","Faction":"Russia","Origin":"UAV","Latitude":"48.616629","Longitude":"37.524873","PlusCode":"8GWVJG8F+MW Druzhkivka, Donetsk Oblast, Ukraine","Description":"Russian FPV drone targeted a civilian","Source":"https://x.com/99Dominik_/status/2085248812033941818, https://www.instagram.com/black.raven93/reel/Dbm423DI7p8, ","Geolocation":"https://x.com/99Dominik_/status/2085248594462843223","Equipment":"","EquipmentItems":"FPV (First Person View) OWAD (One Way Attack Drone)","Units":"","OrbatUnits":"Unmanned Aerial Systems Battalion \"Black Raven\"","Id":"58e87cd5-2a46-4b08-9f0c-ce5017cb1141","icon":"/api/icons/E00000/False/template/111.png"},"source":"geoconfirmed","source_name":"GeoConfirmed","source_url":"https://geoconfirmed.org/map/ukraine","id":"58e87cd5-2a46-4b08-9f0c-ce5017cb1141","date":"2026-08-04","link":"https://geoconfirmed.org/map/ukraine/58e87cd5-2a46-4b08-9f0c-ce5017cb1141","category":"Short Range (<50km) OWAD (One Way Attack Drone), mostly rotary wing, Flying OR Attacking a target without knowing the outcome: if something is damaged --> icon of the damaged equipment.","side":"Russia","color":"#E00000","description":"Russian FPV drone targeted a civilian","orbat":["Unmanned Aerial Systems Battalion \"Black Raven\""],"geolocation":["https://x.com/99Dominik_/status/2085248594462843223"],"sources":["https://x.com/99Dominik_/status/2085248812033941818","https://www.instagram.com/black.raven93/reel/Dbm423DI7p8"]}},{"type":"Feature","geometry":{"type":"Point","coordinates":[35.3969273,50.6846435]},"properties":{"original":{"Date":"2026-08-04","Name":"04 AUG 2026","Faction":"Ukraine","Origin":"VID","Latitude":"50.6846435","Longitude":"35.3969273","PlusCode":"9G2QM9MW+VQ Ryasne, Sumy Oblast, Ukraine","Description":"0:15, left strike - Drone of the 119th Separate Territorial Defense Brigade strikes a claimed Russian position in Ryasne, Sumy Oblast.","Source":"https://x.com/GeoRaccoon/status/2084995677285658965, https://t.me/tro119ua/74","Geolocation":"https://x.com/DELIBERTATES/status/2084665714305114124","Equipment":"(Likely)","EquipmentItems":"FPV (First Person View) OWAD (One Way Attack Drone)","Units":"","OrbatUnits":"119th Separate Territorial Defense Brigade","Id":"f6661f8e-4199-4fa1-b4d2-ce947b9a4b1d","icon":"/api/icons/0051CA/False/template/111.png"},"source":"geoconfirmed","source_name":"GeoConfirmed","source_url":"https://geoconfirmed.org/map/ukraine","id":"f6661f8e-4199-4fa1-b4d2-ce947b9a4b1d","date":"2026-08-04","link":"https://geoconfirmed.org/map/ukraine/f6661f8e-4199-4fa1-b4d2-ce947b9a4b1d","category":"Short Range (<50km) OWAD (One Way Attack Drone), mostly rotary wing, Flying OR Attacking a target without knowing the outcome: if something is damaged --> icon of the damaged equipment.","side":"Ukraine","color":"#0051CA","description":"0:15, left strike - Drone of the 119th Separate Territorial Defense Brigade strikes a claimed Russian position in Ryasne, Sumy Oblast.","orbat":["119th Separate Territorial Defense Brigade"],"geolocation":["https://x.com/DELIBERTATES/status/2084665714305114124"],"sources":["https://x.com/GeoRaccoon/status/2084995677285658965","https://t.me/tro119ua/74"]}},{"type":"Feature","geometry":{"type":"Point","coordinates":[35.3970068,50.6834579]},"properties":{"original":{"Date":"2026-08-04","Name":"04 AUG 2026","Faction":"Ukraine","Origin":"VID","Latitude":"50.6834579","Longitude":"35.3970068","PlusCode":"9G2QM9MW+9R Ryasne, Sumy Oblast, Ukraine","Description":"0:09-0:11 - Drone of the 119th Separate Territorial Defense Brigade strikes a claimed Russian position in Ryasne, Sumy Oblast.","Source":"https://x.com/GeoRaccoon/status/2084995677285658965, https://t.me/tro119ua/74","Geolocation":"https://x.com/DELIBERTATES/status/2084669552030294330","Equipment":"(Likely)","EquipmentItems":"FPV (First Person View) OWAD (One Way Attack Drone)","Units":"","OrbatUnits":"119th Separate Territorial Defense Brigade","Id":"b45d04bf-2d31-4eab-b598-da10c981decd","icon":"/api/icons/0051CA/False/template/111.png"},"source":"geoconfirmed","source_name":"GeoConfirmed","source_url":"https://geoconfirmed.org/map/ukraine","id":"b45d04bf-2d31-4eab-b598-da10c981decd","date":"2026-08-04","link":"https://geoconfirmed.org/map/ukraine/b45d04bf-2d31-4eab-b598-da10c981decd","category":"Short Range (<50km) OWAD (One Way Attack Drone), mostly rotary wing, Flying OR Attacking a target without knowing the outcome: if something is damaged --> icon of the damaged equipment.","side":"Ukraine","color":"#0051CA","description":"0:09-0:11 - Drone of the 119th Separate Territorial Defense Brigade strikes a claimed Russian position in Ryasne, Sumy Oblast.","orbat":["119th Separate Territorial Defense Brigade"],"geolocation":["https://x.com/DELIBERTATES/status/2084669552030294330"],"sources":["https://x.com/GeoRaccoon/status/2084995677285658965","https://t.me/tro119ua/74"]}},{"type":"Feature","geometry":{"type":"Point","coordinates":[48.433934,53.130131]},"properties":{"original":{"Date":"2026-08-04","Name":"04 AUG 2026","Faction":"Unknown","Origin":"PIC","Latitude":"53.130131","Longitude":"48.433934","PlusCode":"9H5C4CJM+3H Syzran, Samara Oblast, Russia","Description":"POV - Syzran refinery on fire ","Source":"2/2 https://x.com/Exilenova_plus/status/2084459359879548973","Geolocation":"https://x.com/neonhandrail/status/2084653606821937333","Equipment":"","EquipmentItems":"","Units":"","OrbatUnits":"","Id":"467b8c6c-5d17-49d1-ac84-de5cb0f222ff","icon":"/api/icons/666666/False/template/20.png"},"source":"geoconfirmed","source_name":"GeoConfirmed","source_url":"https://geoconfirmed.org/map/ukraine","id":"467b8c6c-5d17-49d1-ac84-de5cb0f222ff","date":"2026-08-04","link":"https://geoconfirmed.org/map/ukraine/467b8c6c-5d17-49d1-ac84-de5cb0f222ff","category":"Picture - Always Point of View in description - - In the colour of who is doing the attack or is responsable for the incident in the picture.","side":"Unknown","color":"#666666","description":"POV - Syzran refinery on fire","orbat":[],"geolocation":["https://x.com/neonhandrail/status/2084653606821937333"],"sources":["https://x.com/Exilenova_plus/status/2084459359879548973"]}},{"type":"Feature","geometry":{"type":"Point","coordinates":[37.87019,48.939819]},"properties":{"original":{"Date":"2026-08-04","Name":"04 AUG 2026","Faction":"Russia","Origin":"UAV","Latitude":"48.939819","Longitude":"37.87019","PlusCode":"8GWVWVQC+W3 Dibrova, Donetsk Oblast, Ukraine","Description":"0:04-0:32 - Russian UAV Crew \"Tuman\" of the Drone Unit \"Horde\" of the 164th Separate Motorized Rifle Brigade attacks UA position with FPV Drone","Source":"https://x.com/ZoamSc2/status/2084686572507816403, https://t.me/hB1Qfe0kuFxiZGMy/47","Geolocation":"https://x.com/ZoamSc2/status/2084686570444189708","Equipment":" VT-40","EquipmentItems":"FPV (First Person View) OWAD (One Way Attack Drone)","Units":"UAV Crew \"Tuman\" of the Drone Unit \"Horde\" of the 164th Motorized Rifle Brigade","OrbatUnits":"164th Motorized Rifle Brigade","Id":"bc747e6d-74fa-4d7a-aecb-e6f377ed2bec","icon":"/api/icons/E00000/False/template/111.png"},"source":"geoconfirmed","source_name":"GeoConfirmed","source_url":"https://geoconfirmed.org/map/ukraine","id":"bc747e6d-74fa-4d7a-aecb-e6f377ed2bec","date":"2026-08-04","link":"https://geoconfirmed.org/map/ukraine/bc747e6d-74fa-4d7a-aecb-e6f377ed2bec","category":"Short Range (<50km) OWAD (One Way Attack Drone), mostly rotary wing, Flying OR Attacking a target without knowing the outcome: if something is damaged --> icon of the damaged equipment.","side":"Russia","color":"#E00000","description":"0:04-0:32 - Russian UAV Crew \"Tuman\" of the Drone Unit \"Horde\" of the 164th Separate Motorized Rifle Brigade attacks UA position with FPV Drone","orbat":["164th Motorized Rifle Brigade"],"geolocation":["https://x.com/ZoamSc2/status/2084686570444189708"],"sources":["https://x.com/ZoamSc2/status/2084686572507816403","https://t.me/hB1Qfe0kuFxiZGMy/47"]}},{"type":"Feature","geometry":{"type":"Point","coordinates":[30.621002,59.685092]},"properties":{"original":{"Date":"2026-08-04","Name":"04 AUG 2026","Faction":"Neutral","Origin":"VID","Latitude":"59.685092","Longitude":"30.621002","PlusCode":"9GFGMJPC+2C Krasnoborskoye, Leningrad Oblast, Russia","Description":"Wildberries distribution centre on fire in Krasnoborskoye after a reported Ukrainian drone attack","Source":"https://x.com/99Dominik_/status/2084525076607598834, https://t.me/exilenova_plus/28053, Pic https://x.com/Grimm_Intel/status/2084506037692891229, https://t.me/exilenova_plus/28028?single, SAT, https://x.com/kromark/status/2087154339328454660","Geolocation":"https://x.com/99Dominik_/status/2084524358559568163, also based on: , https://x.com/Grimm_Intel/status/2084506270854189320","Equipment":"","EquipmentItems":"","Units":"","OrbatUnits":"","Id":"f35f9be0-8378-456b-8131-eaf66ba16b24","icon":"/api/icons/AC7339/False/template/192.png"},"source":"geoconfirmed","source_name":"GeoConfirmed","source_url":"https://geoconfirmed.org/map/ukraine","id":"f35f9be0-8378-456b-8131-eaf66ba16b24","date":"2026-08-04","link":"https://geoconfirmed.org/map/ukraine/f35f9be0-8378-456b-8131-eaf66ba16b24","category":"Recently destroyed/Damaged[Visible in footage] or still burning infrastucture","side":"Neutral","color":"#AC7339","description":"Wildberries distribution centre on fire in Krasnoborskoye after a reported Ukrainian drone attack","orbat":[],"geolocation":["https://x.com/99Dominik_/status/2084524358559568163","https://x.com/Grimm_Intel/status/2084506270854189320"],"sources":["https://x.com/99Dominik_/status/2084525076607598834","https://t.me/exilenova_plus/28053","https://x.com/Grimm_Intel/status/2084506037692891229","https://t.me/exilenova_plus/28028?single","https://x.com/kromark/status/2087154339328454660"]}},{"type":"Feature","geometry":{"type":"Point","coordinates":[31.981823,46.856245]},"properties":{"original":{"Date":"2026-08-04","Name":"04 AUG 2026","Faction":"Russia","Origin":"UAV","Latitude":"46.856245","Longitude":"31.981823","PlusCode":"8GRHVX4J+FP Mykolaiv, Mykolaiv Oblast, Ukraine","Description":"0:28-end - Russian Geran-4 'seeker' targeted a cargo ship in the port of Mykolaiv","Source":"https://x.com/AMK_Mapping_/status/2084532202906566990, https://t.me/zvezdanews/178819, ","Geolocation":"https://x.com/RedHibana/status/2084539726694937086","Equipment":"","EquipmentItems":"Geran-4 \"Seeker\"","Units":"","OrbatUnits":"","Id":"f113ac5d-2c7b-40d2-9ecf-f4cb4e82bffa","icon":"/api/icons/E00000/False/template/181.png"},"source":"geoconfirmed","source_name":"GeoConfirmed","source_url":"https://geoconfirmed.org/map/ukraine","id":"f113ac5d-2c7b-40d2-9ecf-f4cb4e82bffa","date":"2026-08-04","link":"https://geoconfirmed.org/map/ukraine/f113ac5d-2c7b-40d2-9ecf-f4cb4e82bffa","category":"Longe Range (>50km) OWAD (One Way Attack Drone) or Loitering munition, mostly fixed wing, Flying OR Attacking a target without knowing the outcome: if something is damaged --> icon of the damaged equipment.","side":"Russia","color":"#E00000","description":"0:28-end - Russian Geran-4 'seeker' targeted a cargo ship in the port of Mykolaiv","orbat":[],"geolocation":["https://x.com/RedHibana/status/2084539726694937086"],"sources":["https://x.com/AMK_Mapping_/status/2084532202906566990","https://t.me/zvezdanews/178819"]}},{"type":"Feature","geometry":{"type":"Point","coordinates":[32.618056,46.670174]},"properties":{"original":{"Date":"2026-08-04","Name":"04 AUG 2026","Faction":"Russia","Origin":"UAV","Latitude":"46.670174","Longitude":"32.618056","PlusCode":"8GRJMJC9+36 Kherson, Kherson Oblast, Ukraine","Description":"A reported fruit vendor is chased and injured by a Russian FPV drone.","Source":"https://x.com/99Dominik_/status/2084530164348719605, https://x.com/sternenko/status/2084510960060915986, https://t.me/kherson_non_fake/32859, https://x.com/LayBay_ish/status/2084592549369397352, , Reporting: https://x.com/99Dominik_/status/2084579910677385343, , reporting: https://x.com/99Dominik_/status/2084579910677385343, https://t.me/khersonpolice/24504, , Russian statements: , https://x.com/klinger66/status/2084536994382688408, https://t.me/osvedomitell_alex/36553, , https://x.com/99Dominik_/status/2084581603561341102, https://t.me/osvedomitell_alex/36554, ","Geolocation":"https://x.com/GeoConfirmed/status/2084675965360226628, https://x.com/99Dominik_/status/2084530022677655924, https://x.com/LayBay_ish/status/2084592370964680789","Equipment":"","EquipmentItems":"Fiber Optic (FO) FPV (First Person View) OWAD (One Way Attack Drone)","Units":"","OrbatUnits":"","Id":"803a7dd4-15db-41e3-9d5a-f5bb1551f188","icon":"/api/icons/E00000/False/template/50.png"},"source":"geoconfirmed","source_name":"GeoConfirmed","source_url":"https://geoconfirmed.org/map/ukraine","id":"803a7dd4-15db-41e3-9d5a-f5bb1551f188","date":"2026-08-04","link":"https://geoconfirmed.org/map/ukraine/803a7dd4-15db-41e3-9d5a-f5bb1551f188","category":"Killed or wounded civilian. Potential Warcrime. In the colour of who is assessed as doing the attack/killing.","side":"Russia","color":"#E00000","description":"A reported fruit vendor is chased and injured by a Russian FPV drone.","orbat":[],"geolocation":["https://x.com/GeoConfirmed/status/2084675965360226628","https://x.com/99Dominik_/status/2084530022677655924","https://x.com/LayBay_ish/status/2084592370964680789"],"sources":["https://x.com/99Dominik_/status/2084530164348719605","https://x.com/sternenko/status/2084510960060915986","https://t.me/kherson_non_fake/32859","https://x.com/LayBay_ish/status/2084592549369397352","https://x.com/99Dominik_/status/2084579910677385343","https://x.com/99Dominik_/status/2084579910677385343","https://t.me/khersonpolice/24504","https://x.com/klinger66/status/2084536994382688408","https://t.me/osvedomitell_alex/36553","https://x.com/99Dominik_/status/2084581603561341102","https://t.me/osvedomitell_alex/36554"]}},{"type":"Feature","geometry":{"type":"Point","coordinates":[36.069715,47.790074]},"properties":{"original":{"Date":"2026-08-04","Name":"04 AUG 2026","Faction":"Russia","Origin":"UAV","Latitude":"47.790074","Longitude":"36.069715","PlusCode":"8GVRQ3R9+2V Rizdvyanka, Zaporizhia Oblast, Ukraine","Description":"0:19-0:end - The 14th Separate Special Forces Brigade of the 'Vostok' hit a Ukrainian unmanned ground vehicle (UGV) south of Rizdvianka.","Source":"X:, https://x.com/juss_men/status/2085073108788990133, , Telegram:, https://t.me/voin_dv/20529, , ","Geolocation":"https://x.com/juss_men/status/2085073010017587673","Equipment":"","EquipmentItems":"FPV (First Person View) OWAD (One Way Attack Drone)","Units":"","OrbatUnits":"UAS Unit \"Group Vostok\" / \"Group VNUK\"","Id":"beadba3f-fe48-4b80-ab6c-fc3ed2b8e18a","icon":"/api/icons/E00000/False/template/111.png"},"source":"geoconfirmed","source_name":"GeoConfirmed","source_url":"https://geoconfirmed.org/map/ukraine","id":"beadba3f-fe48-4b80-ab6c-fc3ed2b8e18a","date":"2026-08-04","link":"https://geoconfirmed.org/map/ukraine/beadba3f-fe48-4b80-ab6c-fc3ed2b8e18a","category":"Short Range (<50km) OWAD (One Way Attack Drone), mostly rotary wing, Flying OR Attacking a target without knowing the outcome: if something is damaged --> icon of the damaged equipment.","side":"Russia","color":"#E00000","description":"0:19-0:end - The 14th Separate Special Forces Brigade of the 'Vostok' hit a Ukrainian unmanned ground vehicle (UGV) south of Rizdvianka.","orbat":["UAS Unit \"Group Vostok\" / \"Group VNUK\""],"geolocation":["https://x.com/juss_men/status/2085073010017587673"],"sources":["https://x.com/juss_men/status/2085073108788990133","https://t.me/voin_dv/20529"]}},{"type":"Feature","geometry":{"type":"Point","coordinates":[37.814198,48.592685]},"properties":{"original":{"Date":"2026-08-04","Name":"04 AUG 2026","Faction":"Russia","Origin":"UAV","Latitude":"48.592685","Longitude":"37.814198","PlusCode":"8GWVHRV7+3M Chasiv Yar, Donetsk Oblast, Ukraine","Description":"0:00-0:14 - Russian soldier killed by Ukrainian FPV drone of the 427th Separate Unmanned Systems Brigade Rarog","Source":"https://x.com/AudaxonX/status/2093262492361253286, https://t.me/Rarog_427/978","Geolocation":"https://x.com/AudaxonX/status/2093262503266443399","Equipment":"","EquipmentItems":"FPV (First Person View) OWAD (One Way Attack Drone)","Units":"","OrbatUnits":"427th Separate Unmanned Systems Brigade \"Rarog\"","Id":"f33acfda-d2ae-48d9-b92d-ff7dc978005e","icon":"/api/icons/E00000/False/template/92.png"},"source":"geoconfirmed","source_name":"GeoConfirmed","source_url":"https://geoconfirmed.org/map/ukraine","id":"f33acfda-d2ae-48d9-b92d-ff7dc978005e","date":"2026-08-04","link":"https://geoconfirmed.org/map/ukraine/f33acfda-d2ae-48d9-b92d-ff7dc978005e","category":"WIA/KIA Soldier/Militant","side":"Russia","color":"#E00000","description":"0:00-0:14 - Russian soldier killed by Ukrainian FPV drone of the 427th Separate Unmanned Systems Brigade Rarog","orbat":["427th Separate Unmanned Systems Brigade \"Rarog\""],"geolocation":["https://x.com/AudaxonX/status/2093262503266443399"],"sources":["https://x.com/AudaxonX/status/2093262492361253286","https://t.me/Rarog_427/978"]}},{"type":"Feature","geometry":{"type":"Point","coordinates":[37.621012,48.572624]},"properties":{"original":{"Date":"2026-08-04","Name":"04 AUG 2026","Faction":"Ukraine","Origin":"UAV","Latitude":"48.572624","Longitude":"37.621012","PlusCode":"8GWVHJFC+2C Oleksijevo-Druzhkivka, Donetsk Oblast, Ukraine","Description":"0:14-0:16 - Claimed Russian position hit by a bomber drone of the 28th Separate Mechanized Brigade","Source":"https://x.com/Mocca2X/status/2084679658994581718, https://t.me/ombr_28/3200","Geolocation":"https://x.com/Mocca2X/status/2084679377179296143","Equipment":"","EquipmentItems":"(Multi-Purpose) Bomber UAV","Units":"","OrbatUnits":"28th Separate Mechanized Brigade named after the Knights of the First Winter Campaign","Id":"1d9ec33b-d892-4dc8-b435-ff843cb55c96","icon":"/api/icons/0051CA/False/template/110.png"},"source":"geoconfirmed","source_name":"GeoConfirmed","source_url":"https://geoconfirmed.org/map/ukraine","id":"1d9ec33b-d892-4dc8-b435-ff843cb55c96","date":"2026-08-04","link":"https://geoconfirmed.org/map/ukraine/1d9ec33b-d892-4dc8-b435-ff843cb55c96","category":"Multipurpose Bomber Drone, Flying OR Dropping OR bombing a target without knowing the outcome: if something is damaged --> icon of the damaged equipment.","side":"Ukraine","color":"#0051CA","description":"0:14-0:16 - Claimed Russian position hit by a bomber drone of the 28th Separate Mechanized Brigade","orbat":["28th Separate Mechanized Brigade named after the Knights of the First Winter Campaign"],"geolocation":["https://x.com/Mocca2X/status/2084679377179296143"],"sources":["https://x.com/Mocca2X/status/2084679658994581718","https://t.me/ombr_28/3200"]}}]}