{"type":"FeatureCollection","features":[{"type":"Feature","geometry":null,"properties":{"source":"ua_mod","source_name":"Ministry of Defence of Ukraine","group":"official_ua","id":16049,"posted_utc":"2026-08-19T11:30:08+00:00","link":"https://t.me/ministry_of_defense_ua/16049","text":"❗️Міністр оборони Євгеній Хмара:\nЗа поданням Президента України сьогодні Верховна Рада підтримала мою кандидатуру на посаду Міністра оборони. Дякую кожному українському воїну, який тримає позиції і знищує російських окупантів. Вдячний Президенту, народним депутатам та народу України за довіру.\nПід час виступу у Верховній Раді поінформував про пріоритети роботи Міністерства оборони після мого призначення.\nПроти нас веде війну сильний ворог, який застосовує найбільш підступні і жорстокі методи війни. Ми знаємо про подальші кроки росії, мобілізаційні плани, стратегію на осінь і зиму.\nБудемо робити все, аби захистити Україну, максимально зменшити російський потенціал війни та примусити ворога до справедливого миру. Це завдання, яке Верховний Головнокомандувач поставив усім нам.\nТому важлива синергія всіх рівнів: Президента, Парламенту, Уряду, Генерального штабу, Міністерства оборони, бойових підрозділів, виробників і партнерів. Примусити агресора до миру можна лише силою нашого війська, технологічними та асиметричними рішеннями.\nМи стерли дистанції. Для об’єктів, які живлять російську війну, більше немає безпечних зон. Ми вперше в історії завдаємо ударів навіть по Сибіру. Вся економічна база війни ворога — це наші цілі.\nПеревагу на фронті ми маємо здобувати завдяки винахідливості і професійності командирів, підготовці воїнів, інноваціям і сучасній зброї.\nМаємо три ключові рівноцінні пріоритети.\nПріоритет — фронт. Йдеться про перехоплення стратегічної ініціативи в усіх доменах війни: на землі, на морі, у повітрі, в інформаційному просторі.Потреби фронту мають швидко доходити до Міністерства, а рішення Міністерства — до фронту.\nВійську потрібна зброя — багато та вчасно, за прозорими процедурами і без зайвої бюрократії. Закупівлі будуть працювати виключно на фронт і захист України, а не на будь-які окремі інтереси. Адаптуємо систему забезпечення під темп війни. Працюємо також із союзниками над захистом українського неба від російської балістики.\nОсобливий фокус — deep strike і middle strike. Операція по Новоросійську та низка успішних ударів до цього показали силу взаємодії Сил оборони, виробників і державних інституцій. Української зброї буде більше. Удари будуть точнішими.\nІнший важливий пріоритет — людський капітал. Життя і здоров’я воїнів — безумовна цінність. Технології потрібні, щоб український захисник мав перевагу. Щоб ризик для людини був зведений до мінімуму. Моє завдання — спілкуватись із захисниками безпосередньо.\nНа власному досвіді знаю, що воїн мотивований тоді, коли відчуває повагу до себе, отримує якісну підготовку і справедливі правила служби.\nЩе один ключовий пріоритет — оборонна промисловість. ОПК — це основа нашої сили сьогодні і нашої безпеки на роки вперед. Наше завдання — розвивати його і нарощувати виробництво.\nПід час війни захист держави — ключовий пріоритет для всієї системи влади. Кожен державний орган має запитувати себе, що він робить в інтересах оборони.\nУ нас спільні боротьба та відповідальність за закінчення війни на наших умовах.\nСлава Україні!","links":[],"original_html":"<div class=\"tgme_widget_message_text js-message_text\" dir=\"auto\"><b><i class=\"emoji\" style=\"background-image:url('//telegram.org/img/emoji/40/E29D97.png')\"><b>❗️</b></i>Міністр оборони Євгеній Хмара:<br/></b><br/>За поданням Президента України сьогодні Верховна Рада підтримала мою кандидатуру на посаду Міністра оборони. Дякую кожному українському воїну, який тримає позиції і знищує російських окупантів. Вдячний Президенту, народним депутатам та народу України за довіру.<br/><br/>Під час виступу у Верховній Раді поінформував про пріоритети роботи Міністерства оборони після мого призначення.<br/><br/>Проти нас веде війну сильний ворог, який застосовує найбільш підступні і жорстокі методи війни. Ми знаємо про подальші кроки росії, мобілізаційні плани, стратегію на осінь і зиму.<br/><br/>Будемо робити все, аби захистити Україну, максимально зменшити російський потенціал війни та примусити ворога до справедливого миру. Це завдання, яке Верховний Головнокомандувач поставив усім нам.<br/><br/>Тому важлива синергія всіх рівнів: Президента, Парламенту, Уряду, Генерального штабу, Міністерства оборони, бойових підрозділів, виробників і партнерів. Примусити агресора до миру можна лише силою нашого війська, технологічними та асиметричними рішеннями.<br/><br/>Ми стерли дистанції. Для об’єктів, які живлять російську війну, більше немає безпечних зон. Ми вперше в історії завдаємо ударів навіть по Сибіру. Вся економічна база війни ворога — це наші цілі.<br/><br/>Перевагу на фронті ми маємо здобувати завдяки винахідливості і професійності командирів, підготовці воїнів, інноваціям і сучасній зброї.<br/><br/>Маємо три ключові рівноцінні пріоритети.<br/><br/>Пріоритет — фронт. Йдеться про перехоплення стратегічної ініціативи в усіх доменах війни: на землі, на морі, у повітрі, в інформаційному просторі.Потреби фронту мають швидко доходити до Міністерства, а рішення Міністерства — до фронту.<br/><br/>Війську потрібна зброя — багато та вчасно, за прозорими процедурами і без зайвої бюрократії. Закупівлі будуть працювати виключно на фронт і захист України, а не на будь-які окремі інтереси. Адаптуємо систему забезпечення під темп війни. Працюємо також із союзниками над захистом українського неба від російської балістики. <br/><br/>Особливий фокус — deep strike і middle strike. Операція по Новоросійську та низка успішних ударів до цього показали силу взаємодії Сил оборони, виробників і державних інституцій. Української зброї буде більше. Удари будуть точнішими. <br/><br/>Інший важливий пріоритет — людський капітал. Життя і здоров’я воїнів — безумовна цінність. Технології потрібні, щоб український захисник мав перевагу. Щоб ризик для людини був зведений до мінімуму. Моє завдання — спілкуватись із захисниками безпосередньо. <br/><br/>На власному досвіді знаю, що воїн мотивований тоді, коли відчуває повагу до себе, отримує якісну підготовку і справедливі правила служби.<br/><br/>Ще один ключовий пріоритет — оборонна промисловість. ОПК — це основа нашої сили сьогодні і нашої безпеки на роки вперед. Наше завдання — розвивати його і нарощувати виробництво.<br/><br/>Під час війни захист держави — ключовий пріоритет для всієї системи влади. Кожен державний орган має запитувати себе, що він робить в інтересах оборони.<br/><br/>У нас спільні боротьба та відповідальність за закінчення війни на наших умовах.<br/><br/>Слава Україні&#33;"}},{"type":"Feature","geometry":null,"properties":{"source":"ua_mod","source_name":"Ministry of Defence of Ukraine","group":"official_ua","id":16053,"posted_utc":"2026-08-19T13:15:24+00:00","link":"https://t.me/ministry_of_defense_ua/16053","text":"💳 Скільки коштів і за що отримують українські військові у 2026 році?\nЗібрали в одному гайді основні складові грошового забезпечення від базових виплат до винагород за бойові завдання.\nКоротко про головне:\n• мінімальна виплата за виконання обов’язків служби — від 30 000 грн на місяць;\n• бойові виплати — 30 000, 50 000 або 100 000 грн залежно від завдань;\n• зональні винагороди — до 70 000 або 170 000 грн залежно від відстані до лінії бойового зіткнення;\n• за штурмові дії — до 40 000 грн за добу;\n• максимальна сума щомісячних бойових виплат — 460 000 грн, але базове грошове забезпечення та окремі бонуси нараховуються понад цю суму.\nТакож пояснюємо, від чого залежить базове грошове забезпечення, коли надходять кошти, які є одноразові виплати та соціальні гарантії.","links":["https://mod.gov.ua/explanation/hroshove-zabezpechennia-viiskovosluzhbovtsia-haid-po-vyplatakh-u-2026-rotsi?utm_source=mod-telegram&utm_medium=social"],"original_html":"<b><i class=\"emoji\" style=\"background-image:url('//telegram.org/img/emoji/40/F09F92B3.png')\"><b>💳</b></i></b> <b>Скільки коштів і за що отримують українські</b> <b>військові у 2026 році?</b><br/><b><br/></b>Зібрали в одному гайді <a href=\"https://mod.gov.ua/explanation/hroshove-zabezpechennia-viiskovosluzhbovtsia-haid-po-vyplatakh-u-2026-rotsi?utm_source=mod-telegram&amp;amp;utm_medium=social\" target=\"_blank\" rel=\"noopener\" onclick=\"return confirm('Open this link?\\n\\n'+this.href);\">основні складові грошового забезпечення</a> від базових виплат до винагород за бойові завдання.<br/><br/><u>Коротко про головне:</u><br/>• мінімальна виплата за виконання обов’язків служби — від 30 000 грн на місяць;<br/>• бойові виплати — 30 000, 50 000 або 100 000 грн залежно від завдань;<br/>• зональні винагороди — до 70 000 або 170 000 грн залежно від відстані до лінії бойового зіткнення;<br/>• за штурмові дії — до 40 000 грн за добу;<br/>• максимальна сума щомісячних бойових виплат — 460 000 грн, але базове грошове забезпечення та окремі бонуси нараховуються понад цю суму.<br/><br/>Також пояснюємо, від чого залежить базове грошове забезпечення, коли надходять кошти, які є одноразові виплати та соціальні гарантії."}},{"type":"Feature","geometry":null,"properties":{"source":"ua_mod","source_name":"Ministry of Defence of Ukraine","group":"official_ua","id":16054,"posted_utc":"2026-08-19T13:36:40+00:00","link":"https://t.me/ministry_of_defense_ua/16054","text":"🫂Міністр оборони Євгеній Хмара:\n103 наших військових повернулися до України.\nПобратими вдома. Представники Збройних сил, Нацгвардії та прикордонники. Воїни захищали Україну в Маріуполі, на Донецькому, Луганському, Харківському, Запорізькому, Херсонському, Дніпровському та Сумському напрямках.\nПовернення кожного бійця – справа честі. Дякую всій команді, що працює для того, аби наші люди були вдома.\nУкраїнський воїн – найбільша цінність для нас, для України.\nВітаю вдома!\nЧесть кожному.","links":[],"original_html":"<div class=\"tgme_widget_message_text js-message_text\" dir=\"auto\"><i class=\"emoji\" style=\"background-image:url('//telegram.org/img/emoji/40/F09FAB82.png')\"><b>🫂</b></i><b>Міністр оборони Євгеній Хмара:<br/></b><br/>103 наших військових повернулися до України. <br/><br/>Побратими вдома. Представники Збройних сил, Нацгвардії та прикордонники. Воїни захищали Україну в Маріуполі, на Донецькому, Луганському, Харківському, Запорізькому, Херсонському, Дніпровському та Сумському напрямках.<br/><br/>Повернення кожного бійця – справа честі. Дякую всій команді, що працює для того, аби наші люди були вдома. <br/><br/>Український воїн – найбільша цінність для нас, для України.<br/><br/>Вітаю вдома&#33; <br/>Честь кожному."}}]}