{"type":"FeatureCollection","features":[{"type":"Feature","geometry":{"type":"MultiPolygon","coordinates":[[[[37.80803,48.72447],[37.81155,48.72872],[37.811,48.7304],[37.81122,48.73253],[37.81292,48.73448],[37.81723,48.7374],[37.81167,48.73939],[37.81407,48.74233],[37.8216,48.73972],[37.82079,48.73882],[37.8216,48.73797],[37.83302,48.73301],[37.83352,48.73234],[37.8333,48.73113],[37.83231,48.7296],[37.8313,48.72806],[37.83092,48.72376],[37.83495,48.7224],[37.83602,48.7198],[37.83911,48.71658],[37.84383,48.71431],[37.85568,48.70972],[37.86328,48.70667],[37.86376,48.70311],[37.84944,48.69362],[37.84781,48.69406],[37.84781,48.69408],[37.84091,48.69606],[37.83681,48.69676],[37.8368,48.69674],[37.83416,48.69721],[37.83167,48.69911],[37.83227,48.70285],[37.8138,48.70991],[37.82005,48.7196],[37.8176,48.72025],[37.7982,48.72266],[37.7982,48.72283],[37.80803,48.72447]]],[[[37.78899,48.54633],[37.79606,48.55042],[37.7964,48.56012],[37.79581,48.56412],[37.81094,48.5646],[37.81277,48.56732],[37.81456,48.56953],[37.81667,48.57154],[37.82127,48.57304],[37.81766,48.5776],[37.81858,48.57935],[37.81967,48.5813],[37.81909,48.58255],[37.81653,48.58402],[37.81529,48.58656],[37.81405,48.5878],[37.81422,48.58878],[37.81633,48.58934],[37.81836,48.58857],[37.8209,48.58882],[37.82415,48.58817],[37.82556,48.58688],[37.8242,48.58526],[37.82962,48.58073],[37.83024,48.57605],[37.83181,48.572],[37.82779,48.56931],[37.82398,48.56729],[37.8226,48.5659],[37.82342,48.56475],[37.82466,48.56347],[37.82509,48.56313],[37.82508,48.56312],[37.82954,48.55936],[37.82956,48.55937],[37.83114,48.55801],[37.82868,48.55315],[37.82321,48.54749],[37.82306,48.54577],[37.81262,48.54259],[37.80534,48.54019],[37.79816,48.538],[37.7916,48.53926],[37.7744,48.54263],[37.77006,48.54363],[37.77006,48.54368],[37.78899,48.54633]]],[[[37.71737,48.48653],[37.72036,48.48911],[37.72334,48.49086],[37.72557,48.49241],[37.72626,48.4936],[37.72854,48.49523],[37.72921,48.49572],[37.73187,48.4963],[37.73342,48.49557],[37.73709,48.49439],[37.73815,48.49628],[37.73987,48.49665],[37.74188,48.49392],[37.74292,48.4909],[37.74758,48.4867],[37.75264,48.4848],[37.75704,48.48564],[37.75922,48.4837],[37.76197,48.48336],[37.76086,48.48208],[37.75456,48.47979],[37.74795,48.47871],[37.74269,48.4809],[37.72705,48.47954],[37.71795,48.48402],[37.71454,48.48502],[37.71737,48.48653]]],[[[37.14062,50.3428],[37.14011,50.34932],[37.13819,50.36108],[37.14882,50.356],[37.18315,50.36346],[37.18716,50.35891],[37.18641,50.35348],[37.17315,50.34762],[37.15985,50.34028],[37.1571,50.33524],[37.14466,50.33502],[37.14062,50.3428]]],[[[36.16635,47.72946],[36.16446,47.73506],[36.16352,47.74528],[36.16601,47.74678],[36.17364,47.74718],[36.17347,47.7537],[36.17875,47.75699],[36.19525,47.76077],[36.19609,47.75206],[36.20139,47.74941],[36.20358,47.7381],[36.20263,47.73784],[36.20519,47.7238],[36.20069,47.72321],[36.20069,47.72323],[36.19447,47.72244],[36.19426,47.72238],[36.19426,47.72238],[36.18284,47.71889],[36.18046,47.72139],[36.17008,47.71917],[36.16368,47.72763],[36.16635,47.72946]]],[[[36.1058,47.59971],[36.10363,47.61264],[36.09999,47.6214],[36.09939,47.62754],[36.1027,47.63041],[36.10471,47.63185],[36.11857,47.63373],[36.12463,47.63665],[36.13047,47.63809],[36.13854,47.63994],[36.14573,47.64219],[36.14922,47.6477],[36.15456,47.65097],[36.1631,47.64173],[36.13937,47.633],[36.13388,47.62742],[36.13317,47.62457],[36.12718,47.62071],[36.12757,47.61063],[36.12915,47.60336],[36.13108,47.59225],[36.10852,47.58919],[36.1058,47.59971]]],[[[36.08036,47.58535],[36.08061,47.58787],[36.06871,47.58904],[36.06962,47.59367],[36.07289,47.59458],[36.08916,47.59011],[36.10852,47.58919],[36.10627,47.58431],[36.10235,47.58397],[36.09403,47.58553],[36.093,47.58428],[36.08036,47.58535]]],[[[36.06478,47.55255],[36.07375,47.55101],[36.07465,47.54971],[36.07332,47.54635],[36.0649,47.52458],[36.05331,47.52589],[36.06478,47.55255]]],[[[35.53682,47.54717],[35.54291,47.55209],[35.56016,47.55336],[35.57802,47.55562],[35.58561,47.55287],[35.58763,47.53929],[35.59038,47.52578],[35.59312,47.51669],[35.60753,47.49912],[35.59161,47.5018],[35.5814,47.50309],[35.57176,47.5103],[35.5688,47.52168],[35.56808,47.52554],[35.56615,47.53507],[35.56451,47.54203],[35.546,47.53784],[35.53303,47.53369],[35.52655,47.53295],[35.52208,47.53465],[35.52041,47.54001],[35.53682,47.54717]]],[[[35.38522,50.69207],[35.38521,50.69202],[35.38306,50.6925],[35.37966,50.69234],[35.37695,50.69267],[35.37685,50.69356],[35.37726,50.69441],[35.3798,50.69569],[35.38018,50.69738],[35.37885,50.69932],[35.38154,50.69999],[35.38466,50.70063],[35.38511,50.70205],[35.38737,50.70157],[35.38783,50.69811],[35.38348,50.69665],[35.3811,50.69482],[35.38522,50.69207]]]]},"properties":{"source":"ukrdaily","source_name":"UkrDailyUpdate","source_url":"https://map.ukrdailyupdate.com/","category":"gained","category_label":"Russian advance: became occupied","period":"7d","compared_with":"2026-08-29","snapshot_time":"2026-09-05","area_km2_approx":69.4}},{"type":"Feature","geometry":{"type":"MultiPolygon","coordinates":[[[[37.90396,48.8992],[37.88615,48.90383],[37.88668,48.90699],[37.89824,48.9044],[37.90062,48.90251],[37.90551,48.90162],[37.91577,48.89814],[37.91571,48.89787],[37.90396,48.8992]]],[[[37.69813,49.05858],[37.69176,49.06047],[37.67753,49.06615],[37.67427,49.07107],[37.69171,49.08149],[37.70345,49.07935],[37.70697,49.07794],[37.70495,49.07367],[37.7019,49.07041],[37.70079,49.06588],[37.69907,49.0594],[37.69813,49.05858]]],[[[37.64637,49.83221],[37.64868,49.83032],[37.64869,49.83031],[37.6563,49.82413],[37.66036,49.82506],[37.6634,49.82456],[37.66418,49.82151],[37.66243,49.82058],[37.66259,49.81802],[37.65781,49.81571],[37.64526,49.82048],[37.64148,49.82481],[37.63753,49.82559],[37.62938,49.82691],[37.64637,49.83221]]],[[[37.64552,49.84855],[37.64513,49.85082],[37.6444,49.85503],[37.63442,49.85758],[37.63857,49.86348],[37.64485,49.86019],[37.65373,49.85862],[37.66178,49.85443],[37.66182,49.85184],[37.66051,49.85096],[37.65127,49.84241],[37.64552,49.84855]]],[[[37.59194,49.81222],[37.60707,49.81203],[37.61012,49.81045],[37.61445,49.8066],[37.61106,49.80364],[37.60948,49.79965],[37.59512,49.7973],[37.59286,49.80423],[37.59194,49.81222]]],[[[35.35828,50.90028],[35.34883,50.90618],[35.34303,50.91342],[35.35547,50.9111],[35.36109,50.90978],[35.3653,50.90534],[35.36766,50.90123],[35.36676,50.89979],[35.36328,50.89931],[35.36248,50.89633],[35.35828,50.90028]]],[[[35.32809,50.91484],[35.3211,50.91262],[35.32054,50.91665],[35.31745,50.92152],[35.3189,50.92895],[35.3249,50.9169],[35.33061,50.9158],[35.32809,50.91484]]]]},"properties":{"source":"ukrdaily","source_name":"UkrDailyUpdate","source_url":"https://map.ukrdailyupdate.com/","category":"lost","category_label":"Ukrainian advance: became Ukrainian-held","period":"7d","compared_with":"2026-08-29","snapshot_time":"2026-09-05","area_km2_approx":11.8}},{"type":"Feature","geometry":{"type":"MultiPolygon","coordinates":[[[[37.773,49.14306],[37.79703,49.14963],[37.78468,49.16014],[37.78096,49.16536],[37.77337,49.16861],[37.76547,49.17268],[37.76448,49.1742],[37.76795,49.1763],[37.77164,49.17658],[37.78022,49.17613],[37.78906,49.17355],[37.81378,49.17052],[37.8226,49.17003],[37.83627,49.17074],[37.84717,49.16837],[37.84925,49.16836],[37.85194,49.16688],[37.85619,49.16566],[37.86114,49.16695],[37.86323,49.16563],[37.87439,49.16682],[37.87722,49.17019],[37.89198,49.18795],[37.89627,49.20231],[37.89673,49.20736],[37.89862,49.21103],[37.89943,49.21283],[37.89965,49.21333],[37.90074,49.21893],[37.898,49.22399],[37.91699,49.22607],[37.92179,49.22658],[37.92235,49.22547],[37.92476,49.22328],[37.92713,49.22217],[37.9282,49.21948],[37.93454,49.21167],[37.93532,49.20074],[37.93403,49.19576],[37.9352,49.19214],[37.93034,49.19083],[37.92476,49.18646],[37.92416,49.18068],[37.92545,49.17662],[37.92102,49.165],[37.9261,49.16107],[37.92796,49.15674],[37.92571,49.14342],[37.92569,49.13642],[37.91899,49.12108],[37.91779,49.11734],[37.91562,49.11405],[37.90941,49.11059],[37.89565,49.10675],[37.88782,49.10542],[37.86193,49.10941],[37.851,49.11127],[37.84522,49.11161],[37.8338,49.11798],[37.82064,49.12416],[37.82063,49.12427],[37.80413,49.12414],[37.80025,49.12439],[37.7948,49.12573],[37.79059,49.12735],[37.78903,49.12855],[37.78384,49.13253],[37.77997,49.13633],[37.77615,49.14019],[37.76593,49.14343],[37.76599,49.14371],[37.773,49.14306]]],[[[37.63753,49.82559],[37.64148,49.82481],[37.64526,49.82048],[37.65781,49.81571],[37.66259,49.81802],[37.66243,49.82058],[37.66418,49.82151],[37.6634,49.82456],[37.66036,49.82506],[37.6563,49.82413],[37.64868,49.83032],[37.66402,49.83751],[37.66632,49.83519],[37.66749,49.83383],[37.66907,49.82881],[37.66868,49.82063],[37.67049,49.81897],[37.67318,49.81567],[37.67041,49.81255],[37.66588,49.80877],[37.66143,49.80857],[37.65777,49.81318],[37.64751,49.81515],[37.63898,49.8179],[37.63633,49.81994],[37.63536,49.82168],[37.63415,49.82264],[37.63242,49.82342],[37.63753,49.82559]]],[[[37.66051,49.85096],[37.66182,49.85184],[37.66178,49.85443],[37.65373,49.85862],[37.64488,49.86018],[37.64962,49.86325],[37.65298,49.86327],[37.65442,49.86047],[37.65965,49.86018],[37.65879,49.85726],[37.66634,49.85523],[37.67095,49.85392],[37.66884,49.84904],[37.6645,49.84708],[37.66051,49.85096]]]]},"properties":{"source":"ukrdaily","source_name":"UkrDailyUpdate","source_url":"https://map.ukrdailyupdate.com/","category":"occupied_to_contested","category_label":"Occupied became contested","period":"7d","compared_with":"2026-08-29","snapshot_time":"2026-09-05","area_km2_approx":83.7}},{"type":"Feature","geometry":{"type":"MultiPolygon","coordinates":[[[[37.81707,48.78075],[37.82013,48.78241],[37.83113,48.79069],[37.84658,48.78352],[37.85552,48.78453],[37.86467,48.78298],[37.8657,48.77984],[37.85517,48.77135],[37.8485,48.77519],[37.84168,48.77771],[37.83545,48.7787],[37.82403,48.77803],[37.82281,48.77848],[37.82282,48.7785],[37.81707,48.78075]]],[[[37.73663,49.46789],[37.74045,49.47143],[37.74345,49.47199],[37.74309,49.47292],[37.74795,49.47125],[37.74917,49.47041],[37.74194,49.46583],[37.74074,49.46622],[37.73985,49.46489],[37.73691,49.46298],[37.73661,49.46225],[37.73893,49.46159],[37.74193,49.46016],[37.74269,49.45939],[37.74117,49.45829],[37.73969,49.45786],[37.73309,49.46191],[37.73663,49.46789]]],[[[37.71732,48.58066],[37.71421,48.58321],[37.71374,48.5861],[37.7188,48.5878],[37.72558,48.58343],[37.72084,48.58175],[37.71732,48.58066]]],[[[37.67569,48.52804],[37.67513,48.52883],[37.67492,48.52925],[37.67513,48.52948],[37.67525,48.52993],[37.6744,48.53035],[37.67292,48.53194],[37.67133,48.53409],[37.67199,48.53624],[37.67265,48.53779],[37.67457,48.53963],[37.67429,48.54118],[37.68733,48.53507],[37.6908,48.53399],[37.69391,48.53248],[37.70294,48.52853],[37.70243,48.52805],[37.70222,48.52781],[37.70241,48.52731],[37.70338,48.52692],[37.70469,48.52777],[37.70666,48.52691],[37.71047,48.52475],[37.70463,48.52323],[37.70305,48.5232],[37.69826,48.52229],[37.69489,48.52093],[37.69349,48.51996],[37.69192,48.5206],[37.69114,48.52191],[37.69184,48.52212],[37.69119,48.52296],[37.69148,48.52307],[37.69117,48.52348],[37.69058,48.52371],[37.69009,48.52451],[37.69019,48.52677],[37.68906,48.52817],[37.68846,48.53016],[37.68762,48.53092],[37.68665,48.53157],[37.68612,48.53279],[37.68553,48.53324],[37.68446,48.53345],[37.68349,48.53317],[37.68265,48.53225],[37.68252,48.53148],[37.68283,48.53099],[37.67861,48.52888],[37.6793,48.52771],[37.67885,48.52638],[37.67891,48.52606],[37.67816,48.52597],[37.67828,48.5257],[37.6776,48.52555],[37.67587,48.5281],[37.67569,48.52804]]],[[[37.68582,49.62924],[37.68389,49.63308],[37.68216,49.63187],[37.67986,49.63101],[37.67722,49.63022],[37.67716,49.63142],[37.67848,49.63256],[37.68252,49.63708],[37.68822,49.64142],[37.69196,49.64152],[37.691,49.63701],[37.69907,49.63459],[37.69937,49.63108],[37.69592,49.62757],[37.69385,49.62733],[37.69319,49.62759],[37.68996,49.62719],[37.68524,49.62716],[37.68582,49.62924]]],[[[37.65384,48.54461],[37.65757,48.54768],[37.6654,48.54416],[37.66445,48.54299],[37.66638,48.54274],[37.66688,48.5436],[37.67114,48.54256],[37.66585,48.54057],[37.66327,48.54054],[37.66086,48.54044],[37.65771,48.54115],[37.65453,48.54113],[37.65288,48.54226],[37.65384,48.54461]]],[[[37.60103,49.70029],[37.60206,49.70099],[37.603,49.70031],[37.60236,49.69998],[37.60217,49.70006],[37.60103,49.70029]]],[[[37.59873,49.69842],[37.5977,49.69908],[37.59871,49.6999],[37.59978,49.69919],[37.59873,49.69842]]],[[[37.1799,48.46477],[37.16028,48.46944],[37.12703,48.47847],[37.11192,48.48296],[37.09639,48.4843],[37.0954,48.48875],[37.09725,48.49184],[37.10964,48.49545],[37.1264,48.49544],[37.15458,48.49157],[37.17176,48.49248],[37.17898,48.49589],[37.1773,48.50538],[37.17801,48.51441],[37.20857,48.51566],[37.20925,48.51313],[37.21867,48.49919],[37.22106,48.48835],[37.22156,48.47456],[37.21709,48.46848],[37.22018,48.45567],[37.20828,48.4546],[37.19622,48.45026],[37.18921,48.4528],[37.1799,48.46477]]],[[[37.03409,48.41965],[37.02947,48.42002],[37.02253,48.42265],[37.02349,48.42449],[37.03314,48.42477],[37.05795,48.42455],[37.07194,48.42147],[37.07296,48.41421],[37.07621,48.40928],[37.06131,48.40991],[37.0484,48.40937],[37.04865,48.40421],[37.03638,48.40391],[37.03409,48.41965]]],[[[36.277,50.31538],[36.27876,50.31272],[36.27876,50.31272],[36.27997,50.31193],[36.28173,50.3099],[36.28456,50.30623],[36.28537,50.30416],[36.28563,50.29993],[36.28251,50.29779],[36.28569,50.29112],[36.27664,50.29354],[36.27378,50.29596],[36.26943,50.30852],[36.26986,50.31354],[36.2684,50.31927],[36.26728,50.33091],[36.2736,50.32402],[36.28036,50.32308],[36.27918,50.32113],[36.27795,50.31898],[36.27705,50.31806],[36.27664,50.31766],[36.27598,50.31757],[36.27666,50.31588],[36.27701,50.31539],[36.277,50.31538]]],[[[36.13512,47.82996],[36.13591,47.83142],[36.13608,47.83267],[36.14211,47.83293],[36.14274,47.8317],[36.14675,47.83045],[36.14674,47.83034],[36.13727,47.83006],[36.13512,47.82996]]],[[[36.11271,47.64386],[36.11895,47.63378],[36.10471,47.63185],[36.10271,47.63043],[36.08541,47.62737],[36.09323,47.63391],[36.10181,47.64094],[36.10413,47.64261],[36.11271,47.64386]]],[[[36.07289,47.59458],[36.06962,47.59367],[36.06643,47.59468],[36.06443,47.59569],[36.06269,47.597],[36.06988,47.60311],[36.07556,47.60647],[36.08224,47.6104],[36.08447,47.61041],[36.08691,47.59976],[36.08916,47.59011],[36.07289,47.59458]]],[[[35.90429,47.53364],[35.90521,47.53527],[35.90716,47.53693],[35.91461,47.53507],[35.91184,47.5322],[35.90429,47.53364]]],[[[35.50456,47.56055],[35.50455,47.56331],[35.50282,47.5664],[35.50298,47.57133],[35.50558,47.5803],[35.47778,47.5788],[35.47036,47.58027],[35.47288,47.5832],[35.47643,47.58473],[35.49835,47.59277],[35.51333,47.59332],[35.52334,47.597],[35.55948,47.59735],[35.56207,47.59398],[35.57247,47.59395],[35.57871,47.58754],[35.59542,47.58333],[35.60325,47.55177],[35.60422,47.548],[35.60059,47.55113],[35.59134,47.55324],[35.58561,47.55287],[35.57802,47.55562],[35.5604,47.55339],[35.55778,47.55562],[35.54359,47.55412],[35.5339,47.55268],[35.50597,47.54778],[35.50574,47.54932],[35.50576,47.54932],[35.50462,47.55768],[35.50458,47.56055],[35.50456,47.56055]]],[[[35.38171,50.6874],[35.38169,50.68736],[35.37554,50.68896],[35.37294,50.69066],[35.3724,50.69474],[35.37705,50.70042],[35.37649,50.69577],[35.37722,50.69066],[35.38171,50.6874]]]]},"properties":{"source":"ukrdaily","source_name":"UkrDailyUpdate","source_url":"https://map.ukrdailyupdate.com/","category":"ukrainian_to_contested","category_label":"Ukrainian-held became contested","period":"7d","compared_with":"2026-08-29","snapshot_time":"2026-09-05","area_km2_approx":88.5}}]}