{"type":"FeatureCollection","features":[{"type":"Feature","geometry":{"type":"Polygon","coordinates":[[[37.71737,48.48653],[37.72036,48.48911],[37.72334,48.49086],[37.72557,48.49241],[37.72626,48.4936],[37.72921,48.49572],[37.73187,48.4963],[37.73342,48.49557],[37.73709,48.49439],[37.73815,48.49628],[37.73987,48.49665],[37.74188,48.49392],[37.74292,48.4909],[37.74758,48.4867],[37.75264,48.4848],[37.75704,48.48564],[37.75922,48.4837],[37.76197,48.48336],[37.76086,48.48208],[37.75456,48.47979],[37.74795,48.47871],[37.74269,48.4809],[37.72705,48.47954],[37.71795,48.48402],[37.71454,48.48502],[37.71737,48.48653]]]},"properties":{"source":"ukrdaily","source_name":"UkrDailyUpdate","source_url":"https://map.ukrdailyupdate.com/","category":"gained","category_label":"Newly Russian-occupied","period":"1d","compared_with":"2026-09-04","snapshot_time":"2026-09-05","area_km2_approx":3.5}}]}