{"type":"FeatureCollection","features":[{"type":"Feature","geometry":{"type":"MultiPolygon","coordinates":[[[[37.81295,48.76906],[37.82616,48.78203],[37.83591,48.77845],[37.81845,48.76191],[37.81295,48.76906]]],[[[37.0362,48.34896],[37.04016,48.35063],[37.04757,48.35723],[37.07392,48.36154],[37.08492,48.36281],[37.08525,48.35735],[37.08263,48.35681],[37.07972,48.35593],[37.07697,48.35467],[37.0753,48.35342],[37.0713,48.35219],[37.0674,48.35154],[37.06701,48.34573],[37.06935,48.34054],[37.06466,48.33874],[37.05628,48.34309],[37.05173,48.34354],[37.04783,48.34582],[37.04701,48.34562],[37.04208,48.34839],[37.03968,48.34676],[37.0362,48.34896]]]]},"properties":{"source":"ukrdaily","source_name":"UkrDailyUpdate","source_url":"https://map.ukrdailyupdate.com/","category":"gained","category_label":"Newly Russian-occupied","period":"1d","compared_with":"2026-09-23","snapshot_time":"2026-09-24","area_km2_approx":5.9}}]}