{"type":"FeatureCollection","features":[{"type":"Feature","geometry":null,"properties":{"source":"ua_mod","source_name":"Ministry of Defence of Ukraine","group":"official_ua","id":16226,"posted_utc":"2026-09-21T06:41:40+00:00","link":"https://t.me/ministry_of_defense_ua/16226","text":"🪖 Спрощена програма повернення після СЗЧ завершилася 20 вересня. Як тепер повернутися на службу?\nДобровільне повернення залишається можливим, але відбувається за загальною процедурою через Військову службу правопорядку та батальйони резерву.\nДля цього необхідно звернутися до управління або зонального відділу ВСП.\nЧи можна обрати частину? Рекомендаційні листи від бойових бригад, які потребують поповнення, враховуються.\nВажливо: військовослужбовець, який уперше здійснив СЗЧ під час воєнного стану, за рішенням суду може бути звільнений від кримінальної відповідальності.\n🔗 Докладно про порядок повернення","links":["https://mod.gov.ua/explanation/yak-praczyuye-dobrovilne-povernennya-iz-sz-ch-pislya-20-veresnya?utm_source=mod-telegram&utm_medium=social"],"original_html":"<i class=\"emoji\" style=\"background-image:url('//telegram.org/img/emoji/40/F09FAA96.png')\"><b>🪖</b></i> <b>Спрощена програма повернення після СЗЧ завершилася 20 вересня. Як тепер повернутися на службу?</b><br/><br/>Добровільне повернення залишається можливим, але відбувається за загальною процедурою через Військову службу правопорядку та батальйони резерву.<br/><br/>Для цього необхідно звернутися до управління або зонального відділу ВСП.<br/><br/>Чи можна обрати частину? Рекомендаційні листи від бойових бригад, які потребують поповнення, враховуються.  <br/><br/>Важливо: військовослужбовець, який уперше здійснив СЗЧ під час воєнного стану, за рішенням суду може бути звільнений від кримінальної відповідальності.<br/><br/><i class=\"emoji\" style=\"background-image:url('//telegram.org/img/emoji/40/F09F9497.png')\"><b>🔗</b></i> <a href=\"https://mod.gov.ua/explanation/yak-praczyuye-dobrovilne-povernennya-iz-sz-ch-pislya-20-veresnya?utm_source=mod-telegram&amp;amp;utm_medium=social\" target=\"_blank\" rel=\"noopener\" onclick=\"return confirm('Open this link?\\n\\n'+this.href);\"><b>Докладно про порядок повернення</b></a>"}},{"type":"Feature","geometry":null,"properties":{"source":"ua_mod","source_name":"Ministry of Defence of Ukraine","group":"official_ua","id":16227,"posted_utc":"2026-09-21T10:58:18+00:00","link":"https://t.me/ministry_of_defense_ua/16227","text":"💥 Знешкоджено 10 російських пунктів управління БпЛА та наземних станцій операторів. Знищено ЗРК С-400 «Тріумф» і «Бук-М3», РЛС «Небо-У».\nЦе тижнева робота Сил оборони зі знищення засобів, якими рф планувала атакувати наші міста.\nЗокрема, із 13 по 20 вересня уражено сім ключових воєнних об'єктів, де вироблялися, зберігалися або готувалися до запусків ворожі БпЛА: цехи в Сіверськодонецьку, бази та майданчики запуску в Сочі та Курську, а також локації в окупованому Донецьку.\nРобимо усе можливе, щоб усунути першопричину повітряних тривог – можливість росії атакувати наші міста. Позбавляємо ворога матеріальних ресурсів для ведення війни.","links":[],"original_html":"<i class=\"emoji\" style=\"background-image:url('//telegram.org/img/emoji/40/F09F92A5.png')\"><b>💥</b></i> <b>Знешкоджено 10 російських пунктів управління БпЛА та наземних станцій операторів. Знищено ЗРК С-400 «Тріумф» і «Бук-М3», РЛС «Небо-У».</b><br/><br/>Це тижнева робота Сил оборони зі знищення засобів, якими рф планувала атакувати наші міста.<br/><br/>Зокрема, із 13 по 20 вересня уражено сім ключових воєнних об&#39;єктів, де вироблялися, зберігалися або готувалися до запусків ворожі БпЛА: цехи в Сіверськодонецьку, бази та майданчики запуску в Сочі та Курську, а також локації в окупованому Донецьку.<br/><br/>Робимо усе можливе, щоб усунути першопричину повітряних тривог – можливість росії атакувати наші міста. Позбавляємо ворога матеріальних ресурсів для ведення війни."}},{"type":"Feature","geometry":null,"properties":{"source":"ua_mod","source_name":"Ministry of Defence of Ukraine","group":"official_ua","id":16228,"posted_utc":"2026-09-21T13:10:29+00:00","link":"https://t.me/ministry_of_defense_ua/16228","text":"✅ Військові з медичними обмеженнями можуть укладати нові мотиваційні контракти на загальних підставах.\nЦе стосується військовослужбовців, яких ВЛК визнала придатними до служби лише у визначених частинах і підрозділах.\nДе можна служити з обмеженнями за станом здоров’я:\n• частини забезпечення;\n• ТЦК та СП;\n• ВВНЗ, військові навчальні підрозділи закладів вищої освіти, навчальні центри;\n• заклади та установи;\n• медичні підрозділи;\n• підрозділи логістики, зв’язку, оперативного забезпечення та охорони.\nМожливість укласти контракт поширюється на рядовий, сержантський, старшинський та офіцерський склад, зокрема мобілізованих.\nГоловна умова: посада та характер служби мають відповідати висновку ВЛК.\n🔗 Що потрібно для укладення нового контракту","links":["https://mod.gov.ua/explanation/yak-zakhysnykam-iz-obmezhenniamy-za-stanom-zdorovya-uklasty-novi-kontrakty?utm_source=mod-telegram&utm_medium=social"],"original_html":"<i class=\"emoji\" style=\"background-image:url('//telegram.org/img/emoji/40/E29C85.png')\"><b>✅</b></i> <b>Військові з медичними обмеженнями можуть укладати нові мотиваційні контракти на загальних підставах.</b><br/><br/>Це стосується військовослужбовців, яких ВЛК визнала придатними до служби лише у визначених частинах і підрозділах.<br/><br/><u>Де можна служити з обмеженнями за станом здоров’я</u>:<br/>• частини забезпечення;<br/>• ТЦК та СП;<br/>• ВВНЗ, військові навчальні підрозділи закладів вищої освіти, навчальні центри;<br/>• заклади та установи;<br/>• медичні підрозділи;<br/>• підрозділи логістики, зв’язку, оперативного забезпечення та охорони.<br/><br/>Можливість укласти контракт поширюється на рядовий, сержантський, старшинський та офіцерський склад, зокрема мобілізованих.<br/><br/>Головна умова: посада та характер служби мають відповідати висновку ВЛК.  <br/><br/><i class=\"emoji\" style=\"background-image:url('//telegram.org/img/emoji/40/F09F9497.png')\"><b>🔗</b></i> <a href=\"https://mod.gov.ua/explanation/yak-zakhysnykam-iz-obmezhenniamy-za-stanom-zdorovya-uklasty-novi-kontrakty?utm_source=mod-telegram&amp;amp;utm_medium=social\" target=\"_blank\" rel=\"noopener\" onclick=\"return confirm('Open this link?\\n\\n'+this.href);\"><b>Що потрібно для укладення нового контракту</b></a>"}},{"type":"Feature","geometry":null,"properties":{"source":"ua_mod","source_name":"Ministry of Defence of Ukraine","group":"official_ua","id":16229,"posted_utc":"2026-09-21T14:27:45+00:00","link":"https://t.me/ministry_of_defense_ua/16229","text":"⚙️ П’ятеро військових у повному спорядженні та майже дві тонни вантажу – вивезе під бронезахистом український пікап UAT.GYURZA-01 PICKUP, кодифікований Міноборони.\nМашину створили на базі Dodge RAM 5500 під потреби військових, які в районах бойових дій потребують універсальних, надійних та простих в обслуговуванні машин.\nВажливі характеристики:\n• протикульний і протиуламковий захист корпусу рівня 2 за STANAG 4569;\n• протимінний захист рівнів 3a та 3b;\n• швидкість близько 110 км/год;\n• запас ходу до 800 км на ґрунтових дорогах.\nБронепікап оснащений системами зовнішнього спостереження, радіоелектронного захисту, пожежогасіння та потужною лебідкою.\nМашина підтвердила заявлені характеристики й допущена до постачання ЗСУ.","links":[],"original_html":"<i class=\"emoji\" style=\"background-image:url('//telegram.org/img/emoji/40/E29A99.png')\"><b>⚙️</b></i> <b>П’ятеро військових у повному спорядженні та майже дві тонни вантажу – вивезе під бронезахистом український пікап UAT.GYURZA-01 PICKUP, кодифікований Міноборони.</b><br/><br/>Машину створили на базі Dodge RAM 5500 під потреби військових, які в районах бойових дій потребують універсальних, надійних та простих в обслуговуванні машин.<br/><br/><u>Важливі характеристики: </u><br/>• протикульний і протиуламковий захист корпусу рівня 2 за STANAG 4569;<br/>• протимінний захист рівнів 3a та 3b; <br/>• швидкість близько 110 км/год; <br/>• запас ходу до 800 км на ґрунтових дорогах.<br/><br/>Бронепікап оснащений системами зовнішнього спостереження, радіоелектронного захисту, пожежогасіння та потужною лебідкою. <br/><br/>Машина підтвердила заявлені характеристики й допущена до постачання ЗСУ."}},{"type":"Feature","geometry":null,"properties":{"source":"ua_mod","source_name":"Ministry of Defence of Ukraine","group":"official_ua","id":16230,"posted_utc":"2026-09-21T14:49:39+00:00","link":"https://t.me/ministry_of_defense_ua/16230","text":"✍️ Змінити підставу чинної відстрочки тепер можна через ЦНАП – без втрати відстрочки на час переоформлення.\nНаприклад, якщо раніше ви мали відстрочку через навчання, а тепер здобули іншу законну підставу, можна подати заяву на її зміну.\nЯк це працює:\n⓵ особисто зверніться до ЦНАП із документами, які підтверджують нову підставу;\n⓶ повідомте адміністратора, що вже маєте відстрочку й хочете її переоформити;\n⓷ адміністратор сформує заяву та передасть документи на розгляд комісії ТЦК та СП.\nПоки комісія розглядає заяву, попередня відстрочка продовжує діяти.\nЯкщо нову підставу погодять, попередню відстрочку анулюють лише після внесення нових даних до реєстру «Оберіг». Якщо відмовлять, чинна відстрочка зберігатиметься до завершення її строку.\n❗️ Важливо: через ЦНАП не можна перейти з відстрочки на бронювання або з бронювання на відстрочку. Для цього є окрема процедура.","links":[],"original_html":"<i class=\"emoji\" style=\"background-image:url('//telegram.org/img/emoji/40/E29C8D.png')\"><b>✍️</b></i> <b>Змінити підставу чинної відстрочки тепер можна через ЦНАП – без втрати відстрочки на час переоформлення.</b><br/><br/>Наприклад, якщо раніше ви мали відстрочку через навчання, а тепер здобули іншу законну підставу, можна подати заяву на її зміну.<br/><br/><u>Як це працює:</u><br/>⓵ особисто зверніться до ЦНАП із документами, які підтверджують нову підставу;<br/>⓶ повідомте адміністратора, що вже маєте відстрочку й хочете її переоформити;<br/>⓷ адміністратор сформує заяву та передасть документи на розгляд комісії ТЦК та СП.<br/><br/>Поки комісія розглядає заяву, попередня відстрочка продовжує діяти. <br/><br/>Якщо нову підставу погодять, попередню відстрочку анулюють лише після внесення нових даних до реєстру «Оберіг». Якщо відмовлять, чинна відстрочка зберігатиметься до завершення її строку.<br/><br/><i class=\"emoji\" style=\"background-image:url('//telegram.org/img/emoji/40/E29D97.png')\"><b>❗️</b></i> <b>Важливо</b>: через ЦНАП не можна перейти з відстрочки на бронювання або з бронювання на відстрочку. Для цього є окрема процедура."}}]}