{"type":"FeatureCollection","features":[{"type":"Feature","geometry":{"type":"MultiPolygon","coordinates":[[[[37.21609,48.43253],[37.21668,48.4445],[37.22417,48.44745],[37.23002,48.44856],[37.23399,48.45321],[37.2396,48.4541],[37.24049,48.44834],[37.23722,48.44842],[37.23085,48.43943],[37.21902,48.42985],[37.21609,48.43253]]],[[[37.17212,48.40083],[37.19362,48.40242],[37.17432,48.39103],[37.17212,48.40083]]],[[[37.17966,48.41236],[37.17779,48.41703],[37.1712,48.41931],[37.17168,48.4213],[37.19097,48.42241],[37.19285,48.41556],[37.18932,48.41589],[37.18939,48.40997],[37.17966,48.41236]]],[[[37.10022,48.39029],[37.09743,48.39635],[37.10001,48.39779],[37.10576,48.39494],[37.1122,48.38839],[37.11186,48.38835],[37.12401,48.3831],[37.13538,48.37576],[37.12907,48.37427],[37.11864,48.3807],[37.11152,48.3883],[37.10456,48.38742],[37.10765,48.37903],[37.09322,48.37167],[37.09387,48.36543],[37.06992,48.36156],[37.05001,48.36868],[37.10022,48.39029]]],[[[37.03227,48.2754],[37.04407,48.28015],[37.05438,48.28069],[37.05694,48.2701],[37.04603,48.27117],[37.04507,48.2688],[37.03216,48.26785],[37.03227,48.2754]]],[[[36.9909,48.26865],[36.99904,48.26908],[37.012,48.26787],[37.02993,48.26736],[37.03147,48.2593],[37.01252,48.25993],[37.01045,48.25978],[37.00882,48.26105],[37.00307,48.26091],[36.99545,48.2634],[36.98834,48.26291],[36.9909,48.26865]]],[[[36.14878,47.66127],[36.14606,47.66863],[36.13929,47.69001],[36.12483,47.69487],[36.11967,47.70957],[36.13012,47.72098],[36.13437,47.72395],[36.1298,47.72497],[36.13175,47.72738],[36.14947,47.72803],[36.15895,47.7318],[36.1634,47.74575],[36.16347,47.74574],[36.16435,47.72631],[36.14772,47.72357],[36.1352,47.71367],[36.14226,47.70203],[36.1671,47.69232],[36.17244,47.68045],[36.16607,47.67461],[36.16026,47.66886],[36.17061,47.65487],[36.16457,47.65167],[36.15938,47.65304],[36.14878,47.66127]]]]},"properties":{"source":"deepstate","source_name":"DeepStateMap","source_url":"https://deepstatemap.live/en","category":"gained","category_label":"Russian advance: became occupied","period":"7d","compared_with":"2026-09-29","snapshot_time":"2026-10-06","area_km2_approx":30.3}},{"type":"Feature","geometry":{"type":"Polygon","coordinates":[[[36.08711,47.72077],[36.0898,47.71692],[36.07471,47.71354],[36.07466,47.71369],[36.08711,47.72077]]]},"properties":{"source":"deepstate","source_name":"DeepStateMap","source_url":"https://deepstatemap.live/en","category":"lost","category_label":"Ukrainian advance: became Ukrainian-held","period":"7d","compared_with":"2026-09-29","snapshot_time":"2026-10-06","area_km2_approx":0.3}},{"type":"Feature","geometry":{"type":"MultiPolygon","coordinates":[[[[37.60823,48.53887],[37.62138,48.5512],[37.61836,48.5391],[37.60645,48.51663],[37.60823,48.53887]]],[[[37.62138,48.5512],[37.61563,48.55671],[37.62777,48.56311],[37.64094,48.55736],[37.62567,48.55733],[37.62138,48.5512]]],[[[37.57411,50.19301],[37.54132,50.19],[37.53289,50.18657],[37.50663,50.18783],[37.50783,50.20788],[37.52396,50.20442],[37.5298,50.20591],[37.5614,50.22296],[37.57634,50.21586],[37.58562,50.20338],[37.57411,50.19301]]],[[[37.11957,48.40071],[37.12903,48.40727],[37.12749,48.4081],[37.13016,48.4103],[37.13211,48.40951],[37.13492,48.41253],[37.13496,48.41813],[37.13842,48.42297],[37.14341,48.42283],[37.15063,48.42361],[37.15531,48.42698],[37.1489,48.43493],[37.14438,48.45466],[37.15542,48.45436],[37.16234,48.44883],[37.17424,48.44433],[37.19009,48.46351],[37.20016,48.46976],[37.21714,48.47217],[37.21704,48.46813],[37.20531,48.4668],[37.19552,48.45118],[37.19182,48.43845],[37.19026,48.43646],[37.19264,48.42246],[37.19098,48.4224],[37.19097,48.42241],[37.19042,48.42238],[37.16875,48.42158],[37.15578,48.41711],[37.14092,48.40404],[37.13488,48.4046],[37.12747,48.40014],[37.1143,48.39914],[37.11424,48.39952],[37.11957,48.40071]]],[[[37.10612,48.40277],[37.11161,48.39894],[37.10972,48.39331],[37.10302,48.39715],[37.09197,48.40379],[37.10612,48.40277]]],[[[37.04388,48.41915],[37.04414,48.42444],[37.05251,48.43165],[37.05876,48.42932],[37.06323,48.41966],[37.05539,48.42085],[37.05263,48.41437],[37.03727,48.40506],[37.04388,48.41915]]],[[[37.02341,48.32252],[37.02924,48.32868],[37.04625,48.32035],[37.04335,48.31631],[37.04285,48.30792],[37.02923,48.29843],[37.02631,48.2989],[37.02341,48.32252]]],[[[36.08056,47.73013],[36.09108,47.74303],[36.09774,47.74312],[36.0997,47.72794],[36.08711,47.72077],[36.08056,47.73013]]],[[[36.06275,47.71087],[36.07367,47.71331],[36.07373,47.71316],[36.06323,47.70719],[36.06275,47.71087]]]]},"properties":{"source":"deepstate","source_name":"DeepStateMap","source_url":"https://deepstatemap.live/en","category":"ukrainian_to_contested","category_label":"Ukrainian-held became contested","period":"7d","compared_with":"2026-09-29","snapshot_time":"2026-10-06","area_km2_approx":40.2}}]}