{"type":"FeatureCollection","features":[{"type":"Feature","geometry":{"type":"Point","coordinates":[30.609477,50.395176]},"properties":{"original":{"Date":"2026-09-15","Name":"15 SEP 2026","Faction":"Neutral","Origin":"PIC","Latitude":"50.395176","Longitude":"30.609477","PlusCode":"9G2G9JW5+3Q Kyiv, Kyiv city, Ukraine","Description":"Damaged 'Ukranafta' gas station following a reported Russian strike. Small fires nearby the gasstation are visible.","Source":"https://x.com/Zeldamices/status/2100157021735600282, https://t.me/boris_rozhin/225971, , More information, https://www.kyivpost.com/post/84181","Geolocation":"https://x.com/Brokenarrow42/status/2099839399261257865","Equipment":"","EquipmentItems":"","Units":"","OrbatUnits":"","Id":"64ff5d28-2424-4b29-b809-06574f78f45e","icon":"/api/icons/AC7339/False/template/192.png"},"source":"geoconfirmed","source_name":"GeoConfirmed","source_url":"https://geoconfirmed.org/map/ukraine","id":"64ff5d28-2424-4b29-b809-06574f78f45e","date":"2026-09-15","link":"https://geoconfirmed.org/map/ukraine/64ff5d28-2424-4b29-b809-06574f78f45e","category":"Recently destroyed/Damaged[Visible in footage] or still burning infrastucture","side":"Neutral","color":"#AC7339","description":"Damaged 'Ukranafta' gas station following a reported Russian strike. Small fires nearby the gasstation are visible.","orbat":[],"geolocation":["https://x.com/Brokenarrow42/status/2099839399261257865"],"sources":["https://x.com/Zeldamices/status/2100157021735600282","https://t.me/boris_rozhin/225971","https://www.kyivpost.com/post/84181"]}},{"type":"Feature","geometry":{"type":"Point","coordinates":[48.483286,53.17666]},"properties":{"original":{"Date":"2026-09-15","Name":"15 SEP 2026","Faction":"Ukraine","Origin":"UAV","Latitude":"53.17666","Longitude":"48.483286","PlusCode":"9H5C5FGM+M8 Syzran, Samara Oblast, Russia","Description":"POV - Syzran  Refinery reportedly on fire","Source":"https://x.com/NotWoofers/status/2099642289416966622, https://t.me/exilenova_plus/30983","Geolocation":"https://x.com/neonhandrail/status/2099643448894914939","Equipment":"","EquipmentItems":"","Units":"","OrbatUnits":"","Id":"b6c3fc0e-bbd7-4044-842f-164b4d26f449","icon":"/api/icons/0051CA/False/template/20.png"},"source":"geoconfirmed","source_name":"GeoConfirmed","source_url":"https://geoconfirmed.org/map/ukraine","id":"b6c3fc0e-bbd7-4044-842f-164b4d26f449","date":"2026-09-15","link":"https://geoconfirmed.org/map/ukraine/b6c3fc0e-bbd7-4044-842f-164b4d26f449","category":"Picture - Always Point of View in description - - In the colour of who is doing the attack or is responsable for the incident in the picture.","side":"Ukraine","color":"#0051CA","description":"POV - Syzran  Refinery reportedly on fire","orbat":[],"geolocation":["https://x.com/neonhandrail/status/2099643448894914939"],"sources":["https://x.com/NotWoofers/status/2099642289416966622","https://t.me/exilenova_plus/30983"]}},{"type":"Feature","geometry":{"type":"Point","coordinates":[37.690127,49.038204]},"properties":{"original":{"Date":"2026-09-15","Name":"15 SEP 2026","Faction":"Russia","Origin":"UAV","Latitude":"49.038204","Longitude":"37.690127","PlusCode":"8GXV2MQR+73 Drobysheve, Donetsk Oblast, Ukraine","Description":"0:46 - Destroyed Ukrainian Truck visible","Source":"https://x.com/ZoamSc2/status/2099622741796376986, https://t.me/BV25org/3460","Geolocation":"https://x.com/ZoamSc2/status/2099622739535642644","Equipment":"MAZ","EquipmentItems":"Truck","Units":"9th Engineer-Sapper Regiment of the 25th CAA","OrbatUnits":"25th Combined Arms Army","Id":"1f9d48d6-7648-4818-beb9-27bffd49b793","icon":"/api/icons/E00000/False/template/6794b7b0-8940-4487-bd43-83811dd2e91f.png"},"source":"geoconfirmed","source_name":"GeoConfirmed","source_url":"https://geoconfirmed.org/map/ukraine","id":"1f9d48d6-7648-4818-beb9-27bffd49b793","date":"2026-09-15","link":"https://geoconfirmed.org/map/ukraine/1f9d48d6-7648-4818-beb9-27bffd49b793","category":"Interception of a UGV - Colour of the force intercepting - If UGV destroyed --> Destroyed UGV icon instead.","side":"Russia","color":"#E00000","description":"0:46 - Destroyed Ukrainian Truck visible","orbat":["25th Combined Arms Army"],"geolocation":["https://x.com/ZoamSc2/status/2099622739535642644"],"sources":["https://x.com/ZoamSc2/status/2099622741796376986","https://t.me/BV25org/3460"]}},{"type":"Feature","geometry":{"type":"Point","coordinates":[30.5261356,50.4034211]},"properties":{"original":{"Date":"2026-09-15","Name":"15 SEP 2026","Faction":"Neutral","Origin":"VID","Latitude":"50.4034211","Longitude":"30.5261356","PlusCode":"9G2GCG3G+9F Kyiv, Kyiv city, Ukraine","Description":"Gas station on fire after a reported Russian strike in Kyiv","Source":"https://x.com/Brokenarrow42/status/2099848994734170412, https://t.me/kievinfo_kyiv/98046","Geolocation":"https://x.com/Brokenarrow42/status/2099848955496427659","Equipment":"","EquipmentItems":"Petrol/Gas station","Units":"","OrbatUnits":"","Id":"ec9f3988-70b2-4a40-a095-27dabf1d0cfc","icon":"/api/icons/AC7339/False/template/192.png"},"source":"geoconfirmed","source_name":"GeoConfirmed","source_url":"https://geoconfirmed.org/map/ukraine","id":"ec9f3988-70b2-4a40-a095-27dabf1d0cfc","date":"2026-09-15","link":"https://geoconfirmed.org/map/ukraine/ec9f3988-70b2-4a40-a095-27dabf1d0cfc","category":"Recently destroyed/Damaged[Visible in footage] or still burning infrastucture","side":"Neutral","color":"#AC7339","description":"Gas station on fire after a reported Russian strike in Kyiv","orbat":[],"geolocation":["https://x.com/Brokenarrow42/status/2099848955496427659"],"sources":["https://x.com/Brokenarrow42/status/2099848994734170412","https://t.me/kievinfo_kyiv/98046"]}},{"type":"Feature","geometry":{"type":"Point","coordinates":[37.88282,49.08026]},"properties":{"original":{"Date":"2026-09-15","Name":"15 SEP 2026","Faction":"Russia","Origin":"UAV","Latitude":"49.08026","Longitude":"37.88282","PlusCode":"8GXV3VJM+4H Kolodyazi, Donetsk Oblast, Ukraine","Description":"0:20-0:23 - Russian FPV drone of the 144th Guards Motorized Rifle Division targeted a Ukrainian presence near Kolodyazi","Source":"https://x.com/meowqai/status/2099772419544146239, https://t.me/official144msd/4743","Geolocation":"https://x.com/meowqai/status/2099772419544146239","Equipment":"","EquipmentItems":"FPV (First Person View) OWAD (One Way Attack Drone)","Units":"","OrbatUnits":"144th Guards Motorized Rifle Division","Id":"22cbcf4f-69f5-4e1f-9c6a-2986742fe879","icon":"/api/icons/E00000/False/template/111.png"},"source":"geoconfirmed","source_name":"GeoConfirmed","source_url":"https://geoconfirmed.org/map/ukraine","id":"22cbcf4f-69f5-4e1f-9c6a-2986742fe879","date":"2026-09-15","link":"https://geoconfirmed.org/map/ukraine/22cbcf4f-69f5-4e1f-9c6a-2986742fe879","category":"Short Range (<50km) OWAD (One Way Attack Drone), mostly rotary wing, Flying OR Attacking a target without knowing the outcome: if something is damaged --> icon of the damaged equipment.","side":"Russia","color":"#E00000","description":"0:20-0:23 - Russian FPV drone of the 144th Guards Motorized Rifle Division targeted a Ukrainian presence near Kolodyazi","orbat":["144th Guards Motorized Rifle Division"],"geolocation":["https://x.com/meowqai/status/2099772419544146239"],"sources":["https://x.com/meowqai/status/2099772419544146239","https://t.me/official144msd/4743"]}},{"type":"Feature","geometry":{"type":"Point","coordinates":[30.6105914,50.3938119]},"properties":{"original":{"Date":"2026-09-15","Name":"15 SEP 2026","Faction":"Neutral","Origin":"PIC","Latitude":"50.3938119","Longitude":"30.6105914","PlusCode":"9G2G9JV6+G6 Kyiv, Kyiv city, Ukraine","Description":"Damage at the fast-food restaurant \"McDonald's\" following a Russian attack.","Source":"(3/4), https://x.com/EuromaidanPress/status/2099797460260393088, , , More information, https://www.pravda.com.ua/eng/news/2026/09/15/8053524/","Geolocation":"https://x.com/Churriqueresque/status/2099949971369755061","Equipment":"","EquipmentItems":"Geran/Shahed UNK Type","Units":"","OrbatUnits":"","Id":"aec4378e-c2e4-47e0-b6dd-2b34fd98e53f","icon":"/api/icons/AC7339/False/template/192.png"},"source":"geoconfirmed","source_name":"GeoConfirmed","source_url":"https://geoconfirmed.org/map/ukraine","id":"aec4378e-c2e4-47e0-b6dd-2b34fd98e53f","date":"2026-09-15","link":"https://geoconfirmed.org/map/ukraine/aec4378e-c2e4-47e0-b6dd-2b34fd98e53f","category":"Recently destroyed/Damaged[Visible in footage] or still burning infrastucture","side":"Neutral","color":"#AC7339","description":"Damage at the fast-food restaurant \"McDonald's\" following a Russian attack.","orbat":[],"geolocation":["https://x.com/Churriqueresque/status/2099949971369755061"],"sources":["https://x.com/EuromaidanPress/status/2099797460260393088","https://www.pravda.com.ua/eng/news/2026/09/15/8053524/"]}},{"type":"Feature","geometry":{"type":"Point","coordinates":[40.296514,48.9328]},"properties":{"original":{"Date":"2026-09-15","Name":"15 SEP 2026","Faction":"Russia","Origin":"UAV","Latitude":"48.9328","Longitude":"40.296514","PlusCode":"8HW2W7MW+4J Dolotinka, Rostov Oblast, Russia","Description":"Presumed RLM-D, part of a Nebo-M system attacked by RAM-2X loitering munition.","Source":"https://x.com/achilles_429/status/2099751873322324041, https://x.com/NOELreports/status/2099753000176673076, https://t.me/fedorenkoys/2044","Geolocation":"https://x.com/MikiValbuena/status/2099778069661712581","Equipment":"RLM-D (of the) Nebo-M, RAM-2X","EquipmentItems":"Fixed Wing OWAD (One Way Attack Drone)","Units":"","OrbatUnits":"429th Separate Unmanned Systems Brigade \"Achilles\"","Id":"4f928e4b-e391-4abf-8a68-35d2b64cb2e2","icon":"/api/icons/E00000/False/template/202.png"},"source":"geoconfirmed","source_name":"GeoConfirmed","source_url":"https://geoconfirmed.org/map/ukraine","id":"4f928e4b-e391-4abf-8a68-35d2b64cb2e2","date":"2026-09-15","link":"https://geoconfirmed.org/map/ukraine/4f928e4b-e391-4abf-8a68-35d2b64cb2e2","category":"Recently Destroyed/Damaged[Visible in footage] Anti-Air System (Tracked OR Wheeled)","side":"Russia","color":"#E00000","description":"Presumed RLM-D, part of a Nebo-M system attacked by RAM-2X loitering munition.","orbat":["429th Separate Unmanned Systems Brigade \"Achilles\""],"geolocation":["https://x.com/MikiValbuena/status/2099778069661712581"],"sources":["https://x.com/achilles_429/status/2099751873322324041","https://x.com/NOELreports/status/2099753000176673076","https://t.me/fedorenkoys/2044"]}},{"type":"Feature","geometry":{"type":"Point","coordinates":[37.69154,49.07132]},"properties":{"original":{"Date":"2026-09-15","Name":"15 SEP 2026","Faction":"Ukraine","Origin":"VID","Latitude":"49.07132","Longitude":"37.69154","PlusCode":"8GXV3MCR+GJ Novoselivka, Donetsk Oblast, Ukraine","Description":"1:22 - Ukrainian soldiers from the 3rd Army Corps showed a Ukrainian flag in Novoselivka","Source":"https://x.com/RedHibana/status/2099785985324195871, https://t.me/ab3army/7468","Geolocation":"https://x.com/WagnerGeosint/status/2099770972882567433, https://x.com/richardzai38580/status/2099797926272753698, https://t.me/creamy_caprice/12957","Equipment":"","EquipmentItems":"","Units":"","OrbatUnits":"3rd Army Corps","Id":"b64f4790-1568-4c26-8916-369c8c14820d","icon":"/api/icons/0051CA/False/icons/Ukraine/_CIRCLES_UA_56_FLAG.png"},"source":"geoconfirmed","source_name":"GeoConfirmed","source_url":"https://geoconfirmed.org/map/ukraine","id":"b64f4790-1568-4c26-8916-369c8c14820d","date":"2026-09-15","link":"https://geoconfirmed.org/map/ukraine/b64f4790-1568-4c26-8916-369c8c14820d","category":"_CIRCLES_UA_56_FLAG","side":"Ukraine","color":"#0051CA","description":"1:22 - Ukrainian soldiers from the 3rd Army Corps showed a Ukrainian flag in Novoselivka","orbat":["3rd Army Corps"],"geolocation":["https://x.com/WagnerGeosint/status/2099770972882567433","https://x.com/richardzai38580/status/2099797926272753698","https://t.me/creamy_caprice/12957"],"sources":["https://x.com/RedHibana/status/2099785985324195871","https://t.me/ab3army/7468"]}},{"type":"Feature","geometry":{"type":"Point","coordinates":[37.797523,44.729323]},"properties":{"original":{"Date":"2026-09-15","Name":"15 SEP 2026","Faction":"Neutral","Origin":"VID","Latitude":"44.729323","Longitude":"37.797523","PlusCode":"8GPVPQHX+P2 Vostochnyy Rayon, Novorossiysk, Russia","Description":"Damaged ship filmed, a Bulk Carrier named Matros Koshka ","Source":"https://x.com/bayraktar_1love/status/2099803164790714738, https://www.instagram.com/reels/DdPLa5mMoAH/","Geolocation":"https://x.com/neonhandrail/status/2099830910640431120","Equipment":"","EquipmentItems":"","Units":"","OrbatUnits":"","Id":"881a4e41-d95f-4438-b31a-4d3c03e80d58","icon":"/api/icons/AC7339/False/template/53.png"},"source":"geoconfirmed","source_name":"GeoConfirmed","source_url":"https://geoconfirmed.org/map/ukraine","id":"881a4e41-d95f-4438-b31a-4d3c03e80d58","date":"2026-09-15","link":"https://geoconfirmed.org/map/ukraine/881a4e41-d95f-4438-b31a-4d3c03e80d58","category":"Recently Destroyed/Damaged Large Ship (Military or Civilian depending on the colour)","side":"Neutral","color":"#AC7339","description":"Damaged ship filmed, a Bulk Carrier named Matros Koshka","orbat":[],"geolocation":["https://x.com/neonhandrail/status/2099830910640431120"],"sources":["https://x.com/bayraktar_1love/status/2099803164790714738","https://www.instagram.com/reels/DdPLa5mMoAH/"]}},{"type":"Feature","geometry":{"type":"Point","coordinates":[39.411464,47.096129]},"properties":{"original":{"Date":"2026-09-15","Name":"15 SEP 2026","Faction":"Russia","Origin":"UAV","Latitude":"47.096129","Longitude":"39.411464","PlusCode":"8GXV3VJM+4H Kolodyazi, Donetsk Oblast, Ukraine","Description":"0:18-0:19 - Russian FPV drone of the 144th Guards Motorized Rifle Division targeted a Ukrainian presence near Kolodyazi","Source":"https://x.com/meowqai/status/2099772419544146239, https://t.me/official144msd/4743","Geolocation":"https://x.com/meowqai/status/2099772419544146239, https://t.me/creamy_caprice/12964","Equipment":"","EquipmentItems":"FPV (First Person View) OWAD (One Way Attack Drone)","Units":"","OrbatUnits":"144th Guards Motorized Rifle Division","Id":"2ea744e6-75ce-4a37-bba4-4f3ea9ebc16b","icon":"/api/icons/E00000/False/template/111.png"},"source":"geoconfirmed","source_name":"GeoConfirmed","source_url":"https://geoconfirmed.org/map/ukraine","id":"2ea744e6-75ce-4a37-bba4-4f3ea9ebc16b","date":"2026-09-15","link":"https://geoconfirmed.org/map/ukraine/2ea744e6-75ce-4a37-bba4-4f3ea9ebc16b","category":"Short Range (<50km) OWAD (One Way Attack Drone), mostly rotary wing, Flying OR Attacking a target without knowing the outcome: if something is damaged --> icon of the damaged equipment.","side":"Russia","color":"#E00000","description":"0:18-0:19 - Russian FPV drone of the 144th Guards Motorized Rifle Division targeted a Ukrainian presence near Kolodyazi","orbat":["144th Guards Motorized Rifle Division"],"geolocation":["https://x.com/meowqai/status/2099772419544146239","https://t.me/creamy_caprice/12964"],"sources":["https://x.com/meowqai/status/2099772419544146239","https://t.me/official144msd/4743"]}},{"type":"Feature","geometry":{"type":"Point","coordinates":[37.29887,47.66041]},"properties":{"original":{"Date":"2026-09-15","Name":"15 SEP 2026","Faction":"Ukraine","Origin":"UAV","Latitude":"47.66041","Longitude":"37.29887","PlusCode":"8GVVM76X+5G Kyrylivka, Donetsk Oblast, Ukraine","Description":"0:14 - Separate Special Purpose Detachment \"13th Legion of Omega\" hits fuel tanks with a UAV in Kyrylivka","Source":"(1/2), https://x.com/Kukulkan415/status/2099945125048639777, https://t.me/Centr_omega_NGU/10649","Geolocation":"https://x.com/meowqai/status/2099951655307641252","Equipment":"","EquipmentItems":"Fixed Wing OWAD (One Way Attack Drone)","Units":" 13th Legion of Omega ","OrbatUnits":"Special Purpose Center \"Omega\"","Id":"c9418eee-e00f-4e24-80ae-508f547b09aa","icon":"/api/icons/0051CA/False/template/111.png"},"source":"geoconfirmed","source_name":"GeoConfirmed","source_url":"https://geoconfirmed.org/map/ukraine","id":"c9418eee-e00f-4e24-80ae-508f547b09aa","date":"2026-09-15","link":"https://geoconfirmed.org/map/ukraine/c9418eee-e00f-4e24-80ae-508f547b09aa","category":"Short Range (<50km) OWAD (One Way Attack Drone), mostly rotary wing, Flying OR Attacking a target without knowing the outcome: if something is damaged --> icon of the damaged equipment.","side":"Ukraine","color":"#0051CA","description":"0:14 - Separate Special Purpose Detachment \"13th Legion of Omega\" hits fuel tanks with a UAV in Kyrylivka","orbat":["Special Purpose Center \"Omega\""],"geolocation":["https://x.com/meowqai/status/2099951655307641252"],"sources":["https://x.com/Kukulkan415/status/2099945125048639777","https://t.me/Centr_omega_NGU/10649"]}},{"type":"Feature","geometry":{"type":"Point","coordinates":[37.410247,48.335064]},"properties":{"original":{"Date":"2026-09-15","Name":"15 SEP 2026","Faction":"Ukraine","Origin":"UAV","Latitude":"48.335064","Longitude":"37.410247","PlusCode":"8GWV8CP6+23 Malynivka, Donetsk Oblast, Ukraine","Description":"0:00-0:11 - A presumed Russian vehicle attacked by drone from 13th Legion of Omega. ","Source":"(1/2), https://x.com/Kukulkan415/status/2099945125048639777, https://t.me/Centr_omega_NGU/10649","Geolocation":"(2/2), https://x.com/Kukulkan415/status/2099945125048639777","Equipment":"","EquipmentItems":"Fixed Wing OWAD (One Way Attack Drone)","Units":" 13th Legion of Omega ","OrbatUnits":"Special Purpose Center \"Omega\"","Id":"c76b3b50-cf30-438a-9aa4-536ce3f40baf","icon":"/api/icons/0051CA/False/template/181.png"},"source":"geoconfirmed","source_name":"GeoConfirmed","source_url":"https://geoconfirmed.org/map/ukraine","id":"c76b3b50-cf30-438a-9aa4-536ce3f40baf","date":"2026-09-15","link":"https://geoconfirmed.org/map/ukraine/c76b3b50-cf30-438a-9aa4-536ce3f40baf","category":"Longe Range (>50km) OWAD (One Way Attack Drone) or Loitering munition, mostly fixed wing, Flying OR Attacking a target without knowing the outcome: if something is damaged --> icon of the damaged equipment.","side":"Ukraine","color":"#0051CA","description":"0:00-0:11 - A presumed Russian vehicle attacked by drone from 13th Legion of Omega.","orbat":["Special Purpose Center \"Omega\""],"geolocation":["https://x.com/Kukulkan415/status/2099945125048639777"],"sources":["https://x.com/Kukulkan415/status/2099945125048639777","https://t.me/Centr_omega_NGU/10649"]}},{"type":"Feature","geometry":{"type":"Point","coordinates":[37.224323,47.996528]},"properties":{"original":{"Date":"2026-09-15","Name":"15 SEP 2026","Faction":"Ukraine","Origin":"UAV","Latitude":"47.996528","Longitude":"37.224323","PlusCode":"8GVVX6WF+JP Kurakhove, Donetsk Oblast, Ukraine","Description":"0:17-0:22 - Drone attack on a large tank.","Source":"(1/2), https://x.com/Kukulkan415/status/2099945125048639777, https://t.me/Centr_omega_NGU/10649","Geolocation":"https://x.com/Kukulkan415/status/2099951026472153394","Equipment":"","EquipmentItems":"Fixed Wing OWAD (One Way Attack Drone)","Units":" 13th Legion of Omega ","OrbatUnits":"Special Purpose Center \"Omega\"","Id":"32abed0c-0192-4f3a-9705-7586a5cc942e","icon":"/api/icons/0051CA/False/template/111.png"},"source":"geoconfirmed","source_name":"GeoConfirmed","source_url":"https://geoconfirmed.org/map/ukraine","id":"32abed0c-0192-4f3a-9705-7586a5cc942e","date":"2026-09-15","link":"https://geoconfirmed.org/map/ukraine/32abed0c-0192-4f3a-9705-7586a5cc942e","category":"Short Range (<50km) OWAD (One Way Attack Drone), mostly rotary wing, Flying OR Attacking a target without knowing the outcome: if something is damaged --> icon of the damaged equipment.","side":"Ukraine","color":"#0051CA","description":"0:17-0:22 - Drone attack on a large tank.","orbat":["Special Purpose Center \"Omega\""],"geolocation":["https://x.com/Kukulkan415/status/2099951026472153394"],"sources":["https://x.com/Kukulkan415/status/2099945125048639777","https://t.me/Centr_omega_NGU/10649"]}},{"type":"Feature","geometry":{"type":"Point","coordinates":[37.551193,48.594611]},"properties":{"original":{"Date":"2026-09-15","Name":"15 SEP 2026","Faction":"Russia","Origin":"UAV","Latitude":"48.594611","Longitude":"37.551193","PlusCode":"8GWVHHV2+RF Druzhkivka, Donetsk Oblast, Ukraine","Description":"0:13-end - Russian FAB-250 airstrike targeted a claimed  Ukrainian 100th Mechanized Brigade position","Source":"https://x.com/Volodimyrovich_/status/2099993474653098489, https://t.me/The_Wrong_Side/31136","Geolocation":"https://x.com/Volodimyrovich_/status/2099993384974733402","Equipment":"","EquipmentItems":"FAB-250M-54 | Airstrike","Units":"","OrbatUnits":"Russian Aerospace Forces (VKS) | 100th Mechanized Brigade","Id":"1501b9a4-3e0e-484c-9e6b-759a646881cb","icon":"/api/icons/E00000/False/template/10.png"},"source":"geoconfirmed","source_name":"GeoConfirmed","source_url":"https://geoconfirmed.org/map/ukraine","id":"1501b9a4-3e0e-484c-9e6b-759a646881cb","date":"2026-09-15","link":"https://geoconfirmed.org/map/ukraine/1501b9a4-3e0e-484c-9e6b-759a646881cb","category":"Shelling by artillery or aerial bombings - Location of the shelling, colour of who is shelling; Brown = UXO","side":"Russia","color":"#E00000","description":"0:13-end - Russian FAB-250 airstrike targeted a claimed  Ukrainian 100th Mechanized Brigade position","orbat":["Russian Aerospace Forces (VKS)","100th Mechanized Brigade"],"geolocation":["https://x.com/Volodimyrovich_/status/2099993384974733402"],"sources":["https://x.com/Volodimyrovich_/status/2099993474653098489","https://t.me/The_Wrong_Side/31136"]}},{"type":"Feature","geometry":{"type":"Point","coordinates":[37.800597,44.729147]},"properties":{"original":{"Date":"2026-09-15","Name":"15 SEP 2026","Faction":"Neutral","Origin":"VID","Latitude":"44.729147","Longitude":"37.800597","PlusCode":"8GPVPRH2+M6 Vostochnyy Rayon, Novorossiysk, Russia","Description":"Damaged ship (POV)","Source":"https://x.com/bayraktar_1love/status/2099803164790714738, https://www.instagram.com/reels/DdPLa5mMoAH/","Geolocation":"https://x.com/neonhandrail/status/2099830910640431120","Equipment":"","EquipmentItems":"","Units":"","OrbatUnits":"","Id":"882d53c7-4a94-4bd7-9ac1-7cb96022d436","icon":"/api/icons/AC7339/False/template/53.png"},"source":"geoconfirmed","source_name":"GeoConfirmed","source_url":"https://geoconfirmed.org/map/ukraine","id":"882d53c7-4a94-4bd7-9ac1-7cb96022d436","date":"2026-09-15","link":"https://geoconfirmed.org/map/ukraine/882d53c7-4a94-4bd7-9ac1-7cb96022d436","category":"Recently Destroyed/Damaged Large Ship (Military or Civilian depending on the colour)","side":"Neutral","color":"#AC7339","description":"Damaged ship (POV)","orbat":[],"geolocation":["https://x.com/neonhandrail/status/2099830910640431120"],"sources":["https://x.com/bayraktar_1love/status/2099803164790714738","https://www.instagram.com/reels/DdPLa5mMoAH/"]}},{"type":"Feature","geometry":{"type":"Point","coordinates":[36.63223,47.95513]},"properties":{"original":{"Date":"2026-09-15","Name":"15 SEP 2026","Faction":"Russia","Origin":"UAV","Latitude":"47.95513","Longitude":"36.63223","PlusCode":"8GVRXJ4J+3V Voskresenka, Donetsk Oblast, Ukraine","Description":"0:04 - Russian drone strike.","Source":"https://x.com/moklasen/status/2099919074356510898, https://t.me/voin_dv/21131","Geolocation":"https://x.com/moklasen/status/2099917458324799955","Equipment":"","EquipmentItems":"Molniya","Units":"","OrbatUnits":"69th Covering Brigade","Id":"f098349e-f54b-4c04-8351-863227c24870","icon":"/api/icons/E00000/False/template/111.png"},"source":"geoconfirmed","source_name":"GeoConfirmed","source_url":"https://geoconfirmed.org/map/ukraine","id":"f098349e-f54b-4c04-8351-863227c24870","date":"2026-09-15","link":"https://geoconfirmed.org/map/ukraine/f098349e-f54b-4c04-8351-863227c24870","category":"Short Range (<50km) OWAD (One Way Attack Drone), mostly rotary wing, Flying OR Attacking a target without knowing the outcome: if something is damaged --> icon of the damaged equipment.","side":"Russia","color":"#E00000","description":"0:04 - Russian drone strike.","orbat":["69th Covering Brigade"],"geolocation":["https://x.com/moklasen/status/2099917458324799955"],"sources":["https://x.com/moklasen/status/2099919074356510898","https://t.me/voin_dv/21131"]}},{"type":"Feature","geometry":{"type":"Point","coordinates":[37.63783,49.06246]},"properties":{"original":{"Date":"2026-09-15","Name":"15 SEP 2026","Faction":"Ukraine","Origin":"VID","Latitude":"49.06246","Longitude":"37.63783","PlusCode":"8GXV3J6Q+W6 Yarova, Donetsk Oblast, Ukraine","Description":"1:24 - Ukrainian soldiers from the 3rd Army Corps raised a Ukrainian flag in Yarova","Source":"https://x.com/RedHibana/status/2099784108993908978, https://t.me/ab3army/7468","Geolocation":"https://x.com/WagnerGeosint/status/2099776887539093857","Equipment":"","EquipmentItems":"","Units":"","OrbatUnits":"3rd Army Corps","Id":"317690bf-1cd0-4896-8c58-96b671a3be35","icon":"/api/icons/0051CA/False/icons/Ukraine/_CIRCLES_UA_56_FLAG.png"},"source":"geoconfirmed","source_name":"GeoConfirmed","source_url":"https://geoconfirmed.org/map/ukraine","id":"317690bf-1cd0-4896-8c58-96b671a3be35","date":"2026-09-15","link":"https://geoconfirmed.org/map/ukraine/317690bf-1cd0-4896-8c58-96b671a3be35","category":"_CIRCLES_UA_56_FLAG","side":"Ukraine","color":"#0051CA","description":"1:24 - Ukrainian soldiers from the 3rd Army Corps raised a Ukrainian flag in Yarova","orbat":["3rd Army Corps"],"geolocation":["https://x.com/WagnerGeosint/status/2099776887539093857"],"sources":["https://x.com/RedHibana/status/2099784108993908978","https://t.me/ab3army/7468"]}},{"type":"Feature","geometry":{"type":"Point","coordinates":[34.906075,50.304441]},"properties":{"original":{"Date":"2026-09-15","Name":"15 SEP 2026","Faction":"Neutral","Origin":"UAV","Latitude":"50.304441","Longitude":"34.906075","PlusCode":"9G2P8W34+QC Okhtyrka, Sumy Oblast, Ukraine","Description":"Destroyed Gas station.","Source":"https://x.com/MikiValbuena/status/2099743989205225619, https://t.me/lya_okhtyrka/3524","Geolocation":"https://x.com/MikiValbuena/status/2099743982272065586","Equipment":"","EquipmentItems":"","Units":"","OrbatUnits":"","Id":"7df40297-6c6a-4433-93f4-a20f0be7031c","icon":"/api/icons/AC7339/False/template/193.png"},"source":"geoconfirmed","source_name":"GeoConfirmed","source_url":"https://geoconfirmed.org/map/ukraine","id":"7df40297-6c6a-4433-93f4-a20f0be7031c","date":"2026-09-15","link":"https://geoconfirmed.org/map/ukraine/7df40297-6c6a-4433-93f4-a20f0be7031c","category":"Older destroyed infrastucture","side":"Neutral","color":"#AC7339","description":"Destroyed Gas station.","orbat":[],"geolocation":["https://x.com/MikiValbuena/status/2099743982272065586"],"sources":["https://x.com/MikiValbuena/status/2099743989205225619","https://t.me/lya_okhtyrka/3524"]}},{"type":"Feature","geometry":{"type":"Point","coordinates":[37.70733,49.12418]},"properties":{"original":{"Date":"2026-09-15","Name":"15 SEP 2026","Faction":"Ukraine","Origin":"UAV","Latitude":"49.12418","Longitude":"37.70733","PlusCode":"8GXV4PF4+MW Serednje, Donetsk Oblast, Ukraine","Description":"1:26-1:35 - Ukrainian soldiers from the 3rd Army Corps showed a flag to a drone in Serednje","Source":"https://x.com/RedHibana/status/2099784767424041056, https://t.me/ab3army/7468","Geolocation":"https://x.com/WagnerGeosint/status/2099768279833149784, https://t.me/creamy_caprice/12956","Equipment":"","EquipmentItems":"","Units":"","OrbatUnits":"3rd Army Corps","Id":"967d92c3-4921-4ae7-91e2-a9ee914d1165","icon":"/api/icons/0051CA/False/template/100.png"},"source":"geoconfirmed","source_name":"GeoConfirmed","source_url":"https://geoconfirmed.org/map/ukraine","id":"967d92c3-4921-4ae7-91e2-a9ee914d1165","date":"2026-09-15","link":"https://geoconfirmed.org/map/ukraine/967d92c3-4921-4ae7-91e2-a9ee914d1165","category":"Civilian or Soldier or Militant (Depending on the colour)","side":"Ukraine","color":"#0051CA","description":"1:26-1:35 - Ukrainian soldiers from the 3rd Army Corps showed a flag to a drone in Serednje","orbat":["3rd Army Corps"],"geolocation":["https://x.com/WagnerGeosint/status/2099768279833149784","https://t.me/creamy_caprice/12956"],"sources":["https://x.com/RedHibana/status/2099784767424041056","https://t.me/ab3army/7468"]}},{"type":"Feature","geometry":{"type":"Point","coordinates":[37.63804,49.06233]},"properties":{"original":{"Date":"2026-09-15","Name":"15 SEP 2026","Faction":"Ukraine","Origin":"VID","Latitude":"49.06233","Longitude":"37.63804","PlusCode":"8GXV3J6Q+W6 Yarova, Donetsk Oblast, Ukraine","Description":"1:23 - Ukrainian soldiers from the 3rd Army Corps showed a Ukrainian flag in Yarova","Source":"https://x.com/RedHibana/status/2099784108993908978, https://t.me/ab3army/7468","Geolocation":"https://x.com/WagnerGeosint/status/2099776887539093857","Equipment":"","EquipmentItems":"","Units":"","OrbatUnits":"3rd Army Corps","Id":"739bef9d-f161-480b-a9b5-ae103ad679cb","icon":"/api/icons/0051CA/False/template/100.png"},"source":"geoconfirmed","source_name":"GeoConfirmed","source_url":"https://geoconfirmed.org/map/ukraine","id":"739bef9d-f161-480b-a9b5-ae103ad679cb","date":"2026-09-15","link":"https://geoconfirmed.org/map/ukraine/739bef9d-f161-480b-a9b5-ae103ad679cb","category":"Civilian or Soldier or Militant (Depending on the colour)","side":"Ukraine","color":"#0051CA","description":"1:23 - Ukrainian soldiers from the 3rd Army Corps showed a Ukrainian flag in Yarova","orbat":["3rd Army Corps"],"geolocation":["https://x.com/WagnerGeosint/status/2099776887539093857"],"sources":["https://x.com/RedHibana/status/2099784108993908978","https://t.me/ab3army/7468"]}},{"type":"Feature","geometry":{"type":"Point","coordinates":[37.88389,49.08029]},"properties":{"original":{"Date":"2026-09-15","Name":"15 SEP 2026","Faction":"Russia","Origin":"UAV","Latitude":"49.08029","Longitude":"37.88389","PlusCode":"8GXV3VJM+4H Kolodyazi, Donetsk Oblast, Ukraine","Description":"0:18-0:19 - Russian FPV drone of the 144th Guards Motorized Rifle Division targeted a Ukrainian presence near Kolodyazi","Source":"https://x.com/meowqai/status/2099772419544146239, https://t.me/official144msd/4743","Geolocation":"https://x.com/meowqai/status/2099772419544146239, https://t.me/creamy_caprice/12964","Equipment":"","EquipmentItems":"FPV (First Person View) OWAD (One Way Attack Drone)","Units":"","OrbatUnits":"144th Guards Motorized Rifle Division","Id":"c5d136b4-c6a3-4bdc-8222-ae7f9348b664","icon":"/api/icons/E00000/False/template/111.png"},"source":"geoconfirmed","source_name":"GeoConfirmed","source_url":"https://geoconfirmed.org/map/ukraine","id":"c5d136b4-c6a3-4bdc-8222-ae7f9348b664","date":"2026-09-15","link":"https://geoconfirmed.org/map/ukraine/c5d136b4-c6a3-4bdc-8222-ae7f9348b664","category":"Short Range (<50km) OWAD (One Way Attack Drone), mostly rotary wing, Flying OR Attacking a target without knowing the outcome: if something is damaged --> icon of the damaged equipment.","side":"Russia","color":"#E00000","description":"0:18-0:19 - Russian FPV drone of the 144th Guards Motorized Rifle Division targeted a Ukrainian presence near Kolodyazi","orbat":["144th Guards Motorized Rifle Division"],"geolocation":["https://x.com/meowqai/status/2099772419544146239","https://t.me/creamy_caprice/12964"],"sources":["https://x.com/meowqai/status/2099772419544146239","https://t.me/official144msd/4743"]}},{"type":"Feature","geometry":{"type":"Point","coordinates":[37.69024,49.038228]},"properties":{"original":{"Date":"2026-09-15","Name":"15 SEP 2026","Faction":"Russia","Origin":"UAV","Latitude":"49.038228","Longitude":"37.69024","PlusCode":"8GXV2MQR+73 Drobysheve, Donetsk Oblast, Ukraine","Description":"0:46 - RU 9th Engineer-Sapper Regiment of the 25th CAA attacks UA logistics UGV with Fibre Optic FPV Drone","Source":"https://x.com/ZoamSc2/status/2099622741796376986, https://t.me/BV25org/3460","Geolocation":"https://x.com/ZoamSc2/status/2099622739535642644","Equipment":"","EquipmentItems":"Fiber Optic (FO) FPV (First Person View) OWAD (One Way Attack Drone) | Unmanned Ground Vehicle (UGV)","Units":"9th Engineer-Sapper Regiment of the 25th CAA","OrbatUnits":"25th Combined Arms Army","Id":"b233653e-635c-4b73-a137-b2e1bdf7e354","icon":"/api/icons/E00000/False/template/6794b7b0-8940-4487-bd43-83811dd2e91f.png"},"source":"geoconfirmed","source_name":"GeoConfirmed","source_url":"https://geoconfirmed.org/map/ukraine","id":"b233653e-635c-4b73-a137-b2e1bdf7e354","date":"2026-09-15","link":"https://geoconfirmed.org/map/ukraine/b233653e-635c-4b73-a137-b2e1bdf7e354","category":"Interception of a UGV - Colour of the force intercepting - If UGV destroyed --> Destroyed UGV icon instead.","side":"Russia","color":"#E00000","description":"0:46 - RU 9th Engineer-Sapper Regiment of the 25th CAA attacks UA logistics UGV with Fibre Optic FPV Drone","orbat":["25th Combined Arms Army"],"geolocation":["https://x.com/ZoamSc2/status/2099622739535642644"],"sources":["https://x.com/ZoamSc2/status/2099622741796376986","https://t.me/BV25org/3460"]}},{"type":"Feature","geometry":{"type":"Point","coordinates":[37.58551,49.12644]},"properties":{"original":{"Date":"2026-09-15","Name":"15 SEP 2026","Faction":"Ukraine","Origin":"VID","Latitude":"49.12644","Longitude":"37.58551","PlusCode":"8GXV4HGP+H6 Oleksandrivka, Donetsk Oblast, Ukraine","Description":"1:26 - Ukrainian soldiers from the 3rd Army Corps showed a Ukrainian flag in Oleksandrivka","Source":"https://x.com/RedHibana/status/2099783350378439122, https://t.me/ab3army/7468","Geolocation":"https://x.com/WagnerGeosint/status/2099779311448240359","Equipment":"","EquipmentItems":"","Units":"","OrbatUnits":"3rd Army Corps","Id":"e4427f79-9516-4476-b167-b39e9e3c3be5","icon":"/api/icons/0051CA/False/template/100.png"},"source":"geoconfirmed","source_name":"GeoConfirmed","source_url":"https://geoconfirmed.org/map/ukraine","id":"e4427f79-9516-4476-b167-b39e9e3c3be5","date":"2026-09-15","link":"https://geoconfirmed.org/map/ukraine/e4427f79-9516-4476-b167-b39e9e3c3be5","category":"Civilian or Soldier or Militant (Depending on the colour)","side":"Ukraine","color":"#0051CA","description":"1:26 - Ukrainian soldiers from the 3rd Army Corps showed a Ukrainian flag in Oleksandrivka","orbat":["3rd Army Corps"],"geolocation":["https://x.com/WagnerGeosint/status/2099779311448240359"],"sources":["https://x.com/RedHibana/status/2099783350378439122","https://t.me/ab3army/7468"]}},{"type":"Feature","geometry":{"type":"Point","coordinates":[32.558461,46.637289]},"properties":{"original":{"Date":"2026-09-15","Name":"15 SEP 2026","Faction":"Russia","Origin":"UAV","Latitude":"46.637289","Longitude":"32.558461","PlusCode":"8GRJJHP5+W9 Kherson, Kherson Oblast, Ukraine","Description":"Russian forces drone dropped a grenade on a person","Source":"https://x.com/99Dominik_/status/2099953879517421854, https://t.me/osvedomitell_alex/37843, ","Geolocation":"https://x.com/99Dominik_/status/2099953480760758332","Equipment":"","EquipmentItems":"(Multi-Purpose) Bomber UAV","Units":"","OrbatUnits":"","Id":"04b6d847-dbf6-4999-b27b-c94dc4dcb971","icon":"/api/icons/E00000/False/template/50.png"},"source":"geoconfirmed","source_name":"GeoConfirmed","source_url":"https://geoconfirmed.org/map/ukraine","id":"04b6d847-dbf6-4999-b27b-c94dc4dcb971","date":"2026-09-15","link":"https://geoconfirmed.org/map/ukraine/04b6d847-dbf6-4999-b27b-c94dc4dcb971","category":"Killed or wounded civilian. Potential Warcrime. In the colour of who is assessed as doing the attack/killing.","side":"Russia","color":"#E00000","description":"Russian forces drone dropped a grenade on a person","orbat":[],"geolocation":["https://x.com/99Dominik_/status/2099953480760758332"],"sources":["https://x.com/99Dominik_/status/2099953879517421854","https://t.me/osvedomitell_alex/37843"]}},{"type":"Feature","geometry":{"type":"Point","coordinates":[37.412782,48.33473]},"properties":{"original":{"Date":"2026-09-15","Name":"15 SEP 2026","Faction":"Ukraine","Origin":"UAV","Latitude":"48.33473","Longitude":"37.412782","PlusCode":"8GWV8CM7+V4 Malynivka, Donetsk Oblast, Ukraine","Description":"0:25-0:30 - A presumed Russian vehicle attacked by drone from 13th Legion of Omega. ","Source":"(1/2), https://x.com/Kukulkan415/status/2099945125048639777, https://t.me/Centr_omega_NGU/10649","Geolocation":"https://x.com/Kukulkan415/status/2099955433720987713","Equipment":"","EquipmentItems":"Fixed Wing OWAD (One Way Attack Drone)","Units":" 13th Legion of Omega ","OrbatUnits":"Special Purpose Center \"Omega\"","Id":"398495a4-c07b-485c-97e9-ccc8588b93fb","icon":"/api/icons/0051CA/False/template/111.png"},"source":"geoconfirmed","source_name":"GeoConfirmed","source_url":"https://geoconfirmed.org/map/ukraine","id":"398495a4-c07b-485c-97e9-ccc8588b93fb","date":"2026-09-15","link":"https://geoconfirmed.org/map/ukraine/398495a4-c07b-485c-97e9-ccc8588b93fb","category":"Short Range (<50km) OWAD (One Way Attack Drone), mostly rotary wing, Flying OR Attacking a target without knowing the outcome: if something is damaged --> icon of the damaged equipment.","side":"Ukraine","color":"#0051CA","description":"0:25-0:30 - A presumed Russian vehicle attacked by drone from 13th Legion of Omega.","orbat":["Special Purpose Center \"Omega\""],"geolocation":["https://x.com/Kukulkan415/status/2099955433720987713"],"sources":["https://x.com/Kukulkan415/status/2099945125048639777","https://t.me/Centr_omega_NGU/10649"]}},{"type":"Feature","geometry":{"type":"Point","coordinates":[24.230211,54.758547]},"properties":{"original":{"Date":"2026-09-15","Name":"15 SEP 2026","Faction":"NATO","Origin":"PIC","Latitude":"54.758547","Longitude":"24.230211","PlusCode":"9G66Q65J+C3 Kruonis, Kaišiadorys District Municipality, Lithuania","Description":"Security forces are at a roadblock, from a distance to the scene of a reported downed drone by the Italian Air Force. Police car and jeep visible","Source":"(1/2) https://x.com/giK1893/status/2099979208789201229, Posted by private source, , More information, https://x.com/Reuters/status/2099853239038734686, https://www.delfi.lt/naujienos/lietuvoje/lietuvos-kariuomene-dalijasi-pirmais-vaizdais-is-numusto-drono-nuolauzu-radimo-vietos-120304484#gallery-id=5d99af8a-58c5-4e91-b722-ae69bf51c388&image-id=ed3d3805-9c30-4de9-aa70-fd2a9dc6e296, https://www.delfi.lt/en/politics/uav-was-downed-5-km-from-kruonis-hydroelectric-power-plant-120304684, ","Geolocation":"(2/2), https://x.com/giK1893/status/2099979208789201229","Equipment":"","EquipmentItems":"","Units":"","OrbatUnits":"","Id":"2a70f0f0-8938-4281-9e20-e0dc03d70757","icon":"/api/icons/0A5900/False/template/100.png"},"source":"geoconfirmed","source_name":"GeoConfirmed","source_url":"https://geoconfirmed.org/map/ukraine","id":"2a70f0f0-8938-4281-9e20-e0dc03d70757","date":"2026-09-15","link":"https://geoconfirmed.org/map/ukraine/2a70f0f0-8938-4281-9e20-e0dc03d70757","category":"Civilian or Soldier or Militant (Depending on the colour)","side":"NATO","color":"#0A5900","description":"Security forces are at a roadblock, from a distance to the scene of a reported downed drone by the Italian Air Force. Police car and jeep visible","orbat":[],"geolocation":["https://x.com/giK1893/status/2099979208789201229"],"sources":["https://x.com/giK1893/status/2099979208789201229","https://x.com/Reuters/status/2099853239038734686","https://www.delfi.lt/naujienos/lietuvoje/lietuvos-kariuomene-dalijasi-pirmais-vaizdais-is-numusto-drono-nuolauzu-radimo-vietos-120304484#gallery-id=5d99af8a-58c5-4e91-b722-ae69bf51c388&image-id=ed3d3805-9c30-4de9-aa70-fd2a9dc6e296","https://www.delfi.lt/en/politics/uav-was-downed-5-km-from-kruonis-hydroelectric-power-plant-120304684"]}},{"type":"Feature","geometry":{"type":"Point","coordinates":[37.26368,48.2948]},"properties":{"original":{"Date":"2026-09-15","Name":"15 SEP 2026","Faction":"Ukraine","Origin":"UAV","Latitude":"48.2948","Longitude":"37.26368","PlusCode":"8GWV77V7+WF Myrnohrad, Donetsk Oblast, Ukraine","Description":"0:00-0:08 - The lift mechanism of a Russian BM-27 'Uragan' multiple launch rocket system (MLRS) is hits with a drone by the U2 Brotherhood unit","Source":"https://x.com/ayzin_illya/status/2099943419627897340, https://t.me/skarlatop/5718","Geolocation":"https://x.com/blinzka/status/2100012507091931519","Equipment":"","EquipmentItems":"Thermal FPV (First Person View) OWAD (One Way Attack Drone) | BM-27 \"Uragan\" / \"Ураган\"","Units":"U2 Brotherhood","OrbatUnits":"UAS Unit \"Project M2\"","Id":"62ee63c2-9d17-4189-8863-eb257fbf220c","icon":"/api/icons/0051CA/False/template/111.png"},"source":"geoconfirmed","source_name":"GeoConfirmed","source_url":"https://geoconfirmed.org/map/ukraine","id":"62ee63c2-9d17-4189-8863-eb257fbf220c","date":"2026-09-15","link":"https://geoconfirmed.org/map/ukraine/62ee63c2-9d17-4189-8863-eb257fbf220c","category":"Short Range (<50km) OWAD (One Way Attack Drone), mostly rotary wing, Flying OR Attacking a target without knowing the outcome: if something is damaged --> icon of the damaged equipment.","side":"Ukraine","color":"#0051CA","description":"0:00-0:08 - The lift mechanism of a Russian BM-27 'Uragan' multiple launch rocket system (MLRS) is hits with a drone by the U2 Brotherhood unit","orbat":["UAS Unit \"Project M2\""],"geolocation":["https://x.com/blinzka/status/2100012507091931519"],"sources":["https://x.com/ayzin_illya/status/2099943419627897340","https://t.me/skarlatop/5718"]}},{"type":"Feature","geometry":{"type":"Point","coordinates":[37.545736,49.906841]},"properties":{"original":{"Date":"2026-09-15","Name":"15 SEP 2026","Faction":"Russia","Origin":"UAV","Latitude":"49.906841","Longitude":"37.545736","PlusCode":"8GXVWG4W+P7 Stets'kivka, Kharkiv Oblast, Ukraine","Description":"0:00-0:14 - Claimed Ukrainian position of the 151st Mechanized Brigade hit by a Russian FAB-250 airstrike","Source":"https://x.com/juss_men/status/2099873565172523367, https://t.me/The_Wrong_Side/31136","Geolocation":"https://x.com/juss_men/status/2099873302218981875","Equipment":"","EquipmentItems":"Airstrike","Units":"","OrbatUnits":"151st Mechanized Brigade","Id":"3c5048d3-8ddf-4e02-8378-ed62b5998d74","icon":"/api/icons/E00000/False/template/10.png"},"source":"geoconfirmed","source_name":"GeoConfirmed","source_url":"https://geoconfirmed.org/map/ukraine","id":"3c5048d3-8ddf-4e02-8378-ed62b5998d74","date":"2026-09-15","link":"https://geoconfirmed.org/map/ukraine/3c5048d3-8ddf-4e02-8378-ed62b5998d74","category":"Shelling by artillery or aerial bombings - Location of the shelling, colour of who is shelling; Brown = UXO","side":"Russia","color":"#E00000","description":"0:00-0:14 - Claimed Ukrainian position of the 151st Mechanized Brigade hit by a Russian FAB-250 airstrike","orbat":["151st Mechanized Brigade"],"geolocation":["https://x.com/juss_men/status/2099873302218981875"],"sources":["https://x.com/juss_men/status/2099873565172523367","https://t.me/The_Wrong_Side/31136"]}},{"type":"Feature","geometry":{"type":"Point","coordinates":[48.438655,53.146956]},"properties":{"original":{"Date":"2026-09-15","Name":"15 SEP 2026","Faction":"Ukraine","Origin":"UAV","Latitude":"53.146956","Longitude":"48.438655","PlusCode":"9H5C4CWQ+QF Syzran, Samara Oblast, Russia","Description":"Syzran Oil Refinery in Russia is reportedly under a Ukrainian attack","Source":"https://x.com/FaytuksNetwork/status/2099639270675808619, https://t.me/exilenova_plus/30977","Geolocation":"https://x.com/Grimm_Intel/status/2099639928699093488","Equipment":"","EquipmentItems":"","Units":"","OrbatUnits":"","Id":"06fd0483-cfed-4410-adcc-f4139e0de4bd","icon":"/api/icons/0051CA/False/template/30.png"},"source":"geoconfirmed","source_name":"GeoConfirmed","source_url":"https://geoconfirmed.org/map/ukraine","id":"06fd0483-cfed-4410-adcc-f4139e0de4bd","date":"2026-09-15","link":"https://geoconfirmed.org/map/ukraine/06fd0483-cfed-4410-adcc-f4139e0de4bd","category":"Video - Always Point of View in description - In the colour of who is doing the attack or is responsable for the incident in the video.","side":"Ukraine","color":"#0051CA","description":"Syzran Oil Refinery in Russia is reportedly under a Ukrainian attack","orbat":[],"geolocation":["https://x.com/Grimm_Intel/status/2099639928699093488"],"sources":["https://x.com/FaytuksNetwork/status/2099639270675808619","https://t.me/exilenova_plus/30977"]}},{"type":"Feature","geometry":{"type":"Point","coordinates":[37.497763,48.36004]},"properties":{"original":{"Date":"2026-09-15","Name":"15 SEP 2026","Faction":"Ukraine","Origin":"UAV","Latitude":"48.36004","Longitude":"37.497763","PlusCode":"8GWV9F6X+24 Nova Poltavka, Donetsk Oblast, Ukraine","Description":"0:34 - Attack on a mobile firing group in Nova Poltavka.","Source":"(1/2), https://x.com/Kukulkan415/status/2099945125048639777, https://t.me/Centr_omega_NGU/10649","Geolocation":"https://x.com/meowqai/status/2099957400795050229","Equipment":"","EquipmentItems":"Fixed Wing OWAD (One Way Attack Drone)","Units":" 13th Legion of Omega ","OrbatUnits":"Special Purpose Center \"Omega\"","Id":"2b297c47-a823-4de0-ac73-fa0e7ea6f8f9","icon":"/api/icons/0051CA/False/template/111.png"},"source":"geoconfirmed","source_name":"GeoConfirmed","source_url":"https://geoconfirmed.org/map/ukraine","id":"2b297c47-a823-4de0-ac73-fa0e7ea6f8f9","date":"2026-09-15","link":"https://geoconfirmed.org/map/ukraine/2b297c47-a823-4de0-ac73-fa0e7ea6f8f9","category":"Short Range (<50km) OWAD (One Way Attack Drone), mostly rotary wing, Flying OR Attacking a target without knowing the outcome: if something is damaged --> icon of the damaged equipment.","side":"Ukraine","color":"#0051CA","description":"0:34 - Attack on a mobile firing group in Nova Poltavka.","orbat":["Special Purpose Center \"Omega\""],"geolocation":["https://x.com/meowqai/status/2099957400795050229"],"sources":["https://x.com/Kukulkan415/status/2099945125048639777","https://t.me/Centr_omega_NGU/10649"]}},{"type":"Feature","geometry":{"type":"Point","coordinates":[36.65066,48.02136]},"properties":{"original":{"Date":"2026-09-15","Name":"15 SEP 2026","Faction":"Russia","Origin":"UAV","Latitude":"48.02136","Longitude":"36.65066","PlusCode":"8GWR2MC2+G7 Piddubne, Donetsk Oblast, Ukraine","Description":"Russian BM-21 Grad rocket launcher strikes near Piddubne","Source":"https://x.com/moklasen/status/2099906876343201985, https://t.me/btr80/41348","Geolocation":"https://x.com/moklasen/status/2099906873159749891","Equipment":"","EquipmentItems":"BM-21 \"Grad\"","Units":"","OrbatUnits":"90th Guards Tank Division","Id":"9c92fe2c-8feb-4b33-be0e-fed1de07c2b7","icon":"/api/icons/E00000/False/template/10.png"},"source":"geoconfirmed","source_name":"GeoConfirmed","source_url":"https://geoconfirmed.org/map/ukraine","id":"9c92fe2c-8feb-4b33-be0e-fed1de07c2b7","date":"2026-09-15","link":"https://geoconfirmed.org/map/ukraine/9c92fe2c-8feb-4b33-be0e-fed1de07c2b7","category":"Shelling by artillery or aerial bombings - Location of the shelling, colour of who is shelling; Brown = UXO","side":"Russia","color":"#E00000","description":"Russian BM-21 Grad rocket launcher strikes near Piddubne","orbat":["90th Guards Tank Division"],"geolocation":["https://x.com/moklasen/status/2099906873159749891"],"sources":["https://x.com/moklasen/status/2099906876343201985","https://t.me/btr80/41348"]}}]}