{"type":"FeatureCollection","features":[{"type":"Feature","geometry":null,"properties":{"source":"ru_mod","source_name":"Ministry of Defence of Russia","group":"official_ru","id":68032,"posted_utc":"2026-10-08T02:06:01+00:00","link":"https://t.me/mod_russia/68032","text":"В полной готовности выполнять задачи ▫️\n🚀 В соответствии с планом подготовки Ракетных войск стратегического назначения на 2026 год, комиссией Командования РВСН проводится контрольная комплексная проверка Владимирского ракетного объединения с проведением командно-штабного учения с ракетным соединением стационарного базирования под руководством командующего РВСН генерал-полковника Сергея Каракаева.\n📑 Комиссия Командования РВСН по итогам учения оценит подготовку органов управления и выучку расчетов. Кроме того, к решению практических задач привлечены обеспечивающие силы (с выводом в районы предназначения), а также приданные формирования МВО.\n🔥 Помимо ракетного соединения стационарного базирования, на фоне учения на маршруты боевого патрулирования планово выведены автономные пусковые установки ракетных соединений мобильного базирования РВСН.\n▫️ В ходе учения расчеты ПГРК «Ярс» отрабатывают вопросы совершения маршей, рассредоточения ракетных дивизионов со сменой полевых позиций и преодолением участков условно зараженной местности, инженерного оборудования, организации маскировки и охранения.\n🎮 Для воздушной разведки маршрутов движения техники, поиска и обнаружения условных диверсантов задействуются армейская авиация и подразделения беспилотных систем РВСН с широким применением БПЛА.\n🔹 Основная цель учения – совершенствование слаженности органов военного управления.\n⬆️ В ходе проверки личный состав объединения демонстрирует высокий уровень выучки и готовность выполнить задачи по предназначению.\n🔹 Канал Минобороны России в MAКС – источник мощных новостей","links":["https://max.ru/morf"],"original_html":"<b>В полной готовности выполнять задачи </b><b><tg-emoji emoji-id=\"5352532894478793783\"><i class=\"emoji\" style=\"background-image:url('//telegram.org/img/emoji/40/E296AB.png')\"><b>▫️</b></i></tg-emoji></b><br/><br/><i class=\"emoji\" style=\"background-image:url('//telegram.org/img/emoji/40/F09F9A80.png')\"><b>🚀</b></i> В соответствии с планом подготовки Ракетных войск стратегического назначения на 2026 год, комиссией Командования РВСН <b>проводится контрольная комплексная проверка Владимирского ракетного объединения</b> с проведением командно-штабного учения с ракетным соединением стационарного базирования под руководством командующего РВСН <b>генерал-полковника Сергея Каракаева</b>.<br/><br/><tg-emoji emoji-id=\"5449382637477063656\"><i class=\"emoji\" style=\"background-image:url('//telegram.org/img/emoji/40/F09F9391.png')\"><b>📑</b></i></tg-emoji> Комиссия Командования РВСН по итогам учения оценит подготовку органов управления и выучку расчетов. Кроме того, к решению практических задач привлечены обеспечивающие силы (с выводом в районы предназначения), а также приданные формирования МВО.<br/><br/><tg-emoji emoji-id=\"5449590921916082144\"><i class=\"emoji\" style=\"background-image:url('//telegram.org/img/emoji/40/F09F94A5.png')\"><b>🔥</b></i></tg-emoji> Помимо ракетного соединения стационарного базирования, на фоне учения на маршруты боевого патрулирования планово <b>выведены автономные пусковые установки ракетных соединений мобильного базирования РВСН</b>.<br/><br/><tg-emoji emoji-id=\"5264796878809099818\"><i class=\"emoji\" style=\"background-image:url('//telegram.org/img/emoji/40/E296AB.png')\"><b>▫️</b></i></tg-emoji> В ходе учения<b> расчеты ПГРК «Ярс»</b> отрабатывают вопросы совершения маршей, рассредоточения ракетных дивизионов со сменой полевых позиций и преодолением участков условно зараженной местности, инженерного оборудования, организации маскировки и охранения.<br/><br/><tg-emoji emoji-id=\"5449767024165154360\"><i class=\"emoji\" style=\"background-image:url('//telegram.org/img/emoji/40/F09F8EAE.png')\"><b>🎮</b></i></tg-emoji> Для воздушной разведки маршрутов движения техники, поиска и обнаружения условных диверсантов задействуются <b>армейская авиация и подразделения беспилотных систем РВСН</b> с широким применением БПЛА.<br/><br/><tg-emoji emoji-id=\"5470000692406023380\"><i class=\"emoji\" style=\"background-image:url('//telegram.org/img/emoji/40/F09F94B9.png')\"><b>🔹</b></i></tg-emoji> <b>Основная цель учения</b> – совершенствование слаженности органов военного управления.<br/><br/><tg-emoji emoji-id=\"5469871229206816979\"><i class=\"emoji\" style=\"background-image:url('//telegram.org/img/emoji/40/E2AC86.png')\"><b>⬆️</b></i></tg-emoji> В ходе проверки личный состав объединения <b>демонстрирует высокий уровень выучки и готовность выполнить задачи по предназначению</b>.<br/><br/><tg-emoji emoji-id=\"5269510734265483362\"><i class=\"emoji\" style=\"background-image:url('//telegram.org/img/emoji/40/F09F94B9.png')\"><b>🔹</b></i></tg-emoji> <a href=\"https://max.ru/morf\" target=\"_blank\" rel=\"noopener\" onclick=\"return confirm('Open this link?\\n\\n'+this.href);\">Канал Минобороны России в MAКС – источник мощных новостей</a>"}},{"type":"Feature","geometry":null,"properties":{"source":"ru_mod","source_name":"Ministry of Defence of Russia","group":"official_ru","id":68033,"posted_utc":"2026-10-08T03:34:01+00:00","link":"https://t.me/mod_russia/68033","text":"Прилетели тандемом, выжгли дотла 🔥\n💥 Дроноводы группировки войск «Центр» уничтожили опорный пункт ВСУ на Днепропетровском направлении, применив нестандартную тактику – тандемный удар беспилотниками.\n#ВойскаБПС\n🎮 Канал Минобороны России в MAКС – боевая работа 24/7. Присоединяйся!","links":["https://max.ru/morf"],"original_html":"<b>Прилетели тандемом, выжгли дотла </b><b><tg-emoji emoji-id=\"5449590921916082144\"><i class=\"emoji\" style=\"background-image:url('//telegram.org/img/emoji/40/F09F94A5.png')\"><b>🔥</b></i></tg-emoji></b><br/><br/><tg-emoji emoji-id=\"5449682610877918293\"><i class=\"emoji\" style=\"background-image:url('//telegram.org/img/emoji/40/F09F92A5.png')\"><b>💥</b></i></tg-emoji> Дроноводы группировки войск «Центр» уничтожили опорный пункт ВСУ на Днепропетровском направлении, применив нестандартную тактику – тандемный удар беспилотниками. <br/><br/><a href=\"?q=%23%D0%92%D0%BE%D0%B9%D1%81%D0%BA%D0%B0%D0%91%D0%9F%D0%A1\">#ВойскаБПС</a><br/><tg-emoji emoji-id=\"5449767024165154360\"><i class=\"emoji\" style=\"background-image:url('//telegram.org/img/emoji/40/F09F8EAE.png')\"><b>🎮</b></i></tg-emoji> <a href=\"https://max.ru/morf\" target=\"_blank\" rel=\"noopener\" onclick=\"return confirm('Open this link?\\n\\n'+this.href);\">Канал Минобороны России в MAКС – боевая работа 24/7. Присоединяйся&#33;</a>"}},{"type":"Feature","geometry":null,"properties":{"source":"ru_mod","source_name":"Ministry of Defence of Russia","group":"official_ru","id":68034,"posted_utc":"2026-10-08T05:26:41+00:00","link":"https://t.me/mod_russia/68034","text":"⚡️ В течение прошедшей ночи, с 20.00 мск 7 октября до 8.00 мск 8 октября, дежурными силами ПВО перехвачены и уничтожены 399 украинских беспилотных летательных аппаратов самолетного типа над территориями Белгородской, Брянской, Волгоградской, Воронежской, Курской, Липецкой, Орловской, Оренбургской, Пензенской, Ростовской, Рязанской, Самарской, Саратовской, Смоленской, Тамбовской, Тульской, Ульяновской областей, Московского региона, Республики Башкортостан, Республики Крым, Республики Татарстан и над акваторией Черного моря.\n🔹 Минобороны России","links":["https://max.ru/morf"],"original_html":"<i class=\"emoji\" style=\"background-image:url('//telegram.org/img/emoji/40/E29AA1.png')\"><b>⚡️</b></i> В течение прошедшей ночи, с 20.00 мск 7 октября до 8.00 мск 8 октября, дежурными силами ПВО <b>перехвачены и уничтожены 399 украинских беспилотных летательных аппаратов самолетного типа</b> над территориями Белгородской, Брянской, Волгоградской, Воронежской, Курской, Липецкой, Орловской, Оренбургской, Пензенской, Ростовской, Рязанской, Самарской, Саратовской, Смоленской, Тамбовской, Тульской, Ульяновской областей, Московского региона, Республики Башкортостан, Республики Крым, Республики Татарстан и над акваторией Черного моря.<br/><br/><tg-emoji emoji-id=\"5269510734265483362\"><i class=\"emoji\" style=\"background-image:url('//telegram.org/img/emoji/40/F09F94B9.png')\"><b>🔹</b></i></tg-emoji> <a href=\"https://max.ru/morf\" target=\"_blank\" rel=\"noopener\" onclick=\"return confirm('Open this link?\\n\\n'+this.href);\">Минобороны России</a>"}},{"type":"Feature","geometry":null,"properties":{"source":"ru_mod","source_name":"Ministry of Defence of Russia","group":"official_ru","id":68035,"posted_utc":"2026-10-08T06:02:10+00:00","link":"https://t.me/mod_russia/68035","text":"Достали на пределе дальности\n💥 Артиллеристы 14-й бригады группировки «Центр» точным ударом «Мсты-Б» с дистанции 20 километров уничтожили замаскированный пункт управления БПЛА ВСУ в Доброполье.\n🔹Канал Минобороны России в MAКС – только для своих!","links":["https://max.ru/morf"],"original_html":"<b>Достали на пределе дальности</b><br/><br/><tg-emoji emoji-id=\"5449682610877918293\"><i class=\"emoji\" style=\"background-image:url('//telegram.org/img/emoji/40/F09F92A5.png')\"><b>💥</b></i></tg-emoji> Артиллеристы 14-й бригады группировки «Центр» точным ударом «Мсты-Б» с дистанции 20 километров <b>уничтожили замаскированный пункт управления БПЛА ВСУ</b> в Доброполье.<br/><br/><tg-emoji emoji-id=\"5269510734265483362\"><i class=\"emoji\" style=\"background-image:url('//telegram.org/img/emoji/40/F09F94B9.png')\"><b>🔹</b></i></tg-emoji><a href=\"https://max.ru/morf\" target=\"_blank\" rel=\"noopener\" onclick=\"return confirm('Open this link?\\n\\n'+this.href);\">Канал Минобороны России в MAКС – только для своих&#33;</a>"}},{"type":"Feature","geometry":null,"properties":{"source":"ru_mod","source_name":"Ministry of Defence of Russia","group":"official_ru","id":68036,"posted_utc":"2026-10-08T07:02:06+00:00","link":"https://t.me/mod_russia/68036","text":"Беспилотник можно сбить, а от снаряда врагу не спрятаться! Поэтому артиллерия — незаменимый род войск, — считает заместитель командира дивизиона 236-й гвардейской артиллерийской бригады с позывным «Золотой».\nЕго дивизион сейчас работает по правому берегу Краснооскольского водохранилища, ведя огонь из систем 2С19 «Мста-С»: «Все попытки прорвать нашу оборону мы пресекаем. У противника шансов нет».\nГерои в 📲 MAX,  📱 ВКонтакте и в 📱 Дзен","links":["https://max.ru/heroesofZ","https://vk.com/heroes0fz","http://dzen.ru/heroesofz"],"original_html":"Беспилотник можно сбить, а от снаряда врагу не спрятаться&#33; Поэтому артиллерия — незаменимый род войск, — считает заместитель командира дивизиона 236-й гвардейской артиллерийской бригады с позывным «Золотой».<br/><br/>Его дивизион сейчас работает по правому берегу Краснооскольского водохранилища, ведя огонь из систем 2С19 «Мста-С»: «Все попытки прорвать нашу оборону мы пресекаем. У противника шансов нет».<br/><br/><i>Герои в </i><i><tg-emoji emoji-id=\"5449407131675558756\"><i class=\"emoji\" style=\"background-image:url('//telegram.org/img/emoji/40/F09F93B2.png')\"><b>📲</b></i></tg-emoji></i><i> </i><a href=\"https://max.ru/heroesofZ\" target=\"_blank\" rel=\"noopener\" onclick=\"return confirm('Open this link?\\n\\n'+this.href);\"><i>MAX</i></a>,<i>  </i><i><tg-emoji emoji-id=\"5334853932915114338\"><i class=\"emoji\" style=\"background-image:url('//telegram.org/img/emoji/40/F09F93B1.png')\"><b>📱</b></i></tg-emoji></i><i> </i><a href=\"https://vk.com/heroes0fz\" target=\"_blank\" rel=\"noopener\" onclick=\"return confirm('Open this link?\\n\\n'+this.href);\"><i>ВКонтакте</i></a> <i>и в </i><i><tg-emoji emoji-id=\"5321533581472842536\"><i class=\"emoji\" style=\"background-image:url('//telegram.org/img/emoji/40/F09F93B1.png')\"><b>📱</b></i></tg-emoji></i><i> </i><a href=\"http://dzen.ru/heroesofz\" target=\"_blank\" rel=\"noopener\" onclick=\"return confirm('Open this link?\\n\\n'+this.href);\"><i>Дзен</i></a>"}},{"type":"Feature","geometry":null,"properties":{"source":"ru_mod","source_name":"Ministry of Defence of Russia","group":"official_ru","id":68037,"posted_utc":"2026-10-08T08:33:58+00:00","link":"https://t.me/mod_russia/68037","text":"💥 ФАБы бьют наверняка\nЭкипажи ВКС России накрыли пункты временной дислокации ВСУ в районах населенных пунктов Купино и Гогино в Харьковской области.\n▫️ Канал Минобороны России в MAКС – источник мощных новостей","links":["https://max.ru/morf"],"original_html":"<b><tg-emoji emoji-id=\"5449682610877918293\"><i class=\"emoji\" style=\"background-image:url('//telegram.org/img/emoji/40/F09F92A5.png')\"><b>💥</b></i></tg-emoji></b><b> ФАБы бьют наверняка<br/><br/>Экипажи ВКС России накрыли пункты временной дислокации ВСУ </b>в районах населенных пунктов Купино и Гогино в Харьковской области.<br/><br/><tg-emoji emoji-id=\"5352532894478793783\"><i class=\"emoji\" style=\"background-image:url('//telegram.org/img/emoji/40/E296AB.png')\"><b>▫️</b></i></tg-emoji> <a href=\"https://max.ru/morf\" target=\"_blank\" rel=\"noopener\" onclick=\"return confirm('Open this link?\\n\\n'+this.href);\">Канал Минобороны России в MAКС – источник мощных новостей</a>"}},{"type":"Feature","geometry":null,"properties":{"source":"ru_mod","source_name":"Ministry of Defence of Russia","group":"official_ru","id":68038,"posted_utc":"2026-10-08T08:45:37+00:00","link":"https://t.me/mod_russia/68038","text":"⚡️ Подразделения группировки войск «Север» взяли под контроль населенный пункт Аннополье в Харьковской области.\nПодробнее об успехах наших войск ➡️ в MAКС","links":["https://max.ru/morf","https://max.ru/morf/AaEavKAhI0w"],"original_html":"<a href=\"https://max.ru/morf\" target=\"_blank\" rel=\"noopener\" onclick=\"return confirm('Open this link?\\n\\n'+this.href);\"><i class=\"emoji\" style=\"background-image:url('//telegram.org/img/emoji/40/E29AA1.png')\"><b>⚡️</b></i></a> Подразделения группировки войск «Север» <b>взяли под контроль населенный пункт Аннополье</b> в Харьковской области.<br/><br/>Подробнее об успехах наших войск <tg-emoji emoji-id=\"5469902676957357453\"><i class=\"emoji\" style=\"background-image:url('//telegram.org/img/emoji/40/E29EA1.png')\"><b>➡️</b></i></tg-emoji> <a href=\"https://max.ru/morf/AaEavKAhI0w\" target=\"_blank\" rel=\"noopener\" onclick=\"return confirm('Open this link?\\n\\n'+this.href);\">в MAКС</a>"}},{"type":"Feature","geometry":null,"properties":{"source":"ru_mod","source_name":"Ministry of Defence of Russia","group":"official_ru","id":68040,"posted_utc":"2026-10-08T10:12:39+00:00","link":"https://t.me/mod_russia/68040","text":"Бейте их, наши соколики: дроноводы 51-й армии группировки «Центр» применяют современный дрон-перехватчик для борьбы с вражескими «птицами».\n⚙️ «Сокол-И» отличается малым весом и запускается с рук без применения пусковых установок. Максимальная высота полета достигает 5 000 метров, скорость – до 150 км/ч.\n💬 О боевом применении дрона рассказал командир отделения БПЛА с позывным «Винни»:\n«Взлетаем как только появляется цель, начинаем заходить, пикировать в поисках цели. Заходим на цель, если это противник, то начинаем сопровождать и «убивать», так скажем. Либо залетаем к нему в моторный отсек сзади и взрываемся, либо же можно «лечь» на него, протаранить его и взорваться, уже когда будем на противнике. Главное – увидеть. Если увидим, то убьем 100%».\n#ВойскаБПС\n🔹 Канал Минобороны России в MAКС – только для своих!","links":["https://max.ru/morf"],"original_html":"<b>Бейте их, наши соколики: </b>дроноводы 51-й армии группировки «Центр» <b>применяют современный дрон-перехватчик для борьбы с вражескими «птицами».</b><br/><b><br/></b><b><tg-emoji emoji-id=\"5469709747026421866\"><i class=\"emoji\" style=\"background-image:url('//telegram.org/img/emoji/40/E29A99.png')\"><b>⚙️</b></i></tg-emoji></b><b> «Сокол-И» отличается малым весом</b> и запускается с рук без применения пусковых установок. Максимальная высота полета достигает 5 000 метров, скорость – до 150 км/ч.<br/><b><br/></b><b><tg-emoji emoji-id=\"5447486370761176298\"><i class=\"emoji\" style=\"background-image:url('//telegram.org/img/emoji/40/F09F92AC.png')\"><b>💬</b></i></tg-emoji></b><b> О боевом применении дрона</b> рассказал командир отделения БПЛА с позывным «Винни»:<br/><br/><blockquote>«Взлетаем как только появляется цель, начинаем заходить, пикировать в поисках цели. Заходим на цель, если это противник, то начинаем сопровождать и «убивать», так скажем. Либо залетаем к нему в моторный отсек сзади и взрываемся, либо же можно «лечь» на него, протаранить его и взорваться, уже когда будем на противнике. Главное – увидеть. Если увидим, то убьем 100%».</blockquote><br/><br/><a href=\"?q=%23%D0%92%D0%BE%D0%B9%D1%81%D0%BA%D0%B0%D0%91%D0%9F%D0%A1\">#ВойскаБПС</a><br/><tg-emoji emoji-id=\"5269510734265483362\"><i class=\"emoji\" style=\"background-image:url('//telegram.org/img/emoji/40/F09F94B9.png')\"><b>🔹</b></i></tg-emoji> <a href=\"https://max.ru/morf\" target=\"_blank\" rel=\"noopener\" onclick=\"return confirm('Open this link?\\n\\n'+this.href);\">Канал Минобороны России в MAКС – только для своих&#33;</a>"}},{"type":"Feature","geometry":null,"properties":{"source":"ru_mod","source_name":"Ministry of Defence of Russia","group":"official_ru","id":68041,"posted_utc":"2026-10-08T11:38:33+00:00","link":"https://t.me/mod_russia/68041","text":"Ломаем оборону, зачищаем кварталы!\n📍 Штурмовые группы 51-й гвардейской общевойсковой армии группировки «Центр» при поддержке расчетов БПС продолжают продвигаться в центральной и северной частях Доброполья.\n🔥 Наступая на юго-запад, морская пехота Северного флота заняла спортивный комплекс, а также зачистила стадион и оставшуюся часть парковой зоны.\n🚩 За сутки освобождено 103 здания, уничтожено более 25 военнослужащих ВСУ.\n▫️ Канал Минобороны России в MAКС – боевая работа 24/7. Присоединяйся!","links":["https://t.me/mod_russia/68023","https://max.ru/morf"],"original_html":"<b>Ломаем оборону, зачищаем кварталы&#33; </b><br/><br/><tg-emoji emoji-id=\"5449396879588614682\"><i class=\"emoji\" style=\"background-image:url('//telegram.org/img/emoji/40/F09F938D.png')\"><b>📍</b></i></tg-emoji> Штурмовые группы 51-й гвардейской общевойсковой армии группировки «Центр» при поддержке расчетов БПС <a href=\"https://t.me/mod_russia/68023\" target=\"_blank\" rel=\"noopener\" onclick=\"return confirm('Open this link?\\n\\n'+this.href);\"><b>продолжают</b></a><b> продвигаться в центральной и северной частях Доброполья. </b><br/><br/><tg-emoji emoji-id=\"5449590921916082144\"><i class=\"emoji\" style=\"background-image:url('//telegram.org/img/emoji/40/F09F94A5.png')\"><b>🔥</b></i></tg-emoji> Наступая на юго-запад, морская пехота Северного флота <b>заняла спортивный комплекс, а также зачистила стадион и оставшуюся часть парковой зоны. </b><br/><br/><tg-emoji emoji-id=\"5447466081335670917\"><i class=\"emoji\" style=\"background-image:url('//telegram.org/img/emoji/40/F09F9AA9.png')\"><b>🚩</b></i></tg-emoji> За сутки <b>освобождено 103 здания</b>, уничтожено более 25 военнослужащих ВСУ.<br/><br/><tg-emoji emoji-id=\"5352866390099390792\"><i class=\"emoji\" style=\"background-image:url('//telegram.org/img/emoji/40/E296AB.png')\"><b>▫️</b></i></tg-emoji> <a href=\"https://max.ru/morf\" target=\"_blank\" rel=\"noopener\" onclick=\"return confirm('Open this link?\\n\\n'+this.href);\">Канал Минобороны России в MAКС – боевая работа 24/7. Присоединяйся&#33;</a>"}}]}