{"type":"FeatureCollection","features":[{"type":"Feature","geometry":{"type":"MultiPolygon","coordinates":[[[[37.94903,48.80984],[37.94236,48.81105],[37.94025,48.81327],[37.93166,48.81278],[37.92994,48.81732],[37.93255,48.81936],[37.92794,48.83903],[37.92052,48.83955],[37.92053,48.83998],[37.93018,48.84038],[37.94096,48.84389],[37.9526,48.8428],[37.95535,48.82655],[37.95518,48.82186],[37.95036,48.8134],[37.95555,48.80973],[37.95352,48.80023],[37.94903,48.80984]]],[[[37.72649,48.47945],[37.74268,48.48121],[37.74852,48.47794],[37.76195,48.48311],[37.77041,48.46952],[37.75495,48.47267],[37.74558,48.47402],[37.7218,48.472],[37.71615,48.48442],[37.72649,48.47945]]],[[[37.57001,50.23683],[37.586,50.23913],[37.59439,50.23387],[37.58662,50.23036],[37.59868,50.22149],[37.59865,50.22143],[37.56928,50.22982],[37.54458,50.23409],[37.53875,50.23587],[37.53979,50.23788],[37.57001,50.23683]]],[[[37.2427,48.42682],[37.24207,48.43376],[37.24442,48.43392],[37.24397,48.43759],[37.24657,48.43822],[37.25002,48.44264],[37.24883,48.45344],[37.26933,48.45705],[37.27719,48.46406],[37.28533,48.46848],[37.29578,48.46988],[37.30784,48.47472],[37.31838,48.47393],[37.33935,48.47373],[37.36486,48.47782],[37.36712,48.48189],[37.36728,48.48183],[37.36529,48.47292],[37.36003,48.47196],[37.35143,48.46391],[37.33909,48.4597],[37.3254,48.45891],[37.31844,48.4647],[37.30217,48.46476],[37.28728,48.46037],[37.27457,48.45205],[37.25896,48.44285],[37.24362,48.42932],[37.2482,48.42585],[37.23943,48.4261],[37.23942,48.42653],[37.2427,48.42682]]],[[[37.19376,48.36777],[37.1894,48.36903],[37.18947,48.37186],[37.1921,48.37424],[37.20003,48.37198],[37.20288,48.37779],[37.21594,48.37573],[37.21652,48.38052],[37.22819,48.38171],[37.22973,48.38724],[37.23609,48.39807],[37.2423,48.39904],[37.2397,48.41129],[37.24531,48.41145],[37.25655,48.41334],[37.25694,48.41013],[37.24999,48.40807],[37.2502,48.39979],[37.23661,48.3963],[37.23222,48.38833],[37.23137,48.37567],[37.22107,48.3755],[37.21954,48.36809],[37.2088,48.36393],[37.20226,48.36799],[37.19957,48.36837],[37.19541,48.36503],[37.19399,48.36082],[37.19391,48.36084],[37.19376,48.36777]]],[[[35.39205,50.69877],[35.38762,50.70388],[35.38849,50.70752],[35.39631,50.70731],[35.40834,50.70317],[35.40655,50.70263],[35.40127,50.69855],[35.39205,50.69877]]]]},"properties":{"source":"deepstate","source_name":"DeepStateMap","source_url":"https://deepstatemap.live/en","category":"gained","category_label":"Russian advance: became occupied","period":"7d","compared_with":"2026-07-31","snapshot_time":"2026-08-07","area_km2_approx":28.5}},{"type":"Feature","geometry":{"type":"MultiPolygon","coordinates":[[[[37.79822,48.56116],[37.80137,48.56579],[37.80894,48.56775],[37.81633,48.5696],[37.81451,48.56718],[37.81553,48.5629],[37.81203,48.56372],[37.80674,48.55193],[37.79822,48.56116]]],[[[37.22143,48.45765],[37.22473,48.45234],[37.23104,48.44076],[37.21375,48.43616],[37.20756,48.44289],[37.22143,48.45765]]],[[[37.18977,48.37864],[37.18869,48.39194],[37.18887,48.39198],[37.19492,48.37596],[37.17731,48.3789],[37.17736,48.37933],[37.18977,48.37864]]],[[[35.39631,50.70731],[35.38849,50.70752],[35.38762,50.70388],[35.39205,50.69877],[35.39507,50.6987],[35.39215,50.69516],[35.3858,50.69364],[35.37482,50.70983],[35.37745,50.73046],[35.41069,50.70983],[35.40333,50.70489],[35.39631,50.70731]]]]},"properties":{"source":"deepstate","source_name":"DeepStateMap","source_url":"https://deepstatemap.live/en","category":"ukrainian_to_contested","category_label":"Ukrainian-held became contested","period":"7d","compared_with":"2026-07-31","snapshot_time":"2026-08-07","area_km2_approx":8.4}}]}