{"type":"FeatureCollection","features":[{"type":"Feature","geometry":{"type":"Polygon","coordinates":[[[37.94903,48.80984],[37.94236,48.81105],[37.94025,48.81327],[37.93166,48.81278],[37.92994,48.81732],[37.93255,48.81936],[37.92794,48.83903],[37.92054,48.83955],[37.92055,48.83998],[37.93018,48.84038],[37.94096,48.84389],[37.9526,48.8428],[37.95535,48.82655],[37.95518,48.82186],[37.95036,48.8134],[37.95555,48.80973],[37.95352,48.80023],[37.94903,48.80984]]]},"properties":{"source":"deepstate","source_name":"DeepStateMap","source_url":"https://deepstatemap.live/en","category":"gained","category_label":"Newly Russian-occupied","period":"1d","compared_with":"2026-08-06","snapshot_time":"2026-08-07","area_km2_approx":6.3}}]}