{"type":"FeatureCollection","features":[{"type":"Feature","geometry":null,"properties":{"source":"ua_mod","source_name":"Ministry of Defence of Ukraine","group":"official_ua","id":16319,"posted_utc":"2026-10-06T09:22:06+00:00","link":"https://t.me/ministry_of_defense_ua/16319","text":"📈 Кілька рекордів програми єБали встановили Сили оборони у вересні.\nЗокрема, уражено найбільшу кількість засобів ППО, а також зафіксовано понад 11 000 ударів на глибині більш як 20 км.\nЗростає й дальність результативної роботи. Рекордною стала кількість ударів на відстані понад 50 км, а найбільше їх припало на логістичний маршрут Маріуполь – Крим.\nВартим уваги досягненням стало ураження засобу ППО противника на відстані 552 км.\nЗа вересень підтверджено ураження 33 087 окупантів. Більше було лише у березні та квітні 2026 року.\nПаралельно українська ППО посилила боротьбу з повітряними цілями: попри зростання кількості реактивних БпЛА, у вересні збито на 28% більше дронів типу «шахед», ніж місяцем раніше.\nУсі результати зафіксовані на відео в системі DELTA та верифіковані кластером оборонних інновацій Brave1.","links":[],"original_html":"<i class=\"emoji\" style=\"background-image:url('//telegram.org/img/emoji/40/F09F9388.png')\"><b>📈</b></i> <b>Кілька рекордів програми єБали встановили Сили оборони у вересні. <br/><br/></b>Зокрема, уражено найбільшу кількість засобів ППО, а також зафіксовано понад <b>11 000</b> ударів на глибині більш як 20 км.<br/><br/>Зростає й дальність результативної роботи. Рекордною стала кількість ударів на відстані понад 50 км, а найбільше їх припало на логістичний маршрут Маріуполь – Крим.<br/><br/>Вартим уваги досягненням стало ураження засобу ППО противника на відстані <b>552 км</b>.<br/><br/>За вересень підтверджено ураження <b>33 087 окупантів</b>. Більше було лише у березні та квітні 2026 року.<br/><br/>Паралельно українська ППО посилила боротьбу з повітряними цілями: попри зростання кількості реактивних БпЛА, у вересні збито на <b>28% </b>більше дронів типу «шахед», ніж місяцем раніше.<br/><br/>Усі результати зафіксовані на відео в системі DELTA та верифіковані кластером оборонних інновацій Brave1."}},{"type":"Feature","geometry":null,"properties":{"source":"ua_mod","source_name":"Ministry of Defence of Ukraine","group":"official_ua","id":16320,"posted_utc":"2026-10-06T10:55:36+00:00","link":"https://t.me/ministry_of_defense_ua/16320","text":"Провів селектор з урядовцями, військовими та всіма ключовими службами. Перше: міністр оборони та командувач Повітряних Сил доповіли про розподіл засобів захисту неба й організацію рубежів прикриття визначених ключових обʼєктів. Необхідну амуніцію для F-16, засоби перехоплення, протиракети забезпечуємо. Найскладніше з антибалістикою, і наявність цього постачання залежить виключно від партнерів. Працюємо з ними в щоденному режимі.\nДруге: за цю добу росіяни атакували кілька українських лікарень – в Краматорську та Кривому Розі. Служби спрацювали, і важливо, що в усіх наших регіонах по кожній такій ситуації є оперативна реакція ДСНС України. Дякую за фахову роботу!\nТретє: урядовці разом з представниками обласних влад підготували додаткові логістичні рішення у відповідь на російську операцію проти української логістики. Отримали сьогодні оновлену інформацію від розвідки щодо підготовки росіян до масованого удару. Готуємо протидію. Визначили строки виконання значної частини завдань, першочергові вже реалізовуються. Дякую всім, хто захищає нашу державу і людей!","links":[],"original_html":"<div class=\"tgme_widget_message_text js-message_text\" dir=\"auto\">Провів селектор з урядовцями, військовими та всіма ключовими службами. Перше: міністр оборони та командувач Повітряних Сил доповіли про розподіл засобів захисту неба й організацію рубежів прикриття визначених ключових обʼєктів. Необхідну амуніцію для F-16, засоби перехоплення, протиракети забезпечуємо. Найскладніше з антибалістикою, і наявність цього постачання залежить виключно від партнерів. Працюємо з ними в щоденному режимі. <br/><br/>Друге: за цю добу росіяни атакували кілька українських лікарень – в Краматорську та Кривому Розі. Служби спрацювали, і важливо, що в усіх наших регіонах по кожній такій ситуації є оперативна реакція ДСНС України. Дякую за фахову роботу&#33; <br/><br/>Третє: урядовці разом з представниками обласних влад підготували додаткові логістичні рішення у відповідь на російську операцію проти української логістики. Отримали сьогодні оновлену інформацію від розвідки щодо підготовки росіян до масованого удару. Готуємо протидію. Визначили строки виконання значної частини завдань, першочергові вже реалізовуються. Дякую всім, хто захищає нашу державу і людей&#33;"}},{"type":"Feature","geometry":null,"properties":{"source":"ua_mod","source_name":"Ministry of Defence of Ukraine","group":"official_ua","id":16323,"posted_utc":"2026-10-06T11:43:28+00:00","link":"https://t.me/ministry_of_defense_ua/16323","text":"🫂 Заступниця Міністра оборони України Любов Галан зустрілася з родинами американських добровольців, які долучилися до Сил оборони України та загинули, захищаючи нашу країну від російської агресії.\nЛюбов Галан подякувала рідним за подвиг їхніх близьких: «Вони – сини своєї Батьківщини, але в скрутний момент стали братами для українців, стали воїнами української армії».\nМи пам’ятаємо кожного, хто віддав життя за свободу України. І вдячні родинам, які несуть пам’ять про своїх близьких. Наш обов’язок сьогодні: надати родинам іноземних добровольців належний супровід та всебічну підтримку.\nЗустріч відбулася за підтримки R.T. Weatherman Foundation.\n«Наш Фонд супроводжує родини іноземних захисників: допомагає отримувати інформацію, проходити ідентифікацію та репатріацію, оформлювати документи й взаємодіяти з українськими інституціями. Ми бачимо, де саме система потребує змін. Історії родин різні, але труднощі часто схожі. Важливо, щоб про них дізналися ті, хто сьогодні змінює систему підтримки іноземних захисників», – зазначила Лорен Гійом, директорка R.T. Weatherman Foundation в Україні.\nПріоритетом Міноборони зараз є удосконалення механізму офіційного сповіщення родин про загибель або зникнення військовослужбовця, пришвидшення взаємодії між військовими частинами та державними органами, спрощення процедур, а також забезпечення виплат і соціальних гарантій.","links":[],"original_html":"<div class=\"tgme_widget_message_text js-message_text\" dir=\"auto\"><i class=\"emoji\" style=\"background-image:url('//telegram.org/img/emoji/40/F09FAB82.png')\"><b>🫂</b></i><b> Заступниця Міністра оборони України Любов Галан зустрілася з родинами американських добровольців, які долучилися до Сил оборони України та загинули, захищаючи нашу країну від російської агресії. <br/></b><br/>Любов Галан подякувала рідним за подвиг їхніх близьких: «Вони – сини своєї Батьківщини, але в скрутний момент стали братами для українців, стали воїнами української армії».<br/><br/>Ми пам’ятаємо кожного, хто віддав життя за свободу України. І вдячні родинам, які несуть пам’ять про своїх близьких. Наш обов’язок сьогодні: надати родинам іноземних добровольців належний супровід та всебічну підтримку.<br/><br/>Зустріч відбулася за підтримки R.T. Weatherman Foundation.<br/><br/>«Наш Фонд супроводжує родини іноземних захисників: допомагає отримувати інформацію, проходити ідентифікацію та репатріацію, оформлювати документи й взаємодіяти з українськими інституціями. Ми бачимо, де саме система потребує змін. Історії родин різні, але труднощі часто схожі. Важливо, щоб про них дізналися ті, хто сьогодні змінює систему підтримки іноземних захисників», – зазначила Лорен Гійом, директорка R.T. Weatherman Foundation в Україні.<br/><br/>Пріоритетом Міноборони зараз є удосконалення механізму офіційного сповіщення родин про загибель або зникнення військовослужбовця, пришвидшення взаємодії між військовими частинами та державними органами, спрощення процедур, а також забезпечення виплат і соціальних гарантій."}},{"type":"Feature","geometry":null,"properties":{"source":"ua_mod","source_name":"Ministry of Defence of Ukraine","group":"official_ua","id":16327,"posted_utc":"2026-10-06T12:28:27+00:00","link":"https://t.me/ministry_of_defense_ua/16327","text":"✅ Міноборони спільно з Генштабом та Командуванням Сил логістики вивільнять 15,6 млрд грн на актуальні потреби війська.\nТехнології, способи ведення бойових дій і потреби підрозділів швидко змінюються. Те, що планувалося до закупівлі у 2024–2025 роках, сьогодні може вже не відповідати ситуації на фронті.\nТому Міноборони разом із Генеральним штабом та Командування Сил логістики проаналізували актуальні потреби війська, чинні контракти та заплановані закупівлі. В результаті вивільниться 15,6 млрд грн. Ці кошти будуть спрямовані на те забезпечення, що наразі є більш пріоритетним для війська.\nСеред причин перегляду:\n• характеристики окремих засобів уже не відповідають актуальним бойовим завданням;\n• постачальники не можуть виготовити запланований обсяг;\n• окремі зразки досі не пройшли кодифікацію;\n• частину потреб повністю закривають партнери;\n• деякі завдання можна виконувати дешевшими засобами, закупивши їх у більшій кількості.\nЧастину контрактів буде розірвано, частину запланованих закупівель не проводитимуть. Усі рішення щодо чинних контрактів реалізовуватимуть відповідно до законодавства.\nВиробники, яких стосуються зміни, були проінформовані та мали комунікацію з Агенцією оборонних закупівель ДОТ щодо подальших дій за контрактами із врахуванням стану виконання та здійснення оплат.\nПерелік озброєння, закупівлі якого переглянули, не оприлюднюємо з міркувань безпеки.","links":[],"original_html":"<i class=\"emoji\" style=\"background-image:url('//telegram.org/img/emoji/40/E29C85.png')\"><b>✅</b></i> <b>Міноборони спільно з Генштабом та Командуванням Сил логістики вивільнять 15,6 млрд грн на актуальні потреби війська</b>.<br/><br/>Технології, способи ведення бойових дій і потреби підрозділів швидко змінюються. Те, що планувалося до закупівлі у 2024–2025 роках, сьогодні може вже не відповідати ситуації на фронті.<br/><br/>Тому Міноборони разом із Генеральним штабом та Командування Сил логістики проаналізували актуальні потреби війська, чинні контракти та заплановані закупівлі. В результаті вивільниться 15,6 млрд грн. Ці кошти будуть спрямовані на те забезпечення, що наразі є більш пріоритетним для війська.<br/><br/><u>Серед причин перегляду:</u><br/>• характеристики окремих засобів уже не відповідають актуальним бойовим завданням;<br/>• постачальники не можуть виготовити запланований обсяг;<br/>• окремі зразки досі не пройшли кодифікацію;<br/>• частину потреб повністю закривають партнери;<br/>• деякі завдання можна виконувати дешевшими засобами, закупивши їх у більшій кількості.<br/><br/>Частину контрактів буде розірвано, частину запланованих закупівель не проводитимуть. Усі рішення щодо чинних контрактів реалізовуватимуть відповідно до законодавства.<br/><br/>Виробники, яких стосуються зміни, були проінформовані та мали комунікацію з Агенцією оборонних закупівель ДОТ щодо подальших дій за контрактами із врахуванням стану виконання та здійснення оплат.<br/><br/>Перелік озброєння, закупівлі якого переглянули, не оприлюднюємо з міркувань безпеки."}},{"type":"Feature","geometry":null,"properties":{"source":"ua_mod","source_name":"Ministry of Defence of Ukraine","group":"official_ua","id":16328,"posted_utc":"2026-10-06T14:39:40+00:00","link":"https://t.me/ministry_of_defense_ua/16328","text":"❗️ Штрафи до 51 000 грн пропонують встановити за самовільне проникнення на військові об’єкти.\nКабінет Міністрів схвалив розроблений Міноборони законопроєкт, який запроваджує адміністративну відповідальність за це порушення.\nРозмір штрафу залежатиме від обставин:\n• від 8 500 до 17 000 грн – базовий склад правопорушення;\n• до 34 000 грн – за повторне протягом року порушення;\n• до 51 000 грн – за проникнення в умовах особливого періоду.\nЗаконопроєкт визначає й саме поняття військового об’єкта. Це, зокрема, охоронювані та відповідно позначені території, будівлі й споруди, а також військові транспортні засоби, техніка та озброєння.\nЗміни мають посилити захист військових об’єктів, зменшити ризик розголошення інформації про їхнє розташування та інфраструктуру, підвищити безпеку цивільних.\nДокумент зареєстрований у Верховній Раді. Щоб зміни набули чинності, його має підтримати парламент і підписати Президент.","links":[],"original_html":"<i class=\"emoji\" style=\"background-image:url('//telegram.org/img/emoji/40/E29D97.png')\"><b>❗️</b></i> <b>Штрафи до 51 000 грн пропонують встановити за самовільне проникнення на військові об’єкти.</b><br/><br/>Кабінет Міністрів схвалив розроблений Міноборони законопроєкт, який запроваджує адміністративну відповідальність за це порушення.<br/><br/><u>Розмір штрафу залежатиме від обставин:</u><br/>• від 8 500 до 17 000 грн – базовий склад правопорушення;<br/>• до 34 000 грн – за повторне протягом року порушення;<br/>• до 51 000 грн – за проникнення в умовах особливого періоду.<br/><br/>Законопроєкт визначає й саме поняття військового об’єкта. Це, зокрема, охоронювані та відповідно позначені території, будівлі й споруди, а також військові транспортні засоби, техніка та озброєння. <br/><br/>Зміни мають посилити захист військових об’єктів, зменшити ризик розголошення інформації про їхнє розташування та інфраструктуру, підвищити безпеку цивільних.<br/><br/>Документ зареєстрований у Верховній Раді. Щоб зміни набули чинності, його має підтримати парламент і підписати Президент."}},{"type":"Feature","geometry":null,"properties":{"source":"ua_mod","source_name":"Ministry of Defence of Ukraine","group":"official_ua","id":16329,"posted_utc":"2026-10-06T15:31:03+00:00","link":"https://t.me/ministry_of_defense_ua/16329","text":"Провів Ставку. Детальні доповіді по спроможностях систем РЕБ, по застосуванню РЕБ для захисту інфраструктури. Саме цей компонент нашої оборони забезпечує значну частину знешкодження російських «шахедів». Визначили додаткові завдання для ЗСУ та виробників – масштабуємо найбільш ефективні підходи.\nБула доповідь ГУР по технологічних пріоритетах росіян на цей і наступний роки, а також про відповідне постачання в Росію критичних компонентів та обладнання для виробництва зброї. Щодо цього будуть підготовлені наші нові пакети санкцій, ГУР надасть свої пропозиції Кабінету Міністрів та РНБО. Працюємо і щодо синхронізації наших санкцій в юрисдикціях партнерів.\nСьогодні ж визначили й основні завдання по забезпеченню українських сил далекобійними дронами на наступний рік. Головний критерій – у нас має бути здатність дзеркально відповідати на російські удари.\nСлава Україні!","links":[],"original_html":"<div class=\"tgme_widget_message_text js-message_text\" dir=\"auto\">Провів Ставку. Детальні доповіді по спроможностях систем РЕБ, по застосуванню РЕБ для захисту інфраструктури. Саме цей компонент нашої оборони забезпечує значну частину знешкодження російських «шахедів». Визначили додаткові завдання для ЗСУ та виробників – масштабуємо найбільш ефективні підходи. <br/><br/>Була доповідь ГУР по технологічних пріоритетах росіян на цей і наступний роки, а також про відповідне постачання в Росію критичних компонентів та обладнання для виробництва зброї. Щодо цього будуть підготовлені наші нові пакети санкцій, ГУР надасть свої пропозиції Кабінету Міністрів та РНБО. Працюємо і щодо синхронізації наших санкцій в юрисдикціях партнерів. <br/><br/>Сьогодні ж визначили й основні завдання по забезпеченню українських сил далекобійними дронами на наступний рік. Головний критерій – у нас має бути здатність дзеркально відповідати на російські удари. <br/><br/>Слава Україні&#33;"}}]}