{"type":"FeatureCollection","features":[{"type":"Feature","geometry":{"type":"Point","coordinates":[39.002735,48.491093]},"properties":{"original":{"Date":"2026-08-31","Name":"31 AUG 2026","Faction":"Russia","Origin":"VID","Latitude":"48.491093","Longitude":"39.002735","PlusCode":"8GWXF2R3+C3 Yur'ivka, Luhansk Oblast, Ukraine","Description":"Destroyed Russian 9T243M transloader (for 9K317M Buk-M3)","Source":"https://x.com/99Dominik_/status/2094670822661091553, https://t.me/WS_videos/4315, https://ukr.warspotting.net/view/46768/","Geolocation":"https://x.com/99Dominik_/status/2094670670596575537","Equipment":"9T243M transloader","EquipmentItems":"","Units":"","OrbatUnits":"","Id":"f737bd01-5d6e-4cbc-8707-03c6c9097710","icon":"/api/icons/E00000/False/template/62.png"},"source":"geoconfirmed","source_name":"GeoConfirmed","source_url":"https://geoconfirmed.org/map/ukraine","id":"f737bd01-5d6e-4cbc-8707-03c6c9097710","date":"2026-08-31","link":"https://geoconfirmed.org/map/ukraine/f737bd01-5d6e-4cbc-8707-03c6c9097710","category":"Recently Destroyed/Damaged[Visible in footage] Logistical Trucks (Soft skin OR armoured)","side":"Russia","color":"#E00000","description":"Destroyed Russian 9T243M transloader (for 9K317M Buk-M3)","orbat":[],"geolocation":["https://x.com/99Dominik_/status/2094670670596575537"],"sources":["https://x.com/99Dominik_/status/2094670822661091553","https://t.me/WS_videos/4315","https://ukr.warspotting.net/view/46768/"]}},{"type":"Feature","geometry":{"type":"Point","coordinates":[38.02173,48.276892]},"properties":{"original":{"Date":"2026-08-31","Name":"31 AUG 2026","Faction":"Ukraine","Origin":"UAV","Latitude":"48.276892","Longitude":"38.02173","PlusCode":"8GWV5V8R+73 Vasylivka, Donetsk Oblast, Ukraine","Description":"1:02-1:23 - Ukrainian Battalion of unmanned strike aerial systems \"Signum\" targeted a vehicle with a FPV drone","Source":"https://x.com/PuenteUribarri/status/2094356040150073693, https://t.me/umftteam/1099","Geolocation":"https://x.com/MikiValbuena/status/2094424994801418415","Equipment":"","EquipmentItems":"FPV (First Person View) OWAD (One Way Attack Drone)","Units":"","OrbatUnits":"Battalion of unmanned strike aerial systems \"Signum\"","Id":"9ad19661-0987-4171-a1a4-275fa03eb5e2","icon":"/api/icons/0051CA/False/template/111.png"},"source":"geoconfirmed","source_name":"GeoConfirmed","source_url":"https://geoconfirmed.org/map/ukraine","id":"9ad19661-0987-4171-a1a4-275fa03eb5e2","date":"2026-08-31","link":"https://geoconfirmed.org/map/ukraine/9ad19661-0987-4171-a1a4-275fa03eb5e2","category":"Short Range (<50km) OWAD (One Way Attack Drone), mostly rotary wing, Flying OR Attacking a target without knowing the outcome: if something is damaged --> icon of the damaged equipment.","side":"Ukraine","color":"#0051CA","description":"1:02-1:23 - Ukrainian Battalion of unmanned strike aerial systems \"Signum\" targeted a vehicle with a FPV drone","orbat":["Battalion of unmanned strike aerial systems \"Signum\""],"geolocation":["https://x.com/MikiValbuena/status/2094424994801418415"],"sources":["https://x.com/PuenteUribarri/status/2094356040150073693","https://t.me/umftteam/1099"]}},{"type":"Feature","geometry":{"type":"Point","coordinates":[37.678825,48.537489]},"properties":{"original":{"Date":"2026-08-31","Name":"31 AUG 2026","Faction":"Russia","Origin":"UAV","Latitude":"48.537489","Longitude":"37.678825","PlusCode":"8GWVGMPH+XG Kostyantynivka, Donetsk Oblast, Ukraine","Description":"0:13-0:16 - The 28th Separate Mechanized Brigade conducted shelling on Kostyantynivka, which presumably killed a Russian soldier in Kostyantynivka as a result of the shelling.","Source":"https://x.com/AudaxonX/status/2102677656928166020, https://t.me/ombr_28/3272","Geolocation":"https://x.com/AudaxonX/status/2102677671800955021, ","Equipment":"","EquipmentItems":"Artillery","Units":"","OrbatUnits":"28th Separate Mechanized Brigade named after the Knights of the First Winter Campaign","Id":"b2201d02-26c5-4d27-97bc-2db6b54d2453","icon":"/api/icons/E00000/False/template/92.png"},"source":"geoconfirmed","source_name":"GeoConfirmed","source_url":"https://geoconfirmed.org/map/ukraine","id":"b2201d02-26c5-4d27-97bc-2db6b54d2453","date":"2026-08-31","link":"https://geoconfirmed.org/map/ukraine/b2201d02-26c5-4d27-97bc-2db6b54d2453","category":"WIA/KIA Soldier/Militant","side":"Russia","color":"#E00000","description":"0:13-0:16 - The 28th Separate Mechanized Brigade conducted shelling on Kostyantynivka, which presumably killed a Russian soldier in Kostyantynivka as a result of the shelling.","orbat":["28th Separate Mechanized Brigade named after the Knights of the First Winter Campaign"],"geolocation":["https://x.com/AudaxonX/status/2102677671800955021"],"sources":["https://x.com/AudaxonX/status/2102677656928166020","https://t.me/ombr_28/3272"]}},{"type":"Feature","geometry":{"type":"Point","coordinates":[37.701143,48.524465]},"properties":{"original":{"Date":"2026-08-31","Name":"31 AUG 2026","Faction":"Ukraine","Origin":"UAV","Latitude":"48.524465","Longitude":"37.701143","PlusCode":"8GWVGPF2+QF Kostyantynivka, Donetsk Oblast, Ukraine","Description":"0:35-0:37  - Rough location - The 28th Separate Mechanized Brigade shells near a building on the premises of Factory \"Stroysteklo\" (Konstantinovka)","Source":"https://x.com/AudaxonX/status/2102677656928166020, https://t.me/ombr_28/3272","Geolocation":"https://x.com/AudaxonX/status/2102677738402582706","Equipment":"","EquipmentItems":"Artillery","Units":"","OrbatUnits":"28th Separate Mechanized Brigade named after the Knights of the First Winter Campaign","Id":"74153f76-d871-4a6c-9c01-2f702407af1d","icon":"/api/icons/0051CA/False/template/10.png"},"source":"geoconfirmed","source_name":"GeoConfirmed","source_url":"https://geoconfirmed.org/map/ukraine","id":"74153f76-d871-4a6c-9c01-2f702407af1d","date":"2026-08-31","link":"https://geoconfirmed.org/map/ukraine/74153f76-d871-4a6c-9c01-2f702407af1d","category":"Shelling by artillery or aerial bombings - Location of the shelling, colour of who is shelling; Brown = UXO","side":"Ukraine","color":"#0051CA","description":"0:35-0:37  - Rough location - The 28th Separate Mechanized Brigade shells near a building on the premises of Factory \"Stroysteklo\" (Konstantinovka)","orbat":["28th Separate Mechanized Brigade named after the Knights of the First Winter Campaign"],"geolocation":["https://x.com/AudaxonX/status/2102677738402582706"],"sources":["https://x.com/AudaxonX/status/2102677656928166020","https://t.me/ombr_28/3272"]}},{"type":"Feature","geometry":{"type":"Point","coordinates":[35.636227,47.220654]},"properties":{"original":{"Date":"2026-08-31","Name":"31 AUG 2026","Faction":"Ukraine","Origin":"UAV","Latitude":"47.220654","Longitude":"35.636227","PlusCode":"8GVQ6JCP+7F Petershahen, Zaporizhia Oblast, Ukraine","Description":"2:26-end - Russian vehicle targeted by a Ukrainian FPV drone of the 'Ronin' Company of attack unmanned aircraft systems of the 65th Brigade","Source":"https://x.com/PuenteUribarri/status/2094456375489257889, https://t.me/Ronins_65/1408, ","Geolocation":"https://x.com/Kukulkan415/status/2094529687410081888","Equipment":"","EquipmentItems":"FPV (First Person View) OWAD (One Way Attack Drone)","Units":"","OrbatUnits":"Unmanned Systems Battalion \"Ronin\"","Id":"ecf2bce2-ca82-4ac0-8ea3-333595273550","icon":"/api/icons/0051CA/False/template/111.png"},"source":"geoconfirmed","source_name":"GeoConfirmed","source_url":"https://geoconfirmed.org/map/ukraine","id":"ecf2bce2-ca82-4ac0-8ea3-333595273550","date":"2026-08-31","link":"https://geoconfirmed.org/map/ukraine/ecf2bce2-ca82-4ac0-8ea3-333595273550","category":"Short Range (<50km) OWAD (One Way Attack Drone), mostly rotary wing, Flying OR Attacking a target without knowing the outcome: if something is damaged --> icon of the damaged equipment.","side":"Ukraine","color":"#0051CA","description":"2:26-end - Russian vehicle targeted by a Ukrainian FPV drone of the 'Ronin' Company of attack unmanned aircraft systems of the 65th Brigade","orbat":["Unmanned Systems Battalion \"Ronin\""],"geolocation":["https://x.com/Kukulkan415/status/2094529687410081888"],"sources":["https://x.com/PuenteUribarri/status/2094456375489257889","https://t.me/Ronins_65/1408"]}},{"type":"Feature","geometry":{"type":"Point","coordinates":[60.58828,56.7249]},"properties":{"original":{"Date":"2026-08-31","Name":"31 AUG 2026","Faction":"Ukraine","Origin":"VID","Latitude":"56.7249","Longitude":"60.58828","PlusCode":"9J82PHFQ+X8 Yekaterinburg, Sverdlovsk Oblast, Russia","Description":"Rough point of view looking in west direction - smoke plumes coming from a presumed crashed/downed Ukrainian drone near the Wildberries distribution center (Yekaterinburg).","Source":"(2/4), https://x.com/NOELreports/status/2094322308181602699, (3/3), https://t.me/RBC_ua_news/203623, , More information, https://www.rbc.ua/ukr/news/dolar-i-evro-zminili-kurs-skilki-koshtue-1788161184.html","Geolocation":"https://x.com/GeoConfirmed/status/2094470846840520977, https://x.com/zarGEOINT/status/2094328759755104653","Equipment":"","EquipmentItems":"","Units":"","OrbatUnits":"","Id":"b978ad18-bee3-4077-8590-4e2b4ffec1e8","icon":"/api/icons/0051CA/False/template/30.png"},"source":"geoconfirmed","source_name":"GeoConfirmed","source_url":"https://geoconfirmed.org/map/ukraine","id":"b978ad18-bee3-4077-8590-4e2b4ffec1e8","date":"2026-08-31","link":"https://geoconfirmed.org/map/ukraine/b978ad18-bee3-4077-8590-4e2b4ffec1e8","category":"Video - Always Point of View in description - In the colour of who is doing the attack or is responsable for the incident in the video.","side":"Ukraine","color":"#0051CA","description":"Rough point of view looking in west direction - smoke plumes coming from a presumed crashed/downed Ukrainian drone near the Wildberries distribution center (Yekaterinburg).","orbat":[],"geolocation":["https://x.com/GeoConfirmed/status/2094470846840520977","https://x.com/zarGEOINT/status/2094328759755104653"],"sources":["https://x.com/NOELreports/status/2094322308181602699","https://t.me/RBC_ua_news/203623","https://www.rbc.ua/ukr/news/dolar-i-evro-zminili-kurs-skilki-koshtue-1788161184.html"]}},{"type":"Feature","geometry":{"type":"Point","coordinates":[35.570693,47.170049]},"properties":{"original":{"Date":"2026-08-31","Name":"31 AUG 2026","Faction":"Ukraine","Origin":"UAV","Latitude":"47.170049","Longitude":"35.570693","PlusCode":"8GVQ5HCC+27 Levadne, Zaporizhia Oblast, Ukraine","Description":"1:02-1:12 - Russian vehicle targeted by a Ukrainian FPV drone of the 'Ronin' Company of attack unmanned aircraft systems of the 65th Brigade","Source":"https://x.com/PuenteUribarri/status/2094456375489257889, https://t.me/Ronins_65/1408, ","Geolocation":"https://x.com/Kukulkan415/status/2094515018255458391","Equipment":"","EquipmentItems":"FPV (First Person View) OWAD (One Way Attack Drone)","Units":"","OrbatUnits":"Unmanned Systems Battalion \"Ronin\"","Id":"2c7f22bc-9093-4e8f-b48a-4ebc13426224","icon":"/api/icons/0051CA/False/template/111.png"},"source":"geoconfirmed","source_name":"GeoConfirmed","source_url":"https://geoconfirmed.org/map/ukraine","id":"2c7f22bc-9093-4e8f-b48a-4ebc13426224","date":"2026-08-31","link":"https://geoconfirmed.org/map/ukraine/2c7f22bc-9093-4e8f-b48a-4ebc13426224","category":"Short Range (<50km) OWAD (One Way Attack Drone), mostly rotary wing, Flying OR Attacking a target without knowing the outcome: if something is damaged --> icon of the damaged equipment.","side":"Ukraine","color":"#0051CA","description":"1:02-1:12 - Russian vehicle targeted by a Ukrainian FPV drone of the 'Ronin' Company of attack unmanned aircraft systems of the 65th Brigade","orbat":["Unmanned Systems Battalion \"Ronin\""],"geolocation":["https://x.com/Kukulkan415/status/2094515018255458391"],"sources":["https://x.com/PuenteUribarri/status/2094456375489257889","https://t.me/Ronins_65/1408"]}},{"type":"Feature","geometry":{"type":"Point","coordinates":[37.629706,48.477322]},"properties":{"original":{"Date":"2026-08-31","Name":"31 AUG 2026","Faction":"Ukraine","Origin":"UAV","Latitude":"48.477322","Longitude":"37.629706","PlusCode":"8GWVFJGH+WV Stepanivka, Donetsk Oblast, Ukraine","Description":"0:00-0:26 - The 1st Motorized Rifle Battalion, Motorized Rifle Regiment of the Navy hit a Ukrainian Vampire drone","Source":"https://x.com/AudaxonX/status/2096621761357869546, https://t.me/beslavnaya_baltica/240, ","Geolocation":"https://x.com/AudaxonX/status/2096621571481780562","Equipment":"","EquipmentItems":"Vampire","Units":"","OrbatUnits":"1st Motorized Rifle Battalion","Id":"cb5c67c5-d554-491b-8e50-503b9253aab8","icon":"/api/icons/0051CA/False/template/637f806c-46e7-48cf-a15b-0a0ead05c01a.png"},"source":"geoconfirmed","source_name":"GeoConfirmed","source_url":"https://geoconfirmed.org/map/ukraine","id":"cb5c67c5-d554-491b-8e50-503b9253aab8","date":"2026-08-31","link":"https://geoconfirmed.org/map/ukraine/cb5c67c5-d554-491b-8e50-503b9253aab8","category":"Recently destroyed/Damaged[Visible in footage] [Intercepted/crashed] Multipurpose Bomber Drone","side":"Ukraine","color":"#0051CA","description":"0:00-0:26 - The 1st Motorized Rifle Battalion, Motorized Rifle Regiment of the Navy hit a Ukrainian Vampire drone","orbat":["1st Motorized Rifle Battalion"],"geolocation":["https://x.com/AudaxonX/status/2096621571481780562"],"sources":["https://x.com/AudaxonX/status/2096621761357869546","https://t.me/beslavnaya_baltica/240"]}},{"type":"Feature","geometry":{"type":"Point","coordinates":[37.665053,48.541324]},"properties":{"original":{"Date":"2026-08-31","Name":"31 AUG 2026","Faction":"Ukraine","Origin":"UAV","Latitude":"48.541324","Longitude":"37.665053","PlusCode":"8GWVGMR8+G2 Kostyantynivka, Donetsk Oblast, Ukraine","Description":"0:27 - The 28th Separate Mechanized Brigade conducted shelling on the premises of JSC \"Weighting Plant\" in Konstantinovka.","Source":"https://x.com/AudaxonX/status/2102677656928166020, https://t.me/ombr_28/3272","Geolocation":"https://x.com/AudaxonX/status/2102677705330233578","Equipment":"","EquipmentItems":"Artillery","Units":"","OrbatUnits":"28th Separate Mechanized Brigade named after the Knights of the First Winter Campaign","Id":"64c4f95f-f49a-488b-8727-51691928d09d","icon":"/api/icons/0051CA/False/template/10.png"},"source":"geoconfirmed","source_name":"GeoConfirmed","source_url":"https://geoconfirmed.org/map/ukraine","id":"64c4f95f-f49a-488b-8727-51691928d09d","date":"2026-08-31","link":"https://geoconfirmed.org/map/ukraine/64c4f95f-f49a-488b-8727-51691928d09d","category":"Shelling by artillery or aerial bombings - Location of the shelling, colour of who is shelling; Brown = UXO","side":"Ukraine","color":"#0051CA","description":"0:27 - The 28th Separate Mechanized Brigade conducted shelling on the premises of JSC \"Weighting Plant\" in Konstantinovka.","orbat":["28th Separate Mechanized Brigade named after the Knights of the First Winter Campaign"],"geolocation":["https://x.com/AudaxonX/status/2102677705330233578"],"sources":["https://x.com/AudaxonX/status/2102677656928166020","https://t.me/ombr_28/3272"]}},{"type":"Feature","geometry":{"type":"Point","coordinates":[37.704634,48.529469]},"properties":{"original":{"Date":"2026-08-31","Name":"31 AUG 2026","Faction":"Ukraine","Origin":"UAV","Latitude":"48.529469","Longitude":"37.704634","PlusCode":"8GWVGPH3+QV Kostyantynivka, Donetsk Oblast, Ukraine","Description":"0:16-0:19 - The 28th Separate Mechanized Brigade shells a presumed Russian infantry presence in Kostyantynivka.","Source":"https://x.com/AudaxonX/status/2102677656928166020, https://t.me/ombr_28/3272","Geolocation":"https://x.com/AudaxonX/status/2102677681896644916, ","Equipment":"","EquipmentItems":"Artillery","Units":"","OrbatUnits":"28th Separate Mechanized Brigade named after the Knights of the First Winter Campaign","Id":"a9cb0e45-42a8-4897-8e85-5ab3256d41d7","icon":"/api/icons/0051CA/False/template/10.png"},"source":"geoconfirmed","source_name":"GeoConfirmed","source_url":"https://geoconfirmed.org/map/ukraine","id":"a9cb0e45-42a8-4897-8e85-5ab3256d41d7","date":"2026-08-31","link":"https://geoconfirmed.org/map/ukraine/a9cb0e45-42a8-4897-8e85-5ab3256d41d7","category":"Shelling by artillery or aerial bombings - Location of the shelling, colour of who is shelling; Brown = UXO","side":"Ukraine","color":"#0051CA","description":"0:16-0:19 - The 28th Separate Mechanized Brigade shells a presumed Russian infantry presence in Kostyantynivka.","orbat":["28th Separate Mechanized Brigade named after the Knights of the First Winter Campaign"],"geolocation":["https://x.com/AudaxonX/status/2102677681896644916"],"sources":["https://x.com/AudaxonX/status/2102677656928166020","https://t.me/ombr_28/3272"]}},{"type":"Feature","geometry":{"type":"Point","coordinates":[37.689943,48.531253]},"properties":{"original":{"Date":"2026-08-31","Name":"31 AUG 2026","Faction":"Ukraine","Origin":"UAV","Latitude":"48.531253","Longitude":"37.689943","PlusCode":"8GWVGMJQ+GX Kostyantynivka, Donetsk Oblast, Ukraine","Description":"0:37-0:39 - Rough location - The 28th Separate Mechanized Brigade shells near a building on the premises of the Chemical plant (Kostiantynivka)","Source":"https://x.com/AudaxonX/status/2102677656928166020, https://t.me/ombr_28/3272","Geolocation":"https://x.com/AudaxonX/status/2102677727652217151","Equipment":"","EquipmentItems":"Artillery","Units":"","OrbatUnits":"28th Separate Mechanized Brigade named after the Knights of the First Winter Campaign","Id":"d6a716ea-77ab-412f-aed4-62601938923f","icon":"/api/icons/0051CA/False/template/10.png"},"source":"geoconfirmed","source_name":"GeoConfirmed","source_url":"https://geoconfirmed.org/map/ukraine","id":"d6a716ea-77ab-412f-aed4-62601938923f","date":"2026-08-31","link":"https://geoconfirmed.org/map/ukraine/d6a716ea-77ab-412f-aed4-62601938923f","category":"Shelling by artillery or aerial bombings - Location of the shelling, colour of who is shelling; Brown = UXO","side":"Ukraine","color":"#0051CA","description":"0:37-0:39 - Rough location - The 28th Separate Mechanized Brigade shells near a building on the premises of the Chemical plant (Kostiantynivka)","orbat":["28th Separate Mechanized Brigade named after the Knights of the First Winter Campaign"],"geolocation":["https://x.com/AudaxonX/status/2102677727652217151"],"sources":["https://x.com/AudaxonX/status/2102677656928166020","https://t.me/ombr_28/3272"]}},{"type":"Feature","geometry":{"type":"Point","coordinates":[35.752311,47.324776]},"properties":{"original":{"Date":"2026-08-31","Name":"31 AUG 2026","Faction":"Ukraine","Origin":"UAV","Latitude":"47.324776","Longitude":"35.752311","PlusCode":"8GVQ8QF2+WW Chervonohirka, Zaporizhia Oblast, Ukraine","Description":"0:37-0:38 - Russian vehicle targeted by a Ukrainian FPV drone of the 'Ronin' Company of attack unmanned aircraft systems of the 65th Brigade","Source":"https://x.com/PuenteUribarri/status/2094456375489257889, https://t.me/Ronins_65/1408, ","Geolocation":"https://x.com/Kukulkan415/status/2094504840634241456","Equipment":"","EquipmentItems":"FPV (First Person View) OWAD (One Way Attack Drone)","Units":"","OrbatUnits":"Unmanned Systems Battalion \"Ronin\"","Id":"d9b30c88-a037-4a11-b2db-6a2b1906578a","icon":"/api/icons/0051CA/False/template/111.png"},"source":"geoconfirmed","source_name":"GeoConfirmed","source_url":"https://geoconfirmed.org/map/ukraine","id":"d9b30c88-a037-4a11-b2db-6a2b1906578a","date":"2026-08-31","link":"https://geoconfirmed.org/map/ukraine/d9b30c88-a037-4a11-b2db-6a2b1906578a","category":"Short Range (<50km) OWAD (One Way Attack Drone), mostly rotary wing, Flying OR Attacking a target without knowing the outcome: if something is damaged --> icon of the damaged equipment.","side":"Ukraine","color":"#0051CA","description":"0:37-0:38 - Russian vehicle targeted by a Ukrainian FPV drone of the 'Ronin' Company of attack unmanned aircraft systems of the 65th Brigade","orbat":["Unmanned Systems Battalion \"Ronin\""],"geolocation":["https://x.com/Kukulkan415/status/2094504840634241456"],"sources":["https://x.com/PuenteUribarri/status/2094456375489257889","https://t.me/Ronins_65/1408"]}},{"type":"Feature","geometry":{"type":"Point","coordinates":[37.362105,48.470773]},"properties":{"original":{"Date":"2026-08-31","Name":"31 AUG 2026","Faction":"Russia","Origin":"UAV","Latitude":"48.470773","Longitude":"37.362105","PlusCode":"8GWVF9C6+8R Shakhove, Donetsk Oblast, Ukraine","Description":"0:32-0:36 - Rough location - A FPV drone intercepted by drone from the 74th Guards Brigade are on air patrol.","Source":"https://x.com/Zeldamices/status/2094742189133709459, https://t.me/urga_74/9560","Geolocation":"https://x.com/richardzai38580/status/2094529271507366132","Equipment":"","EquipmentItems":"Reconnaissance UAV | FPV (First Person View) OWAD (One Way Attack Drone)","Units":"","OrbatUnits":"74th Guards Motorized Rifle Brigade \"Mad Dogs\" / \"Бешеные псы\"","Id":"85dc082f-8b11-42d9-a289-6ba4a1159866","icon":"/api/icons/E00000/False/template/82c8f84f-3212-4d5f-8a7f-9fafdcb97265.png"},"source":"geoconfirmed","source_name":"GeoConfirmed","source_url":"https://geoconfirmed.org/map/ukraine","id":"85dc082f-8b11-42d9-a289-6ba4a1159866","date":"2026-08-31","link":"https://geoconfirmed.org/map/ukraine/85dc082f-8b11-42d9-a289-6ba4a1159866","category":"Interception of a UAV - Colour of the force intercepting - If UAV destroyed --> Destroyed UAV icon instead.","side":"Russia","color":"#E00000","description":"0:32-0:36 - Rough location - A FPV drone intercepted by drone from the 74th Guards Brigade are on air patrol.","orbat":["74th Guards Motorized Rifle Brigade \"Mad Dogs\" / \"Бешеные псы\""],"geolocation":["https://x.com/richardzai38580/status/2094529271507366132"],"sources":["https://x.com/Zeldamices/status/2094742189133709459","https://t.me/urga_74/9560"]}},{"type":"Feature","geometry":{"type":"Point","coordinates":[37.080113,48.460479]},"properties":{"original":{"Date":"2026-08-31","Name":"31 AUG 2026","Faction":"Russia","Origin":"UAV","Latitude":"48.460479","Longitude":"37.080113","PlusCode":"8GWVF36J+52 Dobropillya, Donetsk Oblast, Ukraine","Description":"Russian FPV targets cafe 'Misto' in Dobropillya.","Source":"https://x.com/Zeldamices/status/2102346539859411281, https://t.me/Don_Guards_51st/1815, ","Geolocation":"https://x.com/ChaMapping/status/2102256189015028036","Equipment":"","EquipmentItems":"FPV (First Person View) OWAD (One Way Attack Drone)","Units":"","OrbatUnits":"","Id":"3906b733-7511-4a77-a530-6db117e35aee","icon":"/api/icons/E00000/False/template/111.png"},"source":"geoconfirmed","source_name":"GeoConfirmed","source_url":"https://geoconfirmed.org/map/ukraine","id":"3906b733-7511-4a77-a530-6db117e35aee","date":"2026-08-31","link":"https://geoconfirmed.org/map/ukraine/3906b733-7511-4a77-a530-6db117e35aee","category":"Short Range (<50km) OWAD (One Way Attack Drone), mostly rotary wing, Flying OR Attacking a target without knowing the outcome: if something is damaged --> icon of the damaged equipment.","side":"Russia","color":"#E00000","description":"Russian FPV targets cafe 'Misto' in Dobropillya.","orbat":[],"geolocation":["https://x.com/ChaMapping/status/2102256189015028036"],"sources":["https://x.com/Zeldamices/status/2102346539859411281","https://t.me/Don_Guards_51st/1815"]}},{"type":"Feature","geometry":{"type":"Point","coordinates":[37.804642,49.018635]},"properties":{"original":{"Date":"2026-08-31","Name":"31 AUG 2026","Faction":"Russia","Origin":"UAV","Latitude":"49.018635","Longitude":"37.804642","PlusCode":"8GXV2R93+FV Lyman, Donetsk Oblast, Ukraine","Description":"0:26-0:27 - area grid - a smoke plume is coming from a claimed position of the 3rd Army Corps \"Azov\", likely following shelling by the 31st Motorized Rifle Regiment","Source":"https://x.com/ZoamSc2/status/2094630241012797797, https://t.me/Secrets_of_Vinakos/17155","Geolocation":"https://x.com/ZoamSc2/status/2094630238777163805","Equipment":"","EquipmentItems":"","Units":"(Claimed position of)","OrbatUnits":"31st Motorized Rifle Regiment | 3rd Army Corps","Id":"a4293a03-609b-4f7d-84ba-7e6b310da094","icon":"/api/icons/E00000/False/template/10.png"},"source":"geoconfirmed","source_name":"GeoConfirmed","source_url":"https://geoconfirmed.org/map/ukraine","id":"a4293a03-609b-4f7d-84ba-7e6b310da094","date":"2026-08-31","link":"https://geoconfirmed.org/map/ukraine/a4293a03-609b-4f7d-84ba-7e6b310da094","category":"Shelling by artillery or aerial bombings - Location of the shelling, colour of who is shelling; Brown = UXO","side":"Russia","color":"#E00000","description":"0:26-0:27 - area grid - a smoke plume is coming from a claimed position of the 3rd Army Corps \"Azov\", likely following shelling by the 31st Motorized Rifle Regiment","orbat":["31st Motorized Rifle Regiment","3rd Army Corps"],"geolocation":["https://x.com/ZoamSc2/status/2094630238777163805"],"sources":["https://x.com/ZoamSc2/status/2094630241012797797","https://t.me/Secrets_of_Vinakos/17155"]}},{"type":"Feature","geometry":{"type":"Point","coordinates":[37.46965,49.291184]},"properties":{"original":{"Date":"2026-08-31","Name":"31 AUG 2026","Faction":"Russia","Origin":"UAV","Latitude":"49.291184","Longitude":"37.46965","PlusCode":"8GXV7FR9+FV Komarivka, Kharkiv Oblast, Ukraine","Description":"0:48-end - A claimed Ukrainian communication tower was attacked by a Russian FPV.","Source":"https://x.com/ZoamSc2/status/2094573333757198680, https://t.me/endspiell/4349","Geolocation":"https://x.com/ZoamSc2/status/2094573331605557677","Equipment":"","EquipmentItems":"FPV (First Person View) OWAD (One Way Attack Drone)","Units":"","OrbatUnits":"20th Guards Combined Arms Army","Id":"4ec96848-4a21-46ef-9e72-81bdb826bfb8","icon":"/api/icons/E00000/False/template/111.png"},"source":"geoconfirmed","source_name":"GeoConfirmed","source_url":"https://geoconfirmed.org/map/ukraine","id":"4ec96848-4a21-46ef-9e72-81bdb826bfb8","date":"2026-08-31","link":"https://geoconfirmed.org/map/ukraine/4ec96848-4a21-46ef-9e72-81bdb826bfb8","category":"Short Range (<50km) OWAD (One Way Attack Drone), mostly rotary wing, Flying OR Attacking a target without knowing the outcome: if something is damaged --> icon of the damaged equipment.","side":"Russia","color":"#E00000","description":"0:48-end - A claimed Ukrainian communication tower was attacked by a Russian FPV.","orbat":["20th Guards Combined Arms Army"],"geolocation":["https://x.com/ZoamSc2/status/2094573331605557677"],"sources":["https://x.com/ZoamSc2/status/2094573333757198680","https://t.me/endspiell/4349"]}},{"type":"Feature","geometry":{"type":"Point","coordinates":[37.68994,48.531604]},"properties":{"original":{"Date":"2026-08-31","Name":"31 AUG 2026","Faction":"Ukraine","Origin":"UAV","Latitude":"48.531604","Longitude":"37.68994","PlusCode":"8GWVGMJQ+JX Kostyantynivka, Donetsk Oblast, Ukraine","Description":"0:34-0:35 - Rough location - The 28th Separate Mechanized Brigade shells a building on the premises of the Chemical plant (Kostiantynivka)","Source":"https://x.com/AudaxonX/status/2102677656928166020, https://t.me/ombr_28/3272","Geolocation":"https://x.com/AudaxonX/status/2102677727652217151","Equipment":"","EquipmentItems":"Artillery","Units":"","OrbatUnits":"28th Separate Mechanized Brigade named after the Knights of the First Winter Campaign","Id":"d3c48001-4849-4bc4-a6f1-8b48dda2aecd","icon":"/api/icons/0051CA/False/template/10.png"},"source":"geoconfirmed","source_name":"GeoConfirmed","source_url":"https://geoconfirmed.org/map/ukraine","id":"d3c48001-4849-4bc4-a6f1-8b48dda2aecd","date":"2026-08-31","link":"https://geoconfirmed.org/map/ukraine/d3c48001-4849-4bc4-a6f1-8b48dda2aecd","category":"Shelling by artillery or aerial bombings - Location of the shelling, colour of who is shelling; Brown = UXO","side":"Ukraine","color":"#0051CA","description":"0:34-0:35 - Rough location - The 28th Separate Mechanized Brigade shells a building on the premises of the Chemical plant (Kostiantynivka)","orbat":["28th Separate Mechanized Brigade named after the Knights of the First Winter Campaign"],"geolocation":["https://x.com/AudaxonX/status/2102677727652217151"],"sources":["https://x.com/AudaxonX/status/2102677656928166020","https://t.me/ombr_28/3272"]}},{"type":"Feature","geometry":{"type":"Point","coordinates":[37.66283,48.541431]},"properties":{"original":{"Date":"2026-08-31","Name":"31 AUG 2026","Faction":"Ukraine","Origin":"UAV","Latitude":"48.541431","Longitude":"37.66283","PlusCode":"8GWVGMR8+G2 Kostyantynivka, Donetsk Oblast, Ukraine","Description":"0:28-0:31 - The 28th Separate Mechanized Brigade conducted shelling of a building at the premises of JSC \"Weighting Plant\" in Konstantinovka.","Source":"https://x.com/AudaxonX/status/2102677656928166020, https://t.me/ombr_28/3272","Geolocation":"https://x.com/AudaxonX/status/2102677705330233578","Equipment":"","EquipmentItems":"Artillery","Units":"","OrbatUnits":"28th Separate Mechanized Brigade named after the Knights of the First Winter Campaign","Id":"c98da7e5-f472-485b-ae32-8c6399abd60c","icon":"/api/icons/0051CA/False/template/10.png"},"source":"geoconfirmed","source_name":"GeoConfirmed","source_url":"https://geoconfirmed.org/map/ukraine","id":"c98da7e5-f472-485b-ae32-8c6399abd60c","date":"2026-08-31","link":"https://geoconfirmed.org/map/ukraine/c98da7e5-f472-485b-ae32-8c6399abd60c","category":"Shelling by artillery or aerial bombings - Location of the shelling, colour of who is shelling; Brown = UXO","side":"Ukraine","color":"#0051CA","description":"0:28-0:31 - The 28th Separate Mechanized Brigade conducted shelling of a building at the premises of JSC \"Weighting Plant\" in Konstantinovka.","orbat":["28th Separate Mechanized Brigade named after the Knights of the First Winter Campaign"],"geolocation":["https://x.com/AudaxonX/status/2102677705330233578"],"sources":["https://x.com/AudaxonX/status/2102677656928166020","https://t.me/ombr_28/3272"]}},{"type":"Feature","geometry":{"type":"Point","coordinates":[37.408203,48.559463]},"properties":{"original":{"Date":"2026-08-31","Name":"31 AUG 2026","Faction":"Ukraine","Origin":"UAV","Latitude":"48.559463","Longitude":"37.408203","PlusCode":"8GWVHC55+Q7 Krasnyi Kut, Donetsk Oblast, Ukraine","Description":"1:45-1:47 - Claimed Russian position hit by Ukrainian drone drop of the 1st Mechanized Battalion \"Black Raven\"of the 93rd Mechanized Brigade","Source":"https://x.com/PuenteUribarri/status/2094339376524243062, https://t.me/nichnavarta/335","Geolocation":"https://x.com/GeoConfirmed/status/2094469999230406893, https://x.com/jimmhelloman555/status/2094386939688280326","Equipment":"","EquipmentItems":"(Multi-Purpose) Bomber UAV","Units":"","OrbatUnits":"1st Mechanized Battalion \"Black Raven\" / \"Чорний ворон\"","Id":"8178ebae-69e7-4df0-934f-99f8641999a2","icon":"/api/icons/0051CA/False/template/110.png"},"source":"geoconfirmed","source_name":"GeoConfirmed","source_url":"https://geoconfirmed.org/map/ukraine","id":"8178ebae-69e7-4df0-934f-99f8641999a2","date":"2026-08-31","link":"https://geoconfirmed.org/map/ukraine/8178ebae-69e7-4df0-934f-99f8641999a2","category":"Multipurpose Bomber Drone, Flying OR Dropping OR bombing a target without knowing the outcome: if something is damaged --> icon of the damaged equipment.","side":"Ukraine","color":"#0051CA","description":"1:45-1:47 - Claimed Russian position hit by Ukrainian drone drop of the 1st Mechanized Battalion \"Black Raven\"of the 93rd Mechanized Brigade","orbat":["1st Mechanized Battalion \"Black Raven\" / \"Чорний ворон\""],"geolocation":["https://x.com/GeoConfirmed/status/2094469999230406893","https://x.com/jimmhelloman555/status/2094386939688280326"],"sources":["https://x.com/PuenteUribarri/status/2094339376524243062","https://t.me/nichnavarta/335"]}},{"type":"Feature","geometry":{"type":"Point","coordinates":[37.69032,48.524544]},"properties":{"original":{"Date":"2026-08-31","Name":"31 AUG 2026","Faction":"Ukraine","Origin":"UAV","Latitude":"48.524544","Longitude":"37.69032","PlusCode":"8GWVGMFR+R4 Kostyantynivka, Donetsk Oblast, Ukraine","Description":"0:49-end - Rough location - The 28th Separate Mechanized Brigade shells a building on the premises of the Territory of the «Avtosklo» Plant named after Bondarev (Kostiantynivka)","Source":"https://x.com/AudaxonX/status/2102677656928166020, https://t.me/ombr_28/3272","Geolocation":"https://x.com/AudaxonX/status/2102677782069416392","Equipment":"","EquipmentItems":"Artillery","Units":"","OrbatUnits":"28th Separate Mechanized Brigade named after the Knights of the First Winter Campaign","Id":"a80852cf-be32-4996-809c-9c280de1086f","icon":"/api/icons/0051CA/False/template/10.png"},"source":"geoconfirmed","source_name":"GeoConfirmed","source_url":"https://geoconfirmed.org/map/ukraine","id":"a80852cf-be32-4996-809c-9c280de1086f","date":"2026-08-31","link":"https://geoconfirmed.org/map/ukraine/a80852cf-be32-4996-809c-9c280de1086f","category":"Shelling by artillery or aerial bombings - Location of the shelling, colour of who is shelling; Brown = UXO","side":"Ukraine","color":"#0051CA","description":"0:49-end - Rough location - The 28th Separate Mechanized Brigade shells a building on the premises of the Territory of the «Avtosklo» Plant named after Bondarev (Kostiantynivka)","orbat":["28th Separate Mechanized Brigade named after the Knights of the First Winter Campaign"],"geolocation":["https://x.com/AudaxonX/status/2102677782069416392"],"sources":["https://x.com/AudaxonX/status/2102677656928166020","https://t.me/ombr_28/3272"]}},{"type":"Feature","geometry":{"type":"Point","coordinates":[35.557918,47.150692]},"properties":{"original":{"Date":"2026-08-31","Name":"31 AUG 2026","Faction":"Ukraine","Origin":"UAV","Latitude":"47.150692","Longitude":"35.557918","PlusCode":"8GVQ5H25+75 Dolyna, Zaporizhia Oblast, Ukraine","Description":"0:18-0:23 - Russian vehicle targeted by a Ukrainian FPV drone of the 'Ronin' Company of attack unmanned aircraft systems of the 65th Brigade","Source":"https://x.com/PuenteUribarri/status/2094456375489257889, https://t.me/Ronins_65/1408, ","Geolocation":"https://x.com/Kukulkan415/status/2094487537574130048","Equipment":"","EquipmentItems":"FPV (First Person View) OWAD (One Way Attack Drone)","Units":"","OrbatUnits":"Unmanned Systems Battalion \"Ronin\"","Id":"09040ac4-3907-42e4-b6b3-9c8b95f94a26","icon":"/api/icons/0051CA/False/template/111.png"},"source":"geoconfirmed","source_name":"GeoConfirmed","source_url":"https://geoconfirmed.org/map/ukraine","id":"09040ac4-3907-42e4-b6b3-9c8b95f94a26","date":"2026-08-31","link":"https://geoconfirmed.org/map/ukraine/09040ac4-3907-42e4-b6b3-9c8b95f94a26","category":"Short Range (<50km) OWAD (One Way Attack Drone), mostly rotary wing, Flying OR Attacking a target without knowing the outcome: if something is damaged --> icon of the damaged equipment.","side":"Ukraine","color":"#0051CA","description":"0:18-0:23 - Russian vehicle targeted by a Ukrainian FPV drone of the 'Ronin' Company of attack unmanned aircraft systems of the 65th Brigade","orbat":["Unmanned Systems Battalion \"Ronin\""],"geolocation":["https://x.com/Kukulkan415/status/2094487537574130048"],"sources":["https://x.com/PuenteUribarri/status/2094456375489257889","https://t.me/Ronins_65/1408"]}},{"type":"Feature","geometry":{"type":"Point","coordinates":[35.633599,47.221633]},"properties":{"original":{"Date":"2026-08-31","Name":"31 AUG 2026","Faction":"Ukraine","Origin":"UAV","Latitude":"47.221633","Longitude":"35.633599","PlusCode":"8GVQ6JCM+MC Petershahen, Zaporizhia Oblast, Ukraine","Description":"1:58-2:03 - Vehicle targeted by a Ukrainian FPV drone of the 'Ronin' Company of attack unmanned aircraft systems of the 65th Brigade","Source":"https://x.com/PuenteUribarri/status/2094456375489257889, https://t.me/Ronins_65/1408, ","Geolocation":"https://x.com/Kukulkan415/status/2094520544880148933","Equipment":"","EquipmentItems":"FPV (First Person View) OWAD (One Way Attack Drone)","Units":"","OrbatUnits":"Unmanned Systems Battalion \"Ronin\"","Id":"f842dfdc-efa2-4f83-85b0-9d0dfe75d0cd","icon":"/api/icons/0051CA/False/template/111.png"},"source":"geoconfirmed","source_name":"GeoConfirmed","source_url":"https://geoconfirmed.org/map/ukraine","id":"f842dfdc-efa2-4f83-85b0-9d0dfe75d0cd","date":"2026-08-31","link":"https://geoconfirmed.org/map/ukraine/f842dfdc-efa2-4f83-85b0-9d0dfe75d0cd","category":"Short Range (<50km) OWAD (One Way Attack Drone), mostly rotary wing, Flying OR Attacking a target without knowing the outcome: if something is damaged --> icon of the damaged equipment.","side":"Ukraine","color":"#0051CA","description":"1:58-2:03 - Vehicle targeted by a Ukrainian FPV drone of the 'Ronin' Company of attack unmanned aircraft systems of the 65th Brigade","orbat":["Unmanned Systems Battalion \"Ronin\""],"geolocation":["https://x.com/Kukulkan415/status/2094520544880148933"],"sources":["https://x.com/PuenteUribarri/status/2094456375489257889","https://t.me/Ronins_65/1408"]}},{"type":"Feature","geometry":{"type":"Point","coordinates":[30.224065,50.440655]},"properties":{"original":{"Date":"2026-08-31","Name":"31 AUG 2026","Faction":"Russia","Origin":"VID","Latitude":"50.440655","Longitude":"30.224065","PlusCode":"9G2GC6RF+7J Horenychi, Kyiv Oblast, Ukraine","Description":"Point of view  in northeastern direction- Smoke rising from the area of a warehouse after a reported Russian strike","Source":"https://x.com/RedHibana/status/2094452578599698530, (4/5), https://t.me/kievinfo_kyiv/96069","Geolocation":"https://x.com/GeoConfirmed/status/2094469837422477700, https://x.com/ne_kotletka/status/2094420390630113666","Equipment":"","EquipmentItems":"","Units":"","OrbatUnits":"","Id":"7381cfb5-f02d-4764-91ec-a2b5687d9084","icon":"/api/icons/E00000/False/template/30.png"},"source":"geoconfirmed","source_name":"GeoConfirmed","source_url":"https://geoconfirmed.org/map/ukraine","id":"7381cfb5-f02d-4764-91ec-a2b5687d9084","date":"2026-08-31","link":"https://geoconfirmed.org/map/ukraine/7381cfb5-f02d-4764-91ec-a2b5687d9084","category":"Video - Always Point of View in description - In the colour of who is doing the attack or is responsable for the incident in the video.","side":"Russia","color":"#E00000","description":"Point of view  in northeastern direction- Smoke rising from the area of a warehouse after a reported Russian strike","orbat":[],"geolocation":["https://x.com/GeoConfirmed/status/2094469837422477700","https://x.com/ne_kotletka/status/2094420390630113666"],"sources":["https://x.com/RedHibana/status/2094452578599698530","https://t.me/kievinfo_kyiv/96069"]}},{"type":"Feature","geometry":{"type":"Point","coordinates":[37.692516,48.532193]},"properties":{"original":{"Date":"2026-08-31","Name":"31 AUG 2026","Faction":"Ukraine","Origin":"UAV","Latitude":"48.532193","Longitude":"37.692516","PlusCode":"8GWVGMJV+V2 Kostyantynivka, Donetsk Oblast, Ukraine","Description":"0:46-0:49 - Rough location - The 28th Separate Mechanized Brigade shells on/near a building on the premises of the Chemical plant (Kostiantynivka)","Source":"https://x.com/AudaxonX/status/2102677656928166020, https://t.me/ombr_28/3272","Geolocation":"https://x.com/AudaxonX/status/2102677766466339195","Equipment":"","EquipmentItems":"Artillery","Units":"","OrbatUnits":"28th Separate Mechanized Brigade named after the Knights of the First Winter Campaign","Id":"8c199122-23ee-4e1c-b490-a5f111908d9f","icon":"/api/icons/0051CA/False/template/10.png"},"source":"geoconfirmed","source_name":"GeoConfirmed","source_url":"https://geoconfirmed.org/map/ukraine","id":"8c199122-23ee-4e1c-b490-a5f111908d9f","date":"2026-08-31","link":"https://geoconfirmed.org/map/ukraine/8c199122-23ee-4e1c-b490-a5f111908d9f","category":"Shelling by artillery or aerial bombings - Location of the shelling, colour of who is shelling; Brown = UXO","side":"Ukraine","color":"#0051CA","description":"0:46-0:49 - Rough location - The 28th Separate Mechanized Brigade shells on/near a building on the premises of the Chemical plant (Kostiantynivka)","orbat":["28th Separate Mechanized Brigade named after the Knights of the First Winter Campaign"],"geolocation":["https://x.com/AudaxonX/status/2102677766466339195"],"sources":["https://x.com/AudaxonX/status/2102677656928166020","https://t.me/ombr_28/3272"]}},{"type":"Feature","geometry":{"type":"Point","coordinates":[37.447393,48.576266]},"properties":{"original":{"Date":"2026-08-31","Name":"31 AUG 2026","Faction":"Russia","Origin":"UAV","Latitude":"48.576266","Longitude":"37.447393","PlusCode":"8GWVHCGW+GX Rais'ke, Donetsk Oblast, Ukraine","Description":"0:27-0:31 - A Russian soldier was hit by drones of the 425th \"Skelya\" in Raiske, Donetsk Oblast","Source":"https://x.com/Skelya425/status/2094455169291288669, ","Geolocation":"https://x.com/Bielitzling/status/2094497210637414774","Equipment":"","EquipmentItems":"FPV (First Person View) OWAD (One Way Attack Drone)","Units":"","OrbatUnits":"425th Assault Regiment \"Skala\"","Id":"2b64facc-dbec-41d5-b840-a6ffd0c4d767","icon":"/api/icons/E00000/False/template/92.png"},"source":"geoconfirmed","source_name":"GeoConfirmed","source_url":"https://geoconfirmed.org/map/ukraine","id":"2b64facc-dbec-41d5-b840-a6ffd0c4d767","date":"2026-08-31","link":"https://geoconfirmed.org/map/ukraine/2b64facc-dbec-41d5-b840-a6ffd0c4d767","category":"WIA/KIA Soldier/Militant","side":"Russia","color":"#E00000","description":"0:27-0:31 - A Russian soldier was hit by drones of the 425th \"Skelya\" in Raiske, Donetsk Oblast","orbat":["425th Assault Regiment \"Skala\""],"geolocation":["https://x.com/Bielitzling/status/2094497210637414774"],"sources":["https://x.com/Skelya425/status/2094455169291288669"]}},{"type":"Feature","geometry":{"type":"Point","coordinates":[37.890143,48.16573]},"properties":{"original":{"Date":"2026-08-31","Name":"31 AUG 2026","Faction":"Ukraine","Origin":"UAV","Latitude":"48.16573","Longitude":"37.890143","PlusCode":"8GWV5V8R+73 Vasylivka, Donetsk Oblast, Ukraine","Description":"0:00-0:20 - Ukrainian Battalion of unmanned strike aerial systems \"Signum\" targeted a truck with a FPV drone","Source":"https://x.com/PuenteUribarri/status/2094356040150073693, https://t.me/umftteam/1099","Geolocation":"https://x.com/GeoConfirmed/status/2094469704924443039, https://x.com/MikiValbuena/status/2094436017205817495","Equipment":"","EquipmentItems":"FPV (First Person View) OWAD (One Way Attack Drone) | Truck","Units":"","OrbatUnits":"Battalion of unmanned strike aerial systems \"Signum\"","Id":"381943de-df52-4f23-a525-aac6fc7f5c76","icon":"/api/icons/0051CA/False/template/111.png"},"source":"geoconfirmed","source_name":"GeoConfirmed","source_url":"https://geoconfirmed.org/map/ukraine","id":"381943de-df52-4f23-a525-aac6fc7f5c76","date":"2026-08-31","link":"https://geoconfirmed.org/map/ukraine/381943de-df52-4f23-a525-aac6fc7f5c76","category":"Short Range (<50km) OWAD (One Way Attack Drone), mostly rotary wing, Flying OR Attacking a target without knowing the outcome: if something is damaged --> icon of the damaged equipment.","side":"Ukraine","color":"#0051CA","description":"0:00-0:20 - Ukrainian Battalion of unmanned strike aerial systems \"Signum\" targeted a truck with a FPV drone","orbat":["Battalion of unmanned strike aerial systems \"Signum\""],"geolocation":["https://x.com/GeoConfirmed/status/2094469704924443039","https://x.com/MikiValbuena/status/2094436017205817495"],"sources":["https://x.com/PuenteUribarri/status/2094356040150073693","https://t.me/umftteam/1099"]}},{"type":"Feature","geometry":{"type":"Point","coordinates":[37.660531,48.544197]},"properties":{"original":{"Date":"2026-08-31","Name":"31 AUG 2026","Faction":"Ukraine","Origin":"UAV","Latitude":"48.544197","Longitude":"37.660531","PlusCode":"8GWVGMV6+M6 Kostyantynivka, Donetsk Oblast, Ukraine","Description":"0:43-0:45 - The 28th Separate Mechanized Brigade shells a building on the premises of JSC \"Weighting Plant\" in Konstantinovka.","Source":"https://x.com/AudaxonX/status/2102677656928166020, https://t.me/ombr_28/3272","Geolocation":"https://x.com/AudaxonX/status/2102677752113725821","Equipment":"","EquipmentItems":"Artillery","Units":"","OrbatUnits":"28th Separate Mechanized Brigade named after the Knights of the First Winter Campaign","Id":"5fa743d9-9080-4fff-8152-b3d394e8e45a","icon":"/api/icons/0051CA/False/template/10.png"},"source":"geoconfirmed","source_name":"GeoConfirmed","source_url":"https://geoconfirmed.org/map/ukraine","id":"5fa743d9-9080-4fff-8152-b3d394e8e45a","date":"2026-08-31","link":"https://geoconfirmed.org/map/ukraine/5fa743d9-9080-4fff-8152-b3d394e8e45a","category":"Shelling by artillery or aerial bombings - Location of the shelling, colour of who is shelling; Brown = UXO","side":"Ukraine","color":"#0051CA","description":"0:43-0:45 - The 28th Separate Mechanized Brigade shells a building on the premises of JSC \"Weighting Plant\" in Konstantinovka.","orbat":["28th Separate Mechanized Brigade named after the Knights of the First Winter Campaign"],"geolocation":["https://x.com/AudaxonX/status/2102677752113725821"],"sources":["https://x.com/AudaxonX/status/2102677656928166020","https://t.me/ombr_28/3272"]}},{"type":"Feature","geometry":{"type":"Point","coordinates":[35.765422,47.347695]},"properties":{"original":{"Date":"2026-08-31","Name":"31 AUG 2026","Faction":"Ukraine","Origin":"UAV","Latitude":"47.347695","Longitude":"35.765422","PlusCode":"8GVQ8QX8+35 Nove, Zaporizhia Oblast, Ukraine","Description":"0:23-0:30 - Russian vehicle targeted by a Ukrainian FPV drone of the 'Ronin' Company of attack unmanned aircraft systems of the 65th Brigade","Source":"https://x.com/PuenteUribarri/status/2094456375489257889, https://t.me/Ronins_65/1408, ","Geolocation":"https://x.com/Kukulkan415/status/2094491142247100621","Equipment":"","EquipmentItems":"FPV (First Person View) OWAD (One Way Attack Drone)","Units":"","OrbatUnits":"Unmanned Systems Battalion \"Ronin\"","Id":"fc25a518-9244-4abc-baff-b8474e288754","icon":"/api/icons/0051CA/False/template/111.png"},"source":"geoconfirmed","source_name":"GeoConfirmed","source_url":"https://geoconfirmed.org/map/ukraine","id":"fc25a518-9244-4abc-baff-b8474e288754","date":"2026-08-31","link":"https://geoconfirmed.org/map/ukraine/fc25a518-9244-4abc-baff-b8474e288754","category":"Short Range (<50km) OWAD (One Way Attack Drone), mostly rotary wing, Flying OR Attacking a target without knowing the outcome: if something is damaged --> icon of the damaged equipment.","side":"Ukraine","color":"#0051CA","description":"0:23-0:30 - Russian vehicle targeted by a Ukrainian FPV drone of the 'Ronin' Company of attack unmanned aircraft systems of the 65th Brigade","orbat":["Unmanned Systems Battalion \"Ronin\""],"geolocation":["https://x.com/Kukulkan415/status/2094491142247100621"],"sources":["https://x.com/PuenteUribarri/status/2094456375489257889","https://t.me/Ronins_65/1408"]}},{"type":"Feature","geometry":{"type":"Point","coordinates":[37.684189,48.538237]},"properties":{"original":{"Date":"2026-08-31","Name":"31 AUG 2026","Faction":"Ukraine","Origin":"UAV","Latitude":"48.538237","Longitude":"37.684189","PlusCode":"8GWVGMQM+7M Kostyantynivka, Donetsk Oblast, Ukraine","Description":"0:32-0:33  - Rough location - The 28th Separate Mechanized Brigade conducted shelling of a building in Konstantinovka.","Source":"https://x.com/AudaxonX/status/2102677656928166020, https://t.me/ombr_28/3272","Geolocation":"https://x.com/AudaxonX/status/2102677715522338887","Equipment":"","EquipmentItems":"Artillery","Units":"","OrbatUnits":"28th Separate Mechanized Brigade named after the Knights of the First Winter Campaign","Id":"5f92e635-c14b-420f-9e63-b966445f3496","icon":"/api/icons/0051CA/False/template/10.png"},"source":"geoconfirmed","source_name":"GeoConfirmed","source_url":"https://geoconfirmed.org/map/ukraine","id":"5f92e635-c14b-420f-9e63-b966445f3496","date":"2026-08-31","link":"https://geoconfirmed.org/map/ukraine/5f92e635-c14b-420f-9e63-b966445f3496","category":"Shelling by artillery or aerial bombings - Location of the shelling, colour of who is shelling; Brown = UXO","side":"Ukraine","color":"#0051CA","description":"0:32-0:33  - Rough location - The 28th Separate Mechanized Brigade conducted shelling of a building in Konstantinovka.","orbat":["28th Separate Mechanized Brigade named after the Knights of the First Winter Campaign"],"geolocation":["https://x.com/AudaxonX/status/2102677715522338887"],"sources":["https://x.com/AudaxonX/status/2102677656928166020","https://t.me/ombr_28/3272"]}},{"type":"Feature","geometry":{"type":"Point","coordinates":[37.103641,48.487148]},"properties":{"original":{"Date":"2026-08-31","Name":"31 AUG 2026","Faction":"Ukraine","Origin":"UAV","Latitude":"48.487148","Longitude":"37.103641","PlusCode":"8GWVF4P3+VF Hannivka, Donetsk Oblast, Ukraine","Description":"0:00-0:06 - The 425th \"Skelya\" observes a house, claimed to house Russians, being destroyed in Hannivka, Donetsk Oblast","Source":"https://x.com/Skelya425/status/2094455169291288669, ","Geolocation":"https://x.com/Bielitzling/status/2094497210637414774","Equipment":"","EquipmentItems":"","Units":"","OrbatUnits":"425th Assault Regiment \"Skala\"","Id":"6fd4fdf6-2f6d-4313-ba25-bac3ff50b3ce","icon":"/api/icons/0051CA/False/template/10.png"},"source":"geoconfirmed","source_name":"GeoConfirmed","source_url":"https://geoconfirmed.org/map/ukraine","id":"6fd4fdf6-2f6d-4313-ba25-bac3ff50b3ce","date":"2026-08-31","link":"https://geoconfirmed.org/map/ukraine/6fd4fdf6-2f6d-4313-ba25-bac3ff50b3ce","category":"Shelling by artillery or aerial bombings - Location of the shelling, colour of who is shelling; Brown = UXO","side":"Ukraine","color":"#0051CA","description":"0:00-0:06 - The 425th \"Skelya\" observes a house, claimed to house Russians, being destroyed in Hannivka, Donetsk Oblast","orbat":["425th Assault Regiment \"Skala\""],"geolocation":["https://x.com/Bielitzling/status/2094497210637414774"],"sources":["https://x.com/Skelya425/status/2094455169291288669"]}},{"type":"Feature","geometry":{"type":"Point","coordinates":[35.60763,47.215551]},"properties":{"original":{"Date":"2026-08-31","Name":"31 AUG 2026","Faction":"Ukraine","Origin":"UAV","Latitude":"47.215551","Longitude":"35.60763","PlusCode":"8GVQ6J85+63 Molochans'k, Zaporizhia Oblast, Ukraine","Description":"0:00-0:04 - Gas tank targeted by a Ukrainian FPV drone of the 'Ronin' Company of attack unmanned aircraft systems of the 65th Brigade","Source":"https://x.com/PuenteUribarri/status/2094456375489257889, https://t.me/Ronins_65/1408, ","Geolocation":"https://x.com/Kukulkan415/status/2094473619564880258","Equipment":"","EquipmentItems":"FPV (First Person View) OWAD (One Way Attack Drone)","Units":"","OrbatUnits":"Unmanned Systems Battalion \"Ronin\"","Id":"2356d933-7051-46aa-a84d-bd25b11fc472","icon":"/api/icons/0051CA/False/template/111.png"},"source":"geoconfirmed","source_name":"GeoConfirmed","source_url":"https://geoconfirmed.org/map/ukraine","id":"2356d933-7051-46aa-a84d-bd25b11fc472","date":"2026-08-31","link":"https://geoconfirmed.org/map/ukraine/2356d933-7051-46aa-a84d-bd25b11fc472","category":"Short Range (<50km) OWAD (One Way Attack Drone), mostly rotary wing, Flying OR Attacking a target without knowing the outcome: if something is damaged --> icon of the damaged equipment.","side":"Ukraine","color":"#0051CA","description":"0:00-0:04 - Gas tank targeted by a Ukrainian FPV drone of the 'Ronin' Company of attack unmanned aircraft systems of the 65th Brigade","orbat":["Unmanned Systems Battalion \"Ronin\""],"geolocation":["https://x.com/Kukulkan415/status/2094473619564880258"],"sources":["https://x.com/PuenteUribarri/status/2094456375489257889","https://t.me/Ronins_65/1408"]}},{"type":"Feature","geometry":{"type":"Point","coordinates":[38.21051,46.680195]},"properties":{"original":{"Date":"2026-08-31","Name":"31 AUG 2026","Faction":"Russia","Origin":"UAV","Latitude":"46.680195","Longitude":"38.21051","PlusCode":"8GRWM6J6+36 Morskoi, Krasnodar Krai, Russia","Description":"1:13 - 1:18 - L-39 aircraft hit at Yeysk airfield (date inferred)","Source":"https://x.com/DI_Ukraine/status/2104489252419785183, https://x.com/NOELreports/status/2104491316801413168, https://bsky.app/profile/eole2002.bsky.social/post/3mwlgvoqqws22, https://www.facebook.com/watch/?v=1365464132066122","Geolocation":"https://x.com/carse_n/status/2104651348948185247, https://x.com/MarcinRogowsk14/status/2104608716536332421, https://x.com/duke_garland_2/status/2104611141473161514, https://x.com/avivector/status/2104665056227029245","Equipment":"","EquipmentItems":"Fixed Wing OWAD (One Way Attack Drone) | Radar System","Units":"","OrbatUnits":"UAS Unit \"Prymary\" / \"Примари\"","Id":"bc7785c5-2c66-481a-ac32-c33a75a2c249","icon":"/api/icons/E00000/False/template/32.png"},"source":"geoconfirmed","source_name":"GeoConfirmed","source_url":"https://geoconfirmed.org/map/ukraine","id":"bc7785c5-2c66-481a-ac32-c33a75a2c249","date":"2026-08-31","link":"https://geoconfirmed.org/map/ukraine/bc7785c5-2c66-481a-ac32-c33a75a2c249","category":"Recently Destroyed/Damaged[Visible in footage] Fighter Aircraft","side":"Russia","color":"#E00000","description":"1:13 - 1:18 - L-39 aircraft hit at Yeysk airfield (date inferred)","orbat":["UAS Unit \"Prymary\" / \"Примари\""],"geolocation":["https://x.com/carse_n/status/2104651348948185247","https://x.com/MarcinRogowsk14/status/2104608716536332421","https://x.com/duke_garland_2/status/2104611141473161514","https://x.com/avivector/status/2104665056227029245"],"sources":["https://x.com/DI_Ukraine/status/2104489252419785183","https://x.com/NOELreports/status/2104491316801413168","https://bsky.app/profile/eole2002.bsky.social/post/3mwlgvoqqws22","https://www.facebook.com/watch/?v=1365464132066122"]}},{"type":"Feature","geometry":{"type":"Point","coordinates":[35.686676,47.270453]},"properties":{"original":{"Date":"2026-08-31","Name":"31 AUG 2026","Faction":"Ukraine","Origin":"UAV","Latitude":"47.270453","Longitude":"35.686676","PlusCode":"8GVQ7MCP+5M Tokmak, Zaporizhia Oblast, Ukraine","Description":"0:42-0:48 - Vehicle targeted by a Ukrainian FPV drone of the 'Ronin' Company of attack unmanned aircraft systems of the 65th Brigade","Source":"https://x.com/PuenteUribarri/status/2094456375489257889, https://t.me/Ronins_65/1408, ","Geolocation":"https://x.com/Kukulkan415/status/2094467066229129570","Equipment":"","EquipmentItems":"FPV (First Person View) OWAD (One Way Attack Drone)","Units":"","OrbatUnits":"Unmanned Systems Battalion \"Ronin\"","Id":"9db60d07-854e-405f-b5c8-c3d724059d8f","icon":"/api/icons/0051CA/False/template/111.png"},"source":"geoconfirmed","source_name":"GeoConfirmed","source_url":"https://geoconfirmed.org/map/ukraine","id":"9db60d07-854e-405f-b5c8-c3d724059d8f","date":"2026-08-31","link":"https://geoconfirmed.org/map/ukraine/9db60d07-854e-405f-b5c8-c3d724059d8f","category":"Short Range (<50km) OWAD (One Way Attack Drone), mostly rotary wing, Flying OR Attacking a target without knowing the outcome: if something is damaged --> icon of the damaged equipment.","side":"Ukraine","color":"#0051CA","description":"0:42-0:48 - Vehicle targeted by a Ukrainian FPV drone of the 'Ronin' Company of attack unmanned aircraft systems of the 65th Brigade","orbat":["Unmanned Systems Battalion \"Ronin\""],"geolocation":["https://x.com/Kukulkan415/status/2094467066229129570"],"sources":["https://x.com/PuenteUribarri/status/2094456375489257889","https://t.me/Ronins_65/1408"]}},{"type":"Feature","geometry":{"type":"Point","coordinates":[37.690702,48.530986]},"properties":{"original":{"Date":"2026-08-31","Name":"31 AUG 2026","Faction":"Ukraine","Origin":"UAV","Latitude":"48.530986","Longitude":"37.690702","PlusCode":"8GWVGMJR+97 Kostyantynivka, Donetsk Oblast, Ukraine","Description":"0:23-0:24 - The 28th Separate Mechanized Brigade shells a building on the premises of the Chemical plant in Kostiantynivka.","Source":"https://x.com/AudaxonX/status/2102677656928166020, https://t.me/ombr_28/3272","Geolocation":"https://x.com/AudaxonX/status/2102677694718874007","Equipment":"","EquipmentItems":"Artillery","Units":"","OrbatUnits":"28th Separate Mechanized Brigade named after the Knights of the First Winter Campaign","Id":"efabc508-1fa4-4f3c-bbaf-cb0740ed8c64","icon":"/api/icons/0051CA/False/template/10.png"},"source":"geoconfirmed","source_name":"GeoConfirmed","source_url":"https://geoconfirmed.org/map/ukraine","id":"efabc508-1fa4-4f3c-bbaf-cb0740ed8c64","date":"2026-08-31","link":"https://geoconfirmed.org/map/ukraine/efabc508-1fa4-4f3c-bbaf-cb0740ed8c64","category":"Shelling by artillery or aerial bombings - Location of the shelling, colour of who is shelling; Brown = UXO","side":"Ukraine","color":"#0051CA","description":"0:23-0:24 - The 28th Separate Mechanized Brigade shells a building on the premises of the Chemical plant in Kostiantynivka.","orbat":["28th Separate Mechanized Brigade named after the Knights of the First Winter Campaign"],"geolocation":["https://x.com/AudaxonX/status/2102677694718874007"],"sources":["https://x.com/AudaxonX/status/2102677656928166020","https://t.me/ombr_28/3272"]}},{"type":"Feature","geometry":{"type":"Point","coordinates":[60.57159,56.74605]},"properties":{"original":{"Date":"2026-08-31","Name":"31 AUG 2026","Faction":"Ukraine","Origin":"VID","Latitude":"56.74605","Longitude":"60.57159","PlusCode":"9J82PHWC+CJ Yekaterinburg, Sverdlovsk Oblast, Russia","Description":"Point of view - A Ukrainian long range drone flying in northeast direction, direction of the Wildberries distribution center (Yekaterinburg).","Source":"(2/4), https://x.com/Exilenova_plus/status/2094308522137972943","Geolocation":"https://x.com/GeoConfirmed/status/2094470395600773174, https://x.com/zarGEOINT/status/2094320353237451139","Equipment":"","EquipmentItems":"Fixed Wing OWAD (One Way Attack Drone)","Units":"","OrbatUnits":"","Id":"7806aa8a-2a8f-4474-ae4c-cd0d1660c3f5","icon":"/api/icons/0051CA/False/template/30.png"},"source":"geoconfirmed","source_name":"GeoConfirmed","source_url":"https://geoconfirmed.org/map/ukraine","id":"7806aa8a-2a8f-4474-ae4c-cd0d1660c3f5","date":"2026-08-31","link":"https://geoconfirmed.org/map/ukraine/7806aa8a-2a8f-4474-ae4c-cd0d1660c3f5","category":"Video - Always Point of View in description - In the colour of who is doing the attack or is responsable for the incident in the video.","side":"Ukraine","color":"#0051CA","description":"Point of view - A Ukrainian long range drone flying in northeast direction, direction of the Wildberries distribution center (Yekaterinburg).","orbat":[],"geolocation":["https://x.com/GeoConfirmed/status/2094470395600773174","https://x.com/zarGEOINT/status/2094320353237451139"],"sources":["https://x.com/Exilenova_plus/status/2094308522137972943"]}},{"type":"Feature","geometry":{"type":"Point","coordinates":[35.624603,47.220497]},"properties":{"original":{"Date":"2026-08-31","Name":"31 AUG 2026","Faction":"Russia","Origin":"UAV","Latitude":"47.220497","Longitude":"35.624603","PlusCode":"8GVQ6JCF+5R Petershahen, Zaporizhia Oblast, Ukraine","Description":"2:08-2:25 - Vehicle destroyed by a Ukrainian FPV drone of the 'Ronin' Company of attack unmanned aircraft systems of the 65th Brigade","Source":"https://x.com/PuenteUribarri/status/2094456375489257889, https://t.me/Ronins_65/1408, ","Geolocation":"https://x.com/Kukulkan415/status/2094525770152419329","Equipment":"","EquipmentItems":"FPV (First Person View) OWAD (One Way Attack Drone)","Units":"","OrbatUnits":"Unmanned Systems Battalion \"Ronin\"","Id":"dc0d9e76-ddf3-4a77-915b-dc220dc55858","icon":"/api/icons/E00000/False/template/a8c55b37-7710-40ef-8f00-2a17e58b6f69.png"},"source":"geoconfirmed","source_name":"GeoConfirmed","source_url":"https://geoconfirmed.org/map/ukraine","id":"dc0d9e76-ddf3-4a77-915b-dc220dc55858","date":"2026-08-31","link":"https://geoconfirmed.org/map/ukraine/dc0d9e76-ddf3-4a77-915b-dc220dc55858","category":"Recently Destroyed/Damaged[Visible in footage] Car OR PickUp (Soft Skin Vehicle)","side":"Russia","color":"#E00000","description":"2:08-2:25 - Vehicle destroyed by a Ukrainian FPV drone of the 'Ronin' Company of attack unmanned aircraft systems of the 65th Brigade","orbat":["Unmanned Systems Battalion \"Ronin\""],"geolocation":["https://x.com/Kukulkan415/status/2094525770152419329"],"sources":["https://x.com/PuenteUribarri/status/2094456375489257889","https://t.me/Ronins_65/1408"]}},{"type":"Feature","geometry":{"type":"Point","coordinates":[35.599095,47.207949]},"properties":{"original":{"Date":"2026-08-31","Name":"31 AUG 2026","Faction":"Ukraine","Origin":"UAV","Latitude":"47.207949","Longitude":"35.599095","PlusCode":"8GVQ6H5X+5J Molochans'k, Zaporizhia Oblast, Ukraine","Description":"0:04-0:06 - Vehicle targeted by a Ukrainian FPV drone of the 'Ronin' Company of attack unmanned aircraft systems of the 65th Brigade","Source":"https://x.com/PuenteUribarri/status/2094456375489257889, https://t.me/Ronins_65/1408, ","Geolocation":"https://x.com/Kukulkan415/status/2094475905972248963","Equipment":"","EquipmentItems":"FPV (First Person View) OWAD (One Way Attack Drone)","Units":"","OrbatUnits":"Unmanned Systems Battalion \"Ronin\"","Id":"e628812d-e9c7-44f9-83f5-eea815dd5a58","icon":"/api/icons/0051CA/False/template/111.png"},"source":"geoconfirmed","source_name":"GeoConfirmed","source_url":"https://geoconfirmed.org/map/ukraine","id":"e628812d-e9c7-44f9-83f5-eea815dd5a58","date":"2026-08-31","link":"https://geoconfirmed.org/map/ukraine/e628812d-e9c7-44f9-83f5-eea815dd5a58","category":"Short Range (<50km) OWAD (One Way Attack Drone), mostly rotary wing, Flying OR Attacking a target without knowing the outcome: if something is damaged --> icon of the damaged equipment.","side":"Ukraine","color":"#0051CA","description":"0:04-0:06 - Vehicle targeted by a Ukrainian FPV drone of the 'Ronin' Company of attack unmanned aircraft systems of the 65th Brigade","orbat":["Unmanned Systems Battalion \"Ronin\""],"geolocation":["https://x.com/Kukulkan415/status/2094475905972248963"],"sources":["https://x.com/PuenteUribarri/status/2094456375489257889","https://t.me/Ronins_65/1408"]}},{"type":"Feature","geometry":{"type":"Point","coordinates":[37.662965,48.541156]},"properties":{"original":{"Date":"2026-08-31","Name":"31 AUG 2026","Faction":"Ukraine","Origin":"UAV","Latitude":"48.541156","Longitude":"37.662965","PlusCode":"8GWVGMR7+F5 Kostyantynivka, Donetsk Oblast, Ukraine","Description":"0:41-0:43  - Rough location - The 28th Separate Mechanized Brigade conducted shelling of/near a building at the premises of JSC \"Weighting Plant\" in Konstantinovka.","Source":"https://x.com/AudaxonX/status/2102677656928166020, https://t.me/ombr_28/3272","Geolocation":"https://x.com/AudaxonX/status/2102677705330233578","Equipment":"","EquipmentItems":"Artillery","Units":"","OrbatUnits":"28th Separate Mechanized Brigade named after the Knights of the First Winter Campaign","Id":"327a3d88-a1f9-4e6c-8ec7-f2ee68fe9578","icon":"/api/icons/0051CA/False/template/10.png"},"source":"geoconfirmed","source_name":"GeoConfirmed","source_url":"https://geoconfirmed.org/map/ukraine","id":"327a3d88-a1f9-4e6c-8ec7-f2ee68fe9578","date":"2026-08-31","link":"https://geoconfirmed.org/map/ukraine/327a3d88-a1f9-4e6c-8ec7-f2ee68fe9578","category":"Shelling by artillery or aerial bombings - Location of the shelling, colour of who is shelling; Brown = UXO","side":"Ukraine","color":"#0051CA","description":"0:41-0:43  - Rough location - The 28th Separate Mechanized Brigade conducted shelling of/near a building at the premises of JSC \"Weighting Plant\" in Konstantinovka.","orbat":["28th Separate Mechanized Brigade named after the Knights of the First Winter Campaign"],"geolocation":["https://x.com/AudaxonX/status/2102677705330233578"],"sources":["https://x.com/AudaxonX/status/2102677656928166020","https://t.me/ombr_28/3272"]}},{"type":"Feature","geometry":{"type":"Point","coordinates":[30.602529,46.534821]},"properties":{"original":{"Date":"2026-08-31","Name":"31 AUG 2026","Faction":"Russia","Origin":"PIC","Latitude":"46.534821","Longitude":"30.602529","PlusCode":"8GRGGJM3+W2 Nerubais'ke, Odesa Oblast, Ukraine","Description":"Rough location- Smoke rising from a Nova Poshta warehouse after a reported Russian drone strike","Source":"https://x.com/RedHibana/status/2094341947322212706, (3/3), https://t.me/ASupersharij/59443, , More information, https://unn.ua/en/news/russia-struck-a-nova-poshta-terminal-in-odesa-region","Geolocation":"https://x.com/GeoConfirmed/status/2094470506627928121, https://x.com/RedHibana/status/2094341943610266061","Equipment":"(reported)","EquipmentItems":"Fixed Wing OWAD (One Way Attack Drone)","Units":"","OrbatUnits":"","Id":"8537b719-7b3d-4f95-8592-f464cb2884f2","icon":"/api/icons/E00000/False/template/20.png"},"source":"geoconfirmed","source_name":"GeoConfirmed","source_url":"https://geoconfirmed.org/map/ukraine","id":"8537b719-7b3d-4f95-8592-f464cb2884f2","date":"2026-08-31","link":"https://geoconfirmed.org/map/ukraine/8537b719-7b3d-4f95-8592-f464cb2884f2","category":"Picture - Always Point of View in description - - In the colour of who is doing the attack or is responsable for the incident in the picture.","side":"Russia","color":"#E00000","description":"Rough location- Smoke rising from a Nova Poshta warehouse after a reported Russian drone strike","orbat":[],"geolocation":["https://x.com/GeoConfirmed/status/2094470506627928121","https://x.com/RedHibana/status/2094341943610266061"],"sources":["https://x.com/RedHibana/status/2094341947322212706","https://t.me/ASupersharij/59443","https://unn.ua/en/news/russia-struck-a-nova-poshta-terminal-in-odesa-region"]}},{"type":"Feature","geometry":{"type":"Point","coordinates":[37.786259,49.014538]},"properties":{"original":{"Date":"2026-08-31","Name":"31 AUG 2026","Faction":"Russia","Origin":"UAV","Latitude":"49.014538","Longitude":"37.786259","PlusCode":"8GXV2Q7P+RG Lyman, Donetsk Oblast, Ukraine","Description":"0:28 -0:32 - area grid - A claimed position of the 3rd Army Corps \"Azov\" was shelled by the 31st Motorized Rifle Regiment","Source":"https://x.com/ZoamSc2/status/2094630241012797797, https://t.me/Secrets_of_Vinakos/17155","Geolocation":"https://x.com/ZoamSc2/status/2094630238777163805","Equipment":"","EquipmentItems":"","Units":"(Claimed position of)","OrbatUnits":"31st Motorized Rifle Regiment | 3rd Army Corps","Id":"cb784eb0-f4bd-4207-83fd-f5597fb14d0c","icon":"/api/icons/E00000/False/template/10.png"},"source":"geoconfirmed","source_name":"GeoConfirmed","source_url":"https://geoconfirmed.org/map/ukraine","id":"cb784eb0-f4bd-4207-83fd-f5597fb14d0c","date":"2026-08-31","link":"https://geoconfirmed.org/map/ukraine/cb784eb0-f4bd-4207-83fd-f5597fb14d0c","category":"Shelling by artillery or aerial bombings - Location of the shelling, colour of who is shelling; Brown = UXO","side":"Russia","color":"#E00000","description":"0:28 -0:32 - area grid - A claimed position of the 3rd Army Corps \"Azov\" was shelled by the 31st Motorized Rifle Regiment","orbat":["31st Motorized Rifle Regiment","3rd Army Corps"],"geolocation":["https://x.com/ZoamSc2/status/2094630238777163805"],"sources":["https://x.com/ZoamSc2/status/2094630241012797797","https://t.me/Secrets_of_Vinakos/17155"]}},{"type":"Feature","geometry":{"type":"Point","coordinates":[35.582614,47.19484]},"properties":{"original":{"Date":"2026-08-31","Name":"31 AUG 2026","Faction":"Ukraine","Origin":"UAV","Latitude":"47.19484","Longitude":"35.582614","PlusCode":"8GVQ5HVM+W2 Molochans'k, Zaporizhia Oblast, Ukraine","Description":"0:06-0:14 - Russian truck targeted by a Ukrainian FPV drone of the 'Ronin' Company of attack unmanned aircraft systems of the 65th Brigade","Source":"https://x.com/PuenteUribarri/status/2094456375489257889, https://t.me/Ronins_65/1408, ","Geolocation":"https://x.com/Kukulkan415/status/2094478369249239153","Equipment":"","EquipmentItems":"FPV (First Person View) OWAD (One Way Attack Drone) | Truck","Units":"","OrbatUnits":"Unmanned Systems Battalion \"Ronin\"","Id":"142aa035-0707-4698-a4b5-fa8c14f4e444","icon":"/api/icons/0051CA/False/template/111.png"},"source":"geoconfirmed","source_name":"GeoConfirmed","source_url":"https://geoconfirmed.org/map/ukraine","id":"142aa035-0707-4698-a4b5-fa8c14f4e444","date":"2026-08-31","link":"https://geoconfirmed.org/map/ukraine/142aa035-0707-4698-a4b5-fa8c14f4e444","category":"Short Range (<50km) OWAD (One Way Attack Drone), mostly rotary wing, Flying OR Attacking a target without knowing the outcome: if something is damaged --> icon of the damaged equipment.","side":"Ukraine","color":"#0051CA","description":"0:06-0:14 - Russian truck targeted by a Ukrainian FPV drone of the 'Ronin' Company of attack unmanned aircraft systems of the 65th Brigade","orbat":["Unmanned Systems Battalion \"Ronin\""],"geolocation":["https://x.com/Kukulkan415/status/2094478369249239153"],"sources":["https://x.com/PuenteUribarri/status/2094456375489257889","https://t.me/Ronins_65/1408"]}}]}