{"type":"FeatureCollection","features":[{"type":"Feature","geometry":{"type":"Point","coordinates":[37.696353,48.851695]},"properties":{"original":{"Date":"2026-10-04","Name":"04 OCT 2026","Faction":"Russia","Origin":"UAV","Latitude":"48.851695","Longitude":"37.696353","PlusCode":"8GWVVM2W+MG Slovyansk, Donetsk Oblast, Ukraine","Description":"Ukrainian UGV is targeted by a drone of the Russian 7th Brigade","Source":"https://x.com/jimmhelloman555/status/2106857982197657940, https://t.me/shock3OA/9566","Geolocation":"https://x.com/jimmhelloman555/status/2106857982197657940","Equipment":"","EquipmentItems":"Unmanned Ground Vehicle (UGV) | FPV (First Person View) OWAD (One Way Attack Drone)","Units":"","OrbatUnits":"7th Separate Guards Motor Rifle Brigade \"Chistyakovskaya\"","Id":"004c71e8-8d6c-41bf-be6e-018e9eb1db0f","icon":"/api/icons/E00000/False/template/111.png"},"source":"geoconfirmed","source_name":"GeoConfirmed","source_url":"https://geoconfirmed.org/map/ukraine","id":"004c71e8-8d6c-41bf-be6e-018e9eb1db0f","date":"2026-10-04","link":"https://geoconfirmed.org/map/ukraine/004c71e8-8d6c-41bf-be6e-018e9eb1db0f","category":"Short Range (<50km) OWAD (One Way Attack Drone), mostly rotary wing, Flying OR Attacking a target without knowing the outcome: if something is damaged --> icon of the damaged equipment.","side":"Russia","color":"#E00000","description":"Ukrainian UGV is targeted by a drone of the Russian 7th Brigade","orbat":["7th Separate Guards Motor Rifle Brigade \"Chistyakovskaya\""],"geolocation":["https://x.com/jimmhelloman555/status/2106857982197657940"],"sources":["https://x.com/jimmhelloman555/status/2106857982197657940","https://t.me/shock3OA/9566"]}},{"type":"Feature","geometry":{"type":"Point","coordinates":[37.767684,48.783488]},"properties":{"original":{"Date":"2026-10-04","Name":"04 OCT 2026","Faction":"Russia","Origin":"","Latitude":"48.783488","Longitude":"37.767684","PlusCode":"8GWVQQM9+93 Zapovidne, Donetsk Oblast, Ukraine","Description":"0:23 - Russian Soldier hit by FPV strike","Source":"https://x.com/moklasen/status/2106857252875338000, https://t.me/yokaiUA/560","Geolocation":"https://x.com/moklasen/status/2106857093240426734","Equipment":"","EquipmentItems":"FPV (First Person View) OWAD (One Way Attack Drone)","Units":"","OrbatUnits":"","Id":"52401057-7c8e-4007-b861-0e8598f3deb9","icon":"/api/icons/E00000/False/template/92.png"},"source":"geoconfirmed","source_name":"GeoConfirmed","source_url":"https://geoconfirmed.org/map/ukraine","id":"52401057-7c8e-4007-b861-0e8598f3deb9","date":"2026-10-04","link":"https://geoconfirmed.org/map/ukraine/52401057-7c8e-4007-b861-0e8598f3deb9","category":"WIA/KIA Soldier/Militant","side":"Russia","color":"#E00000","description":"0:23 - Russian Soldier hit by FPV strike","orbat":[],"geolocation":["https://x.com/moklasen/status/2106857093240426734"],"sources":["https://x.com/moklasen/status/2106857252875338000","https://t.me/yokaiUA/560"]}},{"type":"Feature","geometry":{"type":"Point","coordinates":[34.653295,47.436799]},"properties":{"original":{"Date":"2026-10-04","Name":"04 OCT 2026","Faction":"Russia","Origin":"VID","Latitude":"47.436799","Longitude":"34.653295","PlusCode":"8GVPCMP3+P8 Dniprovka, Zaporizhia Oblast, Ukraine","Description":"A Russian Mobile Fire Group, located outside Enerhodar at a checkpoint, was firing at a reported Ukrainian drone.","Source":"https://x.com/GirkinGirkin/status/2106584146856366494","Geolocation":"https://x.com/neonhandrail/status/2106594221595795886","Equipment":"(Alleged)","EquipmentItems":"FPV (First Person View) OWAD (One Way Attack Drone)","Units":"","OrbatUnits":"","Id":"4d708567-6984-49d4-9bf4-18066a3fd043","icon":"/api/icons/E00000/False/template/100.png"},"source":"geoconfirmed","source_name":"GeoConfirmed","source_url":"https://geoconfirmed.org/map/ukraine","id":"4d708567-6984-49d4-9bf4-18066a3fd043","date":"2026-10-04","link":"https://geoconfirmed.org/map/ukraine/4d708567-6984-49d4-9bf4-18066a3fd043","category":"Civilian or Soldier or Militant (Depending on the colour)","side":"Russia","color":"#E00000","description":"A Russian Mobile Fire Group, located outside Enerhodar at a checkpoint, was firing at a reported Ukrainian drone.","orbat":[],"geolocation":["https://x.com/neonhandrail/status/2106594221595795886"],"sources":["https://x.com/GirkinGirkin/status/2106584146856366494"]}},{"type":"Feature","geometry":{"type":"Point","coordinates":[35.03018,48.46137]},"properties":{"original":{"Date":"2026-10-04","Name":"04 OCT 2026","Faction":"Neutral","Origin":"PIC","Latitude":"48.46137","Longitude":"35.03018","PlusCode":"8GWQF26J+G3 Dnipro, Dnipropetrovsk Oblast, Ukraine","Description":"A Russian Geran-4 jet-drone struck a data processing centre belonging to the \"Ukrtelecom\" telecommunications company in Dnipro, resulting in a large fire breaking out inside the building.","Source":"https://x.com/AMK_Mapping_/status/2106637598932468003, https://t.me/dnepr_operativ/114856, , More information, https://english.nv.ua/nation/russian-jet-powered-drone-strikes-ukrtelecom-building-in-central-dnipro-50646925.html","Geolocation":"Geo, https://x.com/AMK_Mapping_/status/2106637598932468003, Proof, https://x.com/Zeldamices/status/2106984450148258238","Equipment":"Telecom","EquipmentItems":"Geran-4","Units":"","OrbatUnits":"","Id":"729b82fa-857c-47f9-ade6-304760249345","icon":"/api/icons/AC7339/False/template/192.png"},"source":"geoconfirmed","source_name":"GeoConfirmed","source_url":"https://geoconfirmed.org/map/ukraine","id":"729b82fa-857c-47f9-ade6-304760249345","date":"2026-10-04","link":"https://geoconfirmed.org/map/ukraine/729b82fa-857c-47f9-ade6-304760249345","category":"Recently destroyed/Damaged[Visible in footage] or still burning infrastucture","side":"Neutral","color":"#AC7339","description":"A Russian Geran-4 jet-drone struck a data processing centre belonging to the \"Ukrtelecom\" telecommunications company in Dnipro, resulting in a large fire breaking out inside the building.","orbat":[],"geolocation":["https://x.com/AMK_Mapping_/status/2106637598932468003","https://x.com/Zeldamices/status/2106984450148258238"],"sources":["https://x.com/AMK_Mapping_/status/2106637598932468003","https://t.me/dnepr_operativ/114856","https://english.nv.ua/nation/russian-jet-powered-drone-strikes-ukrtelecom-building-in-central-dnipro-50646925.html"]}},{"type":"Feature","geometry":{"type":"Point","coordinates":[30.539968,50.491854]},"properties":{"original":{"Date":"2026-10-04","Name":"04 OCT 2026","Faction":"Neutral","Origin":"VID","Latitude":"50.491854","Longitude":"30.539968","PlusCode":"9G2GFGRQ+PX Kyiv, Kyiv city, Ukraine","Description":"A Russian strike on the Pivnichnyi Bridge resulted in a crater being visible in the aftermath; reportedly, two persons were injured. On 03 October, the bridge was also hit by a Russian strike.","Source":"Vid1, Moment of attack, https://x.com/Zeldamices/status/2106758373819507169, (2/2), https://t.me/k_dvizh/81731, Vid2, Aftermath, https://x.com/Zeldamices/status/2106760506728202529, https://t.me/kyiv_hey/42248, Vid3, Aftermath crater, https://x.com/Zeldamices/status/2106761075215802500, https://t.me/k_dvizh/81732, , More information, https://x.com/ZelenskyyUa/status/2106662951860003073, https://kyivindependent.com/russia-targets-kyiv-bridges-for-fourth-consecutive-day-hits-northern-bridge/, https://www.pravda.com.ua/eng/news/2026/10/04/8056377/","Geolocation":"https://x.com/ne_kotletka/status/2106648144960258330, , https://x.com/Zeldamices/status/2106765936199938149, based on, (1/5), https://t.me/creamy_caprice/13116","Equipment":"","EquipmentItems":"","Units":"","OrbatUnits":"","Id":"1fc6a758-76ff-4ac4-a14a-51534d185640","icon":"/api/icons/AC7339/False/template/12.png"},"source":"geoconfirmed","source_name":"GeoConfirmed","source_url":"https://geoconfirmed.org/map/ukraine","id":"1fc6a758-76ff-4ac4-a14a-51534d185640","date":"2026-10-04","link":"https://geoconfirmed.org/map/ukraine/1fc6a758-76ff-4ac4-a14a-51534d185640","category":"Recently destroyed/Damaged brigde[Visible in footage] - if colour is used of a fighting faction = pontoon or similar bridge","side":"Neutral","color":"#AC7339","description":"A Russian strike on the Pivnichnyi Bridge resulted in a crater being visible in the aftermath; reportedly, two persons were injured. On 03 October, the bridge was also hit by a Russian strike.","orbat":[],"geolocation":["https://x.com/ne_kotletka/status/2106648144960258330","https://x.com/Zeldamices/status/2106765936199938149","https://t.me/creamy_caprice/13116"],"sources":["https://x.com/Zeldamices/status/2106758373819507169","https://t.me/k_dvizh/81731","https://x.com/Zeldamices/status/2106760506728202529","https://t.me/kyiv_hey/42248","https://x.com/Zeldamices/status/2106761075215802500","https://t.me/k_dvizh/81732","https://x.com/ZelenskyyUa/status/2106662951860003073","https://kyivindependent.com/russia-targets-kyiv-bridges-for-fourth-consecutive-day-hits-northern-bridge/","https://www.pravda.com.ua/eng/news/2026/10/04/8056377/"]}},{"type":"Feature","geometry":{"type":"Point","coordinates":[38.042805,49.162266]},"properties":{"original":{"Date":"2026-10-04","Name":"04 OCT 2026","Faction":"Ukraine","Origin":"","Latitude":"49.162266","Longitude":"38.042805","PlusCode":"8GXW526V+W4 Balka Zhuravka, Luhansk Oblast, Ukraine","Description":"0:56 - 1:02 - Large Explosion, presumably after an Ukrainain derone strike on an Ural based vehicle","Source":"https://x.com/ab3army/status/2106671434047131726, https://t.me/ab3army/7546","Geolocation":"https://x.com/Kukulkan415/status/2106675741349777747, https://x.com/Kukulkan415/status/2106676744392486993","Equipment":"Ural","EquipmentItems":"FPV (First Person View) OWAD (One Way Attack Drone)","Units":"","OrbatUnits":"1st UAS Battalion \"Paskuda Group\"","Id":"e187f3b3-318e-43b7-b1b3-5b45fd70f682","icon":"/api/icons/0051CA/False/template/70.png"},"source":"geoconfirmed","source_name":"GeoConfirmed","source_url":"https://geoconfirmed.org/map/ukraine","id":"e187f3b3-318e-43b7-b1b3-5b45fd70f682","date":"2026-10-04","link":"https://geoconfirmed.org/map/ukraine/e187f3b3-318e-43b7-b1b3-5b45fd70f682","category":"Controlled Demolition OR explosion of unknown origin OR fire of unknown origin where no other icon fits","side":"Ukraine","color":"#0051CA","description":"0:56 - 1:02 - Large Explosion, presumably after an Ukrainain derone strike on an Ural based vehicle","orbat":["1st UAS Battalion \"Paskuda Group\""],"geolocation":["https://x.com/Kukulkan415/status/2106675741349777747","https://x.com/Kukulkan415/status/2106676744392486993"],"sources":["https://x.com/ab3army/status/2106671434047131726","https://t.me/ab3army/7546"]}},{"type":"Feature","geometry":{"type":"Point","coordinates":[37.719029,49.099194]},"properties":{"original":{"Date":"2026-10-04","Name":"04 OCT 2026","Faction":"Russia","Origin":"UAV","Latitude":"49.099194","Longitude":"37.719029","PlusCode":"8GXV3PX9+MJ Shandryholove, Donetsk Oblast, Ukraine","Description":"8:47-9:28: Two Russian soldiers surrendered to Ukrainian soldiers. (likely location)","Source":"https://www.youtube.com/watch?v=xBTxS6b2iX0","Geolocation":"https://x.com/99Dominik_/status/2106660703172231415","Equipment":"","EquipmentItems":"","Units":"","OrbatUnits":"66th Mechanized Brigade","Id":"4552c5dc-92ce-40bf-b8a5-78a701703bc3","icon":"/api/icons/E00000/False/template/101.png"},"source":"geoconfirmed","source_name":"GeoConfirmed","source_url":"https://geoconfirmed.org/map/ukraine","id":"4552c5dc-92ce-40bf-b8a5-78a701703bc3","date":"2026-10-04","link":"https://geoconfirmed.org/map/ukraine/4552c5dc-92ce-40bf-b8a5-78a701703bc3","category":"POW - Prisinor of War - In the colour of the faction of the POW","side":"Russia","color":"#E00000","description":"8:47-9:28: Two Russian soldiers surrendered to Ukrainian soldiers. (likely location)","orbat":["66th Mechanized Brigade"],"geolocation":["https://x.com/99Dominik_/status/2106660703172231415"],"sources":["https://www.youtube.com/watch?v=xBTxS6b2iX0"]}},{"type":"Feature","geometry":{"type":"Point","coordinates":[37.002007,50.416638]},"properties":{"original":{"Date":"2026-10-04","Name":"04 OCT 2026","Faction":"Russia Civilian","Origin":"","Latitude":"50.416638","Longitude":"37.002007","PlusCode":"9G2VC282+MR Voznesenovka, Belgorod Oblast, Russia","Description":"FPV strike on a crashed tanker semi truck","Source":"https://x.com/PuenteUribarri/status/2106661033485971879, https://t.me/kharkivnapriamok/4566","Geolocation":"https://x.com/Kukulkan415/status/2106671171479425441","Equipment":"semi truck","EquipmentItems":"FPV (First Person View) OWAD (One Way Attack Drone)","Units":"","OrbatUnits":"","Id":"494fd90e-8c4b-4c5f-b081-8e5c745d1cf5","icon":"/api/icons/FF6666/False/template/62.png"},"source":"geoconfirmed","source_name":"GeoConfirmed","source_url":"https://geoconfirmed.org/map/ukraine","id":"494fd90e-8c4b-4c5f-b081-8e5c745d1cf5","date":"2026-10-04","link":"https://geoconfirmed.org/map/ukraine/494fd90e-8c4b-4c5f-b081-8e5c745d1cf5","category":"Recently Destroyed/Damaged[Visible in footage] Logistical Trucks (Soft skin OR armoured)","side":"Russia Civilian","color":"#FF6666","description":"FPV strike on a crashed tanker semi truck","orbat":[],"geolocation":["https://x.com/Kukulkan415/status/2106671171479425441"],"sources":["https://x.com/PuenteUribarri/status/2106661033485971879","https://t.me/kharkivnapriamok/4566"]}},{"type":"Feature","geometry":{"type":"Point","coordinates":[36.51949,46.769228]},"properties":{"original":{"Date":"2026-10-04","Name":"04 OCT 2026","Faction":"Russia Civilian","Origin":"UAV","Latitude":"46.769228","Longitude":"36.51949","PlusCode":"8GRRQG99+MQ Shevchenka, Zaporizhia Oblast, Ukraine","Description":"Burning Semi Truck","Source":"https://x.com/Exilenova_plus/status/2106721305743511685, https://t.me/exilenova_plus/31956, 2:13:20 -2:13:40 reference:, https://www.youtube.com/watch?v=Hpm8eTMvzJQ, ","Geolocation":"https://x.com/neonhandrail/status/2106773784808378487","Equipment":"Semi Truck","EquipmentItems":"","Units":"","OrbatUnits":"","Id":"ba3a2487-6fc8-4541-b78a-a36ed0f7e86b","icon":"/api/icons/FF6666/False/template/62.png"},"source":"geoconfirmed","source_name":"GeoConfirmed","source_url":"https://geoconfirmed.org/map/ukraine","id":"ba3a2487-6fc8-4541-b78a-a36ed0f7e86b","date":"2026-10-04","link":"https://geoconfirmed.org/map/ukraine/ba3a2487-6fc8-4541-b78a-a36ed0f7e86b","category":"Recently Destroyed/Damaged[Visible in footage] Logistical Trucks (Soft skin OR armoured)","side":"Russia Civilian","color":"#FF6666","description":"Burning Semi Truck","orbat":[],"geolocation":["https://x.com/neonhandrail/status/2106773784808378487"],"sources":["https://x.com/Exilenova_plus/status/2106721305743511685","https://t.me/exilenova_plus/31956","https://www.youtube.com/watch?v=Hpm8eTMvzJQ"]}},{"type":"Feature","geometry":{"type":"Point","coordinates":[37.28219,48.44217]},"properties":{"original":{"Date":"2026-10-04","Name":"04 OCT 2026","Faction":"Russia","Origin":"UAV","Latitude":"48.44217","Longitude":"37.28219","PlusCode":"8GWVC7RJ+VV Nykanorivka, Donetsk Oblast, Ukraine","Description":"RU 35th Brigade, 41st Army uses Molnya-2 drone to supply assault infantry with food","Source":"https://x.com/moklasen/status/2106822021208314018, https://vk.ru/wall-121828295_118331","Geolocation":"https://x.com/moklasen/status/2106822016959754751","Equipment":"","EquipmentItems":"Molniya","Units":"","OrbatUnits":"35th Guards Motor Rifle Brigade \"\"Aleysk\" / \"Unstoppable\" / \"Expendables\"","Id":"f536b157-531b-42db-9157-a4893b83c335","icon":"/api/icons/E00000/False/template/91.png"},"source":"geoconfirmed","source_name":"GeoConfirmed","source_url":"https://geoconfirmed.org/map/ukraine","id":"f536b157-531b-42db-9157-a4893b83c335","date":"2026-10-04","link":"https://geoconfirmed.org/map/ukraine/f536b157-531b-42db-9157-a4893b83c335","category":"91","side":"Russia","color":"#E00000","description":"RU 35th Brigade, 41st Army uses Molnya-2 drone to supply assault infantry with food","orbat":["35th Guards Motor Rifle Brigade \"\"Aleysk\" / \"Unstoppable\" / \"Expendables\""],"geolocation":["https://x.com/moklasen/status/2106822016959754751"],"sources":["https://x.com/moklasen/status/2106822021208314018","https://vk.ru/wall-121828295_118331"]}},{"type":"Feature","geometry":{"type":"Point","coordinates":[36.521139,46.769769]},"properties":{"original":{"Date":"2026-10-04","Name":"04 OCT 2026","Faction":"Russia Civilian","Origin":"UAV","Latitude":"46.769769","Longitude":"36.521139","PlusCode":"8GRRQG9C+WF Shevchenka, Zaporizhia Oblast, Ukraine","Description":"Burning Semi Truck","Source":"https://x.com/Exilenova_plus/status/2106721305743511685, https://t.me/exilenova_plus/31956, 2:13:20 -2:13:40 reference:, https://www.youtube.com/watch?v=Hpm8eTMvzJQ, ","Geolocation":"https://x.com/neonhandrail/status/2106773784808378487, possibly related: https://bsky.app/profile/taod51.bsky.social/post/3mx2x2mdyzc2z","Equipment":"Semi Truck","EquipmentItems":"","Units":"","OrbatUnits":"","Id":"e76182de-2271-4cd9-9be2-b9ae879f679d","icon":"/api/icons/FF6666/False/template/62.png"},"source":"geoconfirmed","source_name":"GeoConfirmed","source_url":"https://geoconfirmed.org/map/ukraine","id":"e76182de-2271-4cd9-9be2-b9ae879f679d","date":"2026-10-04","link":"https://geoconfirmed.org/map/ukraine/e76182de-2271-4cd9-9be2-b9ae879f679d","category":"Recently Destroyed/Damaged[Visible in footage] Logistical Trucks (Soft skin OR armoured)","side":"Russia Civilian","color":"#FF6666","description":"Burning Semi Truck","orbat":[],"geolocation":["https://x.com/neonhandrail/status/2106773784808378487","https://bsky.app/profile/taod51.bsky.social/post/3mx2x2mdyzc2z"],"sources":["https://x.com/Exilenova_plus/status/2106721305743511685","https://t.me/exilenova_plus/31956","https://www.youtube.com/watch?v=Hpm8eTMvzJQ"]}},{"type":"Feature","geometry":{"type":"Point","coordinates":[36.395188,49.943922]},"properties":{"original":{"Date":"2026-10-04","Name":"04 OCT 2026","Faction":"Russia","Origin":"VID","Latitude":"49.943922","Longitude":"36.395188","PlusCode":"8GXRW9VW+H3 Kharkiv, Kharkiv Oblast, Ukraine","Description":"A man was killed as a result of a reported Russian S-800 Banderol cruise missile. The reported passengers, a woman was injured and a dog survived.","Source":"Vid1, Moment of attack, https://x.com/99Dominik_/status/2107007080024383594, https://t.me/c/1124443753/144164, Vid2, https://x.com/99Dominik_/status/2107030136470319150, https://t.me/dumka_media/66961, Pic1, Aftermath, https://x.com/99Dominik_/status/2107007357742125392, (7/8), https://t.me/suspilne_kharkiv/102876, Pic2, https://x.com/99Dominik_/status/2107013172418744550, (1/5, 2/5, 3/5 & 4/5), https://t.me/prokuratura_kharkiv/30839, More information, https://www.pravda.com.ua/eng/news/2026/10/05/8056465/, ","Geolocation":"https://x.com/99Dominik_/status/2107006700998029684","Equipment":"(reported) S8000 Banderol cruise missile","EquipmentItems":"Car ","Units":"","OrbatUnits":"","Id":"5854d09a-5fd4-4332-84e0-ea71e68530d7","icon":"/api/icons/E00000/False/template/50.png"},"source":"geoconfirmed","source_name":"GeoConfirmed","source_url":"https://geoconfirmed.org/map/ukraine","id":"5854d09a-5fd4-4332-84e0-ea71e68530d7","date":"2026-10-04","link":"https://geoconfirmed.org/map/ukraine/5854d09a-5fd4-4332-84e0-ea71e68530d7","category":"Killed or wounded civilian. Potential Warcrime. In the colour of who is assessed as doing the attack/killing.","side":"Russia","color":"#E00000","description":"A man was killed as a result of a reported Russian S-800 Banderol cruise missile. The reported passengers, a woman was injured and a dog survived.","orbat":[],"geolocation":["https://x.com/99Dominik_/status/2107006700998029684"],"sources":["https://x.com/99Dominik_/status/2107007080024383594","https://t.me/c/1124443753/144164","https://x.com/99Dominik_/status/2107030136470319150","https://t.me/dumka_media/66961","https://x.com/99Dominik_/status/2107007357742125392","https://t.me/suspilne_kharkiv/102876","https://x.com/99Dominik_/status/2107013172418744550","https://t.me/prokuratura_kharkiv/30839","https://www.pravda.com.ua/eng/news/2026/10/05/8056465/"]}}]}