{"type":"FeatureCollection","features":[{"type":"Feature","geometry":{"type":"Point","coordinates":[36.355262,46.746152]},"properties":{"original":{"id":46248,"type":"Transport","model":"KamAZ 6x6","status":"Destroyed","lost_by":"Russia","date":"2026-08-02","nearest_location":"Prymorsk, Berdiansk raion","geo":"46.746152,36.355262","unit":null,"tags":"Z, ☐, Flipped"},"source":"warspotting","source_name":"WarSpotting","source_url":"https://ukr.warspotting.net/","id":46248,"date":"2026-08-02","link":"https://ukr.warspotting.net/view/46248/","category":"Transport","side":"Lost by Russia","color":"#E00000","description":"KamAZ 6x6 · Destroyed · near Prymorsk, Berdiansk raion · tags: Z, ☐, Flipped","orbat":[]}},{"type":"Feature","geometry":{"type":"Point","coordinates":[37.972762,49.167659]},"properties":{"original":{"id":46250,"type":"Self-propelled artillery","model":"152mm 2S5 'Giatsint-S'","status":"Destroyed","lost_by":"Russia","date":"2026-08-02","nearest_location":"Balka Zhuravka (Nevske), Svatove raion","geo":"49.167659,37.972762","unit":null,"tags":"Cope cage"},"source":"warspotting","source_name":"WarSpotting","source_url":"https://ukr.warspotting.net/","id":46250,"date":"2026-08-02","link":"https://ukr.warspotting.net/view/46250/","category":"Self-propelled artillery","side":"Lost by Russia","color":"#E00000","description":"152mm 2S5 'Giatsint-S' · Destroyed · near Balka Zhuravka (Nevske), Svatove raion · tags: Cope cage","orbat":[]}},{"type":"Feature","geometry":{"type":"Point","coordinates":[37.459099,48.328703]},"properties":{"original":{"id":46692,"type":"Transport","model":"'Ulan-2' all-terrain vehicle","status":"Destroyed","lost_by":"Russia","date":"2026-08-02","nearest_location":"Malynivka, Pokrovsk raion","geo":"48.328703,37.459099","unit":null,"tags":null},"source":"warspotting","source_name":"WarSpotting","source_url":"https://ukr.warspotting.net/","id":46692,"date":"2026-08-02","link":"https://ukr.warspotting.net/view/46692/","category":"Transport","side":"Lost by Russia","color":"#E00000","description":"'Ulan-2' all-terrain vehicle · Destroyed · near Malynivka, Pokrovsk raion","orbat":[]}}]}