{"type":"FeatureCollection","features":[{"type":"Feature","geometry":{"type":"Point","coordinates":[36.842471,47.854875]},"properties":{"original":{"id":46210,"type":"Transport","model":"Ural-4320","status":"Destroyed","lost_by":"Russia","date":"2026-07-27","nearest_location":"Velyka Novosilka, Volnovakha raion","geo":"47.854875,36.842471","unit":null,"tags":null},"source":"warspotting","source_name":"WarSpotting","source_url":"https://ukr.warspotting.net/","id":46210,"date":"2026-07-27","link":"https://ukr.warspotting.net/view/46210/","category":"Transport","side":"Lost by Russia","color":"#E00000","description":"Ural-4320 · Destroyed · near Velyka Novosilka, Volnovakha raion","orbat":[]}}]}