{"type":"FeatureCollection","features":[{"type":"Feature","geometry":{"type":"Polygon","coordinates":[[[37.87763,48.90426],[37.86798,48.90676],[37.86818,48.91599],[37.8672,48.92493],[37.86264,48.93046],[37.86833,48.93294],[37.87353,48.93412],[37.8841,48.92794],[37.88201,48.9266],[37.88435,48.92489],[37.88687,48.92365],[37.88856,48.9219],[37.88854,48.91827],[37.88615,48.90383],[37.87763,48.90426]]]},"properties":{"source":"ukrdaily","source_name":"UkrDailyUpdate","source_url":"https://map.ukrdailyupdate.com/","category":"lost","category_label":"Ukrainian advance: became Ukrainian-held","period":"1d","compared_with":"2026-08-23","snapshot_time":"2026-08-24","area_km2_approx":4.3}},{"type":"Feature","geometry":{"type":"Polygon","coordinates":[[[36.76046,48.02624],[36.76305,48.04516],[36.78159,48.0499],[36.78571,48.05305],[36.79404,48.05007],[36.77932,48.03355],[36.77271,48.02818],[36.76998,48.01095],[36.76046,48.02624]]]},"properties":{"source":"ukrdaily","source_name":"UkrDailyUpdate","source_url":"https://map.ukrdailyupdate.com/","category":"occupied_to_contested","category_label":"Occupied became contested","period":"1d","compared_with":"2026-08-23","snapshot_time":"2026-08-24","area_km2_approx":4.7}}]}