{"type":"FeatureCollection","features":[{"type":"Feature","geometry":{"type":"MultiPolygon","coordinates":[[[[37.94903,48.80984],[37.94236,48.81105],[37.94025,48.81327],[37.93166,48.81278],[37.92994,48.81732],[37.93255,48.81936],[37.92794,48.83903],[37.92054,48.83955],[37.92055,48.83998],[37.93018,48.84038],[37.94096,48.84389],[37.9526,48.8428],[37.95535,48.82655],[37.95518,48.82186],[37.95036,48.8134],[37.95555,48.80973],[37.95352,48.80023],[37.94903,48.80984]]],[[[37.84537,48.73603],[37.85151,48.73719],[37.85106,48.74243],[37.86147,48.73956],[37.87696,48.74084],[37.881,48.73309],[37.87896,48.72989],[37.87022,48.72606],[37.84788,48.73437],[37.84537,48.73603]]],[[[37.82237,48.56485],[37.83037,48.57154],[37.82868,48.57718],[37.82467,48.58157],[37.83228,48.58076],[37.8344,48.57829],[37.83773,48.57814],[37.8364,48.57545],[37.83307,48.57266],[37.8342,48.56839],[37.83616,48.56636],[37.82884,48.56166],[37.82237,48.56485]]],[[[37.75174,49.6544],[37.72858,49.65144],[37.72429,49.65415],[37.73066,49.65744],[37.73985,49.66835],[37.76741,49.66715],[37.77781,49.67318],[37.77274,49.65771],[37.76997,49.65728],[37.77011,49.65429],[37.77732,49.65176],[37.77726,49.6515],[37.75174,49.6544]]],[[[37.72649,48.47945],[37.74268,48.48121],[37.74852,48.47794],[37.76195,48.48311],[37.77041,48.46952],[37.75495,48.47267],[37.74558,48.47402],[37.7218,48.472],[37.71615,48.48442],[37.72649,48.47945]]],[[[37.65056,48.47572],[37.64816,48.48974],[37.63676,48.49423],[37.63768,48.49591],[37.64717,48.49383],[37.65949,48.49519],[37.66168,48.48979],[37.65314,48.48912],[37.65288,48.47572],[37.64784,48.47094],[37.64767,48.47108],[37.65056,48.47572]]],[[[37.2427,48.42682],[37.24207,48.43376],[37.24442,48.43392],[37.24397,48.43759],[37.24657,48.43822],[37.25002,48.44264],[37.24883,48.45344],[37.26933,48.45705],[37.27719,48.46406],[37.28533,48.46848],[37.29578,48.46988],[37.30784,48.47472],[37.31838,48.47393],[37.30217,48.46476],[37.28728,48.46037],[37.27457,48.45205],[37.25896,48.44285],[37.24362,48.42932],[37.2482,48.42585],[37.23942,48.4261],[37.23941,48.42653],[37.2427,48.42682]]],[[[37.18678,48.37367],[37.19119,48.38121],[37.21035,48.39198],[37.2156,48.39146],[37.22768,48.39767],[37.23609,48.39807],[37.22973,48.38724],[37.22819,48.38171],[37.21652,48.38052],[37.21594,48.37573],[37.20288,48.37779],[37.20003,48.37198],[37.1921,48.37424],[37.18947,48.37186],[37.18678,48.37367]]]]},"properties":{"source":"deepstate","source_name":"DeepStateMap","source_url":"https://deepstatemap.live/en","category":"gained","category_label":"Newly Russian-occupied","period":"7d","compared_with":"2026-08-04","snapshot_time":"2026-08-11","area_km2_approx":29.4}}]}