{"type":"FeatureCollection","features":[{"type":"Feature","geometry":null,"properties":{"source":"ua_mod","source_name":"Ministry of Defence of Ukraine","group":"official_ua","id":16250,"posted_utc":"2026-09-24T13:50:15+00:00","link":"https://t.me/ministry_of_defense_ua/16250","text":"📱 В Армія+ стало простіше знаходити потрібне\nУ застосунку для військових з’явилась головна сторінка: тепер на ній більше актуальної інформації та швидких переходів до можливостей Армія+.\nНа головній уже доступні:\n▪️ статистика верифікованих уражень ворога з бойової системи DELTA за останні 7 днів, яка оновлюється щодня;\n▪️ свіжий допис у «Пульсі»;\n▪️ курси, які військовослужбовець ще не завершив, та прогрес їх проходження;\n▪️ актуальне опитування — коли воно триває в застосунку.\nТакож спростили вхід через Систему BankID НБУ: завдяки прямій інтеграції тепер для авторизації потрібно менше натискань.\nАрмія+ уже користуються троє з чотирьох військовослужбовців. Далі команда планує додати на головну більше персоналізації, щоб кожен міг налаштувати її під власні потреби.\nВерсія Армія+ 4.0.0 уже доступна для Android та iOS.","links":[],"original_html":"<i class=\"emoji\" style=\"background-image:url('//telegram.org/img/emoji/40/F09F93B1.png')\"><b>📱</b></i> <b>В Армія+ стало простіше знаходити потрібне</b><br/><br/>У застосунку для військових з’явилась головна сторінка: тепер на ній більше актуальної інформації та швидких переходів до можливостей Армія+.<br/><br/>На головній уже доступні:<br/><br/><i class=\"emoji\" style=\"background-image:url('//telegram.org/img/emoji/40/E296AA.png')\"><b>▪️</b></i> статистика верифікованих уражень ворога з бойової системи DELTA за останні 7 днів, яка оновлюється щодня;<br/><i class=\"emoji\" style=\"background-image:url('//telegram.org/img/emoji/40/E296AA.png')\"><b>▪️</b></i> свіжий допис у «Пульсі»;<br/><i class=\"emoji\" style=\"background-image:url('//telegram.org/img/emoji/40/E296AA.png')\"><b>▪️</b></i> курси, які військовослужбовець ще не завершив, та прогрес їх проходження;<br/><i class=\"emoji\" style=\"background-image:url('//telegram.org/img/emoji/40/E296AA.png')\"><b>▪️</b></i> актуальне опитування — коли воно триває в застосунку.<br/><br/>Також спростили вхід через Систему BankID НБУ: завдяки прямій інтеграції тепер для авторизації потрібно менше натискань.<br/><br/>Армія+ уже користуються троє з чотирьох військовослужбовців. Далі команда планує додати на головну більше персоналізації, щоб кожен міг налаштувати її під власні потреби.<br/><br/>Версія Армія+ 4.0.0 уже доступна для Android та iOS."}},{"type":"Feature","geometry":null,"properties":{"source":"ua_mod","source_name":"Ministry of Defence of Ukraine","group":"official_ua","id":16247,"posted_utc":"2026-09-24T07:22:29+00:00","link":"https://t.me/ministry_of_defense_ua/16247","text":"Продовжуємо посилювати команду Міноборони.\nУряд призначив майора Олексія Реву заступником Міністра оборони України з питань цифрового розвитку, цифрових трансформацій і цифровізації.\nВін відповідатиме за розвиток цифрових систем і сервісів для Сил оборони та впровадження технологій, які спрощують процеси у війську й допомагають військовослужбовцям виконувати свої завдання.\nПосилення цифровізації війська необхідне, щоб потреби Сил оборони ще швидше перетворювалися на конкретні рішення.\nЦифрові інструменти – важливий елемент підвищення ефективності Сил оборони. Вони скорочують час на ухвалення рішень і дають військовим оперативний доступ до точної та актуальної інформації. Але основою стратегії зараз є обʼєднання цих цифрових інструментів у єдину екосистему.\nОлексій Рева вже працював в ІТ-секторі Міноборони. Він брав участь у створенні застосунку Армія+, цифрової системи обліку військовослужбовців Імпульс, очолював проєктні команди.\nДосвід та експертиза Олексія Реви дозволять розширити цифровізацію ключових процесів у війську. Серед пріоритетів залишається розвиток Армія+, Резерв+ та бойової системи DELTA.\nВажливим етапом стратегії розвитку цифровізації Сил оборони має стати відкриття ринку ІТ-продуктів. Це дасть змогу ширше залучати до створення цифрових рішень українську ІТ-індустрію та скоротити шлях від потреби військових до розробки й практичного застосування у війську.","links":[],"original_html":"Продовжуємо посилювати команду Міноборони.<br/><br/><b>Уряд призначив майора Олексія Реву заступником Міністра оборони України з питань цифрового розвитку, цифрових трансформацій і цифровізації.</b><br/><br/>Він відповідатиме за розвиток цифрових систем і сервісів для Сил оборони та впровадження технологій, які спрощують процеси у війську й допомагають військовослужбовцям виконувати свої завдання.<br/><br/>Посилення цифровізації війська необхідне, щоб потреби Сил оборони ще швидше перетворювалися на конкретні рішення.<br/><br/>Цифрові інструменти – важливий елемент підвищення ефективності Сил оборони. Вони скорочують час на ухвалення рішень і дають військовим оперативний доступ до точної та актуальної інформації. Але основою стратегії зараз є обʼєднання цих цифрових інструментів у єдину екосистему.<br/><br/>Олексій Рева вже працював в ІТ-секторі Міноборони. Він брав участь у створенні застосунку Армія+, цифрової системи обліку військовослужбовців Імпульс, очолював проєктні команди. <br/><br/>Досвід та експертиза Олексія Реви дозволять розширити цифровізацію ключових процесів у війську. Серед пріоритетів залишається розвиток Армія+, Резерв+ та бойової системи DELTA. <br/><br/>Важливим етапом стратегії розвитку цифровізації Сил оборони має стати відкриття ринку ІТ-продуктів. Це дасть змогу ширше залучати до створення цифрових рішень українську ІТ-індустрію та скоротити шлях від потреби військових до розробки й практичного застосування у війську."}},{"type":"Feature","geometry":null,"properties":{"source":"ua_mod","source_name":"Ministry of Defence of Ukraine","group":"official_ua","id":16248,"posted_utc":"2026-09-24T10:46:10+00:00","link":"https://t.me/ministry_of_defense_ua/16248","text":"✅ Тепер 500 млн грн — у п’ять разів збільшено ліміт пільгового кредиту для оборонних підприємств.\nКабінет Міністрів збільшив максимальний розмір пільгового кредиту українським підприємствам ОПК. Для виробників, які виконують чинний державний оборонний контракт, доступний кредит на оборотний капітал обсягом до 500 млн грн під 5% річних.\nДля підприємств без чинного державного контракту ставки залежать від суми кредиту:\n▪️ до 200 млн грн — 5%;\n▪️ 200–400 млн грн — 7%;\n▪️ 400–500 млн грн — 10%.\nДля українського ОПК це додатковий фінансовий ресурс, який дозволяє закупити компоненти і матеріали, забезпечити виробничий цикл та масштабуватися, не чекаючи завершення контракту та оплати за вже поставлену продукцію.","links":["https://mod.gov.ua/news/pidpryiemstva-opk-matymut-zmohu-zaluchaty-pilhovi-kredyty-na-sumu-do-500-mln-hrn-rishennia-uriadu?utm_source=mod-telegram&utm_medium=social"],"original_html":"<b><i class=\"emoji\" style=\"background-image:url('//telegram.org/img/emoji/40/E29C85.png')\"><b>✅</b></i> Тепер 500 млн грн — у п’ять разів збільшено ліміт пільгового кредиту для оборонних підприємств.</b><br/><b>&nbsp;</b><br/>Кабінет Міністрів <a href=\"https://mod.gov.ua/news/pidpryiemstva-opk-matymut-zmohu-zaluchaty-pilhovi-kredyty-na-sumu-do-500-mln-hrn-rishennia-uriadu?utm_source=mod-telegram&amp;amp;utm_medium=social\" target=\"_blank\" rel=\"noopener\" onclick=\"return confirm('Open this link?\\n\\n'+this.href);\">збільшив максимальний розмір пільгового кредиту </a>українським підприємствам ОПК. Для виробників, які виконують чинний державний оборонний контракт, доступний кредит на оборотний капітал обсягом до 500 млн грн під 5% річних.<br/>&nbsp;<br/>Для підприємств без чинного державного контракту ставки залежать від суми кредиту:<br/><i class=\"emoji\" style=\"background-image:url('//telegram.org/img/emoji/40/E296AA.png')\"><b>▪️</b></i> до 200 млн грн — 5%;<br/><i class=\"emoji\" style=\"background-image:url('//telegram.org/img/emoji/40/E296AA.png')\"><b>▪️</b></i> 200–400 млн грн — 7%;<br/><i class=\"emoji\" style=\"background-image:url('//telegram.org/img/emoji/40/E296AA.png')\"><b>▪️</b></i> 400–500 млн грн — 10%.<br/>&nbsp;<br/>Для українського ОПК це додатковий фінансовий ресурс, який дозволяє закупити компоненти і матеріали, забезпечити виробничий цикл та масштабуватися, не чекаючи завершення контракту та оплати за вже поставлену продукцію."}},{"type":"Feature","geometry":null,"properties":{"source":"ua_mod","source_name":"Ministry of Defence of Ukraine","group":"official_ua","id":16249,"posted_utc":"2026-09-24T11:34:30+00:00","link":"https://t.me/ministry_of_defense_ua/16249","text":"Міноборони не оскаржуватиме судові рішення у справах, пов’язаних із загибеллю або зникненням безвісти військовослужбовців.\nЙдеться про справи:\n1. Про оголошення військовослужбовця померлим — якщо ймовірну смерть підтверджують позиція військової частини та матеріали службового розслідування, військова частина бере участь у справі, а суд дотримався законодавства та врахував практику Верховного Суду.\n2. Про встановлення факту смерті військовослужбовця — якщо смерть підтверджена позицією військової частини та матеріалами службового розслідування, військова частина бере участь у справі, а військовослужбовець обліковується як зниклий безвісти за особливих обставин.\n3. Про встановлення факту родинних відносин — якщо члени сім’ї звернулися до суду через неточності у прізвищі, імені чи по батькові.\n4. Про встановлення факту батьківства — якщо молекулярно-генетична експертиза підтверджує вірогідність біологічного батьківства загиблого або померлого військовослужбовця щодо дитини.\n5. Про встановлення фактів, необхідних для отримання виплат і пільг у зв’язку зі зникненням безвісти або захопленням у полон — якщо матеріали підтверджують відповідний статус військовослужбовця та визначають осіб, які мають право на виплати, а військова частина бере участь у справі.\nДля родин це означає менше зайвих судових процедур і тривалого очікування. Вони зможуть швидше перейти до оформлення належних виплат, пільг та інших соціальних гарантій.\nВодночас неоскарження не буде автоматичним. Кожну справу оцінюватимуть індивідуально — з урахуванням матеріалів справи, офіційної позиції військової частини та інших належних доказів.\nЗа потреби можна звернутися на гарячу лінію Міноборони за номером 1512.","links":[],"original_html":"<b>Міноборони не оскаржуватиме судові рішення у справах, пов’язаних із загибеллю або зникненням безвісти військовослужбовців.</b><br/><br/>Йдеться про справи:<br/><br/>1. Про оголошення військовослужбовця померлим — якщо ймовірну смерть підтверджують позиція військової частини та матеріали службового розслідування, військова частина бере участь у справі, а суд дотримався законодавства та врахував практику Верховного Суду.<br/><br/>2. Про встановлення факту смерті військовослужбовця — якщо смерть підтверджена позицією військової частини та матеріалами службового розслідування, військова частина бере участь у справі, а військовослужбовець обліковується як зниклий безвісти за особливих обставин.<br/><br/>3. Про встановлення факту родинних відносин — якщо члени сім’ї звернулися до суду через неточності у прізвищі, імені чи по батькові.<br/><br/>4. Про встановлення факту батьківства — якщо молекулярно-генетична експертиза підтверджує вірогідність біологічного батьківства загиблого або померлого військовослужбовця щодо дитини.<br/><br/>5. Про встановлення фактів, необхідних для отримання виплат і пільг у зв’язку зі зникненням безвісти або захопленням у полон — якщо матеріали підтверджують відповідний статус військовослужбовця та визначають осіб, які мають право на виплати, а військова частина бере участь у справі.<br/><br/>Для родин це означає менше зайвих судових процедур і тривалого очікування. Вони зможуть швидше перейти до оформлення належних виплат, пільг та інших соціальних гарантій.<br/><br/>Водночас неоскарження не буде автоматичним. Кожну справу оцінюватимуть індивідуально — з урахуванням матеріалів справи, офіційної позиції військової частини та інших належних доказів.<br/><br/>За потреби можна звернутися на гарячу лінію Міноборони за номером 1512."}}]}