{"type":"FeatureCollection","features":[{"type":"Feature","geometry":{"type":"Point","coordinates":[38.088392,49.100729]},"properties":{"original":{"id":47006,"type":"Transport","model":"Ural-4320","status":"Destroyed","lost_by":"Russia","date":"2026-09-11","nearest_location":"Chervonopopivka, Siverskodonetsk raion","geo":"49.100729,38.088392","unit":null,"tags":"Cope cage"},"source":"warspotting","source_name":"WarSpotting","source_url":"https://ukr.warspotting.net/","id":47006,"date":"2026-09-11","link":"https://ukr.warspotting.net/view/47006/","category":"Transport","side":"Lost by Russia","color":"#E00000","description":"Ural-4320 · Destroyed · near Chervonopopivka, Siverskodonetsk raion · tags: Cope cage","orbat":[]}}]}