{"type":"FeatureCollection","features":[{"type":"Feature","geometry":{"type":"Point","coordinates":[36.103048,47.854875]},"properties":{"original":{"Date":"2026-07-27","Name":"27 JUL 2026","Faction":"Russia","Origin":"UAV","Latitude":"47.854875","Longitude":"36.103048","PlusCode":"8GVRV433+W6 Khrystophorivka, Dnipropetrovsk Oblast, Ukraine","Description":"1:32 - Russian Flag presented","Source":"https://x.com/richardzai38580/status/2081669756705480924","Geolocation":"https://t.me/voin_dv/20398, https://x.com/voin_dv/status/2081667681854341587","Equipment":"","EquipmentItems":"","Units":"","OrbatUnits":"36th Guards Motorized Rifle Brigade","Id":"f0bfc4d6-a331-48e5-b5f8-0ad9773fcde3","icon":"/api/icons/E00000/False/template/100.png"},"source":"geoconfirmed","source_name":"GeoConfirmed","source_url":"https://geoconfirmed.org/map/ukraine","id":"f0bfc4d6-a331-48e5-b5f8-0ad9773fcde3","date":"2026-07-27","link":"https://geoconfirmed.org/map/ukraine/f0bfc4d6-a331-48e5-b5f8-0ad9773fcde3","category":"Civilian or Soldier or Militant (Depending on the colour)","side":"Russia","color":"#E00000","description":"1:32 - Russian Flag presented","orbat":["36th Guards Motorized Rifle Brigade"],"geolocation":["https://t.me/voin_dv/20398","https://x.com/voin_dv/status/2081667681854341587"],"sources":["https://x.com/richardzai38580/status/2081669756705480924"]}},{"type":"Feature","geometry":{"type":"Point","coordinates":[35.196756,47.78164]},"properties":{"original":{"Date":"2026-07-27","Name":"27 JUL 2026","Faction":"Ukraine Civilian","Origin":"UAV","Latitude":"47.78164","Longitude":"35.196756","PlusCode":"8GVQQ5JW+MP Zaporizhzhia, Zaporizhia Oblast, Ukraine","Description":"A bus was hit by Russian FPV drone.","Source":"Vid1, https://x.com/99Dominik_/status/2081703768404423075, https://t.me/eyes_everywhere_ua/119953, Vid2, https://x.com/99Dominik_/status/2081706252011295217, ","Geolocation":"https://x.com/GeoConfirmed/status/2082095376237031707, https://x.com/99Dominik_/status/2081703650540294599, https://t.me/five_redakcia/105598, ","Equipment":"","EquipmentItems":"FPV (First Person View) OWAD (One Way Attack Drone)","Units":"","OrbatUnits":"","Id":"cbf74dab-d1db-48f6-a3d4-144bfe32d32a","icon":"/api/icons/3184FF/False/template/63.png"},"source":"geoconfirmed","source_name":"GeoConfirmed","source_url":"https://geoconfirmed.org/map/ukraine","id":"cbf74dab-d1db-48f6-a3d4-144bfe32d32a","date":"2026-07-27","link":"https://geoconfirmed.org/map/ukraine/cbf74dab-d1db-48f6-a3d4-144bfe32d32a","category":"Older Destroyed/Damaged Logistical Trucks (Soft skin OR armoured)","side":"Ukraine Civilian","color":"#3184FF","description":"A bus was hit by Russian FPV drone.","orbat":[],"geolocation":["https://x.com/GeoConfirmed/status/2082095376237031707","https://x.com/99Dominik_/status/2081703650540294599","https://t.me/five_redakcia/105598"],"sources":["https://x.com/99Dominik_/status/2081703768404423075","https://t.me/eyes_everywhere_ua/119953","https://x.com/99Dominik_/status/2081706252011295217"]}},{"type":"Feature","geometry":{"type":"Point","coordinates":[36.572183,50.631453]},"properties":{"original":{"Date":"2026-07-27","Name":"27 JUL 2026","Faction":"Neutral","Origin":"PIC","Latitude":"50.631453","Longitude":"36.572183","PlusCode":"9G2RJHJC+HV Belgorod, Belgorod Oblast, Russia","Description":"Gazprom Gas station reportedly hit by Ukrainan drone","Source":"https://x.com/neonhandrail/status/2081839405665542508, https://t.me/belpepel/23232","Geolocation":"https://x.com/neonhandrail/status/2081839114777936091","Equipment":"","EquipmentItems":"","Units":"","OrbatUnits":"","Id":"ff5a5881-885a-41de-9374-14dee491699c","icon":"/api/icons/AC7339/False/template/192.png"},"source":"geoconfirmed","source_name":"GeoConfirmed","source_url":"https://geoconfirmed.org/map/ukraine","id":"ff5a5881-885a-41de-9374-14dee491699c","date":"2026-07-27","link":"https://geoconfirmed.org/map/ukraine/ff5a5881-885a-41de-9374-14dee491699c","category":"Recently destroyed/Damaged[Visible in footage] or still burning infrastucture","side":"Neutral","color":"#AC7339","description":"Gazprom Gas station reportedly hit by Ukrainan drone","orbat":[],"geolocation":["https://x.com/neonhandrail/status/2081839114777936091"],"sources":["https://x.com/neonhandrail/status/2081839405665542508","https://t.me/belpepel/23232"]}},{"type":"Feature","geometry":{"type":"Point","coordinates":[37.423985,48.550268]},"properties":{"original":{"Date":"2026-07-27","Name":"27 JUL 2026","Faction":"Russia","Origin":"VID","Latitude":"48.550268","Longitude":"37.423985","PlusCode":"8GWVHC2F+4H Tors'ke, Donetsk Oblast, Ukraine","Description":"0:09  - The 102nd Motorized Infantry Regiment under the 150th Motorized Infantry Division of the Russian army raised its flag at Tors'ke.","Source":"https://t.me/motopatriot78/54392, https://x.com/Mocca2X/status/2081778268680949984","Geolocation":"https://x.com/Mocca2X/status/2081774144090488923","Equipment":"","EquipmentItems":"","Units":"","OrbatUnits":"102nd Motorized Rifle Regiment","Id":"7e9d8def-653a-4a66-bad8-20fef551bebf","icon":"/api/icons/E00000/False/template/100.png"},"source":"geoconfirmed","source_name":"GeoConfirmed","source_url":"https://geoconfirmed.org/map/ukraine","id":"7e9d8def-653a-4a66-bad8-20fef551bebf","date":"2026-07-27","link":"https://geoconfirmed.org/map/ukraine/7e9d8def-653a-4a66-bad8-20fef551bebf","category":"Civilian or Soldier or Militant (Depending on the colour)","side":"Russia","color":"#E00000","description":"0:09  - The 102nd Motorized Infantry Regiment under the 150th Motorized Infantry Division of the Russian army raised its flag at Tors'ke.","orbat":["102nd Motorized Rifle Regiment"],"geolocation":["https://x.com/Mocca2X/status/2081774144090488923"],"sources":["https://t.me/motopatriot78/54392","https://x.com/Mocca2X/status/2081778268680949984"]}},{"type":"Feature","geometry":{"type":"Point","coordinates":[37.420026,48.549648]},"properties":{"original":{"Date":"2026-07-27","Name":"27 JUL 2026","Faction":"Russia","Origin":"VID","Latitude":"48.549648","Longitude":"37.420026","PlusCode":"8GWVGCXC+V2 Tors'ke, Donetsk Oblast, Ukraine","Description":"0:17  - The 102nd Motorized Infantry Regiment under the 150th Motorized Infantry Division of the Russian army raised its flag at Tors'ke.","Source":"https://t.me/motopatriot78/54392, https://x.com/Mocca2X/status/2081778268680949984","Geolocation":"https://x.com/Mocca2X/status/2081774144090488923","Equipment":"","EquipmentItems":"","Units":"","OrbatUnits":"102nd Motorized Rifle Regiment","Id":"c434f470-22eb-4695-8df9-4940ddf785f7","icon":"/api/icons/E00000/False/template/100.png"},"source":"geoconfirmed","source_name":"GeoConfirmed","source_url":"https://geoconfirmed.org/map/ukraine","id":"c434f470-22eb-4695-8df9-4940ddf785f7","date":"2026-07-27","link":"https://geoconfirmed.org/map/ukraine/c434f470-22eb-4695-8df9-4940ddf785f7","category":"Civilian or Soldier or Militant (Depending on the colour)","side":"Russia","color":"#E00000","description":"0:17  - The 102nd Motorized Infantry Regiment under the 150th Motorized Infantry Division of the Russian army raised its flag at Tors'ke.","orbat":["102nd Motorized Rifle Regiment"],"geolocation":["https://x.com/Mocca2X/status/2081774144090488923"],"sources":["https://t.me/motopatriot78/54392","https://x.com/Mocca2X/status/2081778268680949984"]}},{"type":"Feature","geometry":{"type":"Point","coordinates":[53.82015411715633,56.46957727815132]},"properties":{"original":{"Date":"2026-07-27","Name":"27 JUL 2026","Faction":"Ukraine","Origin":"VID","Latitude":"56.46957727815132","Longitude":"53.82015411715633","PlusCode":"9H8MFR9C+R3 Sarapul, Udmurt Republic, Russia","Description":"POV - drone flying over Sarapul","Source":"4/4 https://x.com/Exilenova_plus/status/2081618105185534051, 0:00-0:06 https://x.com/Vlad_23456/status/2081766106113425461, https://t.me/exilenova_plus/27238?single","Geolocation":"https://x.com/14h61/status/2081633209234710984, https://x.com/Vlad_23456/status/2081765831793312211","Equipment":"","EquipmentItems":"Fixed Wing OWAD (One Way Attack Drone)","Units":"","OrbatUnits":"","Id":"4a3e2b1c-0be4-456d-9b49-5a852cc11648","icon":"/api/icons/0051CA/False/template/30.png"},"source":"geoconfirmed","source_name":"GeoConfirmed","source_url":"https://geoconfirmed.org/map/ukraine","id":"4a3e2b1c-0be4-456d-9b49-5a852cc11648","date":"2026-07-27","link":"https://geoconfirmed.org/map/ukraine/4a3e2b1c-0be4-456d-9b49-5a852cc11648","category":"Video - Always Point of View in description - In the colour of who is doing the attack or is responsable for the incident in the video.","side":"Ukraine","color":"#0051CA","description":"POV - drone flying over Sarapul","orbat":[],"geolocation":["https://x.com/14h61/status/2081633209234710984","https://x.com/Vlad_23456/status/2081765831793312211"],"sources":["https://x.com/Exilenova_plus/status/2081618105185534051","https://x.com/Vlad_23456/status/2081766106113425461","https://t.me/exilenova_plus/27238?single"]}},{"type":"Feature","geometry":{"type":"Point","coordinates":[36.575125,50.598542]},"properties":{"original":{"Date":"2026-07-27","Name":"27 JUL 2026","Faction":"Ukraine","Origin":"PIC","Latitude":"50.598542","Longitude":"36.575125","PlusCode":"9G2RHHXG+C3 Belgorod, Belgorod Oblast, Russia","Description":"Different Smoke plumes in Belgorod after Ukrainian strikes filmed from the same POV","Source":"4/4 https://x.com/Exilenova_plus/status/2081484797269135597, 3/4 https://x.com/Exilenova_plus/status/2081497466021765422","Geolocation":"https://x.com/neonhandrail/status/2081561255924695266, https://x.com/neonhandrail/status/2081561946621628905","Equipment":"","EquipmentItems":"","Units":"","OrbatUnits":"","Id":"2b0e726a-1721-498d-9603-5a88ba9f2400","icon":"/api/icons/0051CA/False/template/30.png"},"source":"geoconfirmed","source_name":"GeoConfirmed","source_url":"https://geoconfirmed.org/map/ukraine","id":"2b0e726a-1721-498d-9603-5a88ba9f2400","date":"2026-07-27","link":"https://geoconfirmed.org/map/ukraine/2b0e726a-1721-498d-9603-5a88ba9f2400","category":"Video - Always Point of View in description - In the colour of who is doing the attack or is responsable for the incident in the video.","side":"Ukraine","color":"#0051CA","description":"Different Smoke plumes in Belgorod after Ukrainian strikes filmed from the same POV","orbat":[],"geolocation":["https://x.com/neonhandrail/status/2081561255924695266","https://x.com/neonhandrail/status/2081561946621628905"],"sources":["https://x.com/Exilenova_plus/status/2081484797269135597","https://x.com/Exilenova_plus/status/2081497466021765422"]}},{"type":"Feature","geometry":{"type":"Point","coordinates":[32.595169,46.625327]},"properties":{"original":{"Date":"2026-07-27","Name":"27 JUL 2026","Faction":"Russia","Origin":"VID","Latitude":"46.625327","Longitude":"32.595169","PlusCode":"8GRJJHGW+43 Kherson, Kherson Oblast, Ukraine","Description":"A man was killed, reportedly by a Russian anti-personnel mine.","Source":"https://x.com/99Dominik_/status/2081815101317730719, https://www.instagram.com/p/DbTV2NZM3Bt/, , Info about the mine, https://x.com/99Dominik_/status/2081828420674007260","Geolocation":"https://x.com/99Dominik_/status/2081814787730669819","Equipment":"anti-personnel mine.","EquipmentItems":"","Units":"","OrbatUnits":"","Id":"ac5b3262-25b4-4020-b247-78b27d3b82d6","icon":"/api/icons/E00000/False/template/50.png"},"source":"geoconfirmed","source_name":"GeoConfirmed","source_url":"https://geoconfirmed.org/map/ukraine","id":"ac5b3262-25b4-4020-b247-78b27d3b82d6","date":"2026-07-27","link":"https://geoconfirmed.org/map/ukraine/ac5b3262-25b4-4020-b247-78b27d3b82d6","category":"Killed or wounded civilian. Potential Warcrime. In the colour of who is assessed as doing the attack/killing.","side":"Russia","color":"#E00000","description":"A man was killed, reportedly by a Russian anti-personnel mine.","orbat":[],"geolocation":["https://x.com/99Dominik_/status/2081814787730669819"],"sources":["https://x.com/99Dominik_/status/2081815101317730719","https://www.instagram.com/p/DbTV2NZM3Bt/","https://x.com/99Dominik_/status/2081828420674007260"]}},{"type":"Feature","geometry":{"type":"Point","coordinates":[53.820508806392965,56.477384510021786]},"properties":{"original":{"Date":"2026-07-27","Name":"27 JUL 2026","Faction":"Ukraine","Origin":"PIC","Latitude":"56.477384510021786","Longitude":"53.820508806392965","PlusCode":"9H8MFRGC+X6 Sarapul, Udmurt Republic, Russia","Description":"POV - Smoke in Sarapul after drone attack.","Source":"1/4 https://x.com/Exilenova_plus/status/2081618105185534051","Geolocation":"https://x.com/14h61/status/2081631666733302123","Equipment":"","EquipmentItems":"","Units":"","OrbatUnits":"","Id":"c6f5e675-f90d-4e4b-ada7-8dd1736650e5","icon":"/api/icons/0051CA/False/template/30.png"},"source":"geoconfirmed","source_name":"GeoConfirmed","source_url":"https://geoconfirmed.org/map/ukraine","id":"c6f5e675-f90d-4e4b-ada7-8dd1736650e5","date":"2026-07-27","link":"https://geoconfirmed.org/map/ukraine/c6f5e675-f90d-4e4b-ada7-8dd1736650e5","category":"Video - Always Point of View in description - In the colour of who is doing the attack or is responsable for the incident in the video.","side":"Ukraine","color":"#0051CA","description":"POV - Smoke in Sarapul after drone attack.","orbat":[],"geolocation":["https://x.com/14h61/status/2081631666733302123"],"sources":["https://x.com/Exilenova_plus/status/2081618105185534051"]}},{"type":"Feature","geometry":{"type":"Point","coordinates":[37.608996,48.847475]},"properties":{"original":{"Date":"2026-07-27","Name":"27 JUL 2026","Faction":"Russia","Origin":"UAV","Latitude":"48.847475","Longitude":"37.608996","PlusCode":"8GWVRJW5+XH Slovyansk, Donetsk Oblast, Ukraine","Description":"1:39-1:43 - Russian Vandal drone of the Russian 370th Special Purpose Detachment of the 16th Special Purpose Brigade targeted a Ukrainian van ","Source":"https://x.com/ZoamSc2/status/2081947807930544520, https://t.me/BV25org/3023","Geolocation":"https://x.com/GeoConfirmed/status/2082094416836366774, https://x.com/ZoamSc2/status/2081947805787332697","Equipment":"","EquipmentItems":"Vandal (KVN)","Units":"","OrbatUnits":"370th Special Purpose Detachment","Id":"f0dc06af-baef-419d-aea0-8ed6a4aec792","icon":"/api/icons/E00000/False/template/111.png"},"source":"geoconfirmed","source_name":"GeoConfirmed","source_url":"https://geoconfirmed.org/map/ukraine","id":"f0dc06af-baef-419d-aea0-8ed6a4aec792","date":"2026-07-27","link":"https://geoconfirmed.org/map/ukraine/f0dc06af-baef-419d-aea0-8ed6a4aec792","category":"Short Range (<50km) OWAD (One Way Attack Drone), mostly rotary wing, Flying OR Attacking a target without knowing the outcome: if something is damaged --> icon of the damaged equipment.","side":"Russia","color":"#E00000","description":"1:39-1:43 - Russian Vandal drone of the Russian 370th Special Purpose Detachment of the 16th Special Purpose Brigade targeted a Ukrainian van","orbat":["370th Special Purpose Detachment"],"geolocation":["https://x.com/GeoConfirmed/status/2082094416836366774","https://x.com/ZoamSc2/status/2081947805787332697"],"sources":["https://x.com/ZoamSc2/status/2081947807930544520","https://t.me/BV25org/3023"]}},{"type":"Feature","geometry":{"type":"Point","coordinates":[37.784788,47.99415]},"properties":{"original":{"Date":"2026-07-27","Name":"27 JUL 2026","Faction":"Ukraine","Origin":"PIC","Latitude":"47.99415","Longitude":"37.784788","PlusCode":"8GVVXQVM+MW Donetsk, Donetsk Oblast, Ukraine","Description":"Point of view in a north direction -  firefighters and policemen are present at a scene. Reportedly, Ukrainian special services eliminated Russian collaborator Oleg Shutov by detonating explosives planted under his car.","Source":"https://x.com/bayraktar_1love/status/2096867663918100650, , More information, https://lb.ua/society/2026/09/07/764076_dzherela_ukrayinski_spetssluzhbi.html","Geolocation":"https://x.com/99Dominik_/status/2096889560764449121","Equipment":"(reported)","EquipmentItems":"Car  | Improvised Explosive Device (IED)","Units":"","OrbatUnits":"Main Directorate of Intelligence (GUR)","Id":"6d36c3d4-0bd4-41d3-b450-afe3fda049f2","icon":"/api/icons/0051CA/False/template/20.png"},"source":"geoconfirmed","source_name":"GeoConfirmed","source_url":"https://geoconfirmed.org/map/ukraine","id":"6d36c3d4-0bd4-41d3-b450-afe3fda049f2","date":"2026-07-27","link":"https://geoconfirmed.org/map/ukraine/6d36c3d4-0bd4-41d3-b450-afe3fda049f2","category":"Picture - Always Point of View in description - - In the colour of who is doing the attack or is responsable for the incident in the picture.","side":"Ukraine","color":"#0051CA","description":"Point of view in a north direction -  firefighters and policemen are present at a scene. Reportedly, Ukrainian special services eliminated Russian collaborator Oleg Shutov by detonating explosives planted under his car.","orbat":["Main Directorate of Intelligence (GUR)"],"geolocation":["https://x.com/99Dominik_/status/2096889560764449121"],"sources":["https://x.com/bayraktar_1love/status/2096867663918100650","https://lb.ua/society/2026/09/07/764076_dzherela_ukrayinski_spetssluzhbi.html"]}},{"type":"Feature","geometry":{"type":"Point","coordinates":[36.103048,47.854875]},"properties":{"original":{"Date":"2026-07-27","Name":"27 JUL 2026","Faction":"Russia","Origin":"UAV","Latitude":"47.854875","Longitude":"36.103048","PlusCode":"8GVRV33V+24 Khrystophorivka, Dnipropetrovsk Oblast, Ukraine","Description":"1:29-end - Russian soldier of the 36th Guards Motorized Rifle Brigade of the 29th Guards Combined Arms Army shows a flag to a drone ","Source":"https://x.com/voin_dv/status/2081667681854341587, https://t.me/voin_dv/20398","Geolocation":"https://x.com/GeoConfirmed/status/2082095733763649755, https://x.com/richardzai38580/status/2081669756705480924","Equipment":"","EquipmentItems":"","Units":"","OrbatUnits":"36th Guards Motorized Rifle Brigade","Id":"52fc5561-ca90-4660-bf05-b2d65fae2711","icon":"/api/icons/E00000/False/template/100.png"},"source":"geoconfirmed","source_name":"GeoConfirmed","source_url":"https://geoconfirmed.org/map/ukraine","id":"52fc5561-ca90-4660-bf05-b2d65fae2711","date":"2026-07-27","link":"https://geoconfirmed.org/map/ukraine/52fc5561-ca90-4660-bf05-b2d65fae2711","category":"Civilian or Soldier or Militant (Depending on the colour)","side":"Russia","color":"#E00000","description":"1:29-end - Russian soldier of the 36th Guards Motorized Rifle Brigade of the 29th Guards Combined Arms Army shows a flag to a drone","orbat":["36th Guards Motorized Rifle Brigade"],"geolocation":["https://x.com/GeoConfirmed/status/2082095733763649755","https://x.com/richardzai38580/status/2081669756705480924"],"sources":["https://x.com/voin_dv/status/2081667681854341587","https://t.me/voin_dv/20398"]}},{"type":"Feature","geometry":{"type":"Point","coordinates":[37.683509,48.513615]},"properties":{"original":{"Date":"2026-07-27","Name":"27 JUL 2026","Faction":"Ukraine","Origin":"UAV","Latitude":"48.513615","Longitude":"37.683509","PlusCode":"8GWVGM7M+CC Kostyantynivka, Donetsk Oblast, Ukraine","Description":"Ukrainian Airstrike","Source":"https://t.me/soniah_hub/17278, https://x.com/Mocca2X/status/2081795188624851121","Geolocation":"https://x.com/Mocca2X/status/2081795053245333928","Equipment":"","EquipmentItems":"Airstrike","Units":"","OrbatUnits":"","Id":"2db7dee3-37cb-447a-a11e-bab5805e622f","icon":"/api/icons/0051CA/False/template/10.png"},"source":"geoconfirmed","source_name":"GeoConfirmed","source_url":"https://geoconfirmed.org/map/ukraine","id":"2db7dee3-37cb-447a-a11e-bab5805e622f","date":"2026-07-27","link":"https://geoconfirmed.org/map/ukraine/2db7dee3-37cb-447a-a11e-bab5805e622f","category":"Shelling by artillery or aerial bombings - Location of the shelling, colour of who is shelling; Brown = UXO","side":"Ukraine","color":"#0051CA","description":"Ukrainian Airstrike","orbat":[],"geolocation":["https://x.com/Mocca2X/status/2081795053245333928"],"sources":["https://t.me/soniah_hub/17278","https://x.com/Mocca2X/status/2081795188624851121"]}},{"type":"Feature","geometry":{"type":"Point","coordinates":[37.20763,48.87758]},"properties":{"original":{"Date":"2026-07-27","Name":"27 JUL 2026","Faction":"Neutral","Origin":"UAV","Latitude":"48.87758","Longitude":"37.20763","PlusCode":"8GWVV6H5+23 Maidan, Donetsk Oblast, Ukraine","Description":"Vid1 cropped of Telegram 0:27-0:33 - Locomotive hit by Russian drone from 50th Separate Unmanned Systems Brigade of the Supreme High Command \"VARYAG\". ","Source":"(2/2), https://x.com/ShahedTracker/status/2100415088993706017, Telegram , https://t.me/Brigada_VARYAG/145, , Likely related information, https://www.ukrinform.net/rubric-ato/4148455-shahed-drone-kills-railway-worker-injures-two-in-donetsk-region.html, , ","Geolocation":"(1/2), https://x.com/ShahedTracker/status/2100415085533376730","Equipment":"","EquipmentItems":"Geran-2","Units":"","OrbatUnits":"50th Separate Unmanned Systems Brigade of the Supreme High Command \"VARYAG\"","Id":"fd88dd76-21bf-45fd-8a2e-c14cdfdf64e1","icon":"/api/icons/AC7339/False/template/162.png"},"source":"geoconfirmed","source_name":"GeoConfirmed","source_url":"https://geoconfirmed.org/map/ukraine","id":"fd88dd76-21bf-45fd-8a2e-c14cdfdf64e1","date":"2026-07-27","link":"https://geoconfirmed.org/map/ukraine/fd88dd76-21bf-45fd-8a2e-c14cdfdf64e1","category":"Recently Destroyed/Damaged[Visible in footage] Train","side":"Neutral","color":"#AC7339","description":"Vid1 cropped of Telegram 0:27-0:33 - Locomotive hit by Russian drone from 50th Separate Unmanned Systems Brigade of the Supreme High Command \"VARYAG\".","orbat":["50th Separate Unmanned Systems Brigade of the Supreme High Command \"VARYAG\""],"geolocation":["https://x.com/ShahedTracker/status/2100415085533376730"],"sources":["https://x.com/ShahedTracker/status/2100415088993706017","https://t.me/Brigada_VARYAG/145","https://www.ukrinform.net/rubric-ato/4148455-shahed-drone-kills-railway-worker-injures-two-in-donetsk-region.html"]}},{"type":"Feature","geometry":{"type":"Point","coordinates":[37.623517,48.80938]},"properties":{"original":{"Date":"2026-07-27","Name":"27 JUL 2026","Faction":"Russia","Origin":"UAV","Latitude":"48.80938","Longitude":"37.623517","PlusCode":"8GWVRJ5F+QC Slovyansk, Donetsk Oblast, Ukraine","Description":"Chervony Molochar 110/6 kV substation targeted by a Russian vandal drone","Source":"https://x.com/jimmhelloman555/status/2081869688653398508, https://t.me/SouthernRepublic/35064","Geolocation":"https://x.com/jimmhelloman555/status/2081869585968435496","Equipment":"","EquipmentItems":"Vandal (KVN)","Units":"","OrbatUnits":"","Id":"c888da67-2f5d-499f-8ea7-c278fbfa7f50","icon":"/api/icons/E00000/False/template/111.png"},"source":"geoconfirmed","source_name":"GeoConfirmed","source_url":"https://geoconfirmed.org/map/ukraine","id":"c888da67-2f5d-499f-8ea7-c278fbfa7f50","date":"2026-07-27","link":"https://geoconfirmed.org/map/ukraine/c888da67-2f5d-499f-8ea7-c278fbfa7f50","category":"Short Range (<50km) OWAD (One Way Attack Drone), mostly rotary wing, Flying OR Attacking a target without knowing the outcome: if something is damaged --> icon of the damaged equipment.","side":"Russia","color":"#E00000","description":"Chervony Molochar 110/6 kV substation targeted by a Russian vandal drone","orbat":[],"geolocation":["https://x.com/jimmhelloman555/status/2081869585968435496"],"sources":["https://x.com/jimmhelloman555/status/2081869688653398508","https://t.me/SouthernRepublic/35064"]}},{"type":"Feature","geometry":{"type":"Point","coordinates":[37.149611,50.204659]},"properties":{"original":{"Date":"2026-07-27","Name":"27 JUL 2026","Faction":"Russia","Origin":"UAV","Latitude":"50.204659","Longitude":"37.149611","PlusCode":"9G2V643X+VR Bilyi Kolodyaz', Kharkiv Oblast, Ukraine","Description":"An AI soldier is inserted into recon footage shot by a Russian drone.","Source":"https://x.com/PuenteUribarri/status/2081789753557410008, https://t.me/divgen/82629?single","Geolocation":"https://x.com/GeoConfirmed/status/2082109578989207846, https://x.com/richardzai38580/status/2081782536578232477, https://x.com/richardzai38580/status/2081784471616106669","Equipment":"AI","EquipmentItems":"Reconnaissance UAV","Units":"","OrbatUnits":"127th Motorized Rifle Regiment","Id":"253558c8-ffb1-4c6a-ac92-d5b9936a126e","icon":"/api/icons/E00000/False/template/megaphone.png"},"source":"geoconfirmed","source_name":"GeoConfirmed","source_url":"https://geoconfirmed.org/map/ukraine","id":"253558c8-ffb1-4c6a-ac92-d5b9936a126e","date":"2026-07-27","link":"https://geoconfirmed.org/map/ukraine/253558c8-ffb1-4c6a-ac92-d5b9936a126e","category":"Important announcement OR Information Operation (DIS/MISINFO)","side":"Russia","color":"#E00000","description":"An AI soldier is inserted into recon footage shot by a Russian drone.","orbat":["127th Motorized Rifle Regiment"],"geolocation":["https://x.com/GeoConfirmed/status/2082109578989207846","https://x.com/richardzai38580/status/2081782536578232477","https://x.com/richardzai38580/status/2081784471616106669"],"sources":["https://x.com/PuenteUribarri/status/2081789753557410008","https://t.me/divgen/82629?single"]}},{"type":"Feature","geometry":{"type":"Point","coordinates":[36.092823,47.852589]},"properties":{"original":{"Date":"2026-07-27","Name":"27 JUL 2026","Faction":"Russia","Origin":"UAV","Latitude":"47.852589","Longitude":"36.092823","PlusCode":"8GVRV33V+24 Khrystophorivka, Dnipropetrovsk Oblast, Ukraine","Description":"1:21 - Russian Flag presented","Source":"https://x.com/voin_dv/status/2081667681854341587, https://t.me/voin_dv/20398, ","Geolocation":"https://x.com/richardzai38580/status/2081669756705480924","Equipment":"","EquipmentItems":"","Units":"","OrbatUnits":"36th Guards Motorized Rifle Brigade","Id":"74368e3a-2d23-4919-84e4-d5ed5662eb8f","icon":"/api/icons/E00000/False/template/100.png"},"source":"geoconfirmed","source_name":"GeoConfirmed","source_url":"https://geoconfirmed.org/map/ukraine","id":"74368e3a-2d23-4919-84e4-d5ed5662eb8f","date":"2026-07-27","link":"https://geoconfirmed.org/map/ukraine/74368e3a-2d23-4919-84e4-d5ed5662eb8f","category":"Civilian or Soldier or Militant (Depending on the colour)","side":"Russia","color":"#E00000","description":"1:21 - Russian Flag presented","orbat":["36th Guards Motorized Rifle Brigade"],"geolocation":["https://x.com/richardzai38580/status/2081669756705480924"],"sources":["https://x.com/voin_dv/status/2081667681854341587","https://t.me/voin_dv/20398"]}},{"type":"Feature","geometry":{"type":"Point","coordinates":[36.092823,47.852589]},"properties":{"original":{"Date":"2026-07-27","Name":"27 JUL 2026","Faction":"Russia","Origin":"UAV","Latitude":"47.852589","Longitude":"36.092823","PlusCode":"8GVRV33V+24 Khrystophorivka, Dnipropetrovsk Oblast, Ukraine","Description":"1:18-1:26 - Russian soldier of the 36th Guards Motorized Rifle Brigade of the 29th Guards Combined Arms Army shows a flag to a drone ","Source":"https://x.com/voin_dv/status/2081667681854341587, https://t.me/voin_dv/20398","Geolocation":"https://x.com/richardzai38580/status/2081669756705480924","Equipment":"","EquipmentItems":"","Units":"","OrbatUnits":"36th Guards Motorized Rifle Brigade","Id":"cd70092f-f048-4391-9447-deeaa004de7f","icon":"/api/icons/E00000/False/template/100.png"},"source":"geoconfirmed","source_name":"GeoConfirmed","source_url":"https://geoconfirmed.org/map/ukraine","id":"cd70092f-f048-4391-9447-deeaa004de7f","date":"2026-07-27","link":"https://geoconfirmed.org/map/ukraine/cd70092f-f048-4391-9447-deeaa004de7f","category":"Civilian or Soldier or Militant (Depending on the colour)","side":"Russia","color":"#E00000","description":"1:18-1:26 - Russian soldier of the 36th Guards Motorized Rifle Brigade of the 29th Guards Combined Arms Army shows a flag to a drone","orbat":["36th Guards Motorized Rifle Brigade"],"geolocation":["https://x.com/richardzai38580/status/2081669756705480924"],"sources":["https://x.com/voin_dv/status/2081667681854341587","https://t.me/voin_dv/20398"]}},{"type":"Feature","geometry":{"type":"Point","coordinates":[37.41972,48.548511]},"properties":{"original":{"Date":"2026-07-27","Name":"27 JUL 2026","Faction":"Russia","Origin":"VID","Latitude":"48.548511","Longitude":"37.41972","PlusCode":"8GWVGCX9+CV Tors'ke, Donetsk Oblast, Ukraine","Description":"0:25  - The 102nd Motorized Infantry Regiment under the 150th Motorized Infantry Division of the Russian army raised its flag at Tors'ke.","Source":"https://t.me/motopatriot78/54392, https://x.com/Mocca2X/status/2081778268680949984","Geolocation":"https://x.com/Mocca2X/status/2081777388036530578","Equipment":"","EquipmentItems":"","Units":"","OrbatUnits":"102nd Motorized Rifle Regiment","Id":"219beb77-7c83-4ff1-a274-e3b335ecf224","icon":"/api/icons/E00000/False/template/100.png"},"source":"geoconfirmed","source_name":"GeoConfirmed","source_url":"https://geoconfirmed.org/map/ukraine","id":"219beb77-7c83-4ff1-a274-e3b335ecf224","date":"2026-07-27","link":"https://geoconfirmed.org/map/ukraine/219beb77-7c83-4ff1-a274-e3b335ecf224","category":"Civilian or Soldier or Militant (Depending on the colour)","side":"Russia","color":"#E00000","description":"0:25  - The 102nd Motorized Infantry Regiment under the 150th Motorized Infantry Division of the Russian army raised its flag at Tors'ke.","orbat":["102nd Motorized Rifle Regiment"],"geolocation":["https://x.com/Mocca2X/status/2081777388036530578"],"sources":["https://t.me/motopatriot78/54392","https://x.com/Mocca2X/status/2081778268680949984"]}},{"type":"Feature","geometry":{"type":"Point","coordinates":[37.75681,48.69431]},"properties":{"original":{"Date":"2026-07-27","Name":"27 JUL 2026","Faction":"Russia","Origin":"UAV","Latitude":"48.69431","Longitude":"37.75681","PlusCode":"8GWVMQV4+PP Vasyutyns'ke, Donetsk Oblast, Ukraine","Description":"0:00-0:17 - Russian soldier hit by FPV","Source":"https://x.com/PuenteUribarri/status/2081375583049507127, https://t.me/pidrozdilshadowoficial/815","Geolocation":"https://x.com/klinger66/status/2081779891742068996, based on: https://x.com/TuiteroMartin/status/2081726745686749518","Equipment":"","EquipmentItems":"FPV (First Person View) OWAD (One Way Attack Drone)","Units":"","OrbatUnits":"UAS Unit \"Shadow\"","Id":"b05a7ca9-c196-4460-a12f-e7a782b2c810","icon":"/api/icons/E00000/False/template/92.png"},"source":"geoconfirmed","source_name":"GeoConfirmed","source_url":"https://geoconfirmed.org/map/ukraine","id":"b05a7ca9-c196-4460-a12f-e7a782b2c810","date":"2026-07-27","link":"https://geoconfirmed.org/map/ukraine/b05a7ca9-c196-4460-a12f-e7a782b2c810","category":"WIA/KIA Soldier/Militant","side":"Russia","color":"#E00000","description":"0:00-0:17 - Russian soldier hit by FPV","orbat":["UAS Unit \"Shadow\""],"geolocation":["https://x.com/klinger66/status/2081779891742068996","https://x.com/TuiteroMartin/status/2081726745686749518"],"sources":["https://x.com/PuenteUribarri/status/2081375583049507127","https://t.me/pidrozdilshadowoficial/815"]}}]}