{"type":"FeatureCollection","features":[{"type":"Feature","geometry":null,"properties":{"source":"ua_mod","source_name":"Ministry of Defence of Ukraine","group":"official_ua","id":16076,"posted_utc":"2026-08-23T04:03:07+00:00","link":"https://t.me/ministry_of_defense_ua/16076","text":"✅ Армія+ та Резерв+ відновили роботу\nТехнічні роботи в системі «Трембіта» завершено.\nЗастосунки Резерв+ та Армія+ працюють у звичному режимі: можна оновлювати документи та користуватися іншими сервісами.\nДякуємо за розуміння.","links":[],"original_html":"<b><i class=\"emoji\" style=\"background-image:url('//telegram.org/img/emoji/40/E29C85.png')\"><b>✅</b></i> Армія+ та Резерв+ відновили роботу</b><br/><br/>Технічні роботи в системі «Трембіта» завершено.<br/><br/>Застосунки Резерв+ та Армія+ працюють у звичному режимі: можна оновлювати документи та користуватися іншими сервісами.<br/><br/>Дякуємо за розуміння."}},{"type":"Feature","geometry":null,"properties":{"source":"ua_mod","source_name":"Ministry of Defence of Ukraine","group":"official_ua","id":16077,"posted_utc":"2026-08-23T07:04:09+00:00","link":"https://t.me/ministry_of_defense_ua/16077","text":"🇺🇦 Євгеній Хмара:\nСиньо-жовтий стяг.\nВін поруч із військовими на броні, на шевронах, над позиціями.\nУкраїнський прапор – це не просто державний символ.\nЦе дім.\nРодина.\nПобратими.\nПрисяга.\nПам’ять.\nЦе кольори нашого неба і нашого поля.\nСила людей, які їх боронять.\nКольори стійкості.\nЄдності.\nГордості.\nВіри в те, що Україна вистоїть.\nСьогодні передусім дякую кожному воїну, хто зробив прапор України символом незламності, хто тримає позицію і виконує бойове завдання.\nКожному, хто поруч з військом: хто лікує, навчає, рятує, відбудовує, волонтерить, хто продовжує працювати і підтримувати Збройні сили України.\nПам’ятаємо ціну нашої свободи.\nШануємо Героїв, які віддали своє життя за Україну.\nБоремось за те, аби синьо-жовтий майорів на всій нашій землі.\nЗ Днем Державного прапора України.","links":[],"original_html":"<i class=\"emoji\" style=\"background-image:url('//telegram.org/img/emoji/40/F09F87BAF09F87A6.png')\"><b>🇺🇦</b></i> <b>Євгеній Хмара</b>:<b><br/></b>&nbsp;<br/>Синьо-жовтий стяг.<br/>Він поруч із військовими на броні, на шевронах, над позиціями.<br/>&nbsp;<br/>Український прапор – це не просто державний символ.<br/>&nbsp;<br/>Це дім.<br/>Родина.<br/>Побратими.<br/>Присяга.<br/>Пам’ять.<br/>&nbsp;<br/>Це кольори нашого неба і нашого поля.<br/>Сила людей, які їх боронять.<br/>Кольори стійкості.<br/>Єдності.<br/>Гордості.<br/>Віри в те, що Україна вистоїть.<br/>&nbsp;<br/>Сьогодні передусім дякую кожному воїну, хто зробив прапор України символом незламності, хто тримає позицію і виконує бойове завдання.<br/>&nbsp;<br/>Кожному, хто поруч з військом: хто лікує, навчає, рятує, відбудовує, волонтерить, хто продовжує працювати і підтримувати Збройні сили України.<br/>&nbsp;<br/>Пам’ятаємо ціну нашої свободи.<br/>Шануємо Героїв, які віддали своє життя за Україну.<br/>Боремось за те, аби синьо-жовтий майорів на всій нашій землі.<br/>&nbsp;<br/>З Днем Державного прапора України."}},{"type":"Feature","geometry":null,"properties":{"source":"ua_mod","source_name":"Ministry of Defence of Ukraine","group":"official_ua","id":16078,"posted_utc":"2026-08-23T18:13:54+00:00","link":"https://t.me/ministry_of_defense_ua/16078","text":"❗️Євгеній Хмара:\nЗустрівся із сенатором США Річардом Блюменталем. Подякував за підтримку та великі персональні зусилля для досягнення справедливого миру для України.\nСфокусувалися на тому, як вибудовувати довготривалі та взаємовигідні відносини між Україною і США.\nСучасна війна змінюється дуже швидко. Україна має унікальний досвід адаптації до змін на полі бою і побудови рішень, які швидко проходять шлях до бойового застосування. Ми готові ділитися цими напрацюваннями із партнерами.\nРазом із тимчасово виконуючим обов’язки заступника Головнокомандувача ЗСУ бригадним генералом Сергієм Собком поінформували сенатора про ситуацію на фронті, актуальні загрози та зміни, які запускаємо для більш ефективної боротьби.\nПідтримка США критично важлива для захисту наших людей. Сполучені Штати можуть допомогти зупинити цю війну на умовах України.\nОкремо наголосив: важливо надалі обмежувати фінансові можливості росії. Це напряму впливає на здатність агресора продовжувати війну.\nВдячний сенатору Блюменталю, Конгресу, адміністрації США та американському народу за підтримку України.","links":[],"original_html":"<div class=\"tgme_widget_message_text js-message_text\" dir=\"auto\"><i class=\"emoji\" style=\"background-image:url('//telegram.org/img/emoji/40/E29D97.png')\"><b>❗️</b></i><b>Євгеній Хмара:</b><br/><b><br/></b>Зустрівся із сенатором США Річардом Блюменталем. Подякував за підтримку та великі персональні зусилля для досягнення справедливого миру для України.<br/><br/>Сфокусувалися на тому, як вибудовувати довготривалі та взаємовигідні відносини між Україною і США.<br/><br/>Сучасна війна змінюється дуже швидко. Україна має унікальний досвід адаптації до змін на полі бою і побудови рішень, які швидко проходять шлях до бойового застосування. Ми готові ділитися цими напрацюваннями із партнерами.<br/><br/>Разом із тимчасово виконуючим обов’язки заступника Головнокомандувача ЗСУ бригадним генералом Сергієм Собком поінформували сенатора про ситуацію на фронті, актуальні загрози та зміни, які запускаємо для більш ефективної боротьби.<br/><br/>Підтримка США критично важлива для захисту наших людей. Сполучені Штати можуть допомогти зупинити цю війну на умовах України.<br/><br/>Окремо наголосив: важливо надалі обмежувати фінансові можливості росії. Це напряму впливає на здатність агресора продовжувати війну.<br/><br/>Вдячний сенатору Блюменталю, Конгресу, адміністрації США та американському народу за підтримку України."}}]}