{"type":"FeatureCollection","features":[{"type":"Feature","geometry":{"type":"Point","coordinates":[35.240041,51.222043]},"properties":{"source":"warspotting","source_name":"WarSpotting","source_url":"https://ukr.warspotting.net/","id":46953,"date":"2026-09-08","link":"https://ukr.warspotting.net/view/46953/","category":"Rocket and missile artillery","side":"Lost by Russia","color":"#E00000","description":"122mm 2B17 BM-21-1 (for 9K51 'Grad') · Destroyed · near Zaoleshenka, Sudzha raion · tags: Cope cage","orbat":[]}},{"type":"Feature","geometry":{"type":"Point","coordinates":[38.08289,49.134156]},"properties":{"source":"warspotting","source_name":"WarSpotting","source_url":"https://ukr.warspotting.net/","id":46950,"date":"2026-09-08","link":"https://ukr.warspotting.net/view/46950/","category":"Infantry fighting vehicles","side":"Lost by Russia","color":"#E00000","description":"BMP-2(K) · Destroyed · near Chervonopopivka, Siverskodonetsk raion · tags: Turretless, Z, ◇, Turtle, Additional armour","orbat":[]}}]}