{"type":"FeatureCollection","features":[{"type":"Feature","geometry":null,"properties":{"source":"ua_mod","source_name":"Ministry of Defence of Ukraine","group":"official_ua","id":16146,"posted_utc":"2026-09-04T07:43:59+00:00","link":"https://t.me/ministry_of_defense_ua/16146","text":"🤝Україна та Італія обговорили кроки для посилення української оборони проти російського повітряного терору.\nМіністр оборони України Євгеній Хмара провів розмову з Міністром оборони Італії Гвідо Крозетто.\nСторони говорили про безпекові виклики, ситуацію на фронті, дії України проти ворога та ключові потреби Сил оборони.\nОднією з головних загроз зараз є реактивні безпілотники та балістичні ракети. росія нарощує їх виробництво, посилює терор проти українських міст, зокрема Києва, наголосив Євгеній Хмара.\nТому ми розраховуємо на підтримку партнерів за критичними пріоритетами: фінансування, постачання конкретних типів озброєння, насамперед засобів ППО, а також технології і засоби для ураження ворога.\nВодночас, як зазначив Євгеній Хмара, Україна готує власний план війни та посилює асиметричні дії проти росії аби мінімізувати її спроможності вести війну.\nЄвгеній Хмара подякував Італії та партнерам за підтримку та готовність допомагати українській обороні.","links":[],"original_html":"<div class=\"tgme_widget_message_text js-message_text\" dir=\"auto\"><i class=\"emoji\" style=\"background-image:url('//telegram.org/img/emoji/40/F09FA49D.png')\"><b>🤝</b></i><b>Україна та Італія обговорили кроки для посилення української оборони проти російського повітряного терору.</b><br/><br/>Міністр оборони України Євгеній Хмара провів розмову з Міністром оборони Італії Гвідо Крозетто.<br/><br/>Сторони говорили про безпекові виклики, ситуацію на фронті, дії України проти ворога та ключові потреби Сил оборони.<br/><br/>Однією з головних загроз зараз є реактивні безпілотники та балістичні ракети. росія нарощує їх виробництво, посилює терор проти українських міст, зокрема Києва, наголосив Євгеній Хмара. <br/><br/>Тому ми розраховуємо на підтримку партнерів за критичними пріоритетами: фінансування, постачання конкретних типів озброєння, насамперед засобів ППО, а також технології і засоби для ураження ворога. <br/><br/>Водночас, як зазначив Євгеній Хмара, Україна готує власний план війни та посилює асиметричні дії проти росії аби мінімізувати її спроможності вести війну.  <br/><br/>Євгеній Хмара подякував Італії та партнерам за підтримку та готовність допомагати українській обороні."}},{"type":"Feature","geometry":null,"properties":{"source":"ua_mod","source_name":"Ministry of Defence of Ukraine","group":"official_ua","id":16148,"posted_utc":"2026-09-04T10:23:08+00:00","link":"https://t.me/ministry_of_defense_ua/16148","text":"✅ 1 382,6 км ключових логістичних маршрутів захищено від атак дронів у 2026 році.\nДержавна спеціальна служба транспорту за завданням Міноборони облаштовує антидроновий захист доріг, якими рухаються українські військові.\nТільки минулого місяця у прифронтових регіонах:\n— побудували 213,1 км антидронового захисту;\n— відремонтували 129,3 км автомобільних доріг.\nВід початку відновлювальних робіт у квітні поточний ремонт та експлуатаційне утримання проведено на 551,3 км доріг. Роботи тривають на 23 ділянках, ще 33 — повністю завершені.","links":[],"original_html":"<i class=\"emoji\" style=\"background-image:url('//telegram.org/img/emoji/40/E29C85.png')\"><b>✅</b></i> <b>1 382,6 км ключових логістичних маршрутів захищено від атак дронів у 2026 році.</b><br/><br/>Державна спеціальна служба транспорту за завданням Міноборони облаштовує антидроновий захист доріг, якими рухаються українські військові.<br/><br/>Тільки минулого місяця у прифронтових регіонах:<br/>— побудували 213,1 км антидронового захисту;<br/>— відремонтували 129,3 км автомобільних доріг.<br/><br/>Від початку відновлювальних робіт у квітні поточний ремонт та експлуатаційне утримання проведено на 551,3 км доріг. Роботи тривають на 23 ділянках, ще 33 — повністю завершені."}},{"type":"Feature","geometry":null,"properties":{"source":"ua_mod","source_name":"Ministry of Defence of Ukraine","group":"official_ua","id":16150,"posted_utc":"2026-09-04T17:22:56+00:00","link":"https://t.me/ministry_of_defense_ua/16150","text":"✅ 33,6 млрд грн спрямовано на виплати військовослужбовцям та одноразову грошову допомогу військовим і їхнім сім’ям.\nКабмін за ініціативою Міноборони розподілив частину резерву бюджетних коштів сектору безпеки і оборони.\nКошти спрямують:\n• 25,9 млрд грн — на щомісячне грошове забезпечення військових у вересні;\n• 7,7 млрд грн — на одноразову грошову допомогу у разі загибелі військовослужбовця, встановлення інвалідності або часткової втрати працездатності без встановлення інвалідності.\nРішення дозволить своєчасно провести вересневі виплати військовим без залучення додаткового бюджетного фінансування.","links":[],"original_html":"<i class=\"emoji\" style=\"background-image:url('//telegram.org/img/emoji/40/E29C85.png')\"><b>✅</b></i> <b>33,6 млрд грн спрямовано на виплати військовослужбовцям та одноразову грошову допомогу військовим і їхнім сім’ям.</b><br/><br/>Кабмін за ініціативою Міноборони розподілив частину резерву бюджетних коштів сектору безпеки і оборони.<br/><br/><u>Кошти спрямують:</u><br/>• <b>25,9 млрд грн</b> — на щомісячне грошове забезпечення військових у вересні;<br/>• <b>7,7 млрд грн</b> — на одноразову грошову допомогу у разі загибелі військовослужбовця, встановлення інвалідності або часткової втрати працездатності без встановлення інвалідності.<br/><br/>Рішення дозволить своєчасно провести вересневі виплати військовим без залучення додаткового бюджетного фінансування."}}]}