{"type":"FeatureCollection","features":[{"type":"Feature","geometry":{"type":"Point","coordinates":[37.838566,49.168197]},"properties":{"source":"geoconfirmed","source_name":"GeoConfirmed","source_url":"https://geoconfirmed.org/map/ukraine","id":"2f468099-f66f-4a39-9921-1c3622282abc","date":"2026-09-29","link":"https://geoconfirmed.org/map/ukraine/2f468099-f66f-4a39-9921-1c3622282abc","category":"Suicide UGV (Driving or exploding)","side":"Ukraine","color":"#0051CA","description":"0:45 - BTR-60 reportedly converted into a Suicide UGV explodes.","orbat":[],"geolocation":["https://x.com/Vlad_23456/status/2104594117359436043"],"sources":["https://x.com/ab3army/status/2104469975184396423","https://t.me/ab3army/7520","https://x.com/Vlad_23456/status/2104641830998458384"]}},{"type":"Feature","geometry":{"type":"Point","coordinates":[37.09447,48.46684]},"properties":{"source":"geoconfirmed","source_name":"GeoConfirmed","source_url":"https://geoconfirmed.org/map/ukraine","id":"216a3bdd-bd64-414e-920a-32379316c7fe","date":"2026-09-29","link":"https://geoconfirmed.org/map/ukraine/216a3bdd-bd64-414e-920a-32379316c7fe","category":"Short Range (<50km) OWAD (One Way Attack Drone), mostly rotary wing, Flying OR Attacking a target without knowing the outcome: if something is damaged --> icon of the damaged equipment.","side":"Ukraine","color":"#0051CA","description":"0:13 - Russian FPV strike on an UAZ-452","orbat":["177th Naval Infantry Regiment"],"geolocation":["https://x.com/moklasen/status/2104645571730628768"],"sources":["https://x.com/moklasen/status/2104645579816972779","https://vk.ru/wall-121828295_118021"]}},{"type":"Feature","geometry":{"type":"Point","coordinates":[31.63111,52.44159]},"properties":{"source":"geoconfirmed","source_name":"GeoConfirmed","source_url":"https://geoconfirmed.org/map/ukraine","id":"79b09a40-3f3b-48ae-9504-892691882bb2","date":"2026-09-29","link":"https://geoconfirmed.org/map/ukraine/79b09a40-3f3b-48ae-9504-892691882bb2","category":"Recently destroyed/Damaged[Visible in footage] or still burning infrastucture","side":"Neutral","color":"#AC7339","description":"Reported Ukrainian drone strike on the  Krasny Kamen international road border crossing on the Russia-Belarus border","orbat":[],"geolocation":["https://x.com/zarGEOINT/status/2104821138757231020","https://x.com/nexus_osint/status/2104825349615882402"],"sources":["https://x.com/NOELreports/status/2104818383997026367","https://x.com/nexus_osint/status/2104825345891315894"]}}]}