{"type":"FeatureCollection","features":[{"type":"Feature","geometry":{"type":"Polygon","coordinates":[[[37.7902,48.64363],[37.78642,48.65157],[37.78706,48.65284],[37.78719,48.655],[37.79178,48.6581],[37.79414,48.65911],[37.79492,48.66044],[37.79672,48.66126],[37.79862,48.66385],[37.81091,48.66559],[37.80966,48.66044],[37.80591,48.65892],[37.80347,48.65712],[37.8033,48.65589],[37.80328,48.6559],[37.80299,48.65376],[37.80293,48.65333],[37.80535,48.64424],[37.79858,48.64018],[37.78949,48.63836],[37.7902,48.64363]]]},"properties":{"source":"ukrdaily","source_name":"UkrDailyUpdate","source_url":"https://map.ukrdailyupdate.com/","category":"gained","category_label":"Newly Russian-occupied","period":"1d","compared_with":"2026-08-12","snapshot_time":"2026-08-13","area_km2_approx":2.9}},{"type":"Feature","geometry":{"type":"MultiPolygon","coordinates":[[[[37.77503,48.63285],[37.76721,48.64313],[37.75789,48.65274],[37.75435,48.66131],[37.77546,48.66409],[37.78344,48.66596],[37.78541,48.67733],[37.79087,48.6778],[37.79178,48.6581],[37.78624,48.6579],[37.7792,48.65722],[37.77551,48.65605],[37.77053,48.65478],[37.77062,48.65146],[37.77581,48.64684],[37.77981,48.64472],[37.78371,48.63033],[37.78328,48.62724],[37.77586,48.62636],[37.77503,48.63285]]],[[[37.60204,48.49614],[37.60449,48.49705],[37.60401,48.49972],[37.60637,48.5037],[37.60552,48.51101],[37.61032,48.51476],[37.61358,48.52306],[37.61642,48.52682],[37.63951,48.53389],[37.64033,48.52897],[37.64029,48.522],[37.62544,48.51534],[37.6199,48.50672],[37.61475,48.50571],[37.61083,48.50554],[37.60966,48.50393],[37.60928,48.50263],[37.61008,48.50182],[37.61082,48.50161],[37.61153,48.50106],[37.61108,48.49961],[37.61074,48.49656],[37.60775,48.49266],[37.60718,48.49232],[37.6067,48.49158],[37.60643,48.49072],[37.60755,48.49025],[37.6077,48.48825],[37.60826,48.48663],[37.60855,48.48451],[37.60771,48.48245],[37.60601,48.48277],[37.60414,48.4842],[37.60204,48.49614]]],[[[37.61377,48.4748],[37.61375,48.47516],[37.61567,48.47541],[37.61327,48.48722],[37.61175,48.49008],[37.61238,48.49026],[37.62627,48.48338],[37.62893,48.47179],[37.62485,48.46845],[37.62169,48.46801],[37.61602,48.46781],[37.61544,48.47025],[37.61436,48.47225],[37.61428,48.47351],[37.6155,48.47411],[37.6154,48.47475],[37.61377,48.4748]]],[[[37.5901,49.72039],[37.59038,49.72128],[37.59085,49.72165],[37.59134,49.72271],[37.59218,49.72313],[37.59305,49.72306],[37.59381,49.72341],[37.59469,49.723],[37.59625,49.72448],[37.6025,49.72679],[37.60445,49.72737],[37.60525,49.72897],[37.60516,49.72972],[37.60535,49.73158],[37.60638,49.73172],[37.60809,49.73159],[37.61073,49.7322],[37.61396,49.7319],[37.61461,49.73067],[37.61727,49.72996],[37.62134,49.7286],[37.62199,49.72765],[37.62125,49.72655],[37.61644,49.72511],[37.60987,49.72659],[37.60773,49.72735],[37.60294,49.72614],[37.59639,49.72324],[37.59635,49.72178],[37.59514,49.72047],[37.59257,49.72152],[37.59071,49.71989],[37.5901,49.72039]]],[[[37.6026,49.71642],[37.6082,49.71755],[37.60921,49.71813],[37.60949,49.71915],[37.61194,49.71958],[37.61525,49.71401],[37.61207,49.71344],[37.61266,49.71145],[37.61248,49.71062],[37.61264,49.7097],[37.60955,49.70938],[37.60874,49.71076],[37.60887,49.71128],[37.60807,49.71259],[37.60697,49.71282],[37.60606,49.71403],[37.60344,49.7145],[37.60293,49.71523],[37.60302,49.71583],[37.6026,49.71642]]]]},"properties":{"source":"ukrdaily","source_name":"UkrDailyUpdate","source_url":"https://map.ukrdailyupdate.com/","category":"gained_contested","category_label":"Newly contested","period":"1d","compared_with":"2026-08-12","snapshot_time":"2026-08-13","area_km2_approx":13.7}}]}