{"type":"FeatureCollection","features":[{"type":"Feature","geometry":{"type":"Polygon","coordinates":[[[37.18889,48.39327],[37.22928,48.39794],[37.22765,48.39403],[37.2146,48.39289],[37.21123,48.39278],[37.20804,48.387],[37.19134,48.38378],[37.18889,48.39327]]]},"properties":{"source":"ukrdaily","source_name":"UkrDailyUpdate","source_url":"https://map.ukrdailyupdate.com/","category":"gained","category_label":"Russian advance: became occupied","period":"1d","compared_with":"2026-08-13","snapshot_time":"2026-08-14","area_km2_approx":2.0}},{"type":"Feature","geometry":{"type":"MultiPolygon","coordinates":[[[[37.17286,48.39367],[37.17486,48.39443],[37.17645,48.40055],[37.17495,48.4034],[37.18422,48.40443],[37.18445,48.40606],[37.18448,48.40606],[37.18559,48.40159],[37.19132,48.40213],[37.19221,48.39779],[37.18819,48.3971],[37.18889,48.39327],[37.17104,48.39058],[37.17286,48.39367]]],[[[37.18481,48.41699],[37.18614,48.41187],[37.18592,48.40928],[37.18521,48.4089],[37.18434,48.40962],[37.18409,48.4107],[37.17426,48.41067],[37.171,48.41087],[37.16997,48.4164],[37.18481,48.41699]]]]},"properties":{"source":"ukrdaily","source_name":"UkrDailyUpdate","source_url":"https://map.ukrdailyupdate.com/","category":"ukrainian_to_contested","category_label":"Ukrainian-held became contested","period":"1d","compared_with":"2026-08-13","snapshot_time":"2026-08-14","area_km2_approx":2.2}}]}