{"type":"FeatureCollection","features":[{"type":"Feature","geometry":{"type":"MultiPolygon","coordinates":[[[[37.80337,48.56442],[37.80335,48.57228],[37.81583,48.5755],[37.81937,48.57173],[37.81391,48.56694],[37.81298,48.56464],[37.80337,48.56442]]],[[[37.61537,48.48823],[37.61181,48.49237],[37.61357,48.4944],[37.61919,48.49702],[37.61934,48.49678],[37.61511,48.49355],[37.62216,48.48564],[37.61537,48.48823]]]]},"properties":{"source":"deepstate","source_name":"DeepStateMap","source_url":"https://deepstatemap.live/en","category":"gained","category_label":"Newly Russian-occupied","period":"1d","compared_with":"2026-09-11","snapshot_time":"2026-09-12","area_km2_approx":1.3}}]}