{"type":"FeatureCollection","features":[{"type":"Feature","geometry":{"type":"Point","coordinates":[37.97119,49.092073]},"properties":{"source":"warspotting","source_name":"WarSpotting","source_url":"https://ukr.warspotting.net/","id":47013,"date":"2022-10-18","link":"https://ukr.warspotting.net/view/47013/","category":"Transport","side":"Lost by Russia","color":"#E00000","description":"Ural* · Destroyed · near Terny, Kramatorsk raion","orbat":[]}},{"type":"Feature","geometry":{"type":"Point","coordinates":[37.971575,49.091601]},"properties":{"source":"warspotting","source_name":"WarSpotting","source_url":"https://ukr.warspotting.net/","id":47012,"date":"2022-10-18","link":"https://ukr.warspotting.net/view/47012/","category":"Transport","side":"Lost by Russia","color":"#E00000","description":"KamAZ 4x4 · Destroyed · near Terny, Kramatorsk raion","orbat":[]}}]}