{"type":"FeatureCollection","features":[{"type":"Feature","geometry":{"type":"Point","coordinates":[39.622352,48.808095]},"properties":{"original":{"id":47461,"type":"Transport","model":"KrAZ-255B fuel tanker","status":"Destroyed","lost_by":"Russia","date":"2026-10-09","nearest_location":"Shyrokyi, Shchastia raion","geo":"48.808095,39.622352","unit":"Moskva (ex-Western) Military District","tags":"Loitering"},"source":"warspotting","source_name":"WarSpotting","source_url":"https://ukr.warspotting.net/","id":47461,"date":"2026-10-09","link":"https://ukr.warspotting.net/view/47461/","category":"Transport","side":"Lost by Russia","color":"#E00000","description":"KrAZ-255B fuel tanker · Destroyed · near Shyrokyi, Shchastia raion · tags: Loitering","orbat":["Moskva (ex-Western) Military District"]}}]}