{"type":"FeatureCollection","features":[{"type":"Feature","geometry":null,"properties":{"source":"ua_mod","source_name":"Ministry of Defence of Ukraine","group":"official_ua","id":16003,"posted_utc":"2026-08-08T13:23:49+00:00","link":"https://t.me/ministry_of_defense_ua/16003","text":"💥 Звітуємо: після удару українських дронів горить Сизранський НПЗ у Самарській області рф.\nНафтопереробний завод потужністю близько 8,5 млн тонн на рік належить «Роснєфті». Підприємство є одним із ключових об’єктів галузі в регіоні та забезпечує паливом потреби російських військ.\nСили оборони продовжують руйнувати економічну основу збройної агресії російської федерації.","links":[],"original_html":"<i class=\"emoji\" style=\"background-image:url('//telegram.org/img/emoji/40/F09F92A5.png')\"><b>💥</b></i> <b>Звітуємо: після удару українських дронів горить Сизранський НПЗ у Самарській області рф.</b><br/><br/>Нафтопереробний завод потужністю близько 8,5 млн тонн на рік належить «Роснєфті». Підприємство є одним із ключових об’єктів галузі в регіоні та забезпечує паливом потреби російських військ.<br/><br/>Сили оборони продовжують руйнувати економічну основу збройної агресії російської федерації."}},{"type":"Feature","geometry":null,"properties":{"source":"ua_mod","source_name":"Ministry of Defence of Ukraine","group":"official_ua","id":16004,"posted_utc":"2026-08-08T18:37:07+00:00","link":"https://t.me/ministry_of_defense_ua/16004","text":"❗️Євгеній Хмара:\nПровів робочу поїздку на командні пункти Сил безпілотних систем, 3-го та 19-го армійських корпусів та корпусу «Азов».\nНа зустрічах командирів корпусів із Президентом України були озвучені ключові проблеми та потреби підрозділів. Саме тому працюємо безпосередньо у військах – там, де можна побачити реальну ситуацію, почути командирів і воїнів.\nПрацювали з командами Роберта Бровді, Дениса Прокопенка, Валерія Скреда, Андрія Білецького. Командири надали повну картину про обстановку в зонах відповідальності, склад і дії противника, стійкість нашої оборони та ключові потреби військових частин.\nДетально обговорили, що потрібно для захисту логістики і вогневого контролю над шляхами постачання ворога. Наші війська діють ефективно на всю глибину побудови противника – від лінії бойового зіткнення до логістичних хабів глибоко в тилу.\nОкремо поспілкувався з військовими на місцях. У тісній координації з Головнокомандувачем Михайлом Драпатим будемо посилювати бойові підрозділи.\nСучасна зброя дає результат лише тоді, коли її використовують сильні люди. Українські воїни – це безцінні спеціалісти з реальним досвідом сучасної війни.\nМав честь особисто подякувати воїнам та відзначити нагородами за стійкість і високі результати під час виконання бойових завдань.\nОкремо в розмові з командирами підкреслив: збереження життя воїнів – безумовний пріоритет. Важливо, щоб завдання виконувалися професійно, відповідально та з повагою до військовослужбовців.\nВдячний кожному воїну за силу, стійкість і щоденну роботу для захисту України.","links":[],"original_html":"<div class=\"tgme_widget_message_text js-message_text\" dir=\"auto\"><i class=\"emoji\" style=\"background-image:url('//telegram.org/img/emoji/40/E29D97.png')\"><b>❗️</b></i><b>Євгеній Хмара:</b><br/><br/>Провів робочу поїздку на командні пункти Сил безпілотних систем, 3-го та 19-го армійських корпусів та корпусу «Азов».<br/><br/>На зустрічах командирів корпусів із Президентом України були озвучені ключові проблеми та потреби підрозділів. Саме тому працюємо безпосередньо у військах – там, де можна побачити реальну ситуацію, почути командирів і воїнів.<br/><br/>Працювали з командами Роберта Бровді, Дениса Прокопенка, Валерія Скреда, Андрія Білецького. Командири надали повну картину про обстановку в зонах відповідальності, склад і дії противника, стійкість нашої оборони та ключові потреби військових частин. <br/><br/>Детально обговорили, що потрібно для захисту логістики і вогневого контролю над шляхами постачання ворога. Наші війська діють ефективно на всю глибину побудови противника – від лінії бойового зіткнення до логістичних хабів глибоко в тилу. <br/><br/>Окремо поспілкувався з військовими на місцях. У тісній координації з Головнокомандувачем Михайлом Драпатим будемо посилювати бойові підрозділи.<br/><br/>Сучасна зброя дає результат лише тоді, коли її використовують сильні люди. Українські воїни – це безцінні спеціалісти з реальним досвідом сучасної війни.<br/><br/>Мав честь особисто подякувати воїнам та відзначити нагородами за стійкість і високі результати під час виконання бойових завдань.<br/><br/>Окремо в розмові з командирами підкреслив: збереження життя воїнів – безумовний пріоритет. Важливо, щоб завдання виконувалися професійно, відповідально та з повагою до військовослужбовців.<br/><br/>Вдячний кожному воїну за силу, стійкість і щоденну роботу для захисту України."}},{"type":"Feature","geometry":null,"properties":{"source":"ua_mod","source_name":"Ministry of Defence of Ukraine","group":"official_ua","id":16001,"posted_utc":"2026-08-08T06:30:16+00:00","link":"https://t.me/ministry_of_defense_ua/16001","text":"⚡Євгеній Хмара:\nВітаю з Днем Військ зв'язку та кібербезпеки!\nУ високотехнологічній війні зв’язок має ключове значення. Воїни-зв’язківці та фахівці кібербезпеки забезпечують те, без чого не працює сучасна армія на фронті та у тилу. Від стабільної захищеної комунікації залежить управління військом, координація підрозділів, швидкий обмін даними.\nВаша робота визначає, чи будуть рішення на полі бою вчасними. І чи будуть збережені життя.\nВаша служба часто непомітна. Але вона щодня відіграє ключову роль у нашій стійкості. Під тиском засобів РЕБ та ударів противника ви тримаєте зв’язок там, де він потрібен найбільше.\nДякую за професійність і результат. Вічна пам’ять усім воїнам-зв’язківцям, які віддали життя за Україну.\nСлава Україні!","links":[],"original_html":"<b><i class=\"emoji\" style=\"background-image:url('//telegram.org/img/emoji/40/E29AA1.png')\"><b>⚡</b></i>Євгеній Хмара:</b><br/><b><br/></b>Вітаю з Днем Військ зв&#39;язку та кібербезпеки&#33;<br/><br/>У високотехнологічній війні зв’язок має ключове значення. Воїни-зв’язківці та фахівці кібербезпеки забезпечують те, без чого не працює сучасна армія на фронті та у тилу. Від стабільної захищеної комунікації залежить управління військом, координація підрозділів, швидкий обмін даними.<br/><br/>Ваша робота визначає, чи будуть рішення на полі бою вчасними. І чи будуть збережені життя.<br/><br/>Ваша служба часто непомітна. Але вона щодня відіграє ключову роль у нашій стійкості. Під тиском засобів РЕБ та ударів противника ви тримаєте зв’язок там, де він потрібен найбільше.<br/><br/>Дякую за професійність і результат. Вічна пам’ять усім воїнам-зв’язківцям, які віддали життя за Україну.<br/><br/>Слава Україні&#33;"}},{"type":"Feature","geometry":null,"properties":{"source":"ua_mod","source_name":"Ministry of Defence of Ukraine","group":"official_ua","id":16002,"posted_utc":"2026-08-08T07:48:16+00:00","link":"https://t.me/ministry_of_defense_ua/16002","text":"🇺🇦  Армія+ виповнилося два роки. Сьогодні застосунок став щоденним цифровим інструментом служби, яким користуються 3 з 4 військовослужбовців.\nЯкі переваги дає Армія+\n✚ Електронний військово-обліковий документ: має таку саму юридичну силу, як паперовий військовий квиток.\n✚ 57 видів електронних рапортів: від відпустки й виплат до переведення. Військові вже подали їх 3 млн разів, без заповнення паперів і поїздок до адмінслужб.\n✚ «Пульс» з новинами та роз’ясненнями про права, службу, нові сервіси й кіберзагрози: щомісячна аудиторія – 500 тисяч військових.\n✚ 28 навчальних курсів від військових експертів: щонайменше один із них уже пройшли 732 тисяч військовослужбовців.\n✚ «Плюси»: 39 партнерів пропонують військовим знижки: ними скористалися понад 16 млн разів, заощадивши більш як 1,6 млрд грн.\nДва роки Армія+ прибирає зі служби заяві формальності, а додає сервіси, якими військові можуть скористатися просто зі смартфона.\nЗастосунок розроблений Міністерством оборони України спільно з Центром масштабування технологічних рішень при Генеральному штабі ЗСУ.","links":[],"original_html":"<tg-emoji emoji-id=\"5233438162939815111\"><i class=\"emoji\" style=\"background-image:url('//telegram.org/img/emoji/40/F09F87BAF09F87A6.png')\"><b>🇺🇦</b></i></tg-emoji>  <b>Армія+ виповнилося два роки. Сьогодні застосунок став щоденним цифровим інструментом служби, яким користуються 3 з 4 військовослужбовців.<br/></b><br/><u>Які переваги дає Армія+<br/></u><br/>✚ <b>Електронний військово-обліковий документ</b>: має таку саму юридичну силу, як паперовий військовий квиток.<br/><br/>✚ <b>57 видів електронних рапортів:</b> від відпустки й виплат до переведення. Військові вже подали їх 3 млн разів, без заповнення паперів і поїздок до адмінслужб.<br/><br/>✚ <b>«Пульс» з новинами та роз’ясненнями про права, службу, нові сервіси й кіберзагрози:</b> щомісячна аудиторія – 500 тисяч військових.<br/><br/>✚ <b>28 навчальних курсів від військових експертів</b>: щонайменше один із них уже пройшли 732 тисяч військовослужбовців.<br/><br/>✚ <b>«Плюси»: 39 партнерів пропонують військовим знижки</b>: ними скористалися понад 16 млн разів, заощадивши більш як 1,6 млрд грн.<br/><br/>Два роки Армія+ прибирає зі служби заяві формальності, а додає сервіси, якими військові можуть скористатися просто зі смартфона.<br/><br/><i>Застосунок розроблений Міністерством оборони України спільно з Центром масштабування технологічних рішень при Генеральному штабі ЗСУ.</i>"}}]}