{"type":"FeatureCollection","features":[{"type":"Feature","geometry":{"type":"Point","coordinates":[36.771694,47.971694]},"properties":{"original":{"id":46214,"type":"Transport","model":"'Ulan' all-terrain vehicle","status":"Destroyed","lost_by":"Russia","date":"2026-07-28","nearest_location":"Komar, Volnovakha raion","geo":"47.971694,36.771694","unit":null,"tags":"Jammer"},"source":"warspotting","source_name":"WarSpotting","source_url":"https://ukr.warspotting.net/","id":46214,"date":"2026-07-28","link":"https://ukr.warspotting.net/view/46214/","category":"Transport","side":"Lost by Russia","color":"#E00000","description":"'Ulan' all-terrain vehicle · Destroyed · near Komar, Volnovakha raion · tags: Jammer","orbat":[]}},{"type":"Feature","geometry":{"type":"Point","coordinates":[36.771636,47.971659]},"properties":{"original":{"id":46215,"type":"Transport","model":"'Ulan-2' all-terrain vehicle","status":"Destroyed","lost_by":"Russia","date":"2026-07-28","nearest_location":"Komar, Volnovakha raion","geo":"47.971659,36.771636","unit":null,"tags":"Cope cage"},"source":"warspotting","source_name":"WarSpotting","source_url":"https://ukr.warspotting.net/","id":46215,"date":"2026-07-28","link":"https://ukr.warspotting.net/view/46215/","category":"Transport","side":"Lost by Russia","color":"#E00000","description":"'Ulan-2' all-terrain vehicle · Destroyed · near Komar, Volnovakha raion · tags: Cope cage","orbat":[]}},{"type":"Feature","geometry":{"type":"Point","coordinates":[36.78958,47.83909]},"properties":{"original":{"id":46216,"type":"Transport","model":"'Ulan-2' all-terrain vehicle","status":"Destroyed","lost_by":"Russia","date":"2026-07-28","nearest_location":"Vremivka, Volnovakha raion","geo":"47.839090,36.789580","unit":null,"tags":"Cope cage, Jammer"},"source":"warspotting","source_name":"WarSpotting","source_url":"https://ukr.warspotting.net/","id":46216,"date":"2026-07-28","link":"https://ukr.warspotting.net/view/46216/","category":"Transport","side":"Lost by Russia","color":"#E00000","description":"'Ulan-2' all-terrain vehicle · Destroyed · near Vremivka, Volnovakha raion · tags: Cope cage, Jammer","orbat":[]}}]}