{"type":"FeatureCollection","features":[{"type":"Feature","geometry":{"type":"Point","coordinates":[37.996815,49.113243]},"properties":{"original":{"id":47314,"type":"Self-propelled artillery","model":"122mm 2S1 'Gvozdika'","status":"Destroyed","lost_by":"Russia","date":"2022-11-30","nearest_location":"Terny, Kramatorsk raion","geo":"49.113243,37.996815","unit":null,"tags":null},"source":"warspotting","source_name":"WarSpotting","source_url":"https://ukr.warspotting.net/","id":47314,"date":"2022-11-30","link":"https://ukr.warspotting.net/view/47314/","category":"Self-propelled artillery","side":"Lost by Russia","color":"#E00000","description":"122mm 2S1 'Gvozdika' · Destroyed · near Terny, Kramatorsk raion","orbat":[]}}]}