{"type":"FeatureCollection","features":[{"type":"Feature","geometry":null,"properties":{"source":"ua_mod","source_name":"Ministry of Defence of Ukraine","group":"official_ua","id":16007,"posted_utc":"2026-08-10T12:20:52+00:00","link":"https://t.me/ministry_of_defense_ua/16007","text":"✅ 5 мільйонів кадрів із поля бою доступні для тренування українського оборонного ШІ.\nМіноборони відкрило українським компаніям доступ до Avengers Labs — платформи для навчання штучного інтелекту на реальних бойових даних.\nОсновою платформи є анотований датасет із мільйонів кадрів, знятих дронами. На цих кадрах вже навчено систему автоматичного виявлення цілей у DELTA. Щомісяця вона аналізує понад 100 000 відеострімів із безпілотників та в реальному часі визначає 70% ворожих цілей.\nДоступ до Avengers Labs допоможе українським виробникам швидше розвивати автономні безпілотні системи.\n🔗 Заявки на долучення до платформи приймаються на сайті ai-labs.mod.gov.ua","links":["https://mod.gov.ua/news/ukrainski-oboronni-kompanii-trenuvatymut-vlasnyi-shi-na-platformi-avengers-labs","http://ai-labs.mod.gov.ua/"],"original_html":"<b><i class=\"emoji\" style=\"background-image:url('//telegram.org/img/emoji/40/E29C85.png')\"><b>✅</b></i> 5 мільйонів кадрів із поля бою доступні для тренування українського оборонного ШІ.</b><br/><br/>Міноборони <a href=\"https://mod.gov.ua/news/ukrainski-oboronni-kompanii-trenuvatymut-vlasnyi-shi-na-platformi-avengers-labs\" target=\"_blank\" rel=\"noopener\" onclick=\"return confirm('Open this link?\\n\\n'+this.href);\">відкрило українським компаніям</a> доступ до Avengers Labs — платформи для навчання штучного інтелекту на реальних бойових даних.<br/><br/>Основою платформи є анотований датасет із мільйонів кадрів, знятих дронами. На цих кадрах вже навчено систему автоматичного виявлення цілей у DELTA. Щомісяця вона аналізує понад 100 000 відеострімів із безпілотників та в реальному часі визначає 70% ворожих цілей.<br/><br/>Доступ до Avengers Labs допоможе українським виробникам швидше розвивати автономні безпілотні системи.<br/><br/><i class=\"emoji\" style=\"background-image:url('//telegram.org/img/emoji/40/F09F9497.png')\"><b>🔗</b></i> <i>Заявки на долучення до платформи приймаються на сайті</i> <a href=\"http://ai-labs.mod.gov.ua/\" target=\"_blank\" rel=\"noopener\">ai-labs.mod.gov.ua</a>"}},{"type":"Feature","geometry":null,"properties":{"source":"ua_mod","source_name":"Ministry of Defence of Ukraine","group":"official_ua","id":16008,"posted_utc":"2026-08-10T13:55:58+00:00","link":"https://t.me/ministry_of_defense_ua/16008","text":"💥 Мости, нафтобази, кораблі, ППО, літовища та пункти управління БПЛА – у липні Сили оборони України продовжили системне нищення військової інфраструктури у ворожому тилу.\nЗокрема, минулого місяця дрони middle strike уразили:\n• 14 мостів і переправ;\n• 9 об’єктів ППО та РЕБ;\n• понад 10 пунктів управління БпЛА;\n• щонайменше 7 літаків на аеродромі «Саки»;\n• десятки складів боєприпасів, нафтотермінали, нафтобази та паливний ешелон;\n• сторожовий корабель, катери та місця базування флоту.\n🔗 Докладно про знищені та уражені цілі","links":["https://mod.gov.ua/news/urazheno-lohistychni-shliakhy-ppo-ta-bazy-bezpilotnykiv-rf-pidsumky-middle-strike-u-lypni?utm_source=mod-telegram&utm_medium=social"],"original_html":"<b><i class=\"emoji\" style=\"background-image:url('//telegram.org/img/emoji/40/F09F92A5.png')\"><b>💥</b></i></b> <b>Мости, нафтобази, кораблі, ППО, літовища та пункти управління БПЛА – у липні Сили оборони України продовжили системне нищення військової інфраструктури у ворожому тилу.<br/></b> <br/>Зокрема, минулого місяця дрони middle strike уразили:<br/> <br/>• 14 мостів і переправ;<br/>• 9 об’єктів ППО та РЕБ;<br/>• понад 10 пунктів управління БпЛА;<br/>• щонайменше 7 літаків на аеродромі «Саки»;<br/>• десятки складів боєприпасів, нафтотермінали, нафтобази та паливний ешелон;<br/>• сторожовий корабель, катери та місця базування флоту.<br/> <br/><i class=\"emoji\" style=\"background-image:url('//telegram.org/img/emoji/40/F09F9497.png')\"><b>🔗</b></i> <a href=\"https://mod.gov.ua/news/urazheno-lohistychni-shliakhy-ppo-ta-bazy-bezpilotnykiv-rf-pidsumky-middle-strike-u-lypni?utm_source=mod-telegram&amp;amp;utm_medium=social\" target=\"_blank\" rel=\"noopener\" onclick=\"return confirm('Open this link?\\n\\n'+this.href);\"><b>Докладно про знищені та уражені цілі</b></a>"}},{"type":"Feature","geometry":null,"properties":{"source":"ua_mod","source_name":"Ministry of Defence of Ukraine","group":"official_ua","id":16009,"posted_utc":"2026-08-10T14:54:51+00:00","link":"https://t.me/ministry_of_defense_ua/16009","text":"🇺🇦  Понад 500 000 військовослужбовців можуть тепер користуватися електронним військово-обліковим документом в Армія+. І це лише за три тижні після запуску нової функції.\nеВОД дає змогу підтвердити статус військовослужбовця просто зі смартфона, без паперового військового квитка чи посвідчення офіцера: у частині, під час взаємодії з ТЦК, ВСП, поліцією, а також у державних органах та установах.\nОкремо подавати заяву чи рапорт не потрібно – документ формується автоматично.\nНаразі він доступний військовослужбовцям ЗСУ та ДССТ, чиї частини працюють із системою обліку «Імпульс» і передають актуальні дані до Реєстру військовослужбовців.\nЯкщо еВОД у вас в Армія+ не з’явився, варто перевірити свої облікові дані через безпосереднього командира та службу персоналу військової частини.","links":["https://mod.gov.ua/news/piv-miljona-vijskovosluzhbovcziv-uzhe-mayut-vijskovo-oblikovij-dokument-v-armiya?utm_source=mod-telegram&utm_medium=social"],"original_html":"<b><tg-emoji emoji-id=\"5233438162939815111\"><i class=\"emoji\" style=\"background-image:url('//telegram.org/img/emoji/40/F09F87BAF09F87A6.png')\"><b>🇺🇦</b></i></tg-emoji></b><b> </b> <b>Понад 500 000 військовослужбовців можуть</b> <b>тепер користуватися електронним військово-обліковим документом в Армія+. І це лише за три тижні </b><a href=\"https://mod.gov.ua/news/piv-miljona-vijskovosluzhbovcziv-uzhe-mayut-vijskovo-oblikovij-dokument-v-armiya?utm_source=mod-telegram&amp;amp;utm_medium=social\" target=\"_blank\" rel=\"noopener\" onclick=\"return confirm('Open this link?\\n\\n'+this.href);\"><b>після запуску нової функції</b></a><b>.<br/></b><br/>еВОД дає змогу підтвердити статус військовослужбовця просто зі смартфона, без паперового військового квитка чи посвідчення офіцера: у частині, під час взаємодії з ТЦК, ВСП, поліцією, а також у державних органах та установах.<br/><br/>Окремо подавати заяву чи рапорт не потрібно – документ формується автоматично.<br/><br/>Наразі він доступний військовослужбовцям ЗСУ та ДССТ, чиї частини працюють із системою обліку «Імпульс» і передають актуальні дані до Реєстру військовослужбовців.<br/><br/>Якщо еВОД у вас в Армія+ не з’явився, варто перевірити свої облікові дані через безпосереднього командира та службу персоналу військової частини."}},{"type":"Feature","geometry":null,"properties":{"source":"ua_mod","source_name":"Ministry of Defence of Ukraine","group":"official_ua","id":16010,"posted_utc":"2026-08-10T15:47:51+00:00","link":"https://t.me/ministry_of_defense_ua/16010","text":"❗Євгеній Хмара:\nПровів важливі розмови з Міністром оборони Швеції Полом Йонсоном та Міністром оборони Норвегії Торе Сандвіком.\nПоділивcя з колегами висновками після робочої поїздки до бойових підрозділів. Є конкретні потреби від воїнів. Розраховуємо на оперативну підтримку партнерів у фінансуванні дронів, зокрема розвідувальних та middle strike.\nІнший терміновий пріоритет – протидія балістиці, крилатим ракетам і реактивним «шахедам». Для цього Україні вже зараз потрібні ракети-перехоплювачі та засоби для асиметричних дій.\nОкрім термінових потреб, говорили про довгострокові проєкти. Зокрема – про розвиток нашого європейського антибалістичного проєкту, FREYJA, де розраховуємо на підтримку Швеції та Норвегії і надалі.\nОкремо з кожним із партнерів обговорили напрями нашої співпраці. Зі шведським колегою – кроки до кінця літа та подальший розвиток авіаційних спроможностей. Подякував Швеції за співлідерство в Коаліції РЕБ, підтримку щодо Gripen та іншу допомогу.\nЗ норвезьким колегою зосередились на спільних проєктах у сфері оборонної промисловості та посилення ППО через різні механізми підтримки. Норвегія – один із найбільших партнерів України. Вдячний за сильні внески в нашу обороноздатність.\nЗі свого боку наголосив колегам: Україна налаштована будувати довгострокове і взаємовигідне партнерство. Наш унікальний досвід сучасної війни та рішення, перевірені на полі бою, будуть посилювати і наших партнерів.","links":[],"original_html":"<b><i class=\"emoji\" style=\"background-image:url('//telegram.org/img/emoji/40/E29D97.png')\"><b>❗</b></i>Євгеній Хмара:<br/></b><br/>Провів важливі розмови з Міністром оборони Швеції Полом Йонсоном та Міністром оборони Норвегії Торе Сандвіком.<br/><br/>Поділивcя з колегами висновками після робочої поїздки до бойових підрозділів. Є конкретні потреби від воїнів. Розраховуємо на оперативну підтримку партнерів у фінансуванні дронів, зокрема розвідувальних та middle strike.<br/><br/>Інший терміновий пріоритет – протидія балістиці, крилатим ракетам і реактивним «шахедам». Для цього Україні вже зараз потрібні ракети-перехоплювачі та засоби для асиметричних дій. <br/><br/>Окрім термінових потреб, говорили про довгострокові проєкти. Зокрема – про розвиток нашого європейського антибалістичного проєкту, FREYJA, де розраховуємо на підтримку Швеції та Норвегії і надалі. <br/><br/>Окремо з кожним із партнерів обговорили напрями нашої співпраці. Зі шведським колегою – кроки до кінця літа та подальший розвиток авіаційних спроможностей. Подякував Швеції за співлідерство в Коаліції РЕБ, підтримку щодо Gripen та іншу допомогу.<br/><br/>З норвезьким колегою зосередились на спільних проєктах у сфері оборонної промисловості та посилення ППО через різні механізми підтримки. Норвегія – один із найбільших партнерів України. Вдячний за сильні внески в нашу обороноздатність.<br/><br/>Зі свого боку наголосив колегам: Україна налаштована будувати довгострокове і взаємовигідне партнерство. Наш унікальний досвід сучасної війни та рішення, перевірені на полі бою, будуть посилювати і наших партнерів."}}]}