{"type":"FeatureCollection","features":[{"type":"Feature","geometry":{"type":"MultiPolygon","coordinates":[[[[37.8623,48.82018],[37.85766,48.81964],[37.85788,48.82817],[37.86745,48.828],[37.87054,48.83221],[37.87144,48.83631],[37.87092,48.83868],[37.87426,48.84311],[37.87971,48.83922],[37.88297,48.8273],[37.86692,48.82334],[37.86701,48.82142],[37.8623,48.82018]]],[[[37.80855,48.68064],[37.79708,48.67849],[37.79571,48.67999],[37.79622,48.68852],[37.78648,48.68926],[37.78674,48.69113],[37.79498,48.69059],[37.79742,48.69308],[37.80359,48.69373],[37.80552,48.70163],[37.80995,48.70871],[37.82132,48.70251],[37.81193,48.68876],[37.80845,48.68638],[37.80824,48.68261],[37.80855,48.68064]]],[[[37.7841,48.58913],[37.78326,48.59449],[37.78628,48.5948],[37.79331,48.59676],[37.79294,48.60063],[37.80156,48.60136],[37.8022,48.59802],[37.81368,48.59853],[37.81383,48.59718],[37.81308,48.59699],[37.81327,48.59569],[37.813,48.59493],[37.80902,48.59448],[37.8095,48.59259],[37.80899,48.59168],[37.7841,48.58913]]],[[[37.5914,50.25094],[37.59706,50.24594],[37.60908,50.24051],[37.6264,50.23882],[37.61362,50.21913],[37.59715,50.2214],[37.5956,50.22415],[37.59534,50.22799],[37.58745,50.22986],[37.58796,50.23172],[37.592,50.23238],[37.59268,50.23771],[37.58667,50.24237],[37.58667,50.25061],[37.5914,50.25094]]],[[[37.19012,48.36986],[37.19061,48.37121],[37.19304,48.37409],[37.20038,48.37213],[37.20495,48.38062],[37.23192,48.38147],[37.23198,48.38008],[37.22585,48.37623],[37.22074,48.37586],[37.22005,48.36811],[37.20752,48.36623],[37.2029,48.3693],[37.19896,48.3689],[37.19488,48.36505],[37.19012,48.36986]]],[[[37.16181,48.34473],[37.16073,48.35098],[37.18421,48.353],[37.18552,48.34683],[37.16181,48.34473]]],[[[36.15456,47.65097],[36.1586,47.65375],[36.17265,47.64516],[36.17598,47.64499],[36.18471,47.63477],[36.19587,47.63743],[36.19579,47.63372],[36.18659,47.63021],[36.18174,47.63441],[36.17405,47.63157],[36.1631,47.64173],[36.15456,47.65097]]]]},"properties":{"source":"ukrdaily","source_name":"UkrDailyUpdate","source_url":"https://map.ukrdailyupdate.com/","category":"gained","category_label":"Newly Russian-occupied","period":"7d","compared_with":"2026-07-25","snapshot_time":"2026-08-01","area_km2_approx":18.9}}]}