{"type":"FeatureCollection","features":[{"type":"Feature","geometry":{"type":"Point","coordinates":[36.103081,47.502161]},"properties":{"original":{"Date":"2026-09-19","Name":"19 SEP 2026","Faction":"Neutral","Origin":"UAV","Latitude":"47.502161","Longitude":"36.103081","PlusCode":"8GVRG423+V6 Ukrains'ke, Zaporizhia Oblast, Ukraine","Description":"0:00-0:20 - 7th corps films destruction of a  bridge in Ukrains’ke","Source":"https://x.com/PuenteUribarri/status/2101944130729373701, https://t.me/corps7DSHV/1802","Geolocation":"https://x.com/jimmhelloman555/status/2102137081799622972","Equipment":"","EquipmentItems":"Airstrike","Units":"","OrbatUnits":"7th Rapid Response Corps","Id":"4b97e1e8-d7f6-4681-93c0-157d6c190989","icon":"/api/icons/AC7339/False/template/12.png"},"source":"geoconfirmed","source_name":"GeoConfirmed","source_url":"https://geoconfirmed.org/map/ukraine","id":"4b97e1e8-d7f6-4681-93c0-157d6c190989","date":"2026-09-19","link":"https://geoconfirmed.org/map/ukraine/4b97e1e8-d7f6-4681-93c0-157d6c190989","category":"Recently destroyed/Damaged brigde[Visible in footage] - if colour is used of a fighting faction = pontoon or similar bridge","side":"Neutral","color":"#AC7339","description":"0:00-0:20 - 7th corps films destruction of a  bridge in Ukrains’ke","orbat":["7th Rapid Response Corps"],"geolocation":["https://x.com/jimmhelloman555/status/2102137081799622972"],"sources":["https://x.com/PuenteUribarri/status/2101944130729373701","https://t.me/corps7DSHV/1802"]}},{"type":"Feature","geometry":{"type":"Point","coordinates":[36.186645,47.495393]},"properties":{"original":{"Date":"2026-09-19","Name":"19 SEP 2026","Faction":"Neutral","Origin":"UAV","Latitude":"47.495393","Longitude":"36.186645","PlusCode":"8GVRF5WP+5M Polohy, Zaporizhia Oblast, Ukraine","Description":"0:35-end - 7th corps films destruction of a  bridge in Polohy","Source":"https://x.com/PuenteUribarri/status/2101944130729373701, https://t.me/corps7DSHV/1802","Geolocation":"https://x.com/jimmhelloman555/status/2102138369496973408","Equipment":"","EquipmentItems":"Airstrike","Units":"","OrbatUnits":"7th Rapid Response Corps","Id":"24b9ccb7-9336-4cea-91b5-1620919bca59","icon":"/api/icons/AC7339/False/template/12.png"},"source":"geoconfirmed","source_name":"GeoConfirmed","source_url":"https://geoconfirmed.org/map/ukraine","id":"24b9ccb7-9336-4cea-91b5-1620919bca59","date":"2026-09-19","link":"https://geoconfirmed.org/map/ukraine/24b9ccb7-9336-4cea-91b5-1620919bca59","category":"Recently destroyed/Damaged brigde[Visible in footage] - if colour is used of a fighting faction = pontoon or similar bridge","side":"Neutral","color":"#AC7339","description":"0:35-end - 7th corps films destruction of a  bridge in Polohy","orbat":["7th Rapid Response Corps"],"geolocation":["https://x.com/jimmhelloman555/status/2102138369496973408"],"sources":["https://x.com/PuenteUribarri/status/2101944130729373701","https://t.me/corps7DSHV/1802"]}},{"type":"Feature","geometry":{"type":"Point","coordinates":[37.771753,48.438165]},"properties":{"original":{"Date":"2026-09-19","Name":"19 SEP 2026","Faction":"Ukraine","Origin":"UAV","Latitude":"48.438165","Longitude":"37.771753","PlusCode":"8GWVCQQC+7P Kleban-Byk, Donetsk Oblast, Ukraine","Description":"0:14-0:20 -100th brigade attacks 2 Russians with an FPV","Source":"https://x.com/PuenteUribarri/status/2101317131690246472, https://t.me/Volyn100obrTrO/4039","Geolocation":"https://x.com/jimmhelloman555/status/2101440366339592309","Equipment":"","EquipmentItems":"FPV (First Person View) OWAD (One Way Attack Drone)","Units":"","OrbatUnits":"100th Mechanized Brigade","Id":"8bc2722b-b91b-4d7a-85c3-1b0c6a02521a","icon":"/api/icons/0051CA/False/template/111.png"},"source":"geoconfirmed","source_name":"GeoConfirmed","source_url":"https://geoconfirmed.org/map/ukraine","id":"8bc2722b-b91b-4d7a-85c3-1b0c6a02521a","date":"2026-09-19","link":"https://geoconfirmed.org/map/ukraine/8bc2722b-b91b-4d7a-85c3-1b0c6a02521a","category":"Short Range (<50km) OWAD (One Way Attack Drone), mostly rotary wing, Flying OR Attacking a target without knowing the outcome: if something is damaged --> icon of the damaged equipment.","side":"Ukraine","color":"#0051CA","description":"0:14-0:20 -100th brigade attacks 2 Russians with an FPV","orbat":["100th Mechanized Brigade"],"geolocation":["https://x.com/jimmhelloman555/status/2101440366339592309"],"sources":["https://x.com/PuenteUribarri/status/2101317131690246472","https://t.me/Volyn100obrTrO/4039"]}},{"type":"Feature","geometry":{"type":"Point","coordinates":[37.151643,48.481059]},"properties":{"original":{"Date":"2026-09-19","Name":"19 SEP 2026","Faction":"Ukraine","Origin":"UAV","Latitude":"48.481059","Longitude":"37.151643","PlusCode":"8GWVF5J2+CM Hannivka, Donetsk Oblast, Ukraine","Description":"0:17 - 1st Separate Detachment of the Special Purpose Center \"Omega\" drops explosives on two adjacent dachas east of Dobropillia, Donetsk Oblast (area grid)","Source":"https://x.com/Bielitzling/status/2101345981316936064, https://www.instagram.com/p/DdeSQx4Mpxj/","Geolocation":"https://x.com/Bielitzling/status/2101345976963194970","Equipment":"","EquipmentItems":"(Multi-Purpose) Bomber UAV","Units":"","OrbatUnits":"1st Special Purpose Detachment \"Omega 1\"","Id":"06952b22-736a-40f0-867b-1b8b519aa76b","icon":"/api/icons/0051CA/False/template/110.png"},"source":"geoconfirmed","source_name":"GeoConfirmed","source_url":"https://geoconfirmed.org/map/ukraine","id":"06952b22-736a-40f0-867b-1b8b519aa76b","date":"2026-09-19","link":"https://geoconfirmed.org/map/ukraine/06952b22-736a-40f0-867b-1b8b519aa76b","category":"Multipurpose Bomber Drone, Flying OR Dropping OR bombing a target without knowing the outcome: if something is damaged --> icon of the damaged equipment.","side":"Ukraine","color":"#0051CA","description":"0:17 - 1st Separate Detachment of the Special Purpose Center \"Omega\" drops explosives on two adjacent dachas east of Dobropillia, Donetsk Oblast (area grid)","orbat":["1st Special Purpose Detachment \"Omega 1\""],"geolocation":["https://x.com/Bielitzling/status/2101345976963194970"],"sources":["https://x.com/Bielitzling/status/2101345981316936064","https://www.instagram.com/p/DdeSQx4Mpxj/"]}},{"type":"Feature","geometry":{"type":"Point","coordinates":[37.307091,48.380213]},"properties":{"original":{"Date":"2026-09-19","Name":"19 SEP 2026","Faction":"Ukraine","Origin":"UAV","Latitude":"48.380213","Longitude":"37.307091","PlusCode":"8GWV98J4+3R Fedorivka, Donetsk Oblast, Ukraine","Description":"0:25-0:27 - Drone targeting a Russian vehicle","Source":"https://x.com/PuenteUribarri/status/2101239149948780692, https://t.me/Lubart_Brigade/1602","Geolocation":"https://x.com/Kukulkan415/status/2101315337081786408","Equipment":"","EquipmentItems":"Fixed Wing OWAD (One Way Attack Drone)","Units":"","OrbatUnits":"20th Operational Brigade \"LYUBART\"","Id":"b867eab2-2447-46f4-8c7b-1d79b5277ffe","icon":"/api/icons/0051CA/False/template/111.png"},"source":"geoconfirmed","source_name":"GeoConfirmed","source_url":"https://geoconfirmed.org/map/ukraine","id":"b867eab2-2447-46f4-8c7b-1d79b5277ffe","date":"2026-09-19","link":"https://geoconfirmed.org/map/ukraine/b867eab2-2447-46f4-8c7b-1d79b5277ffe","category":"Short Range (<50km) OWAD (One Way Attack Drone), mostly rotary wing, Flying OR Attacking a target without knowing the outcome: if something is damaged --> icon of the damaged equipment.","side":"Ukraine","color":"#0051CA","description":"0:25-0:27 - Drone targeting a Russian vehicle","orbat":["20th Operational Brigade \"LYUBART\""],"geolocation":["https://x.com/Kukulkan415/status/2101315337081786408"],"sources":["https://x.com/PuenteUribarri/status/2101239149948780692","https://t.me/Lubart_Brigade/1602"]}},{"type":"Feature","geometry":{"type":"Point","coordinates":[37.440447,48.246924]},"properties":{"original":{"Date":"2026-09-19","Name":"19 SEP 2026","Faction":"Ukraine","Origin":"UAV","Latitude":"48.246924","Longitude":"37.440447","PlusCode":"8GWV6CWR+Q5 Vesele, Donetsk Oblast, Ukraine","Description":"0:29-0:30 - Drone targeting a Russian vehicle","Source":"https://x.com/PuenteUribarri/status/2101239149948780692, https://t.me/Lubart_Brigade/1602","Geolocation":"https://x.com/Kukulkan415/status/2101322260598428029","Equipment":"","EquipmentItems":"Fixed Wing OWAD (One Way Attack Drone)","Units":"","OrbatUnits":"20th Operational Brigade \"LYUBART\"","Id":"b062b36b-2892-4def-a94d-3cdeb6a28c02","icon":"/api/icons/0051CA/False/template/111.png"},"source":"geoconfirmed","source_name":"GeoConfirmed","source_url":"https://geoconfirmed.org/map/ukraine","id":"b062b36b-2892-4def-a94d-3cdeb6a28c02","date":"2026-09-19","link":"https://geoconfirmed.org/map/ukraine/b062b36b-2892-4def-a94d-3cdeb6a28c02","category":"Short Range (<50km) OWAD (One Way Attack Drone), mostly rotary wing, Flying OR Attacking a target without knowing the outcome: if something is damaged --> icon of the damaged equipment.","side":"Ukraine","color":"#0051CA","description":"0:29-0:30 - Drone targeting a Russian vehicle","orbat":["20th Operational Brigade \"LYUBART\""],"geolocation":["https://x.com/Kukulkan415/status/2101322260598428029"],"sources":["https://x.com/PuenteUribarri/status/2101239149948780692","https://t.me/Lubart_Brigade/1602"]}},{"type":"Feature","geometry":{"type":"Point","coordinates":[35.06535,48.42906]},"properties":{"original":{"Date":"2026-09-19","Name":"19 SEP 2026","Faction":"Neutral","Origin":"VID","Latitude":"48.42906","Longitude":"35.06535","PlusCode":"8GWQC3H8+J4 Dnipro, Dnipropetrovsk Oblast, Ukraine","Description":"Fire at the Novyi Kontynent shopping mall in Dnipro, Ukraine following a reported Russian strike.","Source":"Vid1, (1/2), https://x.com/Maks_NAFO_FELLA/status/2101328116719272230, Vid2, (2/2), https://x.com/Maks_NAFO_FELLA/status/2101328116719272230, https://t.me/dneproperatyv/180291, Vid3, https://x.com/hopeforukraine/status/2101522105556721794, , More information, https://www.ukrinform.net/rubric-ato/4165809-russian-forces-strike-shopping-center-in-dnipro.html","Geolocation":"https://x.com/zarGEOINT/status/2101333095869722874, https://x.com/ne_kotletka/status/2101329229136740708","Equipment":"","EquipmentItems":"","Units":"","OrbatUnits":"","Id":"066a1ad4-8f90-4ad3-9c2a-3cdf6970c6ab","icon":"/api/icons/AC7339/False/template/192.png"},"source":"geoconfirmed","source_name":"GeoConfirmed","source_url":"https://geoconfirmed.org/map/ukraine","id":"066a1ad4-8f90-4ad3-9c2a-3cdf6970c6ab","date":"2026-09-19","link":"https://geoconfirmed.org/map/ukraine/066a1ad4-8f90-4ad3-9c2a-3cdf6970c6ab","category":"Recently destroyed/Damaged[Visible in footage] or still burning infrastucture","side":"Neutral","color":"#AC7339","description":"Fire at the Novyi Kontynent shopping mall in Dnipro, Ukraine following a reported Russian strike.","orbat":[],"geolocation":["https://x.com/zarGEOINT/status/2101333095869722874","https://x.com/ne_kotletka/status/2101329229136740708"],"sources":["https://x.com/Maks_NAFO_FELLA/status/2101328116719272230","https://x.com/Maks_NAFO_FELLA/status/2101328116719272230","https://t.me/dneproperatyv/180291","https://x.com/hopeforukraine/status/2101522105556721794","https://www.ukrinform.net/rubric-ato/4165809-russian-forces-strike-shopping-center-in-dnipro.html"]}},{"type":"Feature","geometry":{"type":"Point","coordinates":[36.153107,47.495558]},"properties":{"original":{"Date":"2026-09-19","Name":"19 SEP 2026","Faction":"Neutral","Origin":"UAV","Latitude":"47.495558","Longitude":"36.153107","PlusCode":"8GVRF5W3+66 Inzhenerne, Zaporizhia Oblast, Ukraine","Description":"0:20-0:30 - 7th corps films destruction of a  bridge","Source":"https://x.com/PuenteUribarri/status/2101944130729373701, https://t.me/corps7DSHV/1802","Geolocation":"https://x.com/jimmhelloman555/status/2102138105801113883","Equipment":"","EquipmentItems":"Airstrike","Units":"","OrbatUnits":"7th Rapid Response Corps","Id":"30758ed2-bf69-42ac-ad20-5cd2b723b0e3","icon":"/api/icons/AC7339/False/template/12.png"},"source":"geoconfirmed","source_name":"GeoConfirmed","source_url":"https://geoconfirmed.org/map/ukraine","id":"30758ed2-bf69-42ac-ad20-5cd2b723b0e3","date":"2026-09-19","link":"https://geoconfirmed.org/map/ukraine/30758ed2-bf69-42ac-ad20-5cd2b723b0e3","category":"Recently destroyed/Damaged brigde[Visible in footage] - if colour is used of a fighting faction = pontoon or similar bridge","side":"Neutral","color":"#AC7339","description":"0:20-0:30 - 7th corps films destruction of a  bridge","orbat":["7th Rapid Response Corps"],"geolocation":["https://x.com/jimmhelloman555/status/2102138105801113883"],"sources":["https://x.com/PuenteUribarri/status/2101944130729373701","https://t.me/corps7DSHV/1802"]}},{"type":"Feature","geometry":{"type":"Point","coordinates":[36.12982,47.498554]},"properties":{"original":{"Date":"2026-09-19","Name":"19 SEP 2026","Faction":"Neutral","Origin":"UAV","Latitude":"47.498554","Longitude":"36.12982","PlusCode":"8GVRF4XH+CW Inzhenerne, Zaporizhia Oblast, Ukraine","Description":"0:20-0:30 - 7th corps films destruction of a  bridge","Source":"https://x.com/PuenteUribarri/status/2101944130729373701, https://t.me/corps7DSHV/1802","Geolocation":"https://x.com/jimmhelloman555/status/2102138105801113883","Equipment":"","EquipmentItems":"Airstrike","Units":"","OrbatUnits":"7th Rapid Response Corps","Id":"45908c0c-f4f9-4bf6-a54c-5f9ab2fb0bdb","icon":"/api/icons/AC7339/False/template/12.png"},"source":"geoconfirmed","source_name":"GeoConfirmed","source_url":"https://geoconfirmed.org/map/ukraine","id":"45908c0c-f4f9-4bf6-a54c-5f9ab2fb0bdb","date":"2026-09-19","link":"https://geoconfirmed.org/map/ukraine/45908c0c-f4f9-4bf6-a54c-5f9ab2fb0bdb","category":"Recently destroyed/Damaged brigde[Visible in footage] - if colour is used of a fighting faction = pontoon or similar bridge","side":"Neutral","color":"#AC7339","description":"0:20-0:30 - 7th corps films destruction of a  bridge","orbat":["7th Rapid Response Corps"],"geolocation":["https://x.com/jimmhelloman555/status/2102138105801113883"],"sources":["https://x.com/PuenteUribarri/status/2101944130729373701","https://t.me/corps7DSHV/1802"]}},{"type":"Feature","geometry":{"type":"Point","coordinates":[37.802079,48.972792]},"properties":{"original":{"Date":"2026-09-19","Name":"19 SEP 2026","Faction":"Russia","Origin":"UAV","Latitude":"48.972792","Longitude":"37.802079","PlusCode":"8GWVXRF2+4R Lyman, Donetsk Oblast, Ukraine","Description":"0:15-0:20 - Rail welding train No. 6 of the Donetsk Railway (Liman) targeted by Russian drone.","Source":"https://x.com/Zeldamices/status/2101896369602519532, https://t.me/Secrets_of_Vinakos/17537, ","Geolocation":"https://x.com/aroslav24470/status/2101380858410058206","Equipment":"","EquipmentItems":"","Units":"","OrbatUnits":"","Id":"407811fc-f5bc-4cc8-9107-6542ebe1222c","icon":"/api/icons/E00000/False/template/181.png"},"source":"geoconfirmed","source_name":"GeoConfirmed","source_url":"https://geoconfirmed.org/map/ukraine","id":"407811fc-f5bc-4cc8-9107-6542ebe1222c","date":"2026-09-19","link":"https://geoconfirmed.org/map/ukraine/407811fc-f5bc-4cc8-9107-6542ebe1222c","category":"Longe Range (>50km) OWAD (One Way Attack Drone) or Loitering munition, mostly fixed wing, Flying OR Attacking a target without knowing the outcome: if something is damaged --> icon of the damaged equipment.","side":"Russia","color":"#E00000","description":"0:15-0:20 - Rail welding train No. 6 of the Donetsk Railway (Liman) targeted by Russian drone.","orbat":[],"geolocation":["https://x.com/aroslav24470/status/2101380858410058206"],"sources":["https://x.com/Zeldamices/status/2101896369602519532","https://t.me/Secrets_of_Vinakos/17537"]}},{"type":"Feature","geometry":{"type":"Point","coordinates":[36.78007,46.90509]},"properties":{"original":{"Date":"2026-09-19","Name":"19 SEP 2026","Faction":"Unknown","Origin":"VID","Latitude":"46.90509","Longitude":"36.78007","PlusCode":"8GRRWQ4J+22 Osypenko, Zaporizhia Oblast, Ukraine","Description":"A burning Russian truck, likely hit by a Ukrainian drone (rough location)","Source":"https://x.com/Exilenova_plus/status/2101410881850470431","Geolocation":"https://x.com/blinzka/status/2101434921269043497, https://x.com/jembobineuse/status/2101437089090859510","Equipment":"UNK;, ","EquipmentItems":"Truck","Units":"","OrbatUnits":"","Id":"194d4db0-6a90-4823-b471-7ba951876fb0","icon":"/api/icons/666666/False/template/63.png"},"source":"geoconfirmed","source_name":"GeoConfirmed","source_url":"https://geoconfirmed.org/map/ukraine","id":"194d4db0-6a90-4823-b471-7ba951876fb0","date":"2026-09-19","link":"https://geoconfirmed.org/map/ukraine/194d4db0-6a90-4823-b471-7ba951876fb0","category":"Older Destroyed/Damaged Logistical Trucks (Soft skin OR armoured)","side":"Unknown","color":"#666666","description":"A burning Russian truck, likely hit by a Ukrainian drone (rough location)","orbat":[],"geolocation":["https://x.com/blinzka/status/2101434921269043497","https://x.com/jembobineuse/status/2101437089090859510"],"sources":["https://x.com/Exilenova_plus/status/2101410881850470431"]}},{"type":"Feature","geometry":{"type":"Point","coordinates":[38.275252,48.433533]},"properties":{"original":{"Date":"2026-09-19","Name":"19 SEP 2026","Faction":"Ukraine","Origin":"UAV","Latitude":"48.433533","Longitude":"38.275252","PlusCode":"8GWWC7MG+C4 Luhans'ke, Donetsk Oblast, Ukraine","Description":"1:18-1:20 - Pomsta brigade Feniks unit harasses Russian block post with drone strike","Source":"https://x.com/moklasen/status/2101425356787880336, https://www.youtube.com/watch?v=jyx-2I6I40Y","Geolocation":"https://x.com/neonhandrail/status/2101663952619118617","Equipment":"","EquipmentItems":"Fixed Wing OWAD (One Way Attack Drone)","Units":"","OrbatUnits":"Unmanned Systems Regiment \"Phoenix\" / \"Фенікс\"","Id":"3457ba5a-9120-471d-a87b-8085df1112e4","icon":"/api/icons/0051CA/False/template/111.png"},"source":"geoconfirmed","source_name":"GeoConfirmed","source_url":"https://geoconfirmed.org/map/ukraine","id":"3457ba5a-9120-471d-a87b-8085df1112e4","date":"2026-09-19","link":"https://geoconfirmed.org/map/ukraine/3457ba5a-9120-471d-a87b-8085df1112e4","category":"Short Range (<50km) OWAD (One Way Attack Drone), mostly rotary wing, Flying OR Attacking a target without knowing the outcome: if something is damaged --> icon of the damaged equipment.","side":"Ukraine","color":"#0051CA","description":"1:18-1:20 - Pomsta brigade Feniks unit harasses Russian block post with drone strike","orbat":["Unmanned Systems Regiment \"Phoenix\" / \"Фенікс\""],"geolocation":["https://x.com/neonhandrail/status/2101663952619118617"],"sources":["https://x.com/moklasen/status/2101425356787880336","https://www.youtube.com/watch?v=jyx-2I6I40Y"]}},{"type":"Feature","geometry":{"type":"Point","coordinates":[37.932198,48.60975]},"properties":{"original":{"Date":"2026-09-19","Name":"19 SEP 2026","Faction":"Ukraine","Origin":"UAV","Latitude":"48.60975","Longitude":"37.932198","PlusCode":"8GWVJW5J+VV Bakhmut, Donetsk Oblast, Ukraine","Description":"1:56 - Drone strike on an Ulan ","Source":"https://x.com/moklasen/status/2101425356787880336, https://www.youtube.com/watch?v=jyx-2I6I40Y","Geolocation":"https://x.com/moklasen/status/2101430820145631467","Equipment":"","EquipmentItems":"Fixed Wing OWAD (One Way Attack Drone) | Ulan-2","Units":"","OrbatUnits":"Unmanned Systems Regiment \"Phoenix\" / \"Фенікс\"","Id":"d6003ef5-39f1-4bfe-8bd9-826de6084dc6","icon":"/api/icons/0051CA/False/template/111.png"},"source":"geoconfirmed","source_name":"GeoConfirmed","source_url":"https://geoconfirmed.org/map/ukraine","id":"d6003ef5-39f1-4bfe-8bd9-826de6084dc6","date":"2026-09-19","link":"https://geoconfirmed.org/map/ukraine/d6003ef5-39f1-4bfe-8bd9-826de6084dc6","category":"Short Range (<50km) OWAD (One Way Attack Drone), mostly rotary wing, Flying OR Attacking a target without knowing the outcome: if something is damaged --> icon of the damaged equipment.","side":"Ukraine","color":"#0051CA","description":"1:56 - Drone strike on an Ulan","orbat":["Unmanned Systems Regiment \"Phoenix\" / \"Фенікс\""],"geolocation":["https://x.com/moklasen/status/2101430820145631467"],"sources":["https://x.com/moklasen/status/2101425356787880336","https://www.youtube.com/watch?v=jyx-2I6I40Y"]}},{"type":"Feature","geometry":{"type":"Point","coordinates":[37.326038,48.332379]},"properties":{"original":{"Date":"2026-09-19","Name":"19 SEP 2026","Faction":"Ukraine","Origin":"UAV","Latitude":"48.332379","Longitude":"37.326038","PlusCode":"8GWV88JG+XC Novoekonomichne, Donetsk Oblast, Ukraine","Description":"0:31-0:33 - Drone targeting a Russian truck towing an artillery piece","Source":"https://x.com/PuenteUribarri/status/2101239149948780692, https://t.me/Lubart_Brigade/1602","Geolocation":"https://x.com/Kukulkan415/status/2101327815945658733","Equipment":"","EquipmentItems":"Fixed Wing OWAD (One Way Attack Drone) | Truck","Units":"","OrbatUnits":"20th Operational Brigade \"LYUBART\"","Id":"9613a691-7aa4-42eb-998b-87dac2e87406","icon":"/api/icons/0051CA/False/template/111.png"},"source":"geoconfirmed","source_name":"GeoConfirmed","source_url":"https://geoconfirmed.org/map/ukraine","id":"9613a691-7aa4-42eb-998b-87dac2e87406","date":"2026-09-19","link":"https://geoconfirmed.org/map/ukraine/9613a691-7aa4-42eb-998b-87dac2e87406","category":"Short Range (<50km) OWAD (One Way Attack Drone), mostly rotary wing, Flying OR Attacking a target without knowing the outcome: if something is damaged --> icon of the damaged equipment.","side":"Ukraine","color":"#0051CA","description":"0:31-0:33 - Drone targeting a Russian truck towing an artillery piece","orbat":["20th Operational Brigade \"LYUBART\""],"geolocation":["https://x.com/Kukulkan415/status/2101327815945658733"],"sources":["https://x.com/PuenteUribarri/status/2101239149948780692","https://t.me/Lubart_Brigade/1602"]}},{"type":"Feature","geometry":{"type":"Point","coordinates":[37.302054,48.357808]},"properties":{"original":{"Date":"2026-09-19","Name":"19 SEP 2026","Faction":"Ukraine","Origin":"UAV","Latitude":"48.357808","Longitude":"37.302054","PlusCode":"8GWV9852+4R Novoekonomichne, Donetsk Oblast, Ukraine","Description":"0:11-0:15 - Drone targeting a Russian armoured vehicle, possibly a tank.","Source":"https://x.com/PuenteUribarri/status/2101239149948780692, https://t.me/Lubart_Brigade/1602","Geolocation":"https://x.com/Kukulkan415/status/2101343787121254497","Equipment":"","EquipmentItems":"Fixed Wing OWAD (One Way Attack Drone) | Truck","Units":"","OrbatUnits":"20th Operational Brigade \"LYUBART\"","Id":"fcf5d8c7-0ef8-475c-8fcd-8c222f077dc9","icon":"/api/icons/0051CA/False/template/111.png"},"source":"geoconfirmed","source_name":"GeoConfirmed","source_url":"https://geoconfirmed.org/map/ukraine","id":"fcf5d8c7-0ef8-475c-8fcd-8c222f077dc9","date":"2026-09-19","link":"https://geoconfirmed.org/map/ukraine/fcf5d8c7-0ef8-475c-8fcd-8c222f077dc9","category":"Short Range (<50km) OWAD (One Way Attack Drone), mostly rotary wing, Flying OR Attacking a target without knowing the outcome: if something is damaged --> icon of the damaged equipment.","side":"Ukraine","color":"#0051CA","description":"0:11-0:15 - Drone targeting a Russian armoured vehicle, possibly a tank.","orbat":["20th Operational Brigade \"LYUBART\""],"geolocation":["https://x.com/Kukulkan415/status/2101343787121254497"],"sources":["https://x.com/PuenteUribarri/status/2101239149948780692","https://t.me/Lubart_Brigade/1602"]}},{"type":"Feature","geometry":{"type":"Point","coordinates":[36.095981,47.500794]},"properties":{"original":{"Date":"2026-09-19","Name":"19 SEP 2026","Faction":"Neutral","Origin":"UAV","Latitude":"47.500794","Longitude":"36.095981","PlusCode":"8GVRG32W+89 Inzhenerne, Zaporizhia Oblast, Ukraine","Description":"Russian recon filming Ukrainian forces blowing up a presumably undermined bridge connecting Inzhenerne and Novokarlivka.","Source":"https://x.com/giK1893/status/2102160984378896478, https://t.me/burpobeda/20472, SAT, https://x.com/HpwWJVafCv83954/status/2101283506970386653, ","Geolocation":"https://x.com/giK1893/status/2102160987298189372, https://x.com/HpwWJVafCv83954/status/2101283506970386653","Equipment":"","EquipmentItems":"","Units":"","OrbatUnits":"","Id":"fdb6f209-781d-49ae-afe8-8f64dc45b2c2","icon":"/api/icons/AC7339/False/template/12.png"},"source":"geoconfirmed","source_name":"GeoConfirmed","source_url":"https://geoconfirmed.org/map/ukraine","id":"fdb6f209-781d-49ae-afe8-8f64dc45b2c2","date":"2026-09-19","link":"https://geoconfirmed.org/map/ukraine/fdb6f209-781d-49ae-afe8-8f64dc45b2c2","category":"Recently destroyed/Damaged brigde[Visible in footage] - if colour is used of a fighting faction = pontoon or similar bridge","side":"Neutral","color":"#AC7339","description":"Russian recon filming Ukrainian forces blowing up a presumably undermined bridge connecting Inzhenerne and Novokarlivka.","orbat":[],"geolocation":["https://x.com/giK1893/status/2102160987298189372","https://x.com/HpwWJVafCv83954/status/2101283506970386653"],"sources":["https://x.com/giK1893/status/2102160984378896478","https://t.me/burpobeda/20472","https://x.com/HpwWJVafCv83954/status/2101283506970386653"]}},{"type":"Feature","geometry":{"type":"Point","coordinates":[37.540983,48.256906]},"properties":{"original":{"Date":"2026-09-19","Name":"19 SEP 2026","Faction":"Ukraine","Origin":"UAV","Latitude":"48.256906","Longitude":"37.540983","PlusCode":"8GWV7G4R+Q9 Novooleksandrivka, Donetsk Oblast, Ukraine","Description":"0:39-0:42 - Drone targeting a Russian Vehicle and a group of soldiers.","Source":"https://x.com/PuenteUribarri/status/2101239149948780692, https://t.me/Lubart_Brigade/1602","Geolocation":"https://x.com/Kukulkan415/status/2101332774535721427","Equipment":"","EquipmentItems":"Fixed Wing OWAD (One Way Attack Drone) | Truck","Units":"","OrbatUnits":"20th Operational Brigade \"LYUBART\"","Id":"d2674b67-2308-4212-8993-9bc81ec61064","icon":"/api/icons/0051CA/False/template/111.png"},"source":"geoconfirmed","source_name":"GeoConfirmed","source_url":"https://geoconfirmed.org/map/ukraine","id":"d2674b67-2308-4212-8993-9bc81ec61064","date":"2026-09-19","link":"https://geoconfirmed.org/map/ukraine/d2674b67-2308-4212-8993-9bc81ec61064","category":"Short Range (<50km) OWAD (One Way Attack Drone), mostly rotary wing, Flying OR Attacking a target without knowing the outcome: if something is damaged --> icon of the damaged equipment.","side":"Ukraine","color":"#0051CA","description":"0:39-0:42 - Drone targeting a Russian Vehicle and a group of soldiers.","orbat":["20th Operational Brigade \"LYUBART\""],"geolocation":["https://x.com/Kukulkan415/status/2101332774535721427"],"sources":["https://x.com/PuenteUribarri/status/2101239149948780692","https://t.me/Lubart_Brigade/1602"]}},{"type":"Feature","geometry":{"type":"Point","coordinates":[37.13109,47.5163]},"properties":{"original":{"Date":"2026-09-19","Name":"19 SEP 2026","Faction":"Russia","Origin":"UAV","Latitude":"47.5163","Longitude":"37.13109","PlusCode":"8GVVG48J+GC Zachativka, Donetsk Oblast, Ukraine","Description":"A Russian Osa-AKM air defense system was damaged/destroyed by Hornet drone.","Source":"https://x.com/PuenteUribarri/status/2101327836606763181, https://t.me/spartan_ngu/3426, https://x.com/99Dominik_/status/2101315276650193187","Geolocation":"https://x.com/99Dominik_/status/2101314940359360705, https://x.com/MikiValbuena/status/2101360491591344609","Equipment":"Osa","EquipmentItems":"Hornet","Units":"","OrbatUnits":"3rd Operational Brigade \"Spartan\"","Id":"8fb13768-a539-490c-8986-a907fa7365bc","icon":"/api/icons/E00000/False/template/202.png"},"source":"geoconfirmed","source_name":"GeoConfirmed","source_url":"https://geoconfirmed.org/map/ukraine","id":"8fb13768-a539-490c-8986-a907fa7365bc","date":"2026-09-19","link":"https://geoconfirmed.org/map/ukraine/8fb13768-a539-490c-8986-a907fa7365bc","category":"Recently Destroyed/Damaged[Visible in footage] Anti-Air System (Tracked OR Wheeled)","side":"Russia","color":"#E00000","description":"A Russian Osa-AKM air defense system was damaged/destroyed by Hornet drone.","orbat":["3rd Operational Brigade \"Spartan\""],"geolocation":["https://x.com/99Dominik_/status/2101314940359360705","https://x.com/MikiValbuena/status/2101360491591344609"],"sources":["https://x.com/PuenteUribarri/status/2101327836606763181","https://t.me/spartan_ngu/3426","https://x.com/99Dominik_/status/2101315276650193187"]}},{"type":"Feature","geometry":{"type":"Point","coordinates":[37.74144,49.10802]},"properties":{"original":{"Date":"2026-09-19","Name":"19 SEP 2026","Faction":"Ukraine","Origin":"UAV","Latitude":"49.10802","Longitude":"37.74144","PlusCode":"8GXV4P5R+6H Shandryholove, Donetsk Oblast, Ukraine","Description":"0:21 - FPV strike on a crashed UA resupply UGV","Source":"https://x.com/moklasen/status/2101741134544265593, https://t.me/operationall_space/13276","Geolocation":"https://x.com/moklasen/status/2101741130735862172","Equipment":"","EquipmentItems":"Unmanned Ground Vehicle (UGV) | Fiber Optic (FO) FPV (First Person View) OWAD (One Way Attack Drone)","Units":"","OrbatUnits":"20th Guards Combined Arms Army","Id":"de353b7e-fe40-4a5d-a941-ad80a0e67fb4","icon":"/api/icons/0051CA/False/template/25508da3-5341-4843-b7e6-b955eaad7ce8.png"},"source":"geoconfirmed","source_name":"GeoConfirmed","source_url":"https://geoconfirmed.org/map/ukraine","id":"de353b7e-fe40-4a5d-a941-ad80a0e67fb4","date":"2026-09-19","link":"https://geoconfirmed.org/map/ukraine/de353b7e-fe40-4a5d-a941-ad80a0e67fb4","category":"Recently Destroyed/Damaged[Visible in footage] Multipurpose UGV","side":"Ukraine","color":"#0051CA","description":"0:21 - FPV strike on a crashed UA resupply UGV","orbat":["20th Guards Combined Arms Army"],"geolocation":["https://x.com/moklasen/status/2101741130735862172"],"sources":["https://x.com/moklasen/status/2101741134544265593","https://t.me/operationall_space/13276"]}},{"type":"Feature","geometry":{"type":"Point","coordinates":[34.808648,50.918346]},"properties":{"original":{"Date":"2026-09-19","Name":"19 SEP 2026","Faction":"Russia","Origin":"VID","Latitude":"50.918346","Longitude":"34.808648","PlusCode":"9G2PWR95+8F Sumy, Sumy Oblast, Ukraine","Description":"A Russian airstrike hit an apartment building. Two people were killed and nine others were injured.","Source":"Vid1, https://x.com/99Dominik_/status/2101234405951901806, https://youtube.com/watch?v=83KpVb, Vid2, https://x.com/99Dominik_/status/2101234734286111075, https://t.me/suspilnesumy/47981, Vid3, https://x.com/99Dominik_/status/2101235171445838129, https://www.youtube.com/watch?v=Mvg-7sDvKz4, Orbituary, https://x.com/99Dominik_/status/2101296546180432179, https://t.me/kobzarartemsn/5992, More information","Geolocation":"https://x.com/99Dominik_/status/2101234054779617791","Equipment":"","EquipmentItems":"","Units":"","OrbatUnits":"","Id":"1fb99a74-e837-468e-b4c5-b30a6c547b85","icon":"/api/icons/E00000/False/template/50.png"},"source":"geoconfirmed","source_name":"GeoConfirmed","source_url":"https://geoconfirmed.org/map/ukraine","id":"1fb99a74-e837-468e-b4c5-b30a6c547b85","date":"2026-09-19","link":"https://geoconfirmed.org/map/ukraine/1fb99a74-e837-468e-b4c5-b30a6c547b85","category":"Killed or wounded civilian. Potential Warcrime. In the colour of who is assessed as doing the attack/killing.","side":"Russia","color":"#E00000","description":"A Russian airstrike hit an apartment building. Two people were killed and nine others were injured.","orbat":[],"geolocation":["https://x.com/99Dominik_/status/2101234054779617791"],"sources":["https://x.com/99Dominik_/status/2101234405951901806","https://youtube.com/watch?v=83KpVb","https://x.com/99Dominik_/status/2101234734286111075","https://t.me/suspilnesumy/47981","https://x.com/99Dominik_/status/2101235171445838129","https://www.youtube.com/watch?v=Mvg-7sDvKz4","https://x.com/99Dominik_/status/2101296546180432179","https://t.me/kobzarartemsn/5992"]}},{"type":"Feature","geometry":{"type":"Point","coordinates":[37.563442,48.256066]},"properties":{"original":{"Date":"2026-09-19","Name":"19 SEP 2026","Faction":"Ukraine","Origin":"UAV","Latitude":"48.256066","Longitude":"37.563442","PlusCode":"8GWV7H47+C9 Novooleksandrivka, Donetsk Oblast, Ukraine","Description":"0:30-0:31- Drone targeting a Russian vehicle","Source":"https://x.com/PuenteUribarri/status/2101239149948780692, https://t.me/Lubart_Brigade/1602","Geolocation":"https://x.com/Kukulkan415/status/2101324727398642086","Equipment":"","EquipmentItems":"Fixed Wing OWAD (One Way Attack Drone) | Light Vehicle","Units":"","OrbatUnits":"20th Operational Brigade \"LYUBART\"","Id":"f1d5f8db-a4e1-491d-9ea2-b846cda6b95f","icon":"/api/icons/0051CA/False/template/111.png"},"source":"geoconfirmed","source_name":"GeoConfirmed","source_url":"https://geoconfirmed.org/map/ukraine","id":"f1d5f8db-a4e1-491d-9ea2-b846cda6b95f","date":"2026-09-19","link":"https://geoconfirmed.org/map/ukraine/f1d5f8db-a4e1-491d-9ea2-b846cda6b95f","category":"Short Range (<50km) OWAD (One Way Attack Drone), mostly rotary wing, Flying OR Attacking a target without knowing the outcome: if something is damaged --> icon of the damaged equipment.","side":"Ukraine","color":"#0051CA","description":"0:30-0:31- Drone targeting a Russian vehicle","orbat":["20th Operational Brigade \"LYUBART\""],"geolocation":["https://x.com/Kukulkan415/status/2101324727398642086"],"sources":["https://x.com/PuenteUribarri/status/2101239149948780692","https://t.me/Lubart_Brigade/1602"]}},{"type":"Feature","geometry":{"type":"Point","coordinates":[35.799412,47.559608]},"properties":{"original":{"Date":"2026-09-19","Name":"19 SEP 2026","Faction":"Russia","Origin":"UAV","Latitude":"47.559608","Longitude":"35.799412","PlusCode":"8GVQHQ5X+RQ Orikhiv, Zaporizhia Oblast, Ukraine","Description":"0:00-1:05 - Building hit by several Russian drones. ","Source":"https://x.com/Zeldamices/status/2102355916444291421, https://t.me/motopatriot78/56043","Geolocation":"https://x.com/ChaMapping/status/2102250431120626040","Equipment":"","EquipmentItems":"","Units":"","OrbatUnits":"","Id":"9ecaf977-969f-4758-bde7-bc481c69c155","icon":"/api/icons/E00000/False/template/111.png"},"source":"geoconfirmed","source_name":"GeoConfirmed","source_url":"https://geoconfirmed.org/map/ukraine","id":"9ecaf977-969f-4758-bde7-bc481c69c155","date":"2026-09-19","link":"https://geoconfirmed.org/map/ukraine/9ecaf977-969f-4758-bde7-bc481c69c155","category":"Short Range (<50km) OWAD (One Way Attack Drone), mostly rotary wing, Flying OR Attacking a target without knowing the outcome: if something is damaged --> icon of the damaged equipment.","side":"Russia","color":"#E00000","description":"0:00-1:05 - Building hit by several Russian drones.","orbat":[],"geolocation":["https://x.com/ChaMapping/status/2102250431120626040"],"sources":["https://x.com/Zeldamices/status/2102355916444291421","https://t.me/motopatriot78/56043"]}},{"type":"Feature","geometry":{"type":"Point","coordinates":[35.2706,51.253291]},"properties":{"original":{"Date":"2026-09-19","Name":"19 SEP 2026","Faction":"Ukraine","Origin":"UAV","Latitude":"51.253291","Longitude":"35.2706","PlusCode":"9G3Q773C+86 Kubatkin, Kursk Oblast, Russia","Description":"0:35-0:37 - Rough location: a car was attacked by an FPV from Drone Battalion \"Strix\".","Source":"https://x.com/EleEphemeral/status/2101300679172038690, https://t.me/brygada47/2555","Geolocation":"(3/4&4/4), https://x.com/EleEphemeral/status/2101300517209047087","Equipment":"","EquipmentItems":"FPV (First Person View) OWAD (One Way Attack Drone) | Car ","Units":"","OrbatUnits":"Drone Battalion \"Strix\"","Id":"64873bfa-6cc4-4f7b-9f3f-bd2a7129e419","icon":"/api/icons/0051CA/False/template/111.png"},"source":"geoconfirmed","source_name":"GeoConfirmed","source_url":"https://geoconfirmed.org/map/ukraine","id":"64873bfa-6cc4-4f7b-9f3f-bd2a7129e419","date":"2026-09-19","link":"https://geoconfirmed.org/map/ukraine/64873bfa-6cc4-4f7b-9f3f-bd2a7129e419","category":"Short Range (<50km) OWAD (One Way Attack Drone), mostly rotary wing, Flying OR Attacking a target without knowing the outcome: if something is damaged --> icon of the damaged equipment.","side":"Ukraine","color":"#0051CA","description":"0:35-0:37 - Rough location: a car was attacked by an FPV from Drone Battalion \"Strix\".","orbat":["Drone Battalion \"Strix\""],"geolocation":["https://x.com/EleEphemeral/status/2101300517209047087"],"sources":["https://x.com/EleEphemeral/status/2101300679172038690","https://t.me/brygada47/2555"]}},{"type":"Feature","geometry":{"type":"Point","coordinates":[37.675144,48.528471]},"properties":{"original":{"Date":"2026-09-19","Name":"19 SEP 2026","Faction":"Ukraine","Origin":"UAV","Latitude":"48.528471","Longitude":"37.675144","PlusCode":"8GWVGMHG+93 Kostyantynivka, Donetsk Oblast, Ukraine","Description":"0:20-0:35 - 100th brigade drops bomb on russian position in Kostantynivka","Source":"https://x.com/PuenteUribarri/status/2101317131690246472, https://t.me/Volyn100obrTrO/4039","Geolocation":"https://x.com/jimmhelloman555/status/2101430106543517983","Equipment":"","EquipmentItems":"(Multi-Purpose) Bomber UAV","Units":"","OrbatUnits":"100th Mechanized Brigade","Id":"c8cae6ad-7a3e-4ffd-881b-bd7af4c88367","icon":"/api/icons/0051CA/False/template/110.png"},"source":"geoconfirmed","source_name":"GeoConfirmed","source_url":"https://geoconfirmed.org/map/ukraine","id":"c8cae6ad-7a3e-4ffd-881b-bd7af4c88367","date":"2026-09-19","link":"https://geoconfirmed.org/map/ukraine/c8cae6ad-7a3e-4ffd-881b-bd7af4c88367","category":"Multipurpose Bomber Drone, Flying OR Dropping OR bombing a target without knowing the outcome: if something is damaged --> icon of the damaged equipment.","side":"Ukraine","color":"#0051CA","description":"0:20-0:35 - 100th brigade drops bomb on russian position in Kostantynivka","orbat":["100th Mechanized Brigade"],"geolocation":["https://x.com/jimmhelloman555/status/2101430106543517983"],"sources":["https://x.com/PuenteUribarri/status/2101317131690246472","https://t.me/Volyn100obrTrO/4039"]}},{"type":"Feature","geometry":{"type":"Point","coordinates":[37.461153,48.248996]},"properties":{"original":{"Date":"2026-09-19","Name":"19 SEP 2026","Faction":"Ukraine","Origin":"UAV","Latitude":"48.248996","Longitude":"37.461153","PlusCode":"8GWV6FX6+HF Ivanivka, Donetsk Oblast, Ukraine","Description":"0:34-0:36 - Drone targeting a Russian Vehicle","Source":"https://x.com/PuenteUribarri/status/2101239149948780692, https://t.me/Lubart_Brigade/1602","Geolocation":"https://x.com/Kukulkan415/status/2101330647465824477","Equipment":"","EquipmentItems":"Fixed Wing OWAD (One Way Attack Drone) | Truck","Units":"","OrbatUnits":"20th Operational Brigade \"LYUBART\"","Id":"dcc38c4c-c018-424d-b6f5-c29e8d7261a6","icon":"/api/icons/0051CA/False/template/111.png"},"source":"geoconfirmed","source_name":"GeoConfirmed","source_url":"https://geoconfirmed.org/map/ukraine","id":"dcc38c4c-c018-424d-b6f5-c29e8d7261a6","date":"2026-09-19","link":"https://geoconfirmed.org/map/ukraine/dcc38c4c-c018-424d-b6f5-c29e8d7261a6","category":"Short Range (<50km) OWAD (One Way Attack Drone), mostly rotary wing, Flying OR Attacking a target without knowing the outcome: if something is damaged --> icon of the damaged equipment.","side":"Ukraine","color":"#0051CA","description":"0:34-0:36 - Drone targeting a Russian Vehicle","orbat":["20th Operational Brigade \"LYUBART\""],"geolocation":["https://x.com/Kukulkan415/status/2101330647465824477"],"sources":["https://x.com/PuenteUribarri/status/2101239149948780692","https://t.me/Lubart_Brigade/1602"]}},{"type":"Feature","geometry":{"type":"Point","coordinates":[37.333353,48.310366]},"properties":{"original":{"Date":"2026-09-19","Name":"19 SEP 2026","Faction":"Russia","Origin":"UAV","Latitude":"48.310366","Longitude":"37.333353","PlusCode":"8GWV886M+48 Novoekonomichne, Donetsk Oblast, Ukraine","Description":"0:27-0:29 - Drone targeting a burning Bridgelayer","Source":"https://x.com/PuenteUribarri/status/2101239149948780692, https://t.me/Lubart_Brigade/1602","Geolocation":"https://x.com/Kukulkan415/status/2101318379684413808","Equipment":"Bridge layer","EquipmentItems":"Fixed Wing OWAD (One Way Attack Drone)","Units":"","OrbatUnits":"20th Operational Brigade \"LYUBART\"","Id":"50dfba53-9fd8-466f-81c8-c6b63c34e26b","icon":"/api/icons/E00000/False/template/12.png"},"source":"geoconfirmed","source_name":"GeoConfirmed","source_url":"https://geoconfirmed.org/map/ukraine","id":"50dfba53-9fd8-466f-81c8-c6b63c34e26b","date":"2026-09-19","link":"https://geoconfirmed.org/map/ukraine/50dfba53-9fd8-466f-81c8-c6b63c34e26b","category":"Recently destroyed/Damaged brigde[Visible in footage] - if colour is used of a fighting faction = pontoon or similar bridge","side":"Russia","color":"#E00000","description":"0:27-0:29 - Drone targeting a burning Bridgelayer","orbat":["20th Operational Brigade \"LYUBART\""],"geolocation":["https://x.com/Kukulkan415/status/2101318379684413808"],"sources":["https://x.com/PuenteUribarri/status/2101239149948780692","https://t.me/Lubart_Brigade/1602"]}},{"type":"Feature","geometry":{"type":"Point","coordinates":[35.266969,51.253993]},"properties":{"original":{"Date":"2026-09-19","Name":"19 SEP 2026","Faction":"Ukraine","Origin":"UAV","Latitude":"51.253993","Longitude":"35.266969","PlusCode":"9G3Q7738+HQ Kubatkin, Kursk Oblast, Russia","Description":"0:25-0:27 - Rough location: a car was attacked by an FPV from Drone Battalion \"Strix\"","Source":"https://x.com/EleEphemeral/status/2101300679172038690, https://t.me/brygada47/2555","Geolocation":"(1/4&2/4), https://x.com/EleEphemeral/status/2101300517209047087","Equipment":"","EquipmentItems":"FPV (First Person View) OWAD (One Way Attack Drone) | Car ","Units":"","OrbatUnits":"Drone Battalion \"Strix\"","Id":"42a1e632-ff95-439f-b3fb-c70165db26c3","icon":"/api/icons/0051CA/False/template/111.png"},"source":"geoconfirmed","source_name":"GeoConfirmed","source_url":"https://geoconfirmed.org/map/ukraine","id":"42a1e632-ff95-439f-b3fb-c70165db26c3","date":"2026-09-19","link":"https://geoconfirmed.org/map/ukraine/42a1e632-ff95-439f-b3fb-c70165db26c3","category":"Short Range (<50km) OWAD (One Way Attack Drone), mostly rotary wing, Flying OR Attacking a target without knowing the outcome: if something is damaged --> icon of the damaged equipment.","side":"Ukraine","color":"#0051CA","description":"0:25-0:27 - Rough location: a car was attacked by an FPV from Drone Battalion \"Strix\"","orbat":["Drone Battalion \"Strix\""],"geolocation":["https://x.com/EleEphemeral/status/2101300517209047087"],"sources":["https://x.com/EleEphemeral/status/2101300679172038690","https://t.me/brygada47/2555"]}},{"type":"Feature","geometry":{"type":"Point","coordinates":[38.283525,48.429288]},"properties":{"original":{"Date":"2026-09-19","Name":"19 SEP 2026","Faction":"Ukraine","Origin":"UAV","Latitude":"48.429288","Longitude":"38.283525","PlusCode":"8GWWC7HM+PC Luhans'ke, Donetsk Oblast, Ukraine","Description":"0:36 -0:40 - Drone strike on an light truck (Gazelle)","Source":"https://x.com/moklasen/status/2101425356787880336, https://www.youtube.com/watch?v=jyx-2I6I40Y","Geolocation":"https://x.com/neonhandrail/status/2101671717194314181","Equipment":"","EquipmentItems":"Fixed Wing OWAD (One Way Attack Drone) | Light Vehicle","Units":"","OrbatUnits":"Unmanned Systems Regiment \"Phoenix\" / \"Фенікс\"","Id":"388f42b7-dfe1-4838-883b-c9d005e75f6b","icon":"/api/icons/0051CA/False/template/111.png"},"source":"geoconfirmed","source_name":"GeoConfirmed","source_url":"https://geoconfirmed.org/map/ukraine","id":"388f42b7-dfe1-4838-883b-c9d005e75f6b","date":"2026-09-19","link":"https://geoconfirmed.org/map/ukraine/388f42b7-dfe1-4838-883b-c9d005e75f6b","category":"Short Range (<50km) OWAD (One Way Attack Drone), mostly rotary wing, Flying OR Attacking a target without knowing the outcome: if something is damaged --> icon of the damaged equipment.","side":"Ukraine","color":"#0051CA","description":"0:36 -0:40 - Drone strike on an light truck (Gazelle)","orbat":["Unmanned Systems Regiment \"Phoenix\" / \"Фенікс\""],"geolocation":["https://x.com/neonhandrail/status/2101671717194314181"],"sources":["https://x.com/moklasen/status/2101425356787880336","https://www.youtube.com/watch?v=jyx-2I6I40Y"]}},{"type":"Feature","geometry":{"type":"Point","coordinates":[37.818283,48.960921]},"properties":{"original":{"Date":"2026-09-19","Name":"19 SEP 2026","Faction":"Russia","Origin":"UAV","Latitude":"48.960921","Longitude":"37.818283","PlusCode":"8GWVXR69+98 Lyman, Donetsk Oblast, Ukraine","Description":"0:27-0:44 - Russian Vandal drone and Fibre Optic FPV drone targeted a claime Ukrainian drone team position of the 3rd Army Corps in Lyman","Source":"https://x.com/ZoamSc2/status/2101118572382793901, https://t.me/Secrets_of_Vinakos/17521, https://t.me/Secrets_of_Vin","Geolocation":"https://x.com/GeoConfirmed/status/2101346009775268302, https://x.com/ZoamSc2/status/2101118569895559544","Equipment":"","EquipmentItems":"Vandal (KVN) | Fiber Optic (FO) FPV (First Person View) OWAD (One Way Attack Drone)","Units":"","OrbatUnits":"3rd Army Corps","Id":"07211f83-c212-46f6-b306-d335bbd3955a","icon":"/api/icons/E00000/False/template/111.png"},"source":"geoconfirmed","source_name":"GeoConfirmed","source_url":"https://geoconfirmed.org/map/ukraine","id":"07211f83-c212-46f6-b306-d335bbd3955a","date":"2026-09-19","link":"https://geoconfirmed.org/map/ukraine/07211f83-c212-46f6-b306-d335bbd3955a","category":"Short Range (<50km) OWAD (One Way Attack Drone), mostly rotary wing, Flying OR Attacking a target without knowing the outcome: if something is damaged --> icon of the damaged equipment.","side":"Russia","color":"#E00000","description":"0:27-0:44 - Russian Vandal drone and Fibre Optic FPV drone targeted a claime Ukrainian drone team position of the 3rd Army Corps in Lyman","orbat":["3rd Army Corps"],"geolocation":["https://x.com/GeoConfirmed/status/2101346009775268302","https://x.com/ZoamSc2/status/2101118569895559544"],"sources":["https://x.com/ZoamSc2/status/2101118572382793901","https://t.me/Secrets_of_Vinakos/17521","https://t.me/Secrets_of_Vin"]}},{"type":"Feature","geometry":{"type":"Point","coordinates":[37.304703,48.358817]},"properties":{"original":{"Date":"2026-09-19","Name":"19 SEP 2026","Faction":"Russia","Origin":"UAV","Latitude":"48.358817","Longitude":"37.304703","PlusCode":"8GWV9853+GV Razine, Donetsk Oblast, Ukraine","Description":"0:20-0:23 - Drone strike on a burning Russian vehicle","Source":"https://x.com/PuenteUribarri/status/2101239149948780692, https://t.me/Lubart_Brigade/1602","Geolocation":"https://x.com/Kukulkan415/status/2101315332468089182","Equipment":"","EquipmentItems":"Fixed Wing OWAD (One Way Attack Drone)","Units":"","OrbatUnits":"20th Operational Brigade \"LYUBART\"","Id":"7b2bdc5e-aa8e-4202-a891-dc0d0f4fb92f","icon":"/api/icons/E00000/False/template/62.png"},"source":"geoconfirmed","source_name":"GeoConfirmed","source_url":"https://geoconfirmed.org/map/ukraine","id":"7b2bdc5e-aa8e-4202-a891-dc0d0f4fb92f","date":"2026-09-19","link":"https://geoconfirmed.org/map/ukraine/7b2bdc5e-aa8e-4202-a891-dc0d0f4fb92f","category":"Recently Destroyed/Damaged[Visible in footage] Logistical Trucks (Soft skin OR armoured)","side":"Russia","color":"#E00000","description":"0:20-0:23 - Drone strike on a burning Russian vehicle","orbat":["20th Operational Brigade \"LYUBART\""],"geolocation":["https://x.com/Kukulkan415/status/2101315332468089182"],"sources":["https://x.com/PuenteUribarri/status/2101239149948780692","https://t.me/Lubart_Brigade/1602"]}},{"type":"Feature","geometry":{"type":"Point","coordinates":[34.719876,47.010505]},"properties":{"original":{"Date":"2026-09-19","Name":"19 SEP 2026","Faction":"Russia","Origin":"UAV","Latitude":"47.010505","Longitude":"34.719876","PlusCode":"8GVP2P69+6X Zelenyi Hai, Zaporizhia Oblast, Ukraine","Description":"UAV operators of the Department of Active Actions of the GUR MO identified a presumed Russian warehouse with fuel and lubricants and ammunition and destroyed it with strike UAVs.","Source":"https://x.com/LloydUkrYT/status/2101350532702961906, https://x.com/PuenteUribarri/status/2101321064282267738, https://t.me/risk_dept/723, https://t.me/WarArchive_ua/38401","Geolocation":"https://x.com/LloydUkrYT/status/2101350919128363014, https://x.com/MikiValbuena/status/2101355736093610181, https://t.me/WarArchive_ua/38402","Equipment":"","EquipmentItems":"Fixed Wing OWAD (One Way Attack Drone)","Units":"","OrbatUnits":"Main Directorate of Intelligence (GUR)","Id":"568fd3a0-9f4e-4b3b-b30d-e218c5f24ae6","icon":"/api/icons/E00000/False/template/192.png"},"source":"geoconfirmed","source_name":"GeoConfirmed","source_url":"https://geoconfirmed.org/map/ukraine","id":"568fd3a0-9f4e-4b3b-b30d-e218c5f24ae6","date":"2026-09-19","link":"https://geoconfirmed.org/map/ukraine/568fd3a0-9f4e-4b3b-b30d-e218c5f24ae6","category":"Recently destroyed/Damaged[Visible in footage] or still burning infrastucture","side":"Russia","color":"#E00000","description":"UAV operators of the Department of Active Actions of the GUR MO identified a presumed Russian warehouse with fuel and lubricants and ammunition and destroyed it with strike UAVs.","orbat":["Main Directorate of Intelligence (GUR)"],"geolocation":["https://x.com/LloydUkrYT/status/2101350919128363014","https://x.com/MikiValbuena/status/2101355736093610181","https://t.me/WarArchive_ua/38402"],"sources":["https://x.com/LloydUkrYT/status/2101350532702961906","https://x.com/PuenteUribarri/status/2101321064282267738","https://t.me/risk_dept/723","https://t.me/WarArchive_ua/38401"]}},{"type":"Feature","geometry":{"type":"Point","coordinates":[35.708875,47.171928]},"properties":{"original":{"Date":"2026-09-19","Name":"19 SEP 2026","Faction":"Russia","Origin":"UAV","Latitude":"47.171928","Longitude":"35.708875","PlusCode":"8GVQ5PC5+QH Zaporizhzhya, Zaporizhia Oblast, Ukraine","Description":"A Russian Buk-M3 Telar system was destroyed by Ukrainian drones.","Source":"https://x.com/99Dominik_/status/2101358544956137631, https://t.me/nemesis_412/1752","Geolocation":"https://x.com/99Dominik_/status/2101358349929381984","Equipment":"","EquipmentItems":"9K37M Buk-M3 | FPV (First Person View) OWAD (One Way Attack Drone)","Units":"","OrbatUnits":"412th Unmanned Systems Brigade \"Nemesis\" ","Id":"803d65a2-38d3-4aa8-bceb-ebdf691b3b25","icon":"/api/icons/E00000/False/template/202.png"},"source":"geoconfirmed","source_name":"GeoConfirmed","source_url":"https://geoconfirmed.org/map/ukraine","id":"803d65a2-38d3-4aa8-bceb-ebdf691b3b25","date":"2026-09-19","link":"https://geoconfirmed.org/map/ukraine/803d65a2-38d3-4aa8-bceb-ebdf691b3b25","category":"Recently Destroyed/Damaged[Visible in footage] Anti-Air System (Tracked OR Wheeled)","side":"Russia","color":"#E00000","description":"A Russian Buk-M3 Telar system was destroyed by Ukrainian drones.","orbat":["412th Unmanned Systems Brigade \"Nemesis\""],"geolocation":["https://x.com/99Dominik_/status/2101358349929381984"],"sources":["https://x.com/99Dominik_/status/2101358544956137631","https://t.me/nemesis_412/1752"]}},{"type":"Feature","geometry":{"type":"Point","coordinates":[37.313638,48.344004]},"properties":{"original":{"Date":"2026-09-19","Name":"19 SEP 2026","Faction":"Russia","Origin":"UAV","Latitude":"48.344004","Longitude":"37.313638","PlusCode":"8GWV88V7+JF Novoekonomichne, Donetsk Oblast, Ukraine","Description":"0:16-0:20 - Drone strike on a stuck Russian vehicle","Source":"https://x.com/PuenteUribarri/status/2101239149948780692, https://t.me/Lubart_Brigade/1602","Geolocation":"https://x.com/Kukulkan415/status/2101315327275495622","Equipment":"","EquipmentItems":"Fixed Wing OWAD (One Way Attack Drone)","Units":"","OrbatUnits":"20th Operational Brigade \"LYUBART\"","Id":"2381df4d-1c02-448c-854e-f85c387267bb","icon":"/api/icons/E00000/False/template/62.png"},"source":"geoconfirmed","source_name":"GeoConfirmed","source_url":"https://geoconfirmed.org/map/ukraine","id":"2381df4d-1c02-448c-854e-f85c387267bb","date":"2026-09-19","link":"https://geoconfirmed.org/map/ukraine/2381df4d-1c02-448c-854e-f85c387267bb","category":"Recently Destroyed/Damaged[Visible in footage] Logistical Trucks (Soft skin OR armoured)","side":"Russia","color":"#E00000","description":"0:16-0:20 - Drone strike on a stuck Russian vehicle","orbat":["20th Operational Brigade \"LYUBART\""],"geolocation":["https://x.com/Kukulkan415/status/2101315327275495622"],"sources":["https://x.com/PuenteUribarri/status/2101239149948780692","https://t.me/Lubart_Brigade/1602"]}}]}