{"type":"FeatureCollection","features":[{"type":"Feature","geometry":null,"properties":{"source":"ru_mod","source_name":"Ministry of Defence of Russia","group":"official_ru","id":67913,"posted_utc":"2026-10-04T03:01:04+00:00","link":"https://t.me/mod_russia/67913","text":"Режим ликвидации активирован ✅\nРасчеты FPV-дронов группировки «Южная» зачищают населенники на Краматорском направлении от боевиков ВСУ.\n#ВойскаБПС\n🔹 Канал Минобороны России в MAКС – боевая работа 24/7","links":["https://max.ru/morf"],"original_html":"<b>Режим ликвидации активирован </b><b><tg-emoji emoji-id=\"5469909785128234267\"><i class=\"emoji\" style=\"background-image:url('//telegram.org/img/emoji/40/E29C85.png')\"><b>✅</b></i></tg-emoji></b><br/><br/>Расчеты FPV-дронов группировки «Южная» зачищают населенники на Краматорском направлении от боевиков ВСУ.<br/><br/><a href=\"?q=%23%D0%92%D0%BE%D0%B9%D1%81%D0%BA%D0%B0%D0%91%D0%9F%D0%A1\">#ВойскаБПС</a><br/><tg-emoji emoji-id=\"5269510734265483362\"><i class=\"emoji\" style=\"background-image:url('//telegram.org/img/emoji/40/F09F94B9.png')\"><b>🔹</b></i></tg-emoji> <a href=\"https://max.ru/morf\" target=\"_blank\" rel=\"noopener\" onclick=\"return confirm('Open this link?\\n\\n'+this.href);\">Канал Минобороны России в MAКС – боевая работа 24/7</a>"}},{"type":"Feature","geometry":null,"properties":{"source":"ru_mod","source_name":"Ministry of Defence of Russia","group":"official_ru","id":67914,"posted_utc":"2026-10-04T05:24:47+00:00","link":"https://t.me/mod_russia/67914","text":"⚡️ В течение прошедшей ночи с 20.00 мск 3 октября до 8.00 мск 4 октября дежурными силами ПВО перехвачены и уничтожены 559 украинских беспилотных летательных аппаратов самолетного типа над территориями Астраханской, Белгородской, Брянской, Волгоградской, Воронежской, Калужской, Курской, Орловской, Ростовской, Смоленской, Тульской областей, Московского региона, Республики Адыгея, Республики Крым, Краснодарского края и над акваториями Азовского и Черного морей.\n🔹 Минобороны России","links":["https://max.ru/morf"],"original_html":"<tg-emoji emoji-id=\"5449911936361724483\"><i class=\"emoji\" style=\"background-image:url('//telegram.org/img/emoji/40/E29AA1.png')\"><b>⚡️</b></i></tg-emoji> В течение прошедшей ночи с 20.00 мск 3 октября до 8.00 мск 4 октября дежурными силами ПВО <b>перехвачены и уничтожены 559 украинских беспилотных летательных аппаратов самолетного типа </b>над территориями Астраханской, Белгородской, Брянской, Волгоградской, Воронежской, Калужской, Курской, Орловской, Ростовской, Смоленской, Тульской областей, Московского региона, Республики Адыгея, Республики Крым, Краснодарского края и над акваториями Азовского и Черного морей.<br/><br/><tg-emoji emoji-id=\"5269510734265483362\"><i class=\"emoji\" style=\"background-image:url('//telegram.org/img/emoji/40/F09F94B9.png')\"><b>🔹</b></i></tg-emoji> <a href=\"https://max.ru/morf\" target=\"_blank\" rel=\"noopener\" onclick=\"return confirm('Open this link?\\n\\n'+this.href);\">Минобороны России</a>"}},{"type":"Feature","geometry":null,"properties":{"source":"ru_mod","source_name":"Ministry of Defence of Russia","group":"official_ru","id":67915,"posted_utc":"2026-10-04T05:29:57+00:00","link":"https://t.me/mod_russia/67915","text":"💥 Почтово-цифровой погром\nРасчеты «Гераней» отработали по логистическому центру «Новая Почта» в Черноморске и дата-центру в Одессе.\n#ВойскаБПС\n🔹 Канал Минобороны России в MAКС – боевая работа 24/7","links":["https://max.ru/morf"],"original_html":"<b><tg-emoji emoji-id=\"5449682610877918293\"><i class=\"emoji\" style=\"background-image:url('//telegram.org/img/emoji/40/F09F92A5.png')\"><b>💥</b></i></tg-emoji></b><b> Почтово-цифровой погром </b><br/><br/>Расчеты «Гераней» отработали по логистическому центру «Новая Почта» в Черноморске и дата-центру в Одессе.<br/><br/><a href=\"?q=%23%D0%92%D0%BE%D0%B9%D1%81%D0%BA%D0%B0%D0%91%D0%9F%D0%A1\">#ВойскаБПС</a><br/><tg-emoji emoji-id=\"5269510734265483362\"><i class=\"emoji\" style=\"background-image:url('//telegram.org/img/emoji/40/F09F94B9.png')\"><b>🔹</b></i></tg-emoji> <a href=\"https://max.ru/morf\" target=\"_blank\" rel=\"noopener\" onclick=\"return confirm('Open this link?\\n\\n'+this.href);\">Канал Минобороны России в MAКС – боевая работа 24/7</a>"}},{"type":"Feature","geometry":null,"properties":{"source":"ru_mod","source_name":"Ministry of Defence of Russia","group":"official_ru","id":67916,"posted_utc":"2026-10-04T05:32:10+00:00","link":"https://t.me/mod_russia/67916","text":"❗️ Вооруженные Силы Российской Федерации продолжают наносить удары по объектам портовой инфраструктуры Украины и морским судам, используемым в интересах ВСУ.\nСегодня ночью в результате удара беспилотными летательными аппаратами на переходе морем восточнее города Одесса поражено морское судно типа «сухогруз», доставлявшее военное имущество для ВСУ.\n▫️ Канал Минобороны России в MAКС – источник мощных новостей","links":["https://max.ru/morf"],"original_html":"<tg-emoji emoji-id=\"5447116342148753425\"><i class=\"emoji\" style=\"background-image:url('//telegram.org/img/emoji/40/E29D97.png')\"><b>❗️</b></i></tg-emoji> <b>Вооруженные Силы Российской Федерации продолжают наносить удары по объектам портовой инфраструктуры Украины и морским судам, используемым в интересах ВСУ.</b><br/><br/>Сегодня ночью в результате удара беспилотными летательными аппаратами на переходе морем восточнее города Одесса <b>поражено морское судно типа «сухогруз»</b>, доставлявшее военное имущество для ВСУ.<br/><br/><tg-emoji emoji-id=\"5352532894478793783\"><i class=\"emoji\" style=\"background-image:url('//telegram.org/img/emoji/40/E296AB.png')\"><b>▫️</b></i></tg-emoji> <a href=\"https://max.ru/morf\" target=\"_blank\" rel=\"noopener\" onclick=\"return confirm('Open this link?\\n\\n'+this.href);\">Канал Минобороны России в MAКС – источник мощных новостей</a>"}},{"type":"Feature","geometry":null,"properties":{"source":"ru_mod","source_name":"Ministry of Defence of Russia","group":"official_ru","id":67917,"posted_utc":"2026-10-04T06:29:18+00:00","link":"https://t.me/mod_russia/67917","text":"Верховный Главнокомандующий Владимир Путин поздравил личный состав и ветеранов Космических войск.\nУважаемые товарищи!\nПоздравляю вас с праздником – Днём Космических войск.\nБлагодаря самоотверженному труду и таланту нескольких поколений выдающихся конструкторов, учёных, инженеров, испытателей, военных специалистов наша страна получила надёжный ракетно-космический «щит» – действенный инструмент поддержания глобального стратегического паритета. Были созданы уникальные технологии, сформирован мощный научный и производственный задел.\nСегодня личный состав и гражданский персонал Космических войск решают ответственные задачи по защите безопасности России, ведут большую работу по обеспечению систем связи и навигации, оперативно предоставляют необходимые информационные данные Вооружённым Силам, подразделениям, участвующим в специальной военной операции. Важно и дальше наращивать возможности орбитальной спутниковой группировки и наземной инфраструктуры, разрабатывать передовые технологии для новейших образцов вооружений и техники, проводить перспективные исследования.\nУверен, что вы будете с честью служить Родине, вносить весомый вклад в укрепление боевой мощи Армии и Флота, содействовать реализации национальной космической программы.\nЖелаю вам успехов и всего самого доброго.","links":["http://www.kremlin.ru/events/president/letters/80918"],"original_html":"<b>Верховный Главнокомандующий Владимир Путин </b><a href=\"http://www.kremlin.ru/events/president/letters/80918\" target=\"_blank\" rel=\"noopener\" onclick=\"return confirm('Open this link?\\n\\n'+this.href);\"><b>поздравил</b></a><b> личный состав и ветеранов Космических войск.</b><br/><br/><blockquote>Уважаемые товарищи&#33;<br/><br/>Поздравляю вас с праздником – Днём Космических войск.<br/><br/>Благодаря самоотверженному труду и таланту нескольких поколений выдающихся конструкторов, учёных, инженеров, испытателей, военных специалистов наша страна получила надёжный ракетно-космический «щит» – действенный инструмент поддержания глобального стратегического паритета. Были созданы уникальные технологии, сформирован мощный научный и производственный задел.<br/><br/>Сегодня личный состав и гражданский персонал Космических войск решают ответственные задачи по защите безопасности России, ведут большую работу по обеспечению систем связи и навигации, оперативно предоставляют необходимые информационные данные Вооружённым Силам, подразделениям, участвующим в специальной военной операции. Важно и дальше наращивать возможности орбитальной спутниковой группировки и наземной инфраструктуры, разрабатывать передовые технологии для новейших образцов вооружений и техники, проводить перспективные исследования.<br/><br/>Уверен, что вы будете с честью служить Родине, вносить весомый вклад в укрепление боевой мощи Армии и Флота, содействовать реализации национальной космической программы.<br/><br/>Желаю вам успехов и всего самого доброго.</blockquote>"}},{"type":"Feature","geometry":null,"properties":{"source":"ru_mod","source_name":"Ministry of Defence of Russia","group":"official_ru","id":67918,"posted_utc":"2026-10-04T07:03:34+00:00","link":"https://t.me/mod_russia/67918","text":"👊 Аргументы высшего калибра: ВКС России ровняют с землей объекты врага\nПод ударом авиации оказались пункт управления БПЛА и пункты временной дислокации ВСУ в ДНР и Сумской области.\n🔹 Канал Минобороны России в MAКС – боевая работа 24/7","links":["https://max.ru/morf"],"original_html":"<b><i class=\"emoji\" style=\"background-image:url('//telegram.org/img/emoji/40/F09F918A.png')\"><b>👊</b></i> Аргументы высшего калибра: ВКС России ровняют с землей объекты врага</b><br/><br/>Под ударом авиации оказались <b>пункт управления БПЛА и пункты временной дислокации ВСУ </b>в ДНР и Сумской области. <br/><br/><tg-emoji emoji-id=\"5269510734265483362\"><i class=\"emoji\" style=\"background-image:url('//telegram.org/img/emoji/40/F09F94B9.png')\"><b>🔹</b></i></tg-emoji> <a href=\"https://max.ru/morf\" target=\"_blank\" rel=\"noopener\" onclick=\"return confirm('Open this link?\\n\\n'+this.href);\">Канал Минобороны России в MAКС – боевая работа 24/7</a>"}},{"type":"Feature","geometry":null,"properties":{"source":"ru_mod","source_name":"Ministry of Defence of Russia","group":"official_ru","id":67919,"posted_utc":"2026-10-04T07:25:40+00:00","link":"https://t.me/mod_russia/67919","text":"С заботой о духовных потребностях наших бойцов\nВ одном из тыловых районов зоны проведения спецоперации состоялось открытие подземного буддийского храма.\nСвятыню возвели военнослужащие 55-й отдельной мотострелковой бригады группировки войск «Центр».\n🔹 MAКС – территория СВОих","links":["https://max.ru/morf"],"original_html":"<b>С заботой о духовных потребностях наших бойцов</b><br/><br/>В одном из тыловых районов зоны проведения спецоперации <b>состоялось открытие подземного буддийского храма</b>. <br/><br/><i>Святыню возвели военнослужащие 55-й отдельной мотострелковой бригады группировки войск «Центр».</i><br/><br/><tg-emoji emoji-id=\"5269510734265483362\"><i class=\"emoji\" style=\"background-image:url('//telegram.org/img/emoji/40/F09F94B9.png')\"><b>🔹</b></i></tg-emoji> <a href=\"https://max.ru/morf\" target=\"_blank\" rel=\"noopener\" onclick=\"return confirm('Open this link?\\n\\n'+this.href);\">MAКС – территория СВОих</a>"}},{"type":"Feature","geometry":null,"properties":{"source":"ru_mod","source_name":"Ministry of Defence of Russia","group":"official_ru","id":67920,"posted_utc":"2026-10-04T08:16:31+00:00","link":"https://t.me/mod_russia/67920","text":"«Не ломается, стреляет точно, конструкторы – молодцы!»\nКомандир взвода с позывным «Амур» дал короткую, но самую честную оценку танку Т-90М «Прорыв». Спойлер: 10 из 10 🔥\n🔹 Минобороны России","links":["https://max.ru/morf"],"original_html":"<b>«Не ломается, стреляет точно, конструкторы – молодцы&#33;»</b><br/><br/>Командир взвода с позывным «Амур» дал короткую, но самую честную оценку танку Т-90М «Прорыв». Спойлер: 10 из 10 <tg-emoji emoji-id=\"5449590921916082144\"><i class=\"emoji\" style=\"background-image:url('//telegram.org/img/emoji/40/F09F94A5.png')\"><b>🔥</b></i></tg-emoji><br/><br/><tg-emoji emoji-id=\"5269510734265483362\"><i class=\"emoji\" style=\"background-image:url('//telegram.org/img/emoji/40/F09F94B9.png')\"><b>🔹</b></i></tg-emoji> <a href=\"https://max.ru/morf\" target=\"_blank\" rel=\"noopener\" onclick=\"return confirm('Open this link?\\n\\n'+this.href);\">Минобороны России</a>"}},{"type":"Feature","geometry":null,"properties":{"source":"ru_mod","source_name":"Ministry of Defence of Russia","group":"official_ru","id":67921,"posted_utc":"2026-10-04T09:15:23+00:00","link":"https://t.me/mod_russia/67921","text":"«Наводчик — это человек, на которого работает весь расчёт. Если он плохо навёлся — расчёт не попал».\nНаводчику 152-мм буксируемой пушки «Гиацинт-Б» с позывным «Замполит» чуть больше двадцати лет. Он ушел в армию, как только ему исполнилось 18. Раньше парень увлекался страйкболом и компьютерными играми, а сейчас его работа — точное наведение орудия. Ошибка в миллиметрах на панораме может обернуться разлётом в сотни метров при поражении цели: «Должность важная, подходить к ней надо серьёзно».\n«Замполит» награждён медалью Жукова, а также медалями «За оборону Курской области» и «Участнику специальной военной операции». После победы планирует продолжать службу, получить офицерское звание и... всё-таки стать замполитом.\nГерои в 📲 MAX,  📱 ВКонтакте и в 📱 Дзен","links":["https://max.ru/heroesofZ","https://vk.com/heroes0fz","http://dzen.ru/heroesofz"],"original_html":"<i>«Наводчик — это человек, на которого работает весь расчёт. Если он плохо навёлся — расчёт не попал».</i><br/><br/>Наводчику 152-мм буксируемой пушки «Гиацинт-Б» с <b>позывным «Замполит»</b> чуть больше двадцати лет. Он ушел в армию, как только ему исполнилось 18. Раньше парень увлекался страйкболом и компьютерными играми, а сейчас его работа — точное наведение орудия. Ошибка в миллиметрах на панораме может обернуться разлётом в сотни метров при поражении цели: <i>«Должность важная, подходить к ней надо серьёзно»</i>.<br/><br/>«Замполит» награждён медалью Жукова, а также медалями «За оборону Курской области» и «Участнику специальной военной операции». После победы планирует продолжать службу, получить офицерское звание и... всё-таки стать замполитом.<br/><br/><i>Герои в </i><i><tg-emoji emoji-id=\"5449407131675558756\"><i class=\"emoji\" style=\"background-image:url('//telegram.org/img/emoji/40/F09F93B2.png')\"><b>📲</b></i></tg-emoji></i><i> </i><a href=\"https://max.ru/heroesofZ\" target=\"_blank\" rel=\"noopener\" onclick=\"return confirm('Open this link?\\n\\n'+this.href);\"><i>MAX</i></a>,<i>  </i><i><tg-emoji emoji-id=\"5334853932915114338\"><i class=\"emoji\" style=\"background-image:url('//telegram.org/img/emoji/40/F09F93B1.png')\"><b>📱</b></i></tg-emoji></i><i> </i><a href=\"https://vk.com/heroes0fz\" target=\"_blank\" rel=\"noopener\" onclick=\"return confirm('Open this link?\\n\\n'+this.href);\"><i>ВКонтакте</i></a> <i>и в </i><i><tg-emoji emoji-id=\"5321533581472842536\"><i class=\"emoji\" style=\"background-image:url('//telegram.org/img/emoji/40/F09F93B1.png')\"><b>📱</b></i></tg-emoji></i><i> </i><a href=\"http://dzen.ru/heroesofz\" target=\"_blank\" rel=\"noopener\" onclick=\"return confirm('Open this link?\\n\\n'+this.href);\"><i>Дзен</i></a>"}},{"type":"Feature","geometry":null,"properties":{"source":"ru_mod","source_name":"Ministry of Defence of Russia","group":"official_ru","id":67922,"posted_utc":"2026-10-04T09:51:17+00:00","link":"https://t.me/mod_russia/67922","text":"❗️ В Минобороны России услышали заявление В.Зеленского, что в ответ на удары по объектам военно-промышленного комплекса Украины в Киеве, где производятся БПЛА и ракетное вооружение для атак по России, а также по объектам инфраструктуры, используемой в интересах ВСУ, киевский режим усилит удары по российским нефтеперерабатывающим заводам.\nВ ответ на эти угрозы Минобороны России напоминает, что наносит массированные удары по Киеву и другим украинским регионам именно в ответ на действия главаря киевского режима.\nРечь идёт о попытках В.Зеленского сорвать террористическими ударами по гражданским объектам на территории России голосование по выборам в Государственную Думу Федерального Собрания Российской Федерации.\nЦеленаправленным ударам ракетным вооружением и БПЛА по участковым избирательным комиссиям, в результате которых погибли шесть абсолютно мирных граждан.\nПопытках организации массированной атаки с применением более 1600 украинских ударных БПЛА с 19-го по 20 сентября по гражданским объектам в Москве.\nПопытках террористических атак с применением ударных БПЛА, направленных на срыв проведения международного экономического форума в Санкт-Петербурге в июне 2026 года.\nНаконец, минувшей ночью киевским режимом был нанесен заведомо террористический удар по жилым кварталам города Белгорода, где нет никаких военных объектов.\nВ результате данного удара есть погибшие и раненые мирные жители, повреждены многоквартирные дома, частные домовладения и личный автотранспорт.\nПосле сегодняшнего заявления Зеленского удары Вооруженных Сил Российской Федерации по военным и военно-промышленным объектам, а также связанной с ними инфраструктуры в Киеве и в других областях Украины будут усилены.\nНаселению Украины винить за это следует только главу киевского режима.\nИменно Зеленский несёт за это полную личную и политическую ответственность.","links":[],"original_html":"<tg-emoji emoji-id=\"5447116342148753425\"><i class=\"emoji\" style=\"background-image:url('//telegram.org/img/emoji/40/E29D97.png')\"><b>❗️</b></i></tg-emoji> В Минобороны России услышали заявление В.Зеленского, что в ответ на удары по объектам военно-промышленного комплекса Украины в Киеве, где производятся БПЛА и ракетное вооружение для атак по России, а также по объектам инфраструктуры, используемой в интересах ВСУ, киевский режим усилит удары по российским нефтеперерабатывающим заводам.<br/><br/><b>В ответ на эти угрозы Минобороны России напоминает, что наносит массированные удары по Киеву и другим украинским регионам именно в ответ на действия главаря киевского режима.</b><br/><br/>Речь идёт о попытках В.Зеленского сорвать террористическими ударами по гражданским объектам на территории России голосование по выборам в Государственную Думу Федерального Собрания Российской Федерации. <br/><br/>Целенаправленным ударам ракетным вооружением и БПЛА по участковым избирательным комиссиям, в результате которых погибли шесть абсолютно мирных граждан. <br/><br/>Попытках организации массированной атаки с применением более 1600 украинских ударных БПЛА с 19-го по 20 сентября по гражданским объектам в Москве. <br/><br/>Попытках террористических атак с применением ударных БПЛА, направленных на срыв проведения международного экономического форума в Санкт-Петербурге в июне 2026 года. <br/><br/>Наконец, минувшей ночью киевским режимом был нанесен заведомо террористический удар по жилым кварталам города Белгорода, где нет никаких военных объектов. <br/><br/>В результате данного удара есть погибшие и раненые мирные жители, повреждены многоквартирные дома, частные домовладения и личный автотранспорт.<br/><br/><b>После сегодняшнего заявления Зеленского удары Вооруженных Сил Российской Федерации по военным и военно-промышленным объектам, а также связанной с ними инфраструктуры в Киеве и в других областях Украины будут усилены. </b><br/><br/>Населению Украины винить за это следует только главу киевского режима. <br/><br/>Именно Зеленский несёт за это полную личную и политическую ответственность."}},{"type":"Feature","geometry":null,"properties":{"source":"ru_mod","source_name":"Ministry of Defence of Russia","group":"official_ru","id":67923,"posted_utc":"2026-10-04T10:39:56+00:00","link":"https://t.me/mod_russia/67923","text":"💥 Залпы на Тоцком: практические действия на учениях «Центр-2026»\n📍 Делимся кадрами из Оренбургской области\n#Центр2026\n▫️ Канал Минобороны России в MAКС – источник мощных новостей","links":["https://max.ru/morf"],"original_html":"<tg-emoji emoji-id=\"5449682610877918293\"><i class=\"emoji\" style=\"background-image:url('//telegram.org/img/emoji/40/F09F92A5.png')\"><b>💥</b></i></tg-emoji> <b>Залпы на Тоцком</b>: практические действия на учениях «Центр-2026»<br/><br/><tg-emoji emoji-id=\"5449396879588614682\"><i class=\"emoji\" style=\"background-image:url('//telegram.org/img/emoji/40/F09F938D.png')\"><b>📍</b></i></tg-emoji> <i>Делимся кадрами из Оренбургской области</i><br/><br/><a href=\"?q=%23%D0%A6%D0%B5%D0%BD%D1%82%D1%802026\">#Центр2026</a><br/><tg-emoji emoji-id=\"5352532894478793783\"><i class=\"emoji\" style=\"background-image:url('//telegram.org/img/emoji/40/E296AB.png')\"><b>▫️</b></i></tg-emoji> <a href=\"https://max.ru/morf\" target=\"_blank\" rel=\"noopener\" onclick=\"return confirm('Open this link?\\n\\n'+this.href);\">Канал Минобороны России в MAКС – источник мощных новостей</a>"}},{"type":"Feature","geometry":null,"properties":{"source":"ru_mod","source_name":"Ministry of Defence of Russia","group":"official_ru","id":67925,"posted_utc":"2026-10-04T11:10:59+00:00","link":"https://t.me/mod_russia/67925","text":"▫️ Подразделения группировки войск «Север» сжимают кольцо окружения формирований ВСУ на северо-востоке Харьковской области и расширяют внешнюю зону контроля.\n📍 В кольце окружения ведутся бои за освобождение населенных пунктов Варваровка, Николаевка, Лобановка и Резниково Харьковской области. Продолжается уничтожение окруженных формирований противника в районах населенных пунктов Рубленое, Нефедовка, Купино и Черное Харьковской области.\nПодробнее об успехах наших войск ➡️ в MAКС","links":["https://max.ru/morf/AaEGlu4HcrM"],"original_html":"<tg-emoji emoji-id=\"5264796878809099818\"><i class=\"emoji\" style=\"background-image:url('//telegram.org/img/emoji/40/E296AB.png')\"><b>▫️</b></i></tg-emoji> <b>Подразделения группировки войск «Север» сжимают кольцо окружения</b> формирований ВСУ на северо-востоке Харьковской области <b>и расширяют внешнюю зону контроля</b>.<br/><br/><tg-emoji emoji-id=\"5449396879588614682\"><i class=\"emoji\" style=\"background-image:url('//telegram.org/img/emoji/40/F09F938D.png')\"><b>📍</b></i></tg-emoji> <b>В кольце окружения ведутся бои за освобождение населенных пунктов</b> Варваровка, Николаевка, Лобановка и Резниково Харьковской области. Продолжается уничтожение окруженных формирований противника в районах населенных пунктов Рубленое, Нефедовка, Купино и Черное Харьковской области.<br/><br/>Подробнее об успехах наших войск <tg-emoji emoji-id=\"5469902676957357453\"><i class=\"emoji\" style=\"background-image:url('//telegram.org/img/emoji/40/E29EA1.png')\"><b>➡️</b></i></tg-emoji> <a href=\"https://max.ru/morf/AaEGlu4HcrM\" target=\"_blank\" rel=\"noopener\" onclick=\"return confirm('Open this link?\\n\\n'+this.href);\">в MAКС</a>"}},{"type":"Feature","geometry":null,"properties":{"source":"ru_mod","source_name":"Ministry of Defence of Russia","group":"official_ru","id":67927,"posted_utc":"2026-10-04T12:40:23+00:00","link":"https://t.me/mod_russia/67927","text":"В ваших руках – ракетный щит и космический меч  Поздравляем ученых, конструкторов, гражданских специалистов,  военнослужащих и ветеранов Космических войск с праздником! Вы – наша гордость. Желаем новых высот и надежных орбит.  🔹 Курс на MAКС!","links":[],"original_html":"В ваших руках – ракетный щит и космический меч  Поздравляем ученых, конструкторов, гражданских специалистов,  военнослужащих и ветеранов Космических войск с праздником&#33; Вы – наша гордость. Желаем новых высот и надежных орбит.  <tg-emoji emoji-id=\"5269510734265483362\"><i class=\"emoji\" style=\"background-image:url('//telegram.org/img/emoji/40/F09F94B9.png')\"><b>🔹</b></i></tg-emoji> Курс на MAКС&#33;"}},{"type":"Feature","geometry":null,"properties":{"source":"ru_mod","source_name":"Ministry of Defence of Russia","group":"official_ru","id":67928,"posted_utc":"2026-10-04T13:09:49+00:00","link":"https://t.me/mod_russia/67928","text":"▫️ Мощь русского оружия\nВ рамках учений «Центр-2026» представители оборонных ведомств иностранных государств ознакомились с выставкой новинок российского ВПК и понаблюдали за практическими действиями коалиционной группировки войск.\nВ ходе мероприятия российские военнослужащие поделились с зарубежными коллегами накопленным боевым опытом.\n#Центр2026\n💬 Канал Минобороны России в MAКС – только для своих!","links":["https://max.ru/morf"],"original_html":"<tg-emoji emoji-id=\"5352532894478793783\"><i class=\"emoji\" style=\"background-image:url('//telegram.org/img/emoji/40/E296AB.png')\"><b>▫️</b></i></tg-emoji> <b>Мощь русского оружия</b><br/><br/>В рамках учений «Центр-2026» представители оборонных ведомств иностранных государств <b>ознакомились с выставкой новинок российского ВПК и понаблюдали за практическими действиями</b> коалиционной группировки войск. <br/><br/>В ходе мероприятия российские военнослужащие <b>поделились с зарубежными коллегами накопленным боевым опытом</b>.<br/><br/><a href=\"?q=%23%D0%A6%D0%B5%D0%BD%D1%82%D1%802026\">#Центр2026</a><br/><tg-emoji emoji-id=\"5447486370761176298\"><i class=\"emoji\" style=\"background-image:url('//telegram.org/img/emoji/40/F09F92AC.png')\"><b>💬</b></i></tg-emoji> <a href=\"https://max.ru/morf\" target=\"_blank\" rel=\"noopener\" onclick=\"return confirm('Open this link?\\n\\n'+this.href);\">Канал Минобороны России в MAКС – только для своих&#33;</a>"}},{"type":"Feature","geometry":null,"properties":{"source":"ru_mod","source_name":"Ministry of Defence of Russia","group":"official_ru","id":67929,"posted_utc":"2026-10-04T13:40:18+00:00","link":"https://t.me/mod_russia/67929","text":"Разобрали в щепки\nРасчёты «Гвоздики» группировки «Восток» подняли в воздух укрепления ВСУ, прикрывавшие подступы к передовым позициям противника в Запорожской области.\n✅ Результат – уничтожены опорные пункты, находившаяся на позициях живая сила, а также оборудование и средства связи, использовавшиеся для управления БПЛА.\nЗемля горит под ногами врага. Работаем дальше! 🔥\n🔹 Канал Минобороны России в MAКС – боевая работа 24/7. Присоединяйся!","links":["https://max.ru/morf"],"original_html":"<b>Разобрали в щепки</b><br/><br/>Расчёты «Гвоздики» группировки «Восток» <b>подняли в воздух укрепления ВСУ</b>, прикрывавшие подступы к передовым позициям противника в Запорожской области. <br/><br/><tg-emoji emoji-id=\"5469909785128234267\"><i class=\"emoji\" style=\"background-image:url('//telegram.org/img/emoji/40/E29C85.png')\"><b>✅</b></i></tg-emoji> Результат –<b> уничтожены опорные пункты</b>, находившаяся на позициях живая сила, а также оборудование и средства связи, использовавшиеся для управления БПЛА.<br/><br/><b>Земля горит под ногами врага. Работаем дальше&#33; </b><tg-emoji emoji-id=\"5449590921916082144\"><i class=\"emoji\" style=\"background-image:url('//telegram.org/img/emoji/40/F09F94A5.png')\"><b>🔥</b></i></tg-emoji><br/><br/><tg-emoji emoji-id=\"5269510734265483362\"><i class=\"emoji\" style=\"background-image:url('//telegram.org/img/emoji/40/F09F94B9.png')\"><b>🔹</b></i></tg-emoji> <a href=\"https://max.ru/morf\" target=\"_blank\" rel=\"noopener\" onclick=\"return confirm('Open this link?\\n\\n'+this.href);\">Канал Минобороны России в MAКС – боевая работа 24/7. Присоединяйся&#33;</a>"}},{"type":"Feature","geometry":null,"properties":{"source":"ru_mod","source_name":"Ministry of Defence of Russia","group":"official_ru","id":67930,"posted_utc":"2026-10-04T13:57:39+00:00","link":"https://t.me/mod_russia/67930","text":"❗️ Вооруженные Силы Российской Федерации продолжают наносить удары беспилотными летательными аппаратами по объектам инфраструктуры Украины и морским судам, используемым в интересах ВСУ.\n💥 Сегодня днем в результате удара в городе Киеве поражен Северный автотранспортный мост через реку Днепр, обеспечивающий переброску войск и логистику военных грузов.\n🔥 Кроме того, на переходе морем в северо-западной части Черного моря поражены два морских судна типа «сухогруз», доставлявшие в порт Одесса военное имущество.\n🔹 Минобороны России","links":["https://max.ru/morf"],"original_html":"<i class=\"emoji\" style=\"background-image:url('//telegram.org/img/emoji/40/E29D97.png')\"><b>❗️</b></i> Вооруженные Силы Российской Федерации <b>продолжают наносить удары беспилотными летательными аппаратами по объектам инфраструктуры Украины и морским судам</b>, используемым в интересах ВСУ.<br/><br/><i class=\"emoji\" style=\"background-image:url('//telegram.org/img/emoji/40/F09F92A5.png')\"><b>💥</b></i> Сегодня днем в результате удара <b>в городе Киеве поражен Северный автотранспортный мост через реку Днепр</b>, обеспечивающий переброску войск и логистику военных грузов.<br/><br/><i class=\"emoji\" style=\"background-image:url('//telegram.org/img/emoji/40/F09F94A5.png')\"><b>🔥</b></i> Кроме того, <b>на переходе морем в северо-западной части Черного моря поражены два морских судна типа «сухогруз»</b>, доставлявшие в порт Одесса военное имущество.<br/><br/><tg-emoji emoji-id=\"5269510734265483362\"><i class=\"emoji\" style=\"background-image:url('//telegram.org/img/emoji/40/F09F94B9.png')\"><b>🔹</b></i></tg-emoji> <a href=\"https://max.ru/morf\" target=\"_blank\" rel=\"noopener\" onclick=\"return confirm('Open this link?\\n\\n'+this.href);\">Минобороны России</a>"}},{"type":"Feature","geometry":null,"properties":{"source":"ru_mod","source_name":"Ministry of Defence of Russia","group":"official_ru","id":67931,"posted_utc":"2026-10-04T14:15:59+00:00","link":"https://t.me/mod_russia/67931","text":"🤝 «Центр-2026»: финал маневров и заслуженные награды\nНа полигоне Чебаркульский состоялась церемония награждения участников СКШУ «Центр-2026». В ней приняли участие замминистра обороны РФ генерал армии Юнус-Бек Евкуров и командование Центрального военного округа.\n🔹 Ведомственной медали «За укрепление боевого содружества» удостоены военнослужащие вооруженных сил всех государств, участвовавших в маневрах.\n«Большое всем спасибо, все задачи выполнены, цели учения достигнуты», – сказал генерал армии Юнус-Бек Евкуров.\n#Центр2026\n🔹 MAКС – территория СВОих","links":["https://max.ru/morf"],"original_html":"<tg-emoji emoji-id=\"5447324252925620983\"><i class=\"emoji\" style=\"background-image:url('//telegram.org/img/emoji/40/F09FA49D.png')\"><b>🤝</b></i></tg-emoji> <b>«Центр-2026»: финал маневров и заслуженные награды</b><br/><br/>На полигоне Чебаркульский <b>состоялась церемония награждения участников СКШУ «Центр-2026»</b>. В ней приняли участие замминистра обороны РФ генерал армии Юнус-Бек Евкуров и командование Центрального военного округа.<br/><br/><tg-emoji emoji-id=\"5470000692406023380\"><i class=\"emoji\" style=\"background-image:url('//telegram.org/img/emoji/40/F09F94B9.png')\"><b>🔹</b></i></tg-emoji> Ведомственной медали «За укрепление боевого содружества» удостоены военнослужащие вооруженных сил всех государств, участвовавших в маневрах.<br/><br/><blockquote>«Большое всем спасибо, все задачи выполнены, цели учения достигнуты», – сказал генерал армии Юнус-Бек Евкуров.</blockquote><br/><br/><a href=\"?q=%23%D0%A6%D0%B5%D0%BD%D1%82%D1%802026\">#Центр2026</a><br/><tg-emoji emoji-id=\"5269510734265483362\"><i class=\"emoji\" style=\"background-image:url('//telegram.org/img/emoji/40/F09F94B9.png')\"><b>🔹</b></i></tg-emoji> <a href=\"https://max.ru/morf\" target=\"_blank\" rel=\"noopener\" onclick=\"return confirm('Open this link?\\n\\n'+this.href);\">MAКС – территория СВОих</a>"}},{"type":"Feature","geometry":null,"properties":{"source":"ru_mod","source_name":"Ministry of Defence of Russia","group":"official_ru","id":67932,"posted_utc":"2026-10-04T14:32:14+00:00","link":"https://t.me/mod_russia/67932","text":"Без пауз: ВС РФ усиливают удары, освобождают территории и проводят масштабные учения\n🔥 Удары по врагу: В течение недели ВС РФ мощно били по портам, судам и логистике ВСУ. Удары по объектам на Украине будут усилены.\n🌪 Наступление: Российские войска продолжают освобождать населенные пункты в ДНР, Запорожской, Харьковской и Сумской областях.\n▫️ Учения: Завершились масштабные маневры «Центр-2026», три учения ОДКБ и совместные тренировки со Шри-Ланкой «Тропа Росомахи».\n🤝 Признание: Владимир Путин присвоил звание «гвардейские» 92-й радиотехнической бригаде и 318-му радиотехническому полку.\n#СобытияНедели\n🔹 Минобороны России","links":["https://max.ru/morf"],"original_html":"<b>Без пауз: ВС РФ усиливают удары, освобождают территории и проводят масштабные учения</b><br/><br/><tg-emoji emoji-id=\"5449590921916082144\"><i class=\"emoji\" style=\"background-image:url('//telegram.org/img/emoji/40/F09F94A5.png')\"><b>🔥</b></i></tg-emoji> <b>Удары по врагу</b>: В течение недели ВС РФ мощно били по портам, судам и логистике ВСУ. Удары по объектам на Украине будут усилены.<br/><br/><i class=\"emoji\" style=\"background-image:url('//telegram.org/img/emoji/40/F09F8CAA.png')\"><b>🌪</b></i> <b>Наступление</b>: Российские войска продолжают освобождать населенные пункты в ДНР, Запорожской, Харьковской и Сумской областях.<br/><br/><tg-emoji emoji-id=\"5447420966999193906\"><i class=\"emoji\" style=\"background-image:url('//telegram.org/img/emoji/40/E296AB.png')\"><b>▫️</b></i></tg-emoji> <b>Учения</b>: Завершились масштабные маневры «Центр-2026», три учения ОДКБ и совместные тренировки со Шри-Ланкой «Тропа Росомахи».<br/><br/><tg-emoji emoji-id=\"5447324252925620983\"><i class=\"emoji\" style=\"background-image:url('//telegram.org/img/emoji/40/F09FA49D.png')\"><b>🤝</b></i></tg-emoji> <b>Признание</b>: Владимир Путин присвоил звание «гвардейские» 92-й радиотехнической бригаде и 318-му радиотехническому полку.<br/><br/><a href=\"?q=%23%D0%A1%D0%BE%D0%B1%D1%8B%D1%82%D0%B8%D1%8F%D0%9D%D0%B5%D0%B4%D0%B5%D0%BB%D0%B8\">#СобытияНедели</a><br/><tg-emoji emoji-id=\"5269510734265483362\"><i class=\"emoji\" style=\"background-image:url('//telegram.org/img/emoji/40/F09F94B9.png')\"><b>🔹</b></i></tg-emoji> <a href=\"https://max.ru/morf\" target=\"_blank\" rel=\"noopener\" onclick=\"return confirm('Open this link?\\n\\n'+this.href);\">Минобороны России</a>"}},{"type":"Feature","geometry":null,"properties":{"source":"ru_mod","source_name":"Ministry of Defence of Russia","group":"official_ru","id":67942,"posted_utc":"2026-10-04T15:52:49+00:00","link":"https://t.me/mod_russia/67942","text":"🔥 Морскую логистику врага множим на ноль\n🎯 В порту Черноморск, а также в акваториях Бугского Лимана и Черного моря расчеты БПЛА «Герань-4 сикер» ударили по четырем судам типа «сухогруз», использовавшимся для доставки грузов военного назначения в интересах ВСУ.\n#ВойскаБПС\n🎮 Канал Минобороны России в MAКС – боевая работа 24/7. Присоединяйся!","links":["https://max.ru/morf"],"original_html":"<tg-emoji emoji-id=\"5449590921916082144\"><i class=\"emoji\" style=\"background-image:url('//telegram.org/img/emoji/40/F09F94A5.png')\"><b>🔥</b></i></tg-emoji> <b>Морскую логистику врага множим на ноль</b><br/><br/><tg-emoji emoji-id=\"5467558728620341717\"><i class=\"emoji\" style=\"background-image:url('//telegram.org/img/emoji/40/F09F8EAF.png')\"><b>🎯</b></i></tg-emoji> В порту Черноморск, а также в акваториях Бугского Лимана и Черного моря расчеты БПЛА «Герань-4 сикер» <b>ударили по четырем судам типа «сухогруз»</b>, использовавшимся для доставки грузов военного назначения в интересах ВСУ.<br/><br/><a href=\"?q=%23%D0%92%D0%BE%D0%B9%D1%81%D0%BA%D0%B0%D0%91%D0%9F%D0%A1\">#ВойскаБПС</a><br/><tg-emoji emoji-id=\"5449767024165154360\"><i class=\"emoji\" style=\"background-image:url('//telegram.org/img/emoji/40/F09F8EAE.png')\"><b>🎮</b></i></tg-emoji> <a href=\"https://max.ru/morf\" target=\"_blank\" rel=\"noopener\" onclick=\"return confirm('Open this link?\\n\\n'+this.href);\">Канал Минобороны России в MAКС – боевая работа 24/7. Присоединяйся&#33;</a>"}},{"type":"Feature","geometry":null,"properties":{"source":"ru_mod","source_name":"Ministry of Defence of Russia","group":"official_ru","id":67943,"posted_utc":"2026-10-04T16:28:03+00:00","link":"https://t.me/mod_russia/67943","text":"💥 Громкий прилет по штурмам ВСУ\n✈️ Экипажи ВКС с применением авиабомб ФАБ-500 поразили пункт временной дислокации 425-го отдельного штурмового полка ВСУ в населенном пункте Крутояровка Днепропетровской области.\n▫️ Канал Минобороны России в MAКС – источник мощных новостей","links":["https://max.ru/morf"],"original_html":"<tg-emoji emoji-id=\"5449682610877918293\"><i class=\"emoji\" style=\"background-image:url('//telegram.org/img/emoji/40/F09F92A5.png')\"><b>💥</b></i></tg-emoji> <b>Громкий прилет по штурмам ВСУ</b><br/><br/><tg-emoji emoji-id=\"5449403034276751727\"><i class=\"emoji\" style=\"background-image:url('//telegram.org/img/emoji/40/E29C88.png')\"><b>✈️</b></i></tg-emoji> Экипажи ВКС с применением авиабомб ФАБ-500 <b>поразили пункт временной дислокации 425-го отдельного штурмового полка ВСУ</b> в населенном пункте Крутояровка Днепропетровской области.<br/><br/><tg-emoji emoji-id=\"5352532894478793783\"><i class=\"emoji\" style=\"background-image:url('//telegram.org/img/emoji/40/E296AB.png')\"><b>▫️</b></i></tg-emoji> <a href=\"https://max.ru/morf\" target=\"_blank\" rel=\"noopener\" onclick=\"return confirm('Open this link?\\n\\n'+this.href);\">Канал Минобороны России в MAКС – источник мощных новостей</a>"}},{"type":"Feature","geometry":null,"properties":{"source":"ru_mod","source_name":"Ministry of Defence of Russia","group":"official_ru","id":67944,"posted_utc":"2026-10-04T16:58:27+00:00","link":"https://t.me/mod_russia/67944","text":"«У каждой машины свой характер»: работа ремонтников «Севера» 🛠\n⏩ Специалисты ремонтной роты 44-го армейского корпуса группировки «Север» восстанавливают технику вблизи линии боевого соприкосновения на Сумском направлении.\n▶️ Командир ремонтной роты с позывным «Механик» поделился особенностями работы с различной техникой.\n💬 Канал Минобороны России в MAКС – только для своих!","links":["https://max.ru/morf"],"original_html":"<b>«У каждой машины свой характер»: работа ремонтников «Севера» </b><b><tg-emoji emoji-id=\"5352571270011580134\"><i class=\"emoji\" style=\"background-image:url('//telegram.org/img/emoji/40/F09F9BA0.png')\"><b>🛠</b></i></tg-emoji></b><br/><br/><tg-emoji emoji-id=\"5470088953983955103\"><i class=\"emoji\" style=\"background-image:url('//telegram.org/img/emoji/40/E28FA9.png')\"><b>⏩</b></i></tg-emoji> Специалисты ремонтной роты 44-го армейского корпуса группировки «Север» <b>восстанавливают технику вблизи линии боевого соприкосновения на Сумском направлении</b>.<br/><br/><tg-emoji emoji-id=\"5469788413647416310\"><i class=\"emoji\" style=\"background-image:url('//telegram.org/img/emoji/40/E296B6.png')\"><b>▶️</b></i></tg-emoji> Командир ремонтной роты с позывным «Механик» поделился особенностями работы с различной техникой.<br/><br/><tg-emoji emoji-id=\"5447486370761176298\"><i class=\"emoji\" style=\"background-image:url('//telegram.org/img/emoji/40/F09F92AC.png')\"><b>💬</b></i></tg-emoji> <a href=\"https://max.ru/morf\" target=\"_blank\" rel=\"noopener\" onclick=\"return confirm('Open this link?\\n\\n'+this.href);\">Канал Минобороны России в MAКС – только для своих&#33;</a>"}},{"type":"Feature","geometry":null,"properties":{"source":"ru_mod","source_name":"Ministry of Defence of Russia","group":"official_ru","id":67945,"posted_utc":"2026-10-04T17:39:38+00:00","link":"https://t.me/mod_russia/67945","text":"⚡️ В течение дня, в период с 8.00 до 20.00 мск, дежурными силами ПВО перехвачены и уничтожены 280 украинских беспилотных летательных аппаратов самолетного типа над территориями Курской, Белгородской, Смоленской, Брянской, Калужской, Тульской, Орловской, Ростовской областей, Московского региона, Краснодарского края, Республики Крым, над акваториями Черного и Азовского морей.\n🔹 Минобороны России","links":["https://max.ru/morf"],"original_html":"<i class=\"emoji\" style=\"background-image:url('//telegram.org/img/emoji/40/E29AA1.png')\"><b>⚡️</b></i> В течение дня, в период с 8.00 до 20.00 мск, дежурными силами ПВО <b>перехвачены и уничтожены 280 украинских беспилотных летательных аппаратов самолетного типа</b> над территориями Курской, Белгородской, Смоленской, Брянской, Калужской, Тульской, Орловской, Ростовской областей, Московского региона, Краснодарского края, Республики Крым, над акваториями Черного и Азовского морей.<br/><br/><tg-emoji emoji-id=\"5269510734265483362\"><i class=\"emoji\" style=\"background-image:url('//telegram.org/img/emoji/40/F09F94B9.png')\"><b>🔹</b></i></tg-emoji> <a href=\"https://max.ru/morf\" target=\"_blank\" rel=\"noopener\" onclick=\"return confirm('Open this link?\\n\\n'+this.href);\">Минобороны России</a>"}},{"type":"Feature","geometry":null,"properties":{"source":"ru_mod","source_name":"Ministry of Defence of Russia","group":"official_ru","id":67946,"posted_utc":"2026-10-04T17:57:24+00:00","link":"https://t.me/mod_russia/67946","text":"Добрая традиция: десантники провели военно-патриотическую акцию для школьников\n📍 Донецкая Народная Республика\n💬 Гвардейцы-десантники пообщались с учащимися, предоставив им уникальную возможность ознакомиться с современной военной экипировкой, тактическим снаряжением и средствами связи.\n▫️ Особое место в программе мероприятия заняла масштабная фронтовая выставка «Лица войны вчера и сегодня», где были представлены фотографии героев-фронтовиков разных периодов военной истории Отечества. Каждый из учеников посетил выставку, принеся с собой таблички с изображениями своих прадедов – участников Великой Отечественной войны, для семей которых они являются настоящей гордостью.\n🎶 Кульминацией мероприятия стал торжественный концерт, включивший детские вокальные и танцевальные номера, а также выступление творческого коллектива фронтовой бригады Воздушно-десантных войск.\n🔹 MAКС – территория СВОих","links":["https://max.ru/morf"],"original_html":"<b>Добрая традиция: десантники провели военно-патриотическую акцию для школьников </b><br/><br/><tg-emoji emoji-id=\"5449396879588614682\"><i class=\"emoji\" style=\"background-image:url('//telegram.org/img/emoji/40/F09F938D.png')\"><b>📍</b></i></tg-emoji> <i>Донецкая Народная Республика</i><br/><br/><tg-emoji emoji-id=\"5447486370761176298\"><i class=\"emoji\" style=\"background-image:url('//telegram.org/img/emoji/40/F09F92AC.png')\"><b>💬</b></i></tg-emoji> <b>Гвардейцы-десантники пообщались с учащимися, предоставив им уникальную возможность</b> ознакомиться с современной военной экипировкой, тактическим снаряжением и средствами связи.<br/><br/><tg-emoji emoji-id=\"5469903849483431273\"><i class=\"emoji\" style=\"background-image:url('//telegram.org/img/emoji/40/E296AB.png')\"><b>▫️</b></i></tg-emoji> <b>Особое место в программе мероприятия заняла масштабная фронтовая выставка «Лица войны вчера и сегодня»</b>, где были представлены фотографии героев-фронтовиков разных периодов военной истории Отечества. <b>Каждый из учеников посетил выставку, принеся с собой таблички с изображениями своих прадедов – участников Великой Отечественной войны</b>, для семей которых они являются настоящей гордостью.<br/><br/><tg-emoji emoji-id=\"5467850013302355651\"><i class=\"emoji\" style=\"background-image:url('//telegram.org/img/emoji/40/F09F8EB6.png')\"><b>🎶</b></i></tg-emoji> <b>Кульминацией мероприятия стал торжественный концерт</b>, включивший детские вокальные и танцевальные номера, а также выступление творческого коллектива фронтовой бригады Воздушно-десантных войск.<br/><br/><tg-emoji emoji-id=\"5269510734265483362\"><i class=\"emoji\" style=\"background-image:url('//telegram.org/img/emoji/40/F09F94B9.png')\"><b>🔹</b></i></tg-emoji> <a href=\"https://max.ru/morf\" target=\"_blank\" rel=\"noopener\" onclick=\"return confirm('Open this link?\\n\\n'+this.href);\">MAКС – территория СВОих</a>"}},{"type":"Feature","geometry":null,"properties":{"source":"ru_mod","source_name":"Ministry of Defence of Russia","group":"official_ru","id":67926,"posted_utc":"2026-10-04T11:51:29+00:00","link":"https://t.me/mod_russia/67926","text":"Сбили «птиц» врага на подлете 💥\n🎯 Группы воздушного прикрытия группировки «Восток» сорвали атаку беспилотной авиации ВСУ в Запорожской области.\n#ВойскаБПС\n🔹 Канал Минобороны России в MAКС – боевая работа 24/7","links":["https://max.ru/morf"],"original_html":"<b>Сбили «птиц» врага на подлете </b><b><tg-emoji emoji-id=\"5449682610877918293\"><i class=\"emoji\" style=\"background-image:url('//telegram.org/img/emoji/40/F09F92A5.png')\"><b>💥</b></i></tg-emoji></b><br/><br/><tg-emoji emoji-id=\"5467558728620341717\"><i class=\"emoji\" style=\"background-image:url('//telegram.org/img/emoji/40/F09F8EAF.png')\"><b>🎯</b></i></tg-emoji> Группы воздушного прикрытия группировки «Восток» сорвали атаку беспилотной авиации ВСУ в Запорожской области.<br/><br/><a href=\"?q=%23%D0%92%D0%BE%D0%B9%D1%81%D0%BA%D0%B0%D0%91%D0%9F%D0%A1\">#ВойскаБПС</a><br/><tg-emoji emoji-id=\"5269510734265483362\"><i class=\"emoji\" style=\"background-image:url('//telegram.org/img/emoji/40/F09F94B9.png')\"><b>🔹</b></i></tg-emoji> <a href=\"https://max.ru/morf\" target=\"_blank\" rel=\"noopener\" onclick=\"return confirm('Open this link?\\n\\n'+this.href);\">Канал Минобороны России в MAКС – боевая работа 24/7</a>"}},{"type":"Feature","geometry":null,"properties":{"source":"ru_mod","source_name":"Ministry of Defence of Russia","group":"official_ru","id":67947,"posted_utc":"2026-10-04T18:32:01+00:00","link":"https://t.me/mod_russia/67947","text":"65 дней наблюдения: боец группировки «Центр» рассказал о боевом выходе\n▫️ Военнослужащий 589-го мотострелкового полка 27-й гвардейской мотострелковой дивизии Дмитрий Антонов поделился подробностями боевого выхода на Днепропетровском направлении. Он находился на позиции 65 дней.\n❗️Дмитрий круглосуточно наблюдал за лесополосами и близлежащими строениями, фиксировал перемещения противника, звуки техники и сбросы с гексакоптеров, оперативно передавая все разведданные командованию.\n➡️ По словам штурмовика, самым сложным этапом за весь этот период стал выход с боевой позиции:\n«Это самый волнительный момент. Ты сам составляешь маршрут, думаешь, уже знаешь, где заминировано, где работают \"ждуны\", где летают \"птички\", где окна проходов. В основном шёл ночью под пончо противодроновым», – рассказал Дмитрий.\n🔹 Канал Минобороны России в MAКС – боевая работа 24/7","links":["https://max.ru/morf"],"original_html":"<b>65 дней наблюдения: боец группировки «Центр» рассказал о боевом выходе</b><br/><br/><tg-emoji emoji-id=\"5264796878809099818\"><i class=\"emoji\" style=\"background-image:url('//telegram.org/img/emoji/40/E296AB.png')\"><b>▫️</b></i></tg-emoji> Военнослужащий 589-го мотострелкового полка 27-й гвардейской мотострелковой дивизии Дмитрий Антонов поделился подробностями боевого выхода на Днепропетровском направлении. Он находился на позиции 65 дней.<br/><br/><tg-emoji emoji-id=\"5447116342148753425\"><i class=\"emoji\" style=\"background-image:url('//telegram.org/img/emoji/40/E29D97.png')\"><b>❗️</b></i></tg-emoji>Дмитрий круглосуточно <b>наблюдал за лесополосами и близлежащими строениями, фиксировал перемещения противника, звуки техники и сбросы с гексакоптеров</b>, оперативно передавая все разведданные командованию.<br/><br/><tg-emoji emoji-id=\"5469902676957357453\"><i class=\"emoji\" style=\"background-image:url('//telegram.org/img/emoji/40/E29EA1.png')\"><b>➡️</b></i></tg-emoji> По словам штурмовика, самым сложным этапом за весь этот период стал выход с боевой позиции:<br/><br/><blockquote>«Это самый волнительный момент. Ты сам составляешь маршрут, думаешь, уже знаешь, где заминировано, где работают &quot;ждуны&quot;, где летают &quot;птички&quot;, где окна проходов. В основном шёл ночью под пончо противодроновым», – рассказал Дмитрий.</blockquote><br/><br/><tg-emoji emoji-id=\"5269510734265483362\"><i class=\"emoji\" style=\"background-image:url('//telegram.org/img/emoji/40/F09F94B9.png')\"><b>🔹</b></i></tg-emoji> <a href=\"https://max.ru/morf\" target=\"_blank\" rel=\"noopener\" onclick=\"return confirm('Open this link?\\n\\n'+this.href);\">Канал Минобороны России в MAКС – боевая работа 24/7</a>"}},{"type":"Feature","geometry":null,"properties":{"source":"ru_mod","source_name":"Ministry of Defence of Russia","group":"official_ru","id":67948,"posted_utc":"2026-10-04T21:01:07+00:00","link":"https://t.me/mod_russia/67948","text":"Спасибо Вам, учителя!\nМинистр обороны Российской Федерации Андрей Белоусов поздравил руководителей, преподавателей и работников образовательных организаций Минобороны России с Днем учителя.\n«И даже в век инноваций ничто не заменит вашей преданности, душевной щедрости и личного примера!\nВаша благородная, созидательная деятельность направлена на передачу прочных знаний, воспитание достойных защитников Отечества, формирование ответственных граждан, истинных патриотов».\nБез ценностной опоры – земля не вертится. Без умения увидеть искры таланта – не будет наших достижений.\nСпасибо Вам! ❤️\n🔹 Минобороны России","links":["https://max.ru/morf"],"original_html":"<b>Спасибо Вам, учителя&#33; </b><br/><i><br/>Министр обороны Российской Федерации Андрей Белоусов поздравил руководителей, преподавателей и работников образовательных организаций Минобороны России с Днем учителя.</i><br/><br/><blockquote>«И даже в век инноваций ничто не заменит вашей преданности, душевной щедрости и личного примера&#33;<br/><br/>Ваша благородная, созидательная деятельность направлена на передачу прочных знаний, воспитание достойных защитников Отечества, формирование ответственных граждан, истинных патриотов».</blockquote><br/><br/><b>Без ценностной опоры – земля не вертится. Без умения увидеть искры таланта – не будет наших достижений.<br/><br/>Спасибо Вам&#33;</b> <i class=\"emoji\" style=\"background-image:url('//telegram.org/img/emoji/40/E29DA4.png')\"><b>❤️</b></i><br/><br/><tg-emoji emoji-id=\"5269510734265483362\"><i class=\"emoji\" style=\"background-image:url('//telegram.org/img/emoji/40/F09F94B9.png')\"><b>🔹</b></i></tg-emoji> <a href=\"https://max.ru/morf\" target=\"_blank\" rel=\"noopener\" onclick=\"return confirm('Open this link?\\n\\n'+this.href);\">Минобороны России</a>"}}]}