{"type":"FeatureCollection","features":[{"type":"Feature","geometry":null,"properties":{"source":"ua_mod","source_name":"Ministry of Defence of Ukraine","group":"official_ua","id":16251,"posted_utc":"2026-09-25T07:47:14+00:00","link":"https://t.me/ministry_of_defense_ua/16251","text":"🧠 Менше рутини у штабах: ШІ-платформа SPECTR аналізуватиме бойові дані та прогнозуватиме дії противника. Технологію розробляє Центр штучного інтелекту «A1» при Міноборони.\nSPECTR має взяти на себе частину щоденної роботи штабів: обробляти інформацію, знаходити закономірності та формувати рекомендації. Зокрема, платформа допоможе обирати ефективні сценарії дій і прогнозувати можливі кроки противника.\nВажливо, що система працюватиме в уже наявних цифрових рішеннях Сил оборони, а дані залишатимуться в захищеному середовищі. Тестування проходить у кількох бойових підрозділах.\nПлатформу створює Центр штучного інтелекту «А1», заснований Міноборони в березні 2026 року за підтримки уряду Великої Британії.\nЦе частина ширшої роботи з посилення українського війська штучним інтелектом для швидшого ухвалення рішень на основі даних, збільшення ефективності засобів ураження та скорочення бюрократії.","links":[],"original_html":"<i class=\"emoji\" style=\"background-image:url('//telegram.org/img/emoji/40/F09FA7A0.png')\"><b>🧠</b></i> <b>Менше рутини у штабах: ШІ-платформа SPECTR аналізуватиме бойові дані та прогнозуватиме дії противника. Технологію розробляє Центр штучного інтелекту «A1» при Міноборони.</b><br/><br/>SPECTR має взяти на себе частину щоденної роботи штабів: обробляти інформацію, знаходити закономірності та формувати рекомендації. Зокрема, платформа допоможе обирати ефективні сценарії дій і прогнозувати можливі кроки противника.<br/><br/><blockquote>Важливо, що система працюватиме в уже наявних цифрових рішеннях Сил оборони, а дані залишатимуться в захищеному середовищі. Тестування проходить у кількох бойових підрозділах.</blockquote><br/><br/>Платформу створює Центр штучного інтелекту «А1», заснований Міноборони в березні 2026 року за підтримки уряду Великої Британії.<br/><br/>Це частина ширшої роботи з посилення українського війська штучним інтелектом для швидшого ухвалення рішень на основі даних, збільшення ефективності засобів ураження та скорочення бюрократії."}},{"type":"Feature","geometry":null,"properties":{"source":"ua_mod","source_name":"Ministry of Defence of Ukraine","group":"official_ua","id":16252,"posted_utc":"2026-09-25T11:31:26+00:00","link":"https://t.me/ministry_of_defense_ua/16252","text":"📈 Понад 590 000 безпілотників замовили українські військові через Brave1 Market з початку 2026 року.\nНайчастіше підрозділи обирають дрони-перехоплювачі, призначені для знищення інших дронів.\nСеред найбільш затребуваних – перехоплювачі ворожих розвідників і спеціалізовані «антишахеди». На другому місці за кількістю замовлень – FPV-камікадзе коптерного типу.\nВодночас найшвидше зростає попит на дрони-камікадзе літакового типу. На піку активності їх замовляли у 6 разів більше, ніж на початку року.\nЗагалом середня сума місячних замовлень на маркетплейсі збільшилася більш ніж удвічі.\nЧим Brave1 Market корисний військовим?\nПідрозділи можуть самостійно обирати необхідні дрони, НРК та засоби РЕБ, використовуючи нараховані за виконані бойові місії єБали. Таким чином, результати бойової роботи дають підрозділам можливість отримувати більше техніки.","links":[],"original_html":"<i class=\"emoji\" style=\"background-image:url('//telegram.org/img/emoji/40/F09F9388.png')\"><b>📈</b></i> <b>Понад 590 000 безпілотників замовили українські військові через Brave1 Market з початку 2026 року. </b><br/><br/>Найчастіше підрозділи обирають дрони-перехоплювачі, призначені для знищення інших дронів. <br/><br/>Серед найбільш затребуваних – перехоплювачі ворожих розвідників і спеціалізовані «антишахеди». На другому місці за кількістю замовлень – FPV-камікадзе коптерного типу. <br/><br/>Водночас найшвидше зростає попит на дрони-камікадзе літакового типу. На піку активності їх замовляли у 6 разів більше, ніж на початку року.<br/><br/>Загалом середня сума місячних замовлень на маркетплейсі збільшилася більш ніж удвічі.<br/><u><br/>Чим Brave1 Market корисний військовим?</u><br/><br/>Підрозділи можуть самостійно обирати необхідні дрони, НРК та засоби РЕБ, використовуючи нараховані за виконані бойові місії єБали. Таким чином, результати бойової роботи дають підрозділам можливість отримувати більше техніки."}},{"type":"Feature","geometry":null,"properties":{"source":"ua_mod","source_name":"Ministry of Defence of Ukraine","group":"official_ua","id":16253,"posted_utc":"2026-09-25T12:11:28+00:00","link":"https://t.me/ministry_of_defense_ua/16253","text":"📲 У Резерв+ з’являється авторизація через Дію. Тепер користувачі зможуть обирати спосіб входу: Дія.Підпис або BankID.\nЩоб увійти через Дію:\n⓵ На екрані входу в Резерв+ оберіть «Увійти через Дію».\n⓶ Підтвердьте вхід за допомогою Дія.Підпису.\n⓷ Поверніться в Резерв+ і користуйтеся застосунком.\nДля цього потрібен активний Дія.Підпис. Якщо його немає, створити підпис можна приблизно за хвилину в Дії за наявності ID-картки або біометричного закордонного паспорта.\nВажливо: новий спосіб входу з’являється поступово. Якщо після оновлення Резерв+ кнопки ще немає, продовжуйте користуватися BankID.\nТакож в оновленні покращили стабільність авторизації, посилили вимоги до PIN-кодів та зробили зручнішим інтерфейс звернень до підтримки.","links":[],"original_html":"<i class=\"emoji\" style=\"background-image:url('//telegram.org/img/emoji/40/F09F93B2.png')\"><b>📲</b></i> <b>У Резерв+ з’являється авторизація через Дію. Тепер користувачі зможуть обирати спосіб входу: Дія.Підпис або BankID.</b><br/><br/><u>Щоб увійти через Дію:</u><br/>⓵ На екрані входу в Резерв+ оберіть «Увійти через Дію».<br/>⓶ Підтвердьте вхід за допомогою Дія.Підпису.<br/>⓷ Поверніться в Резерв+ і користуйтеся застосунком.<br/><br/>Для цього потрібен активний Дія.Підпис. Якщо його немає, створити підпис можна приблизно за хвилину в Дії за наявності ID-картки або біометричного закордонного паспорта.<br/><br/><i><b>Важливо</b>: новий спосіб входу з’являється поступово. Якщо після оновлення Резерв+ кнопки ще немає, продовжуйте користуватися BankID.</i><br/><br/>Також в оновленні покращили стабільність авторизації, посилили вимоги до PIN-кодів та зробили зручнішим інтерфейс звернень до підтримки."}},{"type":"Feature","geometry":null,"properties":{"source":"ua_mod","source_name":"Ministry of Defence of Ukraine","group":"official_ua","id":16254,"posted_utc":"2026-09-25T14:21:07+00:00","link":"https://t.me/ministry_of_defense_ua/16254","text":"🤝 Велика Британія стала першим міжнародним партнером України, чиї оборонні компанії долучаться до Avengers Labs – платформи для тренування ШІ-моделей безпілотних систем на основі реальних даних з поля бою.\nВже незабаром до 12 британських компаній зможуть тренувати та тестувати свої ШІ-моделі в Avengers Labs. Важливо, що дані залишатимуться лише у захищеному середовищі без можливості завантаження чи виведення за межі системи.\nAvengers Labs наразі використовують понад 30 українських оборонних компаній, а три розробки вже застосовують на полі бою.\nТепер відкриваємо платформу для міжнародної співпраці. Це дозволить об’єднати український бойовий досвід із можливостями наших партнерів і спільно розвивати ШІ для безпілотних систем.\n🔗 Докладніше про це","links":["https://mod.gov.ua/news/velyka-brytaniia-pershoiu-sered-mizhnarodnykh-partneriv-doluchaietsia-do-avengers-labs"],"original_html":"<i class=\"emoji\" style=\"background-image:url('//telegram.org/img/emoji/40/F09FA49D.png')\"><b>🤝</b></i> <b>Велика Британія стала першим міжнародним партнером України, чиї оборонні компанії долучаться до Avengers Labs – платформи для тренування ШІ-моделей безпілотних систем на основі реальних даних з поля бою.<br/></b><br/>Вже незабаром до 12 британських компаній зможуть тренувати та тестувати свої ШІ-моделі в Avengers Labs. Важливо, що дані залишатимуться лише у захищеному середовищі без можливості завантаження чи виведення за межі системи.<br/><br/>Avengers Labs наразі використовують понад 30 українських оборонних компаній, а три розробки вже застосовують на полі бою.<br/><br/>Тепер відкриваємо платформу для міжнародної співпраці. Це дозволить об’єднати український бойовий досвід із можливостями наших партнерів і спільно розвивати ШІ для безпілотних систем.<br/><br/><a href=\"https://mod.gov.ua/news/velyka-brytaniia-pershoiu-sered-mizhnarodnykh-partneriv-doluchaietsia-do-avengers-labs\" target=\"_blank\" rel=\"noopener\" onclick=\"return confirm('Open this link?\\n\\n'+this.href);\"><b><i class=\"emoji\" style=\"background-image:url('//telegram.org/img/emoji/40/F09F9497.png')\"><b>🔗</b></i> Докладніше про це</b></a>"}},{"type":"Feature","geometry":null,"properties":{"source":"ua_mod","source_name":"Ministry of Defence of Ukraine","group":"official_ua","id":16255,"posted_utc":"2026-09-25T17:46:37+00:00","link":"https://t.me/ministry_of_defense_ua/16255","text":"Провів нараду з Міноборони щодо закриття додаткового оборонного запиту на $27 млрд цього року.\nЧастина цих ресурсів потрібна вже зараз для передоплати постачань, які мають надійти в першому кварталі 2027 року.\nЧастину суми маємо закрити за рахунок внутрішніх джерел, перерозподіливши кошти в межах чинних програм. Це завдання Міністерству фінансів.\nТакож розраховуємо на підтримку ЄС. Є прямі переговори на рівні оборонних відомств із країнами НАТО та іншими партнерами щодо закриття цієї потреби.\nПаралельно маємо розблокувати зовнішнє фінансування, прив’язане до виконання домовленостей із міжнародними партнерами. Для цього необхідно ухвалити конкретні закони та рішення в межах плану, представленого Урядом. Щодня тісно взаємодіємо з Парламентом.\nКрок за кроком.","links":[],"original_html":"<div class=\"tgme_widget_message_text js-message_text\" dir=\"auto\">Провів нараду з Міноборони щодо закриття додаткового оборонного запиту на &#036;27 млрд цього року.<br/><br/>Частина цих ресурсів потрібна вже зараз для передоплати постачань, які мають надійти в першому кварталі 2027 року.<br/><br/>Частину суми маємо закрити за рахунок внутрішніх джерел, перерозподіливши кошти в межах чинних програм. Це завдання Міністерству фінансів.<br/><br/>Також розраховуємо на підтримку ЄС. Є прямі переговори на рівні оборонних відомств із країнами НАТО та іншими партнерами щодо закриття цієї потреби.<br/><br/>Паралельно маємо розблокувати зовнішнє фінансування, прив’язане до виконання домовленостей із міжнародними партнерами. Для цього необхідно ухвалити конкретні закони та рішення в межах плану, представленого Урядом. Щодня тісно взаємодіємо з Парламентом.<br/><br/>Крок за кроком."}}]}