{"type":"FeatureCollection","features":[{"type":"Feature","geometry":{"type":"Point","coordinates":[36.911732,50.300417]},"properties":{"original":{"id":46362,"type":"Other","model":"'Impuls-M' universal tracked platform","status":"Destroyed","lost_by":"Russia","date":"2026-08-06","nearest_location":"Vovchansk, Chuhuiv raion","geo":"50.300417,36.911732","unit":null,"tags":"Cope cage"},"source":"warspotting","source_name":"WarSpotting","source_url":"https://ukr.warspotting.net/","id":46362,"date":"2026-08-06","link":"https://ukr.warspotting.net/view/46362/","category":"Other","side":"Lost by Russia","color":"#E00000","description":"'Impuls-M' universal tracked platform · Destroyed · near Vovchansk, Chuhuiv raion · tags: Cope cage","orbat":[]}}]}