{"type":"FeatureCollection","features":[{"type":"Feature","geometry":null,"properties":{"source":"ua_mod","source_name":"Ministry of Defence of Ukraine","group":"official_ua","id":15983,"posted_utc":"2026-08-04T09:11:51+00:00","link":"https://t.me/ministry_of_defense_ua/15983","text":"🚧 Понад 1 180 км антидронового захисту доріг облаштовано від початку 2026 року: робимо безпечнішими важливі маршрути у прифронтових районах.\nЛише за липень у прифронтових регіонах:\n☑️ побудовано 215 км антидронового захисту;\n☑️ відновлено 16,52 км антидронового захисту;\n☑️ відремонтовано 112,7 км автомобільних доріг.\nРоботи вже завершили на 25 ділянках, ще на 21 вони тривають.\nКожен захищений кілометр дороги – це врятовані життя українських військових, збережена техніка та можливість виконувати бойові завдання безпечно та ефективно.","links":[],"original_html":"<i class=\"emoji\" style=\"background-image:url('//telegram.org/img/emoji/40/F09F9AA7.png')\"><b>🚧</b></i> Понад 1 180 км антидронового захисту доріг облаштовано від початку 2026 року: робимо безпечнішими важливі маршрути у прифронтових районах.<br/> <br/>Лише за липень у прифронтових регіонах:<br/><i class=\"emoji\" style=\"background-image:url('//telegram.org/img/emoji/40/E29891.png')\"><b>☑️</b></i> побудовано 215 км антидронового захисту;<br/><i class=\"emoji\" style=\"background-image:url('//telegram.org/img/emoji/40/E29891.png')\"><b>☑️</b></i> відновлено 16,52 км антидронового захисту;<br/><i class=\"emoji\" style=\"background-image:url('//telegram.org/img/emoji/40/E29891.png')\"><b>☑️</b></i> відремонтовано 112,7 км автомобільних доріг.<br/> <br/>Роботи вже завершили на 25 ділянках, ще на 21 вони тривають.<br/> <br/>Кожен захищений кілометр дороги – це врятовані життя українських військових, збережена техніка та можливість виконувати бойові завдання безпечно та ефективно."}},{"type":"Feature","geometry":null,"properties":{"source":"ua_mod","source_name":"Ministry of Defence of Ukraine","group":"official_ua","id":15984,"posted_utc":"2026-08-04T12:12:42+00:00","link":"https://t.me/ministry_of_defense_ua/15984","text":"❗️ Колишнім засудженим, які пішли служити за контрактом після УДЗ, дали більше прав на відпустки, переведення та звільнення.\nВідповідний закон підписав Президент України.\nВійськові, які для проходження військової служби за контрактом були умовно-достроково звільнені від відбування покарання:\n• отримали право на щорічну відпустку до 15 днів — після року служби та припинення адміннагляду;\n• зможуть переводитися між підрозділами ЗСУ після року служби;\n• після поранення чи хвороби зможуть переводитися до підрозділів забезпечення незалежно від строку служби;\n• отримали нові підстави для звільнення зі служби — зокрема через інвалідність унаслідок поранення або після звільнення з полону.\nЗміни усувають прогалини в законодавстві та дають військовим чітко визначені права та гарантії.","links":["https://mod.gov.ua/news/rozshyreno-prava-viiskovykh-yaki-za-protseduroiu-umovno-dostrokovoho-zvilnennia-staly-na-zakhyst-ukrainy?utm_source=mod-telegram&utm_medium=social"],"original_html":"<i class=\"emoji\" style=\"background-image:url('//telegram.org/img/emoji/40/E29D97.png')\"><b>❗️</b></i> <b>Колишнім засудженим, які пішли служити за контрактом після УДЗ, дали більше прав на відпустки, переведення та звільнення.</b><br/><br/>Відповідний закон підписав Президент України.<br/><br/>Військові, які для проходження військової служби за контрактом були умовно-достроково звільнені від відбування покарання:<br/><br/>• отримали право на щорічну відпустку до 15 днів — після року служби та припинення адміннагляду;<br/>• зможуть переводитися між підрозділами ЗСУ після року служби;<br/>• після поранення чи хвороби зможуть переводитися до підрозділів забезпечення незалежно від строку служби;<br/>• отримали нові підстави для звільнення зі служби — зокрема через інвалідність унаслідок поранення або після звільнення з полону.<br/> <br/><a href=\"https://mod.gov.ua/news/rozshyreno-prava-viiskovykh-yaki-za-protseduroiu-umovno-dostrokovoho-zvilnennia-staly-na-zakhyst-ukrainy?utm_source=mod-telegram&amp;amp;utm_medium=social\" target=\"_blank\" rel=\"noopener\" onclick=\"return confirm('Open this link?\\n\\n'+this.href);\">Зміни</a> усувають прогалини в законодавстві та дають військовим чітко визначені права та гарантії."}},{"type":"Feature","geometry":null,"properties":{"source":"ua_mod","source_name":"Ministry of Defence of Ukraine","group":"official_ua","id":15985,"posted_utc":"2026-08-04T15:27:51+00:00","link":"https://t.me/ministry_of_defense_ua/15985","text":"❗️Рекордна кількість КАБів та зростання числа боїв: у липні противник посилив атаки.\nВажлива статистика за липень від Генерального штабу ЗСУ:\n• за місяць росіяни скинули понад 8 300 КАБів — найбільший показник протягом війни;\n• відбулися 7 922 бойові зіткнення — понад 250 боїв щодня;\n• зафіксовано майже 97 000 обстрілів.\nПопри посилення російських атак та високу інтенсивність боїв, українські захисники тримають оборону.","links":[],"original_html":"<b><i class=\"emoji\" style=\"background-image:url('//telegram.org/img/emoji/40/E29D97.png')\"><b>❗️</b></i>Рекордна кількість КАБів та зростання числа боїв: у липні противник посилив атаки.<br/><br/></b>Важлива статистика за липень від Генерального штабу ЗСУ:<br/><br/>• за місяць росіяни скинули понад 8 300 КАБів — найбільший показник протягом війни;<br/>• відбулися 7 922 бойові зіткнення — понад 250 боїв щодня;<br/>• зафіксовано майже 97 000 обстрілів.<br/><br/>Попри посилення російських атак та високу інтенсивність боїв, українські захисники тримають оборону."}}]}