{"type":"FeatureCollection","features":[{"type":"Feature","geometry":{"type":"Point","coordinates":[38.533925,48.375571]},"properties":{"original":{"id":46231,"type":"Engineering","model":"REM-KL recovery vehicle","status":"Destroyed","lost_by":"Russia","date":"2026-07-31","nearest_location":"Holubivka (Alchevsk hromada), Alchevsk raion","geo":"48.375571,38.533925","unit":null,"tags":"Cope cage, Loitering"},"source":"warspotting","source_name":"WarSpotting","source_url":"https://ukr.warspotting.net/","id":46231,"date":"2026-07-31","link":"https://ukr.warspotting.net/view/46231/","category":"Engineering","side":"Lost by Russia","color":"#E00000","description":"REM-KL recovery vehicle · Destroyed · near Holubivka (Alchevsk hromada), Alchevsk raion · tags: Cope cage, Loitering","orbat":[]}},{"type":"Feature","geometry":{"type":"Point","coordinates":[38.533917,48.375583]},"properties":{"original":{"id":46232,"type":"Transport","model":"KamAZ 6x6","status":"Destroyed","lost_by":"Russia","date":"2026-07-31","nearest_location":"Holubivka (Alchevsk hromada), Alchevsk raion","geo":"48.375583,38.533917","unit":null,"tags":"Cope cage, Loitering"},"source":"warspotting","source_name":"WarSpotting","source_url":"https://ukr.warspotting.net/","id":46232,"date":"2026-07-31","link":"https://ukr.warspotting.net/view/46232/","category":"Transport","side":"Lost by Russia","color":"#E00000","description":"KamAZ 6x6 · Destroyed · near Holubivka (Alchevsk hromada), Alchevsk raion · tags: Cope cage, Loitering","orbat":[]}},{"type":"Feature","geometry":{"type":"Point","coordinates":[36.590694,46.790361]},"properties":{"original":{"id":46241,"type":"Transport","model":"Ural-4320","status":"Destroyed","lost_by":"Russia","date":"2026-07-31","nearest_location":"Dmytrivka, Berdiansk raion","geo":"46.790361,36.590694","unit":null,"tags":"Loitering, Jammer"},"source":"warspotting","source_name":"WarSpotting","source_url":"https://ukr.warspotting.net/","id":46241,"date":"2026-07-31","link":"https://ukr.warspotting.net/view/46241/","category":"Transport","side":"Lost by Russia","color":"#E00000","description":"Ural-4320 · Destroyed · near Dmytrivka, Berdiansk raion · tags: Loitering, Jammer","orbat":[]}},{"type":"Feature","geometry":{"type":"Point","coordinates":[36.30498,47.70475]},"properties":{"original":{"id":46249,"type":"Tanks","model":"Unknown tank","status":"Destroyed","lost_by":"Russia","date":"2026-07-31","nearest_location":"Zatyshshia, Polohy raion","geo":"47.70475,36.30498","unit":null,"tags":"Loitering"},"source":"warspotting","source_name":"WarSpotting","source_url":"https://ukr.warspotting.net/","id":46249,"date":"2026-07-31","link":"https://ukr.warspotting.net/view/46249/","category":"Tanks","side":"Lost by Russia","color":"#E00000","description":"Unknown tank · Destroyed · near Zatyshshia, Polohy raion · tags: Loitering","orbat":[]}}]}