{"type":"FeatureCollection","features":[{"type":"Feature","geometry":{"type":"Polygon","coordinates":[[[35.26864,50.95093],[35.26543,50.95299],[35.26679,50.96373],[35.27048,50.96654],[35.2813,50.96497],[35.2877,50.96319],[35.2925,50.96308],[35.2934,50.96167],[35.29212,50.95756],[35.28843,50.95454],[35.28465,50.95389],[35.2801,50.95052],[35.27074,50.94771],[35.26864,50.95093]]]},"properties":{"source":"ukrdaily","source_name":"UkrDailyUpdate","source_url":"https://map.ukrdailyupdate.com/","category":"lost","category_label":"Ukrainian advance: became Ukrainian-held","period":"1d","compared_with":"2026-10-05","snapshot_time":"2026-10-06","area_km2_approx":2.7}},{"type":"Feature","geometry":{"type":"MultiPolygon","coordinates":[[[[37.14482,48.45351],[37.15679,48.45416],[37.1647,48.45014],[37.16809,48.44805],[37.16458,48.44626],[37.16365,48.44434],[37.17971,48.43918],[37.18344,48.42232],[37.16937,48.42371],[37.16745,48.43342],[37.15408,48.43344],[37.14818,48.43204],[37.14482,48.45351]]],[[[37.02645,48.30289],[37.02187,48.32763],[37.02762,48.32963],[37.02549,48.34889],[37.0326,48.34877],[37.03381,48.34244],[37.03544,48.34101],[37.03747,48.33225],[37.04113,48.33185],[37.04272,48.33043],[37.04452,48.32429],[37.04507,48.32165],[37.04647,48.32086],[37.04653,48.31862],[37.04416,48.31614],[37.04442,48.31312],[37.04322,48.30824],[37.0403,48.30384],[37.02645,48.30289]]]]},"properties":{"source":"ukrdaily","source_name":"UkrDailyUpdate","source_url":"https://map.ukrdailyupdate.com/","category":"ukrainian_to_contested","category_label":"Ukrainian-held became contested","period":"1d","compared_with":"2026-10-05","snapshot_time":"2026-10-06","area_km2_approx":11.0}}]}