{"type":"FeatureCollection","features":[{"type":"Feature","geometry":null,"properties":{"source":"ua_mod","source_name":"Ministry of Defence of Ukraine","group":"official_ua","id":16187,"posted_utc":"2026-09-14T06:49:39+00:00","link":"https://t.me/ministry_of_defense_ua/16187","text":"🇺🇦 Міністр оборони України Євгеній Хмара привітав воїнів-танкістів із професійним святом.\nВід перших днів російської агресії українські танкісти показали свою стійкість, майстерність і мужність на полі бою. Танкові війська стали однією з основних ударних сил, які допомогли стримати ворога.\nПідрозділи відзначилися на найскладніших напрямках війни. Операції, в яких воїни-танкісти відіграли ключову роль, назавжди закарбовані в історії України.\nЗа роки війни характер роботи наших танкістів змінився. Водночас, танки залишаються невідʼємною складовою бойових спроможностей наших військ.\nДякуємо кожному воїну за службу та витримку.\nШануємо пам’ять кожного, хто віддав життя у боротьбі за нашу країну.\nСлава Україні!","links":[],"original_html":"<tg-emoji emoji-id=\"5233438162939815111\"><i class=\"emoji\" style=\"background-image:url('//telegram.org/img/emoji/40/F09F87BAF09F87A6.png')\"><b>🇺🇦</b></i></tg-emoji> <b>Міністр оборони України Євгеній Хмара привітав воїнів-танкістів із професійним святом.</b><br/><br/>Від перших днів російської агресії українські танкісти показали свою стійкість, майстерність і мужність на полі бою. Танкові війська стали однією з основних ударних сил, які допомогли стримати ворога.&nbsp;<br/><br/>Підрозділи відзначилися на найскладніших напрямках війни. Операції, в яких воїни-танкісти відіграли ключову роль, назавжди закарбовані в історії України.<br/><br/>За роки війни характер роботи наших танкістів змінився. Водночас, танки залишаються невідʼємною складовою бойових спроможностей наших військ.<br/><br/>Дякуємо кожному воїну за службу та витримку.<br/><br/>Шануємо пам’ять кожного, хто віддав життя у боротьбі за нашу країну.<br/><br/>Слава Україні&#33;"}},{"type":"Feature","geometry":null,"properties":{"source":"ua_mod","source_name":"Ministry of Defence of Ukraine","group":"official_ua","id":16188,"posted_utc":"2026-09-14T09:05:18+00:00","link":"https://t.me/ministry_of_defense_ua/16188","text":"6,2 млрд грн за три роки спрямував на розвиток оборонних технологій кластер оборонних інновацій Brave1.\nBrave1 використовує кілька моделей фінансової підтримки:\n• грантова програма — 500 тис., 2 млн, 4 млн та 8 млн грн залежно від рівня готовності технології;\n• спецгрантова програма — до 8 млн грн на проривні технології незалежно від готовності;\n• міжнародні грантові програми — спільне фінансування з міжнародними партнерами;\n• грантові конкурси Brave1 — великі гранти на розробку або масштабування технологій під конкретні технічні характеристики та результат.\nУ класичній грантовій програмі вже видано 977 грантів на 2,3 млрд грн. Ще 20 спецгрантів видано на розвиток технологій у напрямах «Ракети» та «Штучний інтелект» — на 145 млн грн. Окремо у 2026 році 11 команд отримали 81 млн грн у межах EU4UA Defence Tech на розробку швидкісних дронів-перехоплювачів і радарів.\nГоловним результатом є швидке проходження виробником шляху від розробки до готової технології.\nПодати заявку та ознайомитися з актуальними напрямами можна на grants.brave1.tech","links":["http://grants.brave1.tech/"],"original_html":"<b>6,2 млрд грн за три роки спрямував на розвиток оборонних технологій кластер оборонних інновацій Brave1.</b><br/><br/>Brave1 використовує кілька моделей фінансової підтримки:<br/>&nbsp;<br/>• <b>грантова програма</b> — 500 тис., 2 млн, 4 млн та 8 млн грн залежно від рівня готовності технології;<br/>• <b>спецгрантова програма</b> — до 8 млн грн на проривні технології незалежно від готовності;<br/>• <b>міжнародні грантові програми</b> — спільне фінансування з міжнародними партнерами;<br/>• <b>грантові конкурси Brave1</b> — великі гранти на розробку або масштабування технологій під конкретні технічні характеристики та результат.<br/>&nbsp;<br/>У класичній грантовій програмі вже видано 977 грантів на 2,3 млрд грн. Ще 20 спецгрантів видано на розвиток технологій у напрямах «Ракети» та «Штучний інтелект» — на 145 млн грн. Окремо у 2026 році 11 команд отримали 81 млн грн у межах EU4UA Defence Tech на розробку швидкісних дронів-перехоплювачів і радарів.<br/>&nbsp;<br/>Головним результатом є швидке проходження виробником шляху від розробки до готової технології.<br/>&nbsp;<br/>Подати заявку та ознайомитися з актуальними напрямами можна на <a href=\"http://grants.brave1.tech/\" target=\"_blank\" rel=\"noopener\">grants.brave1.tech</a>"}},{"type":"Feature","geometry":null,"properties":{"source":"ua_mod","source_name":"Ministry of Defence of Ukraine","group":"official_ua","id":16189,"posted_utc":"2026-09-14T11:21:28+00:00","link":"https://t.me/ministry_of_defense_ua/16189","text":"⚙️ Міноборони кодифікувало та допустило до постачання ЗСУ український броньований екскаватор UAT-SPIDER.\nМашину розроблено спеціально під потреби військових інженерних підрозділів.\nUAT-SPIDER облаштовує позиції, прокладає й відновлює дороги, риє траншеї та котловани. Завдяки високій маневровості може працювати в обмеженому просторі та важкодоступних місцях.\nМашина важить понад 10 тонн, піднімає понад 3 тонни та розвиває швидкість до 40 км/год.\nКабіна та важливі вузли екскаватора мають протикульовий і протимінний захист STANAG 4569 Level 1.\n🔗 Докладніше про UAT-SPIDER","links":["https://mod.gov.ua/news/zakhyst-inzhenernykh-pidrozdiliv-minoborony-kodyfikuvalo-bronovanyi-ekskavator-uat-spider?utm_source=mod-telegram&utm_medium=social"],"original_html":"<i class=\"emoji\" style=\"background-image:url('//telegram.org/img/emoji/40/E29A99.png')\"><b>⚙️</b></i> <b>Міноборони кодифікувало та допустило до постачання ЗСУ український броньований екскаватор UAT-SPIDER.</b><br/><br/>Машину розроблено спеціально під потреби військових інженерних підрозділів.<br/><br/>UAT-SPIDER облаштовує позиції, прокладає й відновлює дороги, риє траншеї та котловани. Завдяки високій маневровості може працювати в обмеженому просторі та важкодоступних місцях.<br/><br/>Машина важить понад 10 тонн, піднімає понад 3 тонни та розвиває швидкість до 40 км/год.&nbsp;<br/><br/>Кабіна та важливі вузли екскаватора<b> </b>мають протикульовий і протимінний захист STANAG 4569 Level 1.<br/><br/><a href=\"https://mod.gov.ua/news/zakhyst-inzhenernykh-pidrozdiliv-minoborony-kodyfikuvalo-bronovanyi-ekskavator-uat-spider?utm_source=mod-telegram&amp;amp;utm_medium=social\" target=\"_blank\" rel=\"noopener\" onclick=\"return confirm('Open this link?\\n\\n'+this.href);\"><b><i class=\"emoji\" style=\"background-image:url('//telegram.org/img/emoji/40/F09F9497.png')\"><b>🔗</b></i> Докладніше про UAT-SPIDER</b></a>"}},{"type":"Feature","geometry":null,"properties":{"source":"ua_mod","source_name":"Ministry of Defence of Ukraine","group":"official_ua","id":16190,"posted_utc":"2026-09-14T14:11:11+00:00","link":"https://t.me/ministry_of_defense_ua/16190","text":"🤝 Офіцери НАТО переймають український бойовий досвід у БпЛА, РЕБ і розвідці.\nУкраїнські військові провели для офіцерів армій Польщі та Німеччини серію семінарів із застосування уроків сучасної війни в управлінні військами та ухваленні рішень.\nТеорію поєднали з практикою. Учасники розбирали, як безпілотні системи, радіоелектронна боротьба та розвідувальна підтримка змінюють тактичні операції, маневр і роботу штабів.\nСемінари організував Спільний центр НАТО-Україна JATEC у межах підтримки курсу «Вишкіл капітанів». Тритижневий захід відбувся в Любліні на базі Литовсько-польсько-української бригади.","links":["https://mod.gov.ua/news/ofitsery-nato-pereimaiut-ukrainskyi-boiovyi-dosvid-u-bpla-reb-i-rozvidtsi?utm_source=mod-telegram&utm_medium=social"],"original_html":"<i class=\"emoji\" style=\"background-image:url('//telegram.org/img/emoji/40/F09FA49D.png')\"><b>🤝</b></i> <b>Офіцери НАТО переймають український бойовий досвід у БпЛА, РЕБ і розвідці.</b><br/><br/>Українські військові провели для офіцерів армій Польщі та Німеччини<a href=\"https://mod.gov.ua/news/ofitsery-nato-pereimaiut-ukrainskyi-boiovyi-dosvid-u-bpla-reb-i-rozvidtsi?utm_source=mod-telegram&amp;amp;utm_medium=social\" target=\"_blank\" rel=\"noopener\" onclick=\"return confirm('Open this link?\\n\\n'+this.href);\"> серію семінарів із застосування уроків сучасної війни</a> в управлінні військами та ухваленні рішень.<br/><br/>Теорію поєднали з практикою. Учасники розбирали, як безпілотні системи, радіоелектронна боротьба та розвідувальна підтримка змінюють тактичні операції, маневр і роботу штабів.<br/><br/>Семінари організував Спільний центр НАТО-Україна JATEC у межах підтримки курсу «Вишкіл капітанів». Тритижневий захід відбувся в Любліні на базі Литовсько-польсько-української бригади."}}]}