{"type":"FeatureCollection","features":[{"type":"Feature","geometry":{"type":"Point","coordinates":[30.493371,50.593456]},"properties":{"source":"geoconfirmed","source_name":"GeoConfirmed","source_url":"https://geoconfirmed.org/map/ukraine","id":"b33e96ed-3b8b-4680-86a4-d4b51117b401","date":"2026-09-30","link":"https://geoconfirmed.org/map/ukraine/b33e96ed-3b8b-4680-86a4-d4b51117b401","category":"Recently destroyed/Damaged[Visible in footage] or still burning infrastucture","side":"Neutral","color":"#AC7339","description":"Destroyed house after a Russian attack. Reportedly a 14-year-old boy was killed and his parents were injured.","orbat":[],"geolocation":["https://x.com/99Dominik_/status/2105210107244265837"],"sources":["https://x.com/99Dominik_/status/2105210365361684806","https://t.me/c/1197363285/213946","https://t.me/Vyshorod_Operative/54533"]}}]}