{"type":"FeatureCollection","features":[{"type":"Feature","geometry":{"type":"Point","coordinates":[38.216778,48.664112]},"properties":{"source":"warspotting","source_name":"WarSpotting","source_url":"https://ukr.warspotting.net/","id":47133,"date":"2022-05-30","link":"https://ukr.warspotting.net/view/47133/","category":"Infantry fighting vehicles","side":"Lost by Russia","color":"#E00000","description":"BMD-4M · Destroyed · near Volodymyrivka, Bakhmut raion · tags: Turretless, Shattered","orbat":["VDV (Russian Airborne Forces)"]}},{"type":"Feature","geometry":{"type":"Point","coordinates":[38.198807,48.663089]},"properties":{"source":"warspotting","source_name":"WarSpotting","source_url":"https://ukr.warspotting.net/","id":47064,"date":"2022-05-30","link":"https://ukr.warspotting.net/view/47064/","category":"Infantry fighting vehicles","side":"Lost by Russia","color":"#E00000","description":"BTR-D or BMD-2 · Destroyed · near Volodymyrivka, Bakhmut raion · tags: Turretless, Shattered","orbat":["VDV (Russian Airborne Forces)"]}},{"type":"Feature","geometry":{"type":"Point","coordinates":[38.170798,48.664029]},"properties":{"source":"warspotting","source_name":"WarSpotting","source_url":"https://ukr.warspotting.net/","id":47031,"date":"2022-05-30","link":"https://ukr.warspotting.net/view/47031/","category":"Infantry fighting vehicles","side":"Lost by Russia","color":"#E00000","description":"BMD-4M · Destroyed · near Volodymyrivka, Bakhmut raion · tags: Turretless","orbat":["VDV (Russian Airborne Forces)"]}}]}