{"type":"FeatureCollection","features":[{"type":"Feature","geometry":{"type":"Point","coordinates":[37.210572,49.043703]},"properties":{"original":{"id":47411,"type":"Transport","model":"2F510A transport vehicle (for 2S12 'Sani' mortar)","status":"Destroyed","lost_by":"Russia","date":"2022-04-12","nearest_location":"Brazhkivka, Izium raion","geo":"49.043703,37.210572","unit":null,"tags":null},"source":"warspotting","source_name":"WarSpotting","source_url":"https://ukr.warspotting.net/","id":47411,"date":"2022-04-12","link":"https://ukr.warspotting.net/view/47411/","category":"Transport","side":"Lost by Russia","color":"#E00000","description":"2F510A transport vehicle (for 2S12 'Sani' mortar) · Destroyed · near Brazhkivka, Izium raion","orbat":[]}}]}