{"type":"FeatureCollection","features":[{"type":"Feature","geometry":{"type":"Point","coordinates":[35.323846,51.202043]},"properties":{"original":{"id":46390,"type":"Self-propelled artillery","model":"152mm 2S19(M1) 'Msta-S'","status":"Destroyed","lost_by":"Russia","date":"2026-08-03","nearest_location":"Mirnyi, Sudzha raion","geo":"51.202043,35.323846","unit":null,"tags":"Additional armour"},"source":"warspotting","source_name":"WarSpotting","source_url":"https://ukr.warspotting.net/","id":46390,"date":"2026-08-03","link":"https://ukr.warspotting.net/view/46390/","category":"Self-propelled artillery","side":"Lost by Russia","color":"#E00000","description":"152mm 2S19(M1) 'Msta-S' · Destroyed · near Mirnyi, Sudzha raion · tags: Additional armour","orbat":[]}}]}