{"type":"FeatureCollection","features":[{"type":"Feature","geometry":null,"properties":{"source":"ua_mod","source_name":"Ministry of Defence of Ukraine","group":"official_ua","id":16041,"posted_utc":"2026-08-17T08:42:03+00:00","link":"https://t.me/ministry_of_defense_ua/16041","text":"✅ Кожен $1, витрачений Україною на ураження, завдає противнику втрат майже на $5.\nЩотижня через модуль Mission Control у бойовій системі DELTA проходить 50 тисяч місій безпілотників і надається понад 230 тисяч звітів.\nПо кожному задіяному підрозділу видно: які завдання виконуються, чим б’ють, наскільки ефективно та скільки це коштує.\nНаприклад, у червні середня вартість ураження склала:\n$1 487 — інфраструктурний об’єкт;\n$2 674 — одиниця техніки;\n$3 032 — російський вояк.\nУ кожній категорії витрати противника у рази перевищують наші.\nЗавдяки Mission Control українські військові можуть аналізувати, що працює найкраще, та коригувати тактику наступних місій.","links":["https://mod.gov.ua/news/dani-mission-control-kozhen-vytrachenyi-na-urazhennia-1-zavdaie-rosii-vtrat-maizhe-na-5?utm_source=mod-telegram&utm_medium=social"],"original_html":"<b><i class=\"emoji\" style=\"background-image:url('//telegram.org/img/emoji/40/E29C85.png')\"><b>✅</b></i> Кожен &#036;1, витрачений Україною на ураження, завдає противнику втрат майже на &#036;5. <br/></b> <br/>Щотижня через <a href=\"https://mod.gov.ua/news/dani-mission-control-kozhen-vytrachenyi-na-urazhennia-1-zavdaie-rosii-vtrat-maizhe-na-5?utm_source=mod-telegram&amp;amp;utm_medium=social\" target=\"_blank\" rel=\"noopener\" onclick=\"return confirm('Open this link?\\n\\n'+this.href);\">модуль Mission Control у бойовій системі DELTA</a> проходить 50 тисяч місій безпілотників і надається понад 230 тисяч звітів. <br/><br/>По кожному задіяному підрозділу видно: які завдання виконуються, чим б’ють, наскільки ефективно та скільки це коштує.<br/> <br/><u>Наприклад, у червні середня вартість ураження склала:<br/></u><br/><b>&#036;1 487</b> — інфраструктурний об’єкт;<br/><b>&#036;2 674 </b>— одиниця техніки;<br/><b>&#036;3 032</b> — російський вояк.<br/><br/>У кожній категорії витрати противника у рази перевищують наші. <br/> <br/>Завдяки Mission Control українські військові можуть аналізувати, що працює найкраще, та коригувати тактику наступних місій."}},{"type":"Feature","geometry":null,"properties":{"source":"ua_mod","source_name":"Ministry of Defence of Ukraine","group":"official_ua","id":16042,"posted_utc":"2026-08-17T09:40:30+00:00","link":"https://t.me/ministry_of_defense_ua/16042","text":"❗️Допоможіть Міністерству оборони виявити корупційні ризики та зробити антикорупційні механізми ефективнішими.\nЗапрошуємо представників громадськості та всіх, хто має досвід взаємодії з Міноборони, пройти анонімне опитування та поділитися своїм досвідом.\nЦе допоможе визначити потенційні корупційні ризики в роботі Міністерства та врахувати їх під час формування антикорупційної політики.\n⇨ Анкета: https://www.allcounted.com/s?did=s6t50d1l8lbyo\nОпитування повністю анонімне. Заповнити анкету можна за 10–15 хвилин.\nВаші відверті відповіді допоможуть зробити систему прозорішою та стійкішою до корупції.","links":["https://www.allcounted.com/s?did=s6t50d1l8lbyo"],"original_html":"<i class=\"emoji\" style=\"background-image:url('//telegram.org/img/emoji/40/E29D97.png')\"><b>❗️</b></i><b>Допоможіть Міністерству оборони виявити корупційні ризики та зробити антикорупційні механізми ефективнішими.</b><br/><b><br/></b>Запрошуємо представників громадськості та всіх, хто має досвід взаємодії з Міноборони, пройти анонімне опитування та поділитися своїм досвідом.<br/><br/>Це допоможе визначити потенційні корупційні ризики в роботі Міністерства та врахувати їх під час формування антикорупційної політики.<br/><br/>⇨ <b>Анкета</b>: <a href=\"https://www.allcounted.com/s?did=s6t50d1l8lbyo\" target=\"_blank\" rel=\"noopener\">https://www.allcounted.com/s?did=s6t50d1l8lbyo</a><br/><br/>Опитування повністю анонімне. Заповнити анкету можна за 10–15 хвилин.<br/><br/>Ваші відверті відповіді допоможуть зробити систему прозорішою та стійкішою до корупції."}},{"type":"Feature","geometry":null,"properties":{"source":"ua_mod","source_name":"Ministry of Defence of Ukraine","group":"official_ua","id":16043,"posted_utc":"2026-08-17T11:17:29+00:00","link":"https://t.me/ministry_of_defense_ua/16043","text":"«Довбуш» дістане й до Сибіру.\nМіноборони кодифікувало український безпілотник із дальністю понад 2 000 км. У повітрі він може перебувати більше доби. Цього досить для бойової роботи по об’єктах на Уралі та в західній частині Сибіру.\nПід час випробувань «Довбуш Т40» показав низку переваг перед аналогами:\n✔️наднизька радіолокаційна помітність;\n✔️ висока продуктивність двигуна з системою електронного впорскування;\n✔️ значна стійкість до впливу РЕБ.\nРізні варіанти оснащення надають моделі змогу вести глибинну розвідку, коригувати вогонь, завдавати високоточних ударів скиданням боєприпасу або в форматі камікадзе.\nВелика територія не гарантує ворогу безпеки.","links":["https://mod.gov.ua/news/doletyt-do-sybiru-minoborony-kodyfikuvalo-bezpilotnyk-dovbush-t40?utm_source=mod-telegram&utm_medium=social"],"original_html":"<b>«Довбуш» дістане й до Сибіру.<br/></b><br/>Міноборони кодифікувало український безпілотник <a href=\"https://mod.gov.ua/news/doletyt-do-sybiru-minoborony-kodyfikuvalo-bezpilotnyk-dovbush-t40?utm_source=mod-telegram&amp;amp;utm_medium=social\" target=\"_blank\" rel=\"noopener\" onclick=\"return confirm('Open this link?\\n\\n'+this.href);\">із дальністю понад 2 000 км</a>. У повітрі він може перебувати більше доби. Цього досить для бойової роботи по об’єктах на Уралі та в західній частині Сибіру.<br/><br/>Під час випробувань «Довбуш Т40» показав низку переваг перед аналогами:<br/><i class=\"emoji\" style=\"background-image:url('//telegram.org/img/emoji/40/E29C94.png')\"><b>✔️</b></i>наднизька радіолокаційна помітність;<br/><i class=\"emoji\" style=\"background-image:url('//telegram.org/img/emoji/40/E29C94.png')\"><b>✔️</b></i> висока продуктивність двигуна з системою електронного впорскування;<br/><i class=\"emoji\" style=\"background-image:url('//telegram.org/img/emoji/40/E29C94.png')\"><b>✔️</b></i> значна стійкість до впливу РЕБ.<br/><br/>Різні варіанти оснащення надають моделі змогу вести глибинну розвідку, коригувати вогонь, завдавати високоточних ударів скиданням боєприпасу або в форматі камікадзе.<br/><br/><u>Велика територія не гарантує ворогу безпеки.</u>"}},{"type":"Feature","geometry":null,"properties":{"source":"ua_mod","source_name":"Ministry of Defence of Ukraine","group":"official_ua","id":16044,"posted_utc":"2026-08-17T14:41:11+00:00","link":"https://t.me/ministry_of_defense_ua/16044","text":"📊 Військові обирають, держава оплачує, виробники постачають. І весь цей процес тепер займає лічені дні.\nТак працює державний маркетплейс зброї DOT-Chain Defence, через який бойові підрозділи можуть самостійно замовляти потрібні їм дрони, РЕБ, НРК та боєприпаси. Бюрократичну роботу – контракти, оплату й логістику – бере на себе Агенція оборонних закупівель ДОТ.\n⚡У липні засоби з наявності доходили до підрозділів у середньому за 7 днів.\n⚡ В окремих випадках FPV, розвідувальні й бомбардувальні дрони, НРК, РЕБ та перехоплювачі доставляли всього за одну добу.\nРезультат за перший рік: понад 1,2 млн одиниць дронів та іншої техніки доставлено військовим.\nОднак DOT-Chain Defence не замінює централізоване державне постачання. Маркетплейс доповнює його, робить систему забезпечення більш гнучкою та орієнтованою на потреби підрозділів.","links":["https://mod.gov.ua/explanation/yak-pratsiuie-dot-chain-defence?utm_source=mod-telegram&utm_medium=social","https://mod.gov.ua/news/tyzhni-zamist-misiatsiv-yak-pryskorylos-postachannia-bpla-viiskovym-cherez-dot-chain-defence?utm_source=mod-telegram&utm_medium=social"],"original_html":"<b><i class=\"emoji\" style=\"background-image:url('//telegram.org/img/emoji/40/F09F938A.png')\"><b>📊</b></i></b> <b>Військові обирають, держава оплачує, виробники постачають. І весь цей процес тепер займає лічені дні.</b><br/><br/>Так працює державний маркетплейс зброї DOT-Chain Defence, через який бойові підрозділи можуть самостійно замовляти потрібні їм дрони, РЕБ, НРК та боєприпаси. Бюрократичну роботу – контракти, оплату й логістику – бере на себе Агенція оборонних закупівель ДОТ.<br/><br/><i class=\"emoji\" style=\"background-image:url('//telegram.org/img/emoji/40/E29AA1.png')\"><b>⚡</b></i>У липні засоби з наявності доходили до підрозділів <a href=\"https://mod.gov.ua/explanation/yak-pratsiuie-dot-chain-defence?utm_source=mod-telegram&amp;amp;utm_medium=social\" target=\"_blank\" rel=\"noopener\" onclick=\"return confirm('Open this link?\\n\\n'+this.href);\"><b>у середньому за 7 днів</b></a><b>.</b><u><br/></u><br/><i class=\"emoji\" style=\"background-image:url('//telegram.org/img/emoji/40/E29AA1.png')\"><b>⚡</b></i> В окремих випадках FPV, розвідувальні й бомбардувальні дрони, НРК, РЕБ та перехоплювачі доставляли <a href=\"https://mod.gov.ua/news/tyzhni-zamist-misiatsiv-yak-pryskorylos-postachannia-bpla-viiskovym-cherez-dot-chain-defence?utm_source=mod-telegram&amp;amp;utm_medium=social\" target=\"_blank\" rel=\"noopener\" onclick=\"return confirm('Open this link?\\n\\n'+this.href);\"><b>всього за одну добу</b></a><b>.</b><br/><br/>Результат за перший рік: понад 1,2 млн одиниць дронів та іншої техніки доставлено військовим. <br/><br/>Однак DOT-Chain Defence не замінює централізоване державне постачання. Маркетплейс доповнює його, робить систему забезпечення більш гнучкою та орієнтованою на потреби підрозділів."}}]}