{"type":"FeatureCollection","features":[{"type":"Feature","geometry":null,"properties":{"source":"ua_mod","source_name":"Ministry of Defence of Ukraine","group":"official_ua","id":15993,"posted_utc":"2026-08-07T08:37:23+00:00","link":"https://t.me/ministry_of_defense_ua/15993","text":"🤙У Плюсах – одразу три нові пропозиції від ARBER, ІБІС та RIFT.\nВійськові можуть купувати зі знижками одяг і взуття, зброю та туристичне спорядження.\n➕ ARBER:\n40% – на одяг, взуття та аксесуари за повною ціною;\n20% – на акційні товари;\nдо 5 промокодів щомісяця.\nПромокоди діють лише у магазинах. Один промокод – одна купівля.\n➕ ІБІС:\n15% – на антидронову зброю та патрони;\n10% – на інші товари;\nдо 5 промокодів щомісяця.\nЗнижка не діє на товари з категорії «Уцінка» та не сумується з іншими акціями. Один промокод можна використати для однієї купівлі. Доставка безкоштовна незалежно від суми замовлення.\n➕ RIFT:\n15% – на весь асортимент туристичного спорядження на сайті;\nодин багаторазовий промокод щомісяця.\nПромокод діє до кінця місяця та сумується з іншими акціями й пропозиціями. Для замовлень від 3 000 грн доставка безкоштовна.\n➡︎ Як скористатися\nВідкрийте розділ «Плюси» в Армія+, оберіть пропозицію та згенеруйте промокод. Детальні умови можна переглянути у картці відповідного партнера. Промокодом також можна поділитися з рідними у месенджері.\nФункціонал Плюсів у застосунку Армія+ розробляє та підтримує Центр Масштабування Технологічних Рішень ЗСУ.","links":[],"original_html":"<div class=\"tgme_widget_message_text js-message_text\" dir=\"auto\"><b><i class=\"emoji\" style=\"background-image:url('//telegram.org/img/emoji/40/F09FA499.png')\"><b>🤙</b></i>У Плюсах – одразу три нові пропозиції від ARBER, ІБІС та RIFT. <br/></b><br/>Військові можуть купувати зі знижками одяг і взуття, зброю та туристичне спорядження.<br/><br/><i class=\"emoji\" style=\"background-image:url('//telegram.org/img/emoji/40/E29E95.png')\"><b>➕</b></i> ARBER:<br/>40% – на одяг, взуття та аксесуари за повною ціною;<br/>20% – на акційні товари;<br/>до 5 промокодів щомісяця.<br/><br/>Промокоди діють лише у магазинах. Один промокод – одна купівля. <br/><br/><i class=\"emoji\" style=\"background-image:url('//telegram.org/img/emoji/40/E29E95.png')\"><b>➕</b></i> ІБІС:<br/>15% – на антидронову зброю та патрони;<br/>10% – на інші товари;<br/>до 5 промокодів щомісяця.<br/><br/>Знижка не діє на товари з категорії «Уцінка» та не сумується з іншими акціями. Один промокод можна використати для однієї купівлі. Доставка безкоштовна незалежно від суми замовлення.<br/><br/><i class=\"emoji\" style=\"background-image:url('//telegram.org/img/emoji/40/E29E95.png')\"><b>➕</b></i> RIFT:<br/>15% – на весь асортимент туристичного спорядження на сайті;<br/>один багаторазовий промокод щомісяця.<br/><br/>Промокод діє до кінця місяця та сумується з іншими акціями й пропозиціями. Для замовлень від 3 000 грн доставка безкоштовна.<br/><br/><i class=\"emoji\" style=\"background-image:url('//telegram.org/img/emoji/40/E29EA1.png')\"><b>➡</b></i>︎ Як скористатися<br/>Відкрийте розділ «Плюси» в Армія+, оберіть пропозицію та згенеруйте промокод. Детальні умови можна переглянути у картці відповідного партнера. Промокодом також можна поділитися з рідними у месенджері.<br/><br/>Функціонал Плюсів у застосунку Армія+ розробляє та підтримує Центр Масштабування Технологічних Рішень ЗСУ."}},{"type":"Feature","geometry":null,"properties":{"source":"ua_mod","source_name":"Ministry of Defence of Ukraine","group":"official_ua","id":15998,"posted_utc":"2026-08-07T09:20:25+00:00","link":"https://t.me/ministry_of_defense_ua/15998","text":"⚡ 216 ракет і 5 142 ударні дрони збили або подавили Сили оборони під час відбиття масованих повітряних атак у липні.\nЦей результат українська ППО забезпечила в умовах критичної нестачі ракет-перехоплювачів, необхідних для боротьби з балістикою.\nТому посилення протиповітряної оборони залишається одним із наших ключових пріоритетів.\nРазом із партнерами працюємо над  отриманням нових систем, перехоплювачів та розвитком інших елементів ешелонованого захисту.","links":["https://mod.gov.ua/news/ukrainska-ppo-perekhopyla-ponad-5-300-povitrianykh-tsilei-pid-chas-masovanykh-atak-u-lypni?utm_source=mod-telegram&utm_medium=social"],"original_html":"<b><i class=\"emoji\" style=\"background-image:url('//telegram.org/img/emoji/40/E29AA1.png')\"><b>⚡</b></i> 216 ракет і 5 142 ударні дрони збили або подавили Сили оборони під час відбиття </b><a href=\"https://mod.gov.ua/news/ukrainska-ppo-perekhopyla-ponad-5-300-povitrianykh-tsilei-pid-chas-masovanykh-atak-u-lypni?utm_source=mod-telegram&amp;amp;utm_medium=social\" target=\"_blank\" rel=\"noopener\" onclick=\"return confirm('Open this link?\\n\\n'+this.href);\"><b>масованих повітряних атак у липні</b></a><b>.</b><br/><b><br/></b>Цей результат українська ППО забезпечила в умовах критичної нестачі ракет-перехоплювачів, необхідних для боротьби з балістикою.<br/><br/>Тому посилення протиповітряної оборони залишається одним із наших ключових пріоритетів. <br/><br/>Разом із партнерами працюємо над  отриманням нових систем, перехоплювачів та розвитком інших елементів ешелонованого захисту."}},{"type":"Feature","geometry":null,"properties":{"source":"ua_mod","source_name":"Ministry of Defence of Ukraine","group":"official_ua","id":15999,"posted_utc":"2026-08-07T10:20:34+00:00","link":"https://t.me/ministry_of_defense_ua/15999","text":"❗Ще є час вступити до військового навчального закладу в 2026 році.\nМіноборони продовжило строки вступної кампанії: подати заяву та документи можна до 20 серпня, пройти конкурсний відбір і бути зарахованим — до 31 серпня.\nНові строки діють для військових вишів, військових навчальних підрозділів цивільних закладів вищої освіти та закладів фахової передвищої військової освіти.\nТож якщо не встигли подати документи раніше — можливість залишається.","links":["https://mod.gov.ua/news/vstup-2026-pryiom-dokumentiv-do-viiskovykh-navchalnykh-zakladiv-prodovzheno-do-20-serpnia?utm_source=mod-telegram&utm_medium=social"],"original_html":"<b><i class=\"emoji\" style=\"background-image:url('//telegram.org/img/emoji/40/E29D97.png')\"><b>❗</b></i>Ще є час вступити до військового навчального закладу в 2026 році.<br/></b><br/>Міноборони продовжило строки вступної кампанії: подати заяву та документи можна до 20 серпня, пройти конкурсний відбір і бути зарахованим — до 31 серпня. <br/><br/>Нові строки діють для військових вишів, військових навчальних підрозділів цивільних закладів вищої освіти та закладів фахової передвищої військової освіти.<br/><br/>Тож якщо не встигли подати документи раніше — <a href=\"https://mod.gov.ua/news/vstup-2026-pryiom-dokumentiv-do-viiskovykh-navchalnykh-zakladiv-prodovzheno-do-20-serpnia?utm_source=mod-telegram&amp;amp;utm_medium=social\" target=\"_blank\" rel=\"noopener\" onclick=\"return confirm('Open this link?\\n\\n'+this.href);\">можливість залишається</a>."}},{"type":"Feature","geometry":null,"properties":{"source":"ua_mod","source_name":"Ministry of Defence of Ukraine","group":"official_ua","id":16000,"posted_utc":"2026-08-07T15:30:02+00:00","link":"https://t.me/ministry_of_defense_ua/16000","text":"❗Продукти для ЗСУ перевірятимуть ще до доставки у військові частини, а закупівлю харчів і логістики розділять.\nМіноборони та Агенція оборонних закупівель ДОТ розпочинають масштабування реформи системи харчування військових.\nЩо зміниться:\n⓵ Харчі постачатимуть перевірені виробники, а доставлятимуть професійні логістичні оператори. Це має посилити конкуренцію та зробити ціноутворення прозорішим.\n⓶ Продукти перевірятимуть на розподільчих центрах, щоб неякісні не потрапляли до підрозділів.\nНаступним етапом має стати замовлення страв, а не окремих продуктів, через DOT-Chain Food. Система автоматично розраховуватиме кількість інгредієнтів відповідно до рецептури та чисельності особового складу.\nПерші закупівлі за новою моделлю плануємо провести вже цього року. Реформа стартуватиме у військових частинах у кількох регіонах і буде поступово розширюватися.","links":[],"original_html":"<b><i class=\"emoji\" style=\"background-image:url('//telegram.org/img/emoji/40/E29D97.png')\"><b>❗</b></i>Продукти для ЗСУ перевірятимуть ще до доставки у військові частини, а закупівлю харчів і логістики розділять. </b><br/><br/>Міноборони та Агенція оборонних закупівель ДОТ розпочинають масштабування реформи системи харчування військових.<br/><br/><u>Що зміниться:</u><br/><br/>⓵ Харчі постачатимуть перевірені виробники, а доставлятимуть професійні логістичні оператори. Це має посилити конкуренцію та зробити ціноутворення прозорішим.<br/><br/>⓶ Продукти перевірятимуть на розподільчих центрах, щоб неякісні не потрапляли до підрозділів.<br/><br/>Наступним етапом має стати замовлення страв, а не окремих продуктів, через DOT-Chain Food. Система автоматично розраховуватиме кількість інгредієнтів відповідно до рецептури та чисельності особового складу. <br/><br/>Перші закупівлі за новою моделлю плануємо провести вже цього року. Реформа стартуватиме у військових частинах у кількох регіонах і буде поступово розширюватися."}}]}