{"type":"FeatureCollection","features":[{"type":"Feature","geometry":{"type":"Polygon","coordinates":[[[37.61708,49.82479],[37.62794,49.82798],[37.6233,49.82662],[37.61528,49.82721],[37.6112,49.82453],[37.61108,49.82467],[37.61613,49.83053],[37.62024,49.83194],[37.62145,49.83902],[37.62716,49.86337],[37.64387,49.85601],[37.64499,49.85142],[37.64791,49.85135],[37.64791,49.85795],[37.65203,49.85312],[37.66298,49.84968],[37.66628,49.84612],[37.66687,49.83877],[37.63424,49.82411],[37.61965,49.82324],[37.61038,49.81634],[37.61024,49.81648],[37.61571,49.82345],[37.61708,49.82479]]]},"properties":{"source":"deepstate","source_name":"DeepStateMap","source_url":"https://deepstatemap.live/en","category":"lost","category_label":"Less Russian-held (occupied or contested area lost)","period":"1d","compared_with":"2026-08-24","snapshot_time":"2026-08-25","area_km2_approx":9.6}}]}