{"type":"FeatureCollection","features":[{"type":"Feature","geometry":{"type":"MultiPolygon","coordinates":[[[[37.92276,48.78134],[37.92485,48.78843],[37.92041,48.79508],[37.92941,48.79792],[37.93738,48.79601],[37.94044,48.79842],[37.93561,48.80185],[37.92891,48.81154],[37.92994,48.81732],[37.93166,48.81278],[37.94025,48.81327],[37.94236,48.81105],[37.94903,48.80984],[37.95352,48.80023],[37.95676,48.79745],[37.95105,48.7814],[37.93022,48.77464],[37.92276,48.78134]]],[[[37.82707,48.74687],[37.83181,48.74572],[37.8347,48.75206],[37.83833,48.75064],[37.84873,48.75044],[37.85453,48.75142],[37.85896,48.75398],[37.86272,48.75225],[37.851,48.74796],[37.84752,48.7453],[37.85106,48.74243],[37.85151,48.73719],[37.84537,48.73603],[37.84788,48.73437],[37.84337,48.73125],[37.8205,48.73975],[37.82707,48.74687]]],[[[37.80865,48.71044],[37.80747,48.71517],[37.79867,48.71989],[37.79846,48.72189],[37.81589,48.72193],[37.82099,48.7212],[37.81963,48.7183],[37.81712,48.71914],[37.81037,48.70897],[37.80537,48.70202],[37.80514,48.70215],[37.80865,48.71044]]],[[[37.63337,48.47508],[37.62216,48.48564],[37.61511,48.49355],[37.62035,48.49756],[37.62842,48.50675],[37.64252,48.50773],[37.64657,48.5002],[37.66469,48.50368],[37.65949,48.49519],[37.64717,48.49383],[37.63768,48.49591],[37.63676,48.49423],[37.64816,48.48974],[37.65056,48.47572],[37.64721,48.47034],[37.64808,48.45764],[37.63852,48.45482],[37.63849,48.45193],[37.63821,48.4519],[37.63337,48.47508]]],[[[37.6269,50.2405],[37.60019,50.24053],[37.5886,50.2456],[37.59496,50.25079],[37.61076,50.2558],[37.62681,50.25479],[37.6256,50.24552],[37.6269,50.2405]]],[[[37.38679,48.49337],[37.39242,48.49678],[37.41674,48.4949],[37.43708,48.48813],[37.44617,48.49068],[37.44463,48.48472],[37.41897,48.48329],[37.39569,48.48586],[37.38833,48.49133],[37.38145,48.49317],[37.38147,48.49339],[37.38679,48.49337]]],[[[37.22514,48.41616],[37.21902,48.42985],[37.23085,48.43943],[37.23722,48.44842],[37.24071,48.44833],[37.24187,48.4423],[37.23584,48.43105],[37.2245,48.42468],[37.22632,48.42091],[37.23672,48.41941],[37.23265,48.41675],[37.22514,48.41616]]],[[[37.18051,48.3542],[37.18734,48.362],[37.1922,48.36253],[37.19363,48.36734],[37.19377,48.36732],[37.19391,48.36059],[37.20187,48.35596],[37.20219,48.35379],[37.18283,48.35341],[37.17142,48.35235],[37.17135,48.35286],[37.18051,48.3542]]],[[[36.14226,47.70203],[36.1352,47.71367],[36.14772,47.72357],[36.16435,47.72631],[36.19007,47.71985],[36.17568,47.7143],[36.15288,47.71101],[36.1529,47.70088],[36.16535,47.69338],[36.1652,47.69306],[36.14226,47.70203]]]]},"properties":{"source":"deepstate","source_name":"DeepStateMap","source_url":"https://deepstatemap.live/en","category":"gained","category_label":"Newly Russian-occupied","period":"7d","compared_with":"2026-08-18","snapshot_time":"2026-08-25","area_km2_approx":37.1}},{"type":"Feature","geometry":{"type":"Polygon","coordinates":[[[37.61571,49.82345],[37.61708,49.82479],[37.62823,49.82806],[37.62943,49.83053],[37.63339,49.84098],[37.63229,49.85088],[37.63414,49.85167],[37.64791,49.85135],[37.64791,49.85795],[37.65203,49.85312],[37.66298,49.84968],[37.66628,49.84612],[37.66687,49.83877],[37.63424,49.82411],[37.61965,49.82324],[37.61038,49.81634],[37.61024,49.81648],[37.61571,49.82345]]]},"properties":{"source":"deepstate","source_name":"DeepStateMap","source_url":"https://deepstatemap.live/en","category":"lost","category_label":"No longer Russian-occupied","period":"7d","compared_with":"2026-08-18","snapshot_time":"2026-08-25","area_km2_approx":6.3}}]}