{"type":"FeatureCollection","features":[{"type":"Feature","geometry":{"type":"Point","coordinates":[35.560109,46.778908]},"properties":{"original":{"id":46769,"type":"Transport","model":"KamAZ 8x8 fuel tanker","status":"Destroyed","lost_by":"Russia","date":"2026-08-23","nearest_location":"Novoivanivka, Melitopol raion","geo":"46.778908,35.560109","unit":null,"tags":null},"source":"warspotting","source_name":"WarSpotting","source_url":"https://ukr.warspotting.net/","id":46769,"date":"2026-08-23","link":"https://ukr.warspotting.net/view/46769/","category":"Transport","side":"Lost by Russia","color":"#E00000","description":"KamAZ 8x8 fuel tanker · Destroyed · near Novoivanivka, Melitopol raion","orbat":[]}}]}