{"type":"FeatureCollection","features":[{"type":"Feature","geometry":{"type":"Point","coordinates":[32.68469,52.8427]},"properties":{"original":{"Date":"2026-08-06","Name":"06 AUG 2026","Faction":"Russia","Origin":"UAV","Latitude":"52.8427","Longitude":"32.68469","PlusCode":"9G4JRMVM+3V Unecha, Bryansk Oblast, Russia","Description":"0:33-0:43 - A Russian locomotive is hit with a drone by the 413th unmanned systems regiment 'Raid/Reid' of Ukraine","Source":"https://x.com/413_raid/status/2085706654876631186, https://x.com/PuenteUribarri/status/2085708649964409241, https://www.facebook.com/reel/1384848897123215, https://www.instagram.com/raid.413/reel/DbvRCfXCexa/, https://t.me/raid_413/1705","Geolocation":"https://x.com/GeoConfirmed/status/2086042998748430476, https://x.com/blinzka/status/2085878870419329457","Equipment":"UNK (Locomotive)","EquipmentItems":"Fixed Wing OWAD (One Way Attack Drone)","Units":"","OrbatUnits":"413th Unmanned Systems Regiment \"RAID\" \"РЕЙД\"","Id":"32f8e9ac-e7a9-4bd2-bd24-182c8502f7b7","icon":"/api/icons/E00000/False/template/162.png"},"source":"geoconfirmed","source_name":"GeoConfirmed","source_url":"https://geoconfirmed.org/map/ukraine","id":"32f8e9ac-e7a9-4bd2-bd24-182c8502f7b7","date":"2026-08-06","link":"https://geoconfirmed.org/map/ukraine/32f8e9ac-e7a9-4bd2-bd24-182c8502f7b7","category":"Recently Destroyed/Damaged[Visible in footage] Train","side":"Russia","color":"#E00000","description":"0:33-0:43 - A Russian locomotive is hit with a drone by the 413th unmanned systems regiment 'Raid/Reid' of Ukraine","orbat":["413th Unmanned Systems Regiment \"RAID\" \"РЕЙД\""],"geolocation":["https://x.com/GeoConfirmed/status/2086042998748430476","https://x.com/blinzka/status/2085878870419329457"],"sources":["https://x.com/413_raid/status/2085706654876631186","https://x.com/PuenteUribarri/status/2085708649964409241","https://www.facebook.com/reel/1384848897123215","https://www.instagram.com/raid.413/reel/DbvRCfXCexa/","https://t.me/raid_413/1705"]}},{"type":"Feature","geometry":{"type":"Point","coordinates":[30.455025,50.371184]},"properties":{"original":{"Date":"2026-08-06","Name":"06 AUG 2026","Faction":"Russia","Origin":"UAV","Latitude":"50.371184","Longitude":"30.455025","PlusCode":"9G2G9FC4+F2 Kyiv, Kyiv city, Ukraine","Description":"POV - Russian strike on Kyiv using cluster munitions","Source":"https://x.com/3_bm15/status/2085140851198484933, https://t.me/voenacher/95216","Geolocation":"https://x.com/3_bm15/status/2085140854784581993","Equipment":"","EquipmentItems":"","Units":"","OrbatUnits":"","Id":"4b9a1cf8-a5c5-40da-83f5-205d5cd72cc0","icon":"/api/icons/E00000/False/template/30.png"},"source":"geoconfirmed","source_name":"GeoConfirmed","source_url":"https://geoconfirmed.org/map/ukraine","id":"4b9a1cf8-a5c5-40da-83f5-205d5cd72cc0","date":"2026-08-06","link":"https://geoconfirmed.org/map/ukraine/4b9a1cf8-a5c5-40da-83f5-205d5cd72cc0","category":"Video - Always Point of View in description - In the colour of who is doing the attack or is responsable for the incident in the video.","side":"Russia","color":"#E00000","description":"POV - Russian strike on Kyiv using cluster munitions","orbat":[],"geolocation":["https://x.com/3_bm15/status/2085140854784581993"],"sources":["https://x.com/3_bm15/status/2085140851198484933","https://t.me/voenacher/95216"]}},{"type":"Feature","geometry":{"type":"Point","coordinates":[36.410542,46.75812]},"properties":{"original":{"Date":"2026-08-06","Name":"06 AUG 2026","Faction":"Neutral","Origin":"VID","Latitude":"46.75812","Longitude":"36.410542","PlusCode":"8GRRQC56+66 Banivka, Zaporizhia Oblast, Ukraine","Description":"Damaged bridge after an alleged Ukrainian strike","Source":"https://x.com/hochu_dodomu/status/2085382415057359106","Geolocation":"https://x.com/moklasen/status/2085385875194568926","Equipment":"","EquipmentItems":"","Units":"","OrbatUnits":"","Id":"d9ba24bc-cea2-4232-944a-213b052e3288","icon":"/api/icons/AC7339/False/template/12.png"},"source":"geoconfirmed","source_name":"GeoConfirmed","source_url":"https://geoconfirmed.org/map/ukraine","id":"d9ba24bc-cea2-4232-944a-213b052e3288","date":"2026-08-06","link":"https://geoconfirmed.org/map/ukraine/d9ba24bc-cea2-4232-944a-213b052e3288","category":"Recently destroyed/Damaged brigde[Visible in footage] - if colour is used of a fighting faction = pontoon or similar bridge","side":"Neutral","color":"#AC7339","description":"Damaged bridge after an alleged Ukrainian strike","orbat":[],"geolocation":["https://x.com/moklasen/status/2085385875194568926"],"sources":["https://x.com/hochu_dodomu/status/2085382415057359106"]}},{"type":"Feature","geometry":{"type":"Point","coordinates":[39.800577777777775,57.543816666666665]},"properties":{"original":{"Date":"2026-08-06","Name":"06 AUG 2026","Faction":"Ukraine","Origin":"PIC","Latitude":"57.543816666666665","Longitude":"39.800577777777775","PlusCode":"9G9XGRV2+G6 Krasnoperekopskiy Rayon, Yaroslavl, Russia","Description":"POV: Images show a fire burning at an oil refinery after a presumed drone strike in Yaroslavl, Russia","Source":"https://t.me/supernova_plus/57540","Geolocation":"https://x.com/LayBay_ish/status/2085280595815325718","Equipment":"","EquipmentItems":"","Units":"","OrbatUnits":"","Id":"8510328c-a24f-4db2-be88-4a509e0c54f1","icon":"/api/icons/0051CA/False/template/30.png"},"source":"geoconfirmed","source_name":"GeoConfirmed","source_url":"https://geoconfirmed.org/map/ukraine","id":"8510328c-a24f-4db2-be88-4a509e0c54f1","date":"2026-08-06","link":"https://geoconfirmed.org/map/ukraine/8510328c-a24f-4db2-be88-4a509e0c54f1","category":"Video - Always Point of View in description - In the colour of who is doing the attack or is responsable for the incident in the video.","side":"Ukraine","color":"#0051CA","description":"POV: Images show a fire burning at an oil refinery after a presumed drone strike in Yaroslavl, Russia","orbat":[],"geolocation":["https://x.com/LayBay_ish/status/2085280595815325718"],"sources":["https://t.me/supernova_plus/57540"]}},{"type":"Feature","geometry":{"type":"Point","coordinates":[32.616029,46.668997]},"properties":{"original":{"Date":"2026-08-06","Name":"06 AUG 2026","Faction":"Russia","Origin":"VID","Latitude":"46.668997","Longitude":"32.616029","PlusCode":"8GRJMJ98+HC Kherson, Kherson Oblast, Ukraine","Description":"Failed FPV drone attack on a bus in Kherson. ","Source":"https://x.com/GeoToby/status/2085345160225812708, , https://t.me/kherson_non_fake/32957","Geolocation":"https://x.com/GeoToby/status/2085344163617198402","Equipment":"","EquipmentItems":"FPV (First Person View) OWAD (One Way Attack Drone)","Units":"","OrbatUnits":"","Id":"54a187c9-088e-46a3-a391-4b85081c0805","icon":"/api/icons/E00000/False/template/112.png"},"source":"geoconfirmed","source_name":"GeoConfirmed","source_url":"https://geoconfirmed.org/map/ukraine","id":"54a187c9-088e-46a3-a391-4b85081c0805","date":"2026-08-06","link":"https://geoconfirmed.org/map/ukraine/54a187c9-088e-46a3-a391-4b85081c0805","category":"Recently destroyed/Damaged [Intercepted/crashed] Short Range (<50km) OWAD (One Way Attack Drone), mostly rotary wing","side":"Russia","color":"#E00000","description":"Failed FPV drone attack on a bus in Kherson.","orbat":[],"geolocation":["https://x.com/GeoToby/status/2085344163617198402"],"sources":["https://x.com/GeoToby/status/2085345160225812708","https://t.me/kherson_non_fake/32957"]}},{"type":"Feature","geometry":{"type":"Point","coordinates":[31.954422,52.53065]},"properties":{"original":{"Date":"2026-08-06","Name":"06 AUG 2026","Faction":"Neutral","Origin":"VID","Latitude":"52.53065","Longitude":"31.954422","PlusCode":"9G4HGXJ3+7Q Novozybkov, Bryansk Oblast, Russia","Description":"Reported Ukrainian strike destroyed a Russian gas station in Novozybkov","Source":"https://x.com/NOELreports/status/2085369985648525502","Geolocation":"https://x.com/MikiValbuena/status/2085619228090966073","Equipment":"","EquipmentItems":"Petrol/Gas station","Units":"","OrbatUnits":"","Id":"89c02979-081e-4f67-a85b-5b7f713b2552","icon":"/api/icons/AC7339/False/template/192.png"},"source":"geoconfirmed","source_name":"GeoConfirmed","source_url":"https://geoconfirmed.org/map/ukraine","id":"89c02979-081e-4f67-a85b-5b7f713b2552","date":"2026-08-06","link":"https://geoconfirmed.org/map/ukraine/89c02979-081e-4f67-a85b-5b7f713b2552","category":"Recently destroyed/Damaged[Visible in footage] or still burning infrastucture","side":"Neutral","color":"#AC7339","description":"Reported Ukrainian strike destroyed a Russian gas station in Novozybkov","orbat":[],"geolocation":["https://x.com/MikiValbuena/status/2085619228090966073"],"sources":["https://x.com/NOELreports/status/2085369985648525502"]}},{"type":"Feature","geometry":{"type":"Point","coordinates":[37.13529,48.4222]},"properties":{"original":{"Date":"2026-08-06","Name":"06 AUG 2026","Faction":"Russia","Origin":"UAV","Latitude":"48.4222","Longitude":"37.13529","PlusCode":"8GWVC4CP+V4 Chernihivka, Donetsk Oblast, Ukraine","Description":"0:05-0:07 - Claimed Ukrainian position hit by presumed artillery in Chernihivka","Source":"https://x.com/dsm3rt/status/2085416364135661645, https://t.me/creamy_caprice/12632","Geolocation":"https://x.com/dsm3rt/status/2085416203774816407","Equipment":"(presumed)","EquipmentItems":"Artillery","Units":"","OrbatUnits":"","Id":"65ea849f-e67c-4b07-bf27-6345316ee411","icon":"/api/icons/E00000/False/template/10.png"},"source":"geoconfirmed","source_name":"GeoConfirmed","source_url":"https://geoconfirmed.org/map/ukraine","id":"65ea849f-e67c-4b07-bf27-6345316ee411","date":"2026-08-06","link":"https://geoconfirmed.org/map/ukraine/65ea849f-e67c-4b07-bf27-6345316ee411","category":"Shelling by artillery or aerial bombings - Location of the shelling, colour of who is shelling; Brown = UXO","side":"Russia","color":"#E00000","description":"0:05-0:07 - Claimed Ukrainian position hit by presumed artillery in Chernihivka","orbat":[],"geolocation":["https://x.com/dsm3rt/status/2085416203774816407"],"sources":["https://x.com/dsm3rt/status/2085416364135661645","https://t.me/creamy_caprice/12632"]}},{"type":"Feature","geometry":{"type":"Point","coordinates":[32.70081,52.83376]},"properties":{"original":{"Date":"2026-08-06","Name":"06 AUG 2026","Faction":"Russia","Origin":"UAV","Latitude":"52.83376","Longitude":"32.70081","PlusCode":"9G4JRPM2+G8 Unecha, Bryansk Oblast, Russia","Description":"0:07-0:15 - A Russian locomotive is hit with a drone by the 413th unmanned systems regiment 'Raid/Reid' of Ukraine","Source":"https://x.com/413_raid/status/2085706654876631186, https://x.com/PuenteUribarri/status/2085708649964409241, https://www.facebook.com/reel/1384848897123215, https://www.instagram.com/raid.413/reel/DbvRCfXCexa/, https://t.me/raid_413/1705","Geolocation":"https://x.com/GeoConfirmed/status/2086042998748430476, https://x.com/blinzka/status/2085878870419329457","Equipment":"UNK (Locomotive)","EquipmentItems":"Fixed Wing OWAD (One Way Attack Drone)","Units":"","OrbatUnits":"413th Unmanned Systems Regiment \"RAID\" \"РЕЙД\"","Id":"90cdd3ef-94fa-4762-8e0a-705d5cf42099","icon":"/api/icons/E00000/False/template/162.png"},"source":"geoconfirmed","source_name":"GeoConfirmed","source_url":"https://geoconfirmed.org/map/ukraine","id":"90cdd3ef-94fa-4762-8e0a-705d5cf42099","date":"2026-08-06","link":"https://geoconfirmed.org/map/ukraine/90cdd3ef-94fa-4762-8e0a-705d5cf42099","category":"Recently Destroyed/Damaged[Visible in footage] Train","side":"Russia","color":"#E00000","description":"0:07-0:15 - A Russian locomotive is hit with a drone by the 413th unmanned systems regiment 'Raid/Reid' of Ukraine","orbat":["413th Unmanned Systems Regiment \"RAID\" \"РЕЙД\""],"geolocation":["https://x.com/GeoConfirmed/status/2086042998748430476","https://x.com/blinzka/status/2085878870419329457"],"sources":["https://x.com/413_raid/status/2085706654876631186","https://x.com/PuenteUribarri/status/2085708649964409241","https://www.facebook.com/reel/1384848897123215","https://www.instagram.com/raid.413/reel/DbvRCfXCexa/","https://t.me/raid_413/1705"]}},{"type":"Feature","geometry":{"type":"Point","coordinates":[37.044,48.13564]},"properties":{"original":{"Date":"2026-08-06","Name":"06 AUG 2026","Faction":"Ukraine","Origin":"UAV","Latitude":"48.13564","Longitude":"37.044","PlusCode":"8GWV32X8+WX Sribne, Donetsk Oblast, Ukraine","Description":"1:39-2:07 - A Russian 2S19 'Msta-S' self-propelled gun is hit by the 55th artillery brigade of Ukraine.","Source":"https://x.com/55brigade/status/2085286963418931386, https://www.facebook.com/reel/1441582581365164","Geolocation":"https://x.com/blinzka/status/2085316391779909846","Equipment":"UNK","EquipmentItems":"2S19 Msta-S","Units":"","OrbatUnits":"55th Artillery Brigade","Id":"68fddc6e-bce6-4531-ba50-7e00ed0f2797","icon":"/api/icons/0051CA/False/template/70.png"},"source":"geoconfirmed","source_name":"GeoConfirmed","source_url":"https://geoconfirmed.org/map/ukraine","id":"68fddc6e-bce6-4531-ba50-7e00ed0f2797","date":"2026-08-06","link":"https://geoconfirmed.org/map/ukraine/68fddc6e-bce6-4531-ba50-7e00ed0f2797","category":"Controlled Demolition OR explosion of unknown origin OR fire of unknown origin where no other icon fits","side":"Ukraine","color":"#0051CA","description":"1:39-2:07 - A Russian 2S19 'Msta-S' self-propelled gun is hit by the 55th artillery brigade of Ukraine.","orbat":["55th Artillery Brigade"],"geolocation":["https://x.com/blinzka/status/2085316391779909846"],"sources":["https://x.com/55brigade/status/2085286963418931386","https://www.facebook.com/reel/1441582581365164"]}},{"type":"Feature","geometry":{"type":"Point","coordinates":[37.71195,49.438373]},"properties":{"original":{"Date":"2026-08-06","Name":"06 AUG 2026","Faction":"Russia","Origin":"UAV","Latitude":"49.438373","Longitude":"37.71195","PlusCode":"8GXVCPQ6+8Q Bohuslavka, Kharkiv Oblast, Ukraine","Description":"0:10-0:14 - Russian soldier hit by a Ukrainian FPV drone of the Unmanned Systems Battalion Rubaka 77th Airmobile Brigade","Source":"https://x.com/PuenteUribarri/status/2085408656401531014, https://t.me/rubaka_77/319","Geolocation":"https://x.com/jimmhelloman555/status/2085471644001132784","Equipment":"","EquipmentItems":"FPV (First Person View) OWAD (One Way Attack Drone)","Units":"","OrbatUnits":"Unmanned Systems Battalion \"Slasher\" / \"Rubaka\"","Id":"a1065ac0-74e9-4c8b-a1e0-7ff66f3a859f","icon":"/api/icons/E00000/False/template/92.png"},"source":"geoconfirmed","source_name":"GeoConfirmed","source_url":"https://geoconfirmed.org/map/ukraine","id":"a1065ac0-74e9-4c8b-a1e0-7ff66f3a859f","date":"2026-08-06","link":"https://geoconfirmed.org/map/ukraine/a1065ac0-74e9-4c8b-a1e0-7ff66f3a859f","category":"WIA/KIA Soldier/Militant","side":"Russia","color":"#E00000","description":"0:10-0:14 - Russian soldier hit by a Ukrainian FPV drone of the Unmanned Systems Battalion Rubaka 77th Airmobile Brigade","orbat":["Unmanned Systems Battalion \"Slasher\" / \"Rubaka\""],"geolocation":["https://x.com/jimmhelloman555/status/2085471644001132784"],"sources":["https://x.com/PuenteUribarri/status/2085408656401531014","https://t.me/rubaka_77/319"]}},{"type":"Feature","geometry":{"type":"Point","coordinates":[36.911732,50.300417]},"properties":{"original":{"Date":"2026-08-06","Name":"06 AUG 2026","Faction":"Russia","Origin":"UAV","Latitude":"50.300417","Longitude":"36.911732","PlusCode":"9G2R8W26+5M Vovchans'k, Kharkiv Oblast, Ukraine","Description":"UGV destroyed by FPV of the 2nd Motorised Battalion, 57th Motorized Bde","Source":"https://x.com/Danspiun/status/2085689260389068820, https://t.me/vovkodavy34/131","Geolocation":"https://x.com/GeoConfirmed/status/2086554046123385332, https://x.com/Danspiun/status/2085689260389068820, referenced geolocation: https://x.com/blinzka/status/1795122699993338175","Equipment":"","EquipmentItems":"FPV (First Person View) OWAD (One Way Attack Drone) | Impulse-M","Units":"","OrbatUnits":"2nd Motorized Battalion \"Wolfhounds\"","Id":"328c0efa-e094-468c-b426-99022e64ffd5","icon":"/api/icons/E00000/False/template/25508da3-5341-4843-b7e6-b955eaad7ce8.png"},"source":"geoconfirmed","source_name":"GeoConfirmed","source_url":"https://geoconfirmed.org/map/ukraine","id":"328c0efa-e094-468c-b426-99022e64ffd5","date":"2026-08-06","link":"https://geoconfirmed.org/map/ukraine/328c0efa-e094-468c-b426-99022e64ffd5","category":"Recently Destroyed/Damaged[Visible in footage] Multipurpose UGV","side":"Russia","color":"#E00000","description":"UGV destroyed by FPV of the 2nd Motorised Battalion, 57th Motorized Bde","orbat":["2nd Motorized Battalion \"Wolfhounds\""],"geolocation":["https://x.com/GeoConfirmed/status/2086554046123385332","https://x.com/Danspiun/status/2085689260389068820","https://x.com/blinzka/status/1795122699993338175"],"sources":["https://x.com/Danspiun/status/2085689260389068820","https://t.me/vovkodavy34/131"]}},{"type":"Feature","geometry":{"type":"Point","coordinates":[36.819333,48.052919]},"properties":{"original":{"Date":"2026-08-06","Name":"06 AUG 2026","Faction":"Ukraine","Origin":"UAV","Latitude":"48.052919","Longitude":"36.819333","PlusCode":"8GWR3R39+5P Dachne, Dnipropetrovsk Oblast, Ukraine","Description":"0:00-0:11 - Ukrainian FPV drone of the 40th Coastal Defense Brigade targeted Russian infantry near Dachne","Source":"https://x.com/moklasen/status/2085691327581175932, https://t.me/official40obrmp/1227, ","Geolocation":"https://x.com/moklasen/status/2085691324645117978","Equipment":"","EquipmentItems":"FPV (First Person View) OWAD (One Way Attack Drone)","Units":"","OrbatUnits":"40th Separate Marine Brigade | 2nd Marine Battalion \"Flock\"","Id":"f6ecf420-50f8-4748-8a79-9ab85c12f362","icon":"/api/icons/0051CA/False/template/111.png"},"source":"geoconfirmed","source_name":"GeoConfirmed","source_url":"https://geoconfirmed.org/map/ukraine","id":"f6ecf420-50f8-4748-8a79-9ab85c12f362","date":"2026-08-06","link":"https://geoconfirmed.org/map/ukraine/f6ecf420-50f8-4748-8a79-9ab85c12f362","category":"Short Range (<50km) OWAD (One Way Attack Drone), mostly rotary wing, Flying OR Attacking a target without knowing the outcome: if something is damaged --> icon of the damaged equipment.","side":"Ukraine","color":"#0051CA","description":"0:00-0:11 - Ukrainian FPV drone of the 40th Coastal Defense Brigade targeted Russian infantry near Dachne","orbat":["40th Separate Marine Brigade","2nd Marine Battalion \"Flock\""],"geolocation":["https://x.com/moklasen/status/2085691324645117978"],"sources":["https://x.com/moklasen/status/2085691327581175932","https://t.me/official40obrmp/1227"]}},{"type":"Feature","geometry":{"type":"Point","coordinates":[36.411159,46.757896]},"properties":{"original":{"Date":"2026-08-06","Name":"06 AUG 2026","Faction":"Neutral","Origin":"VID","Latitude":"46.757896","Longitude":"36.411159","PlusCode":"8GRRQC56+5F Banivka, Zaporizhia Oblast, Ukraine","Description":"Destroyed truck after a reported Ukrainian drone strike","Source":"https://x.com/hochu_dodomu/status/2085382415057359106","Geolocation":"https://x.com/moklasen/status/2085385875194568926","Equipment":"(reported)","EquipmentItems":"Fixed Wing OWAD (One Way Attack Drone)","Units":"","OrbatUnits":"","Id":"406e31af-56d6-430f-8f7d-a5cdb98c0b3d","icon":"/api/icons/AC7339/False/template/62.png"},"source":"geoconfirmed","source_name":"GeoConfirmed","source_url":"https://geoconfirmed.org/map/ukraine","id":"406e31af-56d6-430f-8f7d-a5cdb98c0b3d","date":"2026-08-06","link":"https://geoconfirmed.org/map/ukraine/406e31af-56d6-430f-8f7d-a5cdb98c0b3d","category":"Recently Destroyed/Damaged[Visible in footage] Logistical Trucks (Soft skin OR armoured)","side":"Neutral","color":"#AC7339","description":"Destroyed truck after a reported Ukrainian drone strike","orbat":[],"geolocation":["https://x.com/moklasen/status/2085385875194568926"],"sources":["https://x.com/hochu_dodomu/status/2085382415057359106"]}},{"type":"Feature","geometry":{"type":"Point","coordinates":[39.935483,57.567596]},"properties":{"original":{"Date":"2026-08-06","Name":"06 AUG 2026","Faction":"Ukraine","Origin":"UAV","Latitude":"57.567596","Longitude":"39.935483","PlusCode":"9G9XHW9P+25 Yaroslavl, Yaroslavl Oblast, Russia","Description":"POV - Smoke visible after the attack on the Yaroslavl Refinery in the early morning of the 6th August 2026","Source":"https://x.com/GeoCrow_/status/2085494364298490193, https://t.me/supernova_plus/57530","Geolocation":"https://x.com/GeoCrow_/status/2085493182544879793, https://x.com/GeoCrow_/status/2085495891268342211","Equipment":"","EquipmentItems":"","Units":"","OrbatUnits":"","Id":"b6e9d9af-f3a3-4e07-b740-a689c8b4caac","icon":"/api/icons/0051CA/False/template/30.png"},"source":"geoconfirmed","source_name":"GeoConfirmed","source_url":"https://geoconfirmed.org/map/ukraine","id":"b6e9d9af-f3a3-4e07-b740-a689c8b4caac","date":"2026-08-06","link":"https://geoconfirmed.org/map/ukraine/b6e9d9af-f3a3-4e07-b740-a689c8b4caac","category":"Video - Always Point of View in description - In the colour of who is doing the attack or is responsable for the incident in the video.","side":"Ukraine","color":"#0051CA","description":"POV - Smoke visible after the attack on the Yaroslavl Refinery in the early morning of the 6th August 2026","orbat":[],"geolocation":["https://x.com/GeoCrow_/status/2085493182544879793","https://x.com/GeoCrow_/status/2085495891268342211"],"sources":["https://x.com/GeoCrow_/status/2085494364298490193","https://t.me/supernova_plus/57530"]}},{"type":"Feature","geometry":{"type":"Point","coordinates":[32.68406,52.84304]},"properties":{"original":{"Date":"2026-08-06","Name":"06 AUG 2026","Faction":"Russia","Origin":"UAV","Latitude":"52.84304","Longitude":"32.68406","PlusCode":"9G4JRMVM+6J Unecha, Bryansk Oblast, Russia","Description":"0:16-0:32 - A Russian locomotive is hit with a drone by the 413th unmanned systems regiment 'Raid/Reid' of Ukraine","Source":"https://x.com/413_raid/status/2085706654876631186, https://x.com/PuenteUribarri/status/2085708649964409241, https://www.facebook.com/reel/1384848897123215, https://www.instagram.com/raid.413/reel/DbvRCfXCexa/, https://t.me/raid_413/1705","Geolocation":"https://x.com/GeoConfirmed/status/2086042998748430476, https://x.com/blinzka/status/2085878870419329457","Equipment":"UNK (Locomotive)","EquipmentItems":"Fixed Wing OWAD (One Way Attack Drone)","Units":"","OrbatUnits":"413th Unmanned Systems Regiment \"RAID\" \"РЕЙД\"","Id":"26fa2b0a-20f3-41e1-ae4c-a7f19becbab9","icon":"/api/icons/E00000/False/template/162.png"},"source":"geoconfirmed","source_name":"GeoConfirmed","source_url":"https://geoconfirmed.org/map/ukraine","id":"26fa2b0a-20f3-41e1-ae4c-a7f19becbab9","date":"2026-08-06","link":"https://geoconfirmed.org/map/ukraine/26fa2b0a-20f3-41e1-ae4c-a7f19becbab9","category":"Recently Destroyed/Damaged[Visible in footage] Train","side":"Russia","color":"#E00000","description":"0:16-0:32 - A Russian locomotive is hit with a drone by the 413th unmanned systems regiment 'Raid/Reid' of Ukraine","orbat":["413th Unmanned Systems Regiment \"RAID\" \"РЕЙД\""],"geolocation":["https://x.com/GeoConfirmed/status/2086042998748430476","https://x.com/blinzka/status/2085878870419329457"],"sources":["https://x.com/413_raid/status/2085706654876631186","https://x.com/PuenteUribarri/status/2085708649964409241","https://www.facebook.com/reel/1384848897123215","https://www.instagram.com/raid.413/reel/DbvRCfXCexa/","https://t.me/raid_413/1705"]}},{"type":"Feature","geometry":{"type":"Point","coordinates":[37.279836,48.858412]},"properties":{"original":{"Date":"2026-08-06","Name":"06 AUG 2026","Faction":"Russia","Origin":"UAV","Latitude":"48.858412","Longitude":"37.279836","PlusCode":"8GWVV75H+9W Pryvillya, Donetsk Oblast, Ukraine","Description":"Vid1 & Vid2 0:44-0:50 - The Russian 50th Separate Unmanned Systems Brigade \"VARYAG\" attacks Ukrainian TDP/Substation","Source":"Vid1, https://x.com/GeoRaccoon/status/2085783505791766682, http://t.me/mod_russia/66317, , Vid2, https://x.com/GeoRaccoon/status/2085781951676330139, http://t.me/Brigada_VARYAG/153","Geolocation":"https://x.com/ne_kotletka/status/2085664387218489393","Equipment":"Geran type","EquipmentItems":"Unmanned Aerial Vehicle (UAV) | Electrical Substation","Units":"","OrbatUnits":"50th Separate Unmanned Systems Brigade of the Supreme High Command \"VARYAG\"","Id":"6adac23a-8e16-4e4c-a099-af613a9f0535","icon":"/api/icons/E00000/False/template/181.png"},"source":"geoconfirmed","source_name":"GeoConfirmed","source_url":"https://geoconfirmed.org/map/ukraine","id":"6adac23a-8e16-4e4c-a099-af613a9f0535","date":"2026-08-06","link":"https://geoconfirmed.org/map/ukraine/6adac23a-8e16-4e4c-a099-af613a9f0535","category":"Longe Range (>50km) OWAD (One Way Attack Drone) or Loitering munition, mostly fixed wing, Flying OR Attacking a target without knowing the outcome: if something is damaged --> icon of the damaged equipment.","side":"Russia","color":"#E00000","description":"Vid1 & Vid2 0:44-0:50 - The Russian 50th Separate Unmanned Systems Brigade \"VARYAG\" attacks Ukrainian TDP/Substation","orbat":["50th Separate Unmanned Systems Brigade of the Supreme High Command \"VARYAG\""],"geolocation":["https://x.com/ne_kotletka/status/2085664387218489393"],"sources":["https://x.com/GeoRaccoon/status/2085783505791766682","http://t.me/mod_russia/66317","https://x.com/GeoRaccoon/status/2085781951676330139","http://t.me/Brigada_VARYAG/153"]}},{"type":"Feature","geometry":{"type":"Point","coordinates":[36.409958,46.758583]},"properties":{"original":{"Date":"2026-08-06","Name":"06 AUG 2026","Faction":"Neutral","Origin":"VID","Latitude":"46.758583","Longitude":"36.409958","PlusCode":"8GRRQC56+5F Banivka, Zaporizhia Oblast, Ukraine","Description":"Destroyed truck after a reported Ukrainian drone strike","Source":"https://x.com/hochu_dodomu/status/2085382415057359106","Geolocation":"https://x.com/moklasen/status/2085385875194568926","Equipment":"(reported)","EquipmentItems":"Fixed Wing OWAD (One Way Attack Drone)","Units":"","OrbatUnits":"","Id":"c8b2fda4-279f-4e88-a7ae-bd9d6307836d","icon":"/api/icons/AC7339/False/template/62.png"},"source":"geoconfirmed","source_name":"GeoConfirmed","source_url":"https://geoconfirmed.org/map/ukraine","id":"c8b2fda4-279f-4e88-a7ae-bd9d6307836d","date":"2026-08-06","link":"https://geoconfirmed.org/map/ukraine/c8b2fda4-279f-4e88-a7ae-bd9d6307836d","category":"Recently Destroyed/Damaged[Visible in footage] Logistical Trucks (Soft skin OR armoured)","side":"Neutral","color":"#AC7339","description":"Destroyed truck after a reported Ukrainian drone strike","orbat":[],"geolocation":["https://x.com/moklasen/status/2085385875194568926"],"sources":["https://x.com/hochu_dodomu/status/2085382415057359106"]}},{"type":"Feature","geometry":{"type":"Point","coordinates":[39.852637,57.57317]},"properties":{"original":{"Date":"2026-08-06","Name":"06 AUG 2026","Faction":"Ukraine","Origin":"PIC","Latitude":"57.57317","Longitude":"39.852637","PlusCode":"9G9XHVF3+73 Yaroslavl, Yaroslavl Oblast, Russia","Description":"Point of view in Southwestern direction - Multiple smoke columns rising over the refinery in Yaroslavl after being hit by Ukrainian drones","Source":"https://x.com/Grimm_Intel/status/2085212966861861091, https://t.me/exilenova_plus/28240","Geolocation":"https://x.com/Grimm_Intel/status/2085213293610672450","Equipment":"","EquipmentItems":"Fixed Wing OWAD (One Way Attack Drone)","Units":"","OrbatUnits":"","Id":"d7d8d637-948c-4987-a281-be6bdd4364c8","icon":"/api/icons/0051CA/False/template/20.png"},"source":"geoconfirmed","source_name":"GeoConfirmed","source_url":"https://geoconfirmed.org/map/ukraine","id":"d7d8d637-948c-4987-a281-be6bdd4364c8","date":"2026-08-06","link":"https://geoconfirmed.org/map/ukraine/d7d8d637-948c-4987-a281-be6bdd4364c8","category":"Picture - Always Point of View in description - - In the colour of who is doing the attack or is responsable for the incident in the picture.","side":"Ukraine","color":"#0051CA","description":"Point of view in Southwestern direction - Multiple smoke columns rising over the refinery in Yaroslavl after being hit by Ukrainian drones","orbat":[],"geolocation":["https://x.com/Grimm_Intel/status/2085213293610672450"],"sources":["https://x.com/Grimm_Intel/status/2085212966861861091","https://t.me/exilenova_plus/28240"]}},{"type":"Feature","geometry":{"type":"Point","coordinates":[35.47084,47.79377]},"properties":{"original":{"Date":"2026-08-06","Name":"06 AUG 2026","Faction":"Russia","Origin":"UAV","Latitude":"47.79377","Longitude":"35.47084","PlusCode":"8GVQQFVC+G8 Kyrpotyne, Zaporizhia Oblast, Ukraine","Description":"Russian FPV drone targeted a minibus","Source":"https://x.com/99Dominik_/status/2085253503526502661, https://t.me/eyes_everywhere_ua/124720, ","Geolocation":"https://x.com/99Dominik_/status/2085253377391247409","Equipment":"","EquipmentItems":"FPV (First Person View) OWAD (One Way Attack Drone)","Units":"","OrbatUnits":"","Id":"0c9fbbc7-7d1e-458b-9d6c-e0f259d47d47","icon":"/api/icons/E00000/False/template/111.png"},"source":"geoconfirmed","source_name":"GeoConfirmed","source_url":"https://geoconfirmed.org/map/ukraine","id":"0c9fbbc7-7d1e-458b-9d6c-e0f259d47d47","date":"2026-08-06","link":"https://geoconfirmed.org/map/ukraine/0c9fbbc7-7d1e-458b-9d6c-e0f259d47d47","category":"Short Range (<50km) OWAD (One Way Attack Drone), mostly rotary wing, Flying OR Attacking a target without knowing the outcome: if something is damaged --> icon of the damaged equipment.","side":"Russia","color":"#E00000","description":"Russian FPV drone targeted a minibus","orbat":[],"geolocation":["https://x.com/99Dominik_/status/2085253377391247409"],"sources":["https://x.com/99Dominik_/status/2085253503526502661","https://t.me/eyes_everywhere_ua/124720"]}},{"type":"Feature","geometry":{"type":"Point","coordinates":[39.862005,57.593765]},"properties":{"original":{"Date":"2026-08-06","Name":"06 AUG 2026","Faction":"Ukraine","Origin":"PIC","Latitude":"57.593765","Longitude":"39.862005","PlusCode":"9G9XHVV6+GR Yaroslavl, Yaroslavl Oblast, Russia","Description":"Point of view in southwestern direction - Smoke rising in the direction of the Yaroslavl refinery after being hit by Ukrainian drones","Source":"https://x.com/RedHibana/status/2085268167924867534, (2/3), https://t.me/supernova_plus/57537","Geolocation":"https://x.com/ju_liuz/status/2085253160927379697","Equipment":"","EquipmentItems":"Fixed Wing OWAD (One Way Attack Drone)","Units":"","OrbatUnits":"","Id":"747a9386-57cb-42bf-adf0-e7b5dd4b60dd","icon":"/api/icons/0051CA/False/template/20.png"},"source":"geoconfirmed","source_name":"GeoConfirmed","source_url":"https://geoconfirmed.org/map/ukraine","id":"747a9386-57cb-42bf-adf0-e7b5dd4b60dd","date":"2026-08-06","link":"https://geoconfirmed.org/map/ukraine/747a9386-57cb-42bf-adf0-e7b5dd4b60dd","category":"Picture - Always Point of View in description - - In the colour of who is doing the attack or is responsable for the incident in the picture.","side":"Ukraine","color":"#0051CA","description":"Point of view in southwestern direction - Smoke rising in the direction of the Yaroslavl refinery after being hit by Ukrainian drones","orbat":[],"geolocation":["https://x.com/ju_liuz/status/2085253160927379697"],"sources":["https://x.com/RedHibana/status/2085268167924867534","https://t.me/supernova_plus/57537"]}},{"type":"Feature","geometry":{"type":"Point","coordinates":[39.90719,57.58557]},"properties":{"original":{"Date":"2026-08-06","Name":"06 AUG 2026","Faction":"Ukraine","Origin":"VID","Latitude":"57.58557","Longitude":"39.90719","PlusCode":"9G9XHWP4+6V Yaroslavl, Yaroslavl Oblast, Russia","Description":"Point of view - Reportedly, Ukrainian drones hit the Slavneft-YANOS refinery in Yaroslavl, Russia.","Source":"https://x.com/Maks_NAFO_FELLA/status/2085261735385035098, https://x.com/Archer83Able/status/2085308256566534183, ","Geolocation":"https://x.com/zarGEOINT/status/2085264566292775227","Equipment":"(Reportedly)","EquipmentItems":"Fixed Wing OWAD (One Way Attack Drone)","Units":"","OrbatUnits":"","Id":"7c7232e7-806c-40df-9c6e-e7c20b84962a","icon":"/api/icons/0051CA/False/template/30.png"},"source":"geoconfirmed","source_name":"GeoConfirmed","source_url":"https://geoconfirmed.org/map/ukraine","id":"7c7232e7-806c-40df-9c6e-e7c20b84962a","date":"2026-08-06","link":"https://geoconfirmed.org/map/ukraine/7c7232e7-806c-40df-9c6e-e7c20b84962a","category":"Video - Always Point of View in description - In the colour of who is doing the attack or is responsable for the incident in the video.","side":"Ukraine","color":"#0051CA","description":"Point of view - Reportedly, Ukrainian drones hit the Slavneft-YANOS refinery in Yaroslavl, Russia.","orbat":[],"geolocation":["https://x.com/zarGEOINT/status/2085264566292775227"],"sources":["https://x.com/Maks_NAFO_FELLA/status/2085261735385035098","https://x.com/Archer83Able/status/2085308256566534183"]}},{"type":"Feature","geometry":{"type":"Point","coordinates":[36.04342,47.76968]},"properties":{"original":{"Date":"2026-08-06","Name":"06 AUG 2026","Faction":"Russia","Origin":"UAV","Latitude":"47.76968","Longitude":"36.04342","PlusCode":"8GVRQ29V+V9 Vozdvyzhivka, Zaporizhia Oblast, Ukraine","Description":"0:21-0:34 - Ukrainian drone antenna targeted by a Russian FPV strike of the 37th Guards Motorized Rifle Brigade, 36th Army","Source":"https://x.com/moklasen/status/2085742595699798323, https://t.me/baykalkaspiy/425, ","Geolocation":"https://x.com/moklasen/status/2085742592440840446","Equipment":"","EquipmentItems":"FPV (First Person View) OWAD (One Way Attack Drone)","Units":"Drone Crew \"Snegiri\", ","OrbatUnits":"37th Guards Motorized Rifle Brigade","Id":"3dc6e95d-0a98-4589-bcdf-e8c988e738c8","icon":"/api/icons/E00000/False/template/111.png"},"source":"geoconfirmed","source_name":"GeoConfirmed","source_url":"https://geoconfirmed.org/map/ukraine","id":"3dc6e95d-0a98-4589-bcdf-e8c988e738c8","date":"2026-08-06","link":"https://geoconfirmed.org/map/ukraine/3dc6e95d-0a98-4589-bcdf-e8c988e738c8","category":"Short Range (<50km) OWAD (One Way Attack Drone), mostly rotary wing, Flying OR Attacking a target without knowing the outcome: if something is damaged --> icon of the damaged equipment.","side":"Russia","color":"#E00000","description":"0:21-0:34 - Ukrainian drone antenna targeted by a Russian FPV strike of the 37th Guards Motorized Rifle Brigade, 36th Army","orbat":["37th Guards Motorized Rifle Brigade"],"geolocation":["https://x.com/moklasen/status/2085742592440840446"],"sources":["https://x.com/moklasen/status/2085742595699798323","https://t.me/baykalkaspiy/425"]}},{"type":"Feature","geometry":{"type":"Point","coordinates":[35.390467,45.058553]},"properties":{"original":{"Date":"2026-08-06","Name":"06 AUG 2026","Faction":"Ukraine","Origin":"PIC","Latitude":"45.058553","Longitude":"35.390467","PlusCode":"8GQQ395R+C5 Feodosia","Description":"Point of view in western direction - fire in the direction of the Feodosiyskaya 220kV substation","Source":"https://x.com/RedHibana/status/2085690776126624069, https://t.me/Crimeanwind/106551","Geolocation":"https://x.com/MikiValbuena/status/2085626946008801507","Equipment":"","EquipmentItems":"","Units":"","OrbatUnits":"","Id":"f6467483-02bf-4891-b9ce-f00b09f91b41","icon":"/api/icons/0051CA/False/template/20.png"},"source":"geoconfirmed","source_name":"GeoConfirmed","source_url":"https://geoconfirmed.org/map/ukraine","id":"f6467483-02bf-4891-b9ce-f00b09f91b41","date":"2026-08-06","link":"https://geoconfirmed.org/map/ukraine/f6467483-02bf-4891-b9ce-f00b09f91b41","category":"Picture - Always Point of View in description - - In the colour of who is doing the attack or is responsable for the incident in the picture.","side":"Ukraine","color":"#0051CA","description":"Point of view in western direction - fire in the direction of the Feodosiyskaya 220kV substation","orbat":[],"geolocation":["https://x.com/MikiValbuena/status/2085626946008801507"],"sources":["https://x.com/RedHibana/status/2085690776126624069","https://t.me/Crimeanwind/106551"]}},{"type":"Feature","geometry":{"type":"Point","coordinates":[36.317441,48.891546]},"properties":{"original":{"Date":"2026-08-06","Name":"06 AUG 2026","Faction":"Russia","Origin":"PIC","Latitude":"48.891546","Longitude":"36.317441","PlusCode":"8GWRV8R8+JX Lozova, Kharkiv Oblast, Ukraine","Description":"Person killed after Russian drone attack in Lozova, Kharkiv Oblast","Source":"https://x.com/99Dominik_/status/2085426886763548868, (1/3), https://t.me/prokuratura_kharkiv/30174, ","Geolocation":"https://x.com/99Dominik_/status/2085426792517578913","Equipment":"","EquipmentItems":"","Units":"","OrbatUnits":"","Id":"458dff32-0a6e-4c4f-a49f-f51546ce5f9a","icon":"/api/icons/E00000/False/template/50.png"},"source":"geoconfirmed","source_name":"GeoConfirmed","source_url":"https://geoconfirmed.org/map/ukraine","id":"458dff32-0a6e-4c4f-a49f-f51546ce5f9a","date":"2026-08-06","link":"https://geoconfirmed.org/map/ukraine/458dff32-0a6e-4c4f-a49f-f51546ce5f9a","category":"Killed or wounded civilian. Potential Warcrime. In the colour of who is assessed as doing the attack/killing.","side":"Russia","color":"#E00000","description":"Person killed after Russian drone attack in Lozova, Kharkiv Oblast","orbat":[],"geolocation":["https://x.com/99Dominik_/status/2085426792517578913"],"sources":["https://x.com/99Dominik_/status/2085426886763548868","https://t.me/prokuratura_kharkiv/30174"]}},{"type":"Feature","geometry":{"type":"Point","coordinates":[36.409158,46.758568]},"properties":{"original":{"Date":"2026-08-06","Name":"06 AUG 2026","Faction":"Neutral","Origin":"VID","Latitude":"46.758568","Longitude":"36.409158","PlusCode":"8GRRQC55+CM Banivka, Zaporizhia Oblast, Ukraine","Description":"Destroyed truck after a reported Ukrainian drone strike","Source":"https://x.com/hochu_dodomu/status/2085382415057359106","Geolocation":"https://x.com/moklasen/status/2085385875194568926","Equipment":"(reported)","EquipmentItems":"Fixed Wing OWAD (One Way Attack Drone)","Units":"","OrbatUnits":"","Id":"5ef364b4-3ff4-4b71-aa3b-f7485dd38fde","icon":"/api/icons/AC7339/False/template/62.png"},"source":"geoconfirmed","source_name":"GeoConfirmed","source_url":"https://geoconfirmed.org/map/ukraine","id":"5ef364b4-3ff4-4b71-aa3b-f7485dd38fde","date":"2026-08-06","link":"https://geoconfirmed.org/map/ukraine/5ef364b4-3ff4-4b71-aa3b-f7485dd38fde","category":"Recently Destroyed/Damaged[Visible in footage] Logistical Trucks (Soft skin OR armoured)","side":"Neutral","color":"#AC7339","description":"Destroyed truck after a reported Ukrainian drone strike","orbat":[],"geolocation":["https://x.com/moklasen/status/2085385875194568926"],"sources":["https://x.com/hochu_dodomu/status/2085382415057359106"]}}]}