{"type":"FeatureCollection","features":[{"type":"Feature","geometry":null,"properties":{"source":"ru_mod","source_name":"Ministry of Defence of Russia","group":"official_ru","id":67404,"posted_utc":"2026-09-17T07:15:46+00:00","link":"https://t.me/mod_russia/67404","text":"💥 Разносим противника ночью и с утра\nРоссийская авиация нанесла удары авиабомбами ФАБ-500 по пунктам временной дислокации ВСУ.\n▫️ Четыре бомбы уничтожили пункт дислокации 4-го погранотряда противника в Федоровке Харьковской области.\n▫️ Пять авиабомб ударили по месту размещения военнослужащих 100-й отдельной механизированной бригады ВСУ в Дружковке в ДНР.\n🔹 Канал Минобороны России в MAКС – боевая работа 24/7","links":["https://max.ru/morf"],"original_html":"<tg-emoji emoji-id=\"5449682610877918293\"><i class=\"emoji\" style=\"background-image:url('//telegram.org/img/emoji/40/F09F92A5.png')\"><b>💥</b></i></tg-emoji> <b>Разносим противника ночью и с утра</b><br/><br/>Российская авиация <b>нанесла удары авиабомбами ФАБ-500 по пунктам временной дислокации ВСУ</b>.<br/><br/><tg-emoji emoji-id=\"5469903849483431273\"><i class=\"emoji\" style=\"background-image:url('//telegram.org/img/emoji/40/E296AB.png')\"><b>▫️</b></i></tg-emoji> Четыре бомбы уничтожили пункт дислокации 4-го погранотряда противника в Федоровке Харьковской области. <br/><br/><tg-emoji emoji-id=\"5469903849483431273\"><i class=\"emoji\" style=\"background-image:url('//telegram.org/img/emoji/40/E296AB.png')\"><b>▫️</b></i></tg-emoji> Пять авиабомб ударили по месту размещения военнослужащих 100-й отдельной механизированной бригады ВСУ в Дружковке в ДНР.<br/><br/><tg-emoji emoji-id=\"5269510734265483362\"><i class=\"emoji\" style=\"background-image:url('//telegram.org/img/emoji/40/F09F94B9.png')\"><b>🔹</b></i></tg-emoji> <a href=\"https://max.ru/morf\" target=\"_blank\" rel=\"noopener\" onclick=\"return confirm('Open this link?\\n\\n'+this.href);\">Канал Минобороны России в MAКС – боевая работа 24/7</a>"}},{"type":"Feature","geometry":null,"properties":{"source":"ru_mod","source_name":"Ministry of Defence of Russia","group":"official_ru","id":67405,"posted_utc":"2026-09-17T08:12:33+00:00","link":"https://t.me/mod_russia/67405","text":"Когда твой прадед — Герой Российской Федерации.\nПравнук Абдулхакима Исаковича Исмаилова* сейчас выполняет боевые задачи на Сумском направлении СВО. Позывной «Исма» для него — живая связь поколений.\nКомандование 1443 мотострелкового полка подчеркивает добросовестное отношение правнука Исмаилова к выполнению поставленных задач и его вклад в общие успехи подразделения. В том числе, он принимал участие в освобождении населённого пункта Ольговка в Курской области.\n* Абдулхаким Исмаилов (1 июля 1916 г. — 17 февраля 2010 г.) — участник советско-финской и Великой Отечественной войн. Удостоен звания Героя России 19 февраля 1996 года за проявленные мужество и героизм на полях сражений. Известно, что числе троих воинов он запечатлен на снимках серии «Знамя Победы над Рейхстагом» военного фотокорреспондента Евгения Халдея.\nРассказываем об участниках СВО в 📲 MAX,  📱 ВКонтакте и в 📱 Дзен","links":["https://max.ru/heroesofZ","https://vk.com/heroes0fz","http://dzen.ru/heroesofz"],"original_html":"<i>Когда твой прадед — Герой Российской Федерации. </i><br/><br/>Правнук Абдулхакима Исаковича Исмаилова* сейчас выполняет боевые задачи на Сумском направлении СВО. <b>Позывной «Исма»</b> для него — живая связь поколений. <br/><br/>Командование 1443 мотострелкового полка подчеркивает добросовестное отношение правнука Исмаилова к выполнению поставленных задач и его вклад в общие успехи подразделения. В том числе, он принимал участие в освобождении населённого пункта Ольговка в Курской области.<br/><br/><blockquote><b>* Абдулхаким Исмаилов </b>(1 июля 1916 г. — 17 февраля 2010 г.) — участник советско-финской и Великой Отечественной войн. Удостоен звания Героя России 19 февраля 1996 года за проявленные мужество и героизм на полях сражений. Известно, что числе троих воинов он запечатлен на снимках серии «Знамя Победы над Рейхстагом» военного фотокорреспондента Евгения Халдея.</blockquote><br/><br/><i>Рассказываем об участниках СВО в</i> <i><tg-emoji emoji-id=\"5449407131675558756\"><i class=\"emoji\" style=\"background-image:url('//telegram.org/img/emoji/40/F09F93B2.png')\"><b>📲</b></i></tg-emoji></i><i> </i><a href=\"https://max.ru/heroesofZ\" target=\"_blank\" rel=\"noopener\" onclick=\"return confirm('Open this link?\\n\\n'+this.href);\"><i>MAX</i></a>,<i>  </i><i><tg-emoji emoji-id=\"5334853932915114338\"><i class=\"emoji\" style=\"background-image:url('//telegram.org/img/emoji/40/F09F93B1.png')\"><b>📱</b></i></tg-emoji></i><i> </i><a href=\"https://vk.com/heroes0fz\" target=\"_blank\" rel=\"noopener\" onclick=\"return confirm('Open this link?\\n\\n'+this.href);\"><i>ВКонтакте</i></a> <i>и в </i><i><tg-emoji emoji-id=\"5321533581472842536\"><i class=\"emoji\" style=\"background-image:url('//telegram.org/img/emoji/40/F09F93B1.png')\"><b>📱</b></i></tg-emoji></i><i> </i><a href=\"http://dzen.ru/heroesofz\" target=\"_blank\" rel=\"noopener\" onclick=\"return confirm('Open this link?\\n\\n'+this.href);\"><i>Дзен</i></a>"}},{"type":"Feature","geometry":null,"properties":{"source":"ru_mod","source_name":"Ministry of Defence of Russia","group":"official_ru","id":67406,"posted_utc":"2026-09-17T08:26:47+00:00","link":"https://t.me/mod_russia/67406","text":"⚡️ Подразделения группировки войск «Север» взяли под контроль населенный пункт Малая Волчья в Харьковской области.\n🔹 Канал Минобороны России в MAКС – только для своих!","links":["https://max.ru/morf"],"original_html":"<i class=\"emoji\" style=\"background-image:url('//telegram.org/img/emoji/40/E29AA1.png')\"><b>⚡️</b></i> Подразделения группировки войск «Север» <b>взяли под контроль населенный пункт Малая Волчья</b> в Харьковской области.<br/><br/><tg-emoji emoji-id=\"5269510734265483362\"><i class=\"emoji\" style=\"background-image:url('//telegram.org/img/emoji/40/F09F94B9.png')\"><b>🔹</b></i></tg-emoji> <a href=\"https://max.ru/morf\" target=\"_blank\" rel=\"noopener\" onclick=\"return confirm('Open this link?\\n\\n'+this.href);\">Канал Минобороны России в MAКС – только для своих&#33;</a>"}},{"type":"Feature","geometry":null,"properties":{"source":"ru_mod","source_name":"Ministry of Defence of Russia","group":"official_ru","id":67407,"posted_utc":"2026-09-17T08:26:57+00:00","link":"https://t.me/mod_russia/67407","text":"⚡️ Подразделения группировки войск «Восток» освободили населенный пункт Розовка в Запорожской области.\nПодробнее об успехах наших войск ➡️ в MAКС","links":["https://max.ru/morf/AaCuiKy8SV8"],"original_html":"<i class=\"emoji\" style=\"background-image:url('//telegram.org/img/emoji/40/E29AA1.png')\"><b>⚡️</b></i> Подразделения группировки войск «Восток» <b>освободили населенный пункт Розовка</b> в Запорожской области.<br/><br/>Подробнее об успехах наших войск <tg-emoji emoji-id=\"5469902676957357453\"><i class=\"emoji\" style=\"background-image:url('//telegram.org/img/emoji/40/E29EA1.png')\"><b>➡️</b></i></tg-emoji> в <a href=\"https://max.ru/morf/AaCuiKy8SV8\" target=\"_blank\" rel=\"noopener\" onclick=\"return confirm('Open this link?\\n\\n'+this.href);\">MAКС</a>"}},{"type":"Feature","geometry":null,"properties":{"source":"ru_mod","source_name":"Ministry of Defence of Russia","group":"official_ru","id":67408,"posted_utc":"2026-09-17T09:53:21+00:00","link":"https://t.me/mod_russia/67408","text":"💥 Ракетная дуэль: «Торнадо-С» сжёг HIMARS\nРасчёт 79-й бригады группировки «Запад» уничтожил реактивную систему залпового огня HIMARS производства США.\n📍 Харьковское направление\n🔹 Канал Минобороны России в MAКС – боевая работа 24/7. Присоединяйся!","links":["https://max.ru/morf"],"original_html":"<tg-emoji emoji-id=\"5449682610877918293\"><i class=\"emoji\" style=\"background-image:url('//telegram.org/img/emoji/40/F09F92A5.png')\"><b>💥</b></i></tg-emoji> <b>Ракетная дуэль</b>: «Торнадо-С» сжёг HIMARS<br/><br/>Расчёт 79-й бригады группировки «Запад» <b>уничтожил реактивную систему залпового огня HIMARS</b> производства США.<br/><br/><tg-emoji emoji-id=\"5449396879588614682\"><i class=\"emoji\" style=\"background-image:url('//telegram.org/img/emoji/40/F09F938D.png')\"><b>📍</b></i></tg-emoji><i> Харьковское направление</i><br/><br/><tg-emoji emoji-id=\"5269510734265483362\"><i class=\"emoji\" style=\"background-image:url('//telegram.org/img/emoji/40/F09F94B9.png')\"><b>🔹</b></i></tg-emoji> <a href=\"https://max.ru/morf\" target=\"_blank\" rel=\"noopener\" onclick=\"return confirm('Open this link?\\n\\n'+this.href);\">Канал Минобороны России в MAКС – боевая работа 24/7. Присоединяйся&#33;</a>"}},{"type":"Feature","geometry":null,"properties":{"source":"ru_mod","source_name":"Ministry of Defence of Russia","group":"official_ru","id":67409,"posted_utc":"2026-09-17T11:27:16+00:00","link":"https://t.me/mod_russia/67409","text":"Начинили вражеских «птиц» свинцом\nСнайперы «Центра» уничтожили дроны ВСУ, прикрыв артиллерийские позиции.\n📍 Добропольское направление\n🔹 Канал Минобороны России в MAКС – источник мощных новостей","links":["https://max.ru/morf"],"original_html":"<b>Начинили вражеских «птиц» свинцом</b><br/><br/>Снайперы «Центра» уничтожили дроны ВСУ, прикрыв артиллерийские позиции. <br/><br/><tg-emoji emoji-id=\"5449396879588614682\"><i class=\"emoji\" style=\"background-image:url('//telegram.org/img/emoji/40/F09F938D.png')\"><b>📍</b></i></tg-emoji> <i>Добропольское направление</i><br/><br/><tg-emoji emoji-id=\"5269510734265483362\"><i class=\"emoji\" style=\"background-image:url('//telegram.org/img/emoji/40/F09F94B9.png')\"><b>🔹</b></i></tg-emoji> <a href=\"https://max.ru/morf\" target=\"_blank\" rel=\"noopener\" onclick=\"return confirm('Open this link?\\n\\n'+this.href);\">Канал Минобороны России в MAКС – источник мощных новостей</a>"}},{"type":"Feature","geometry":null,"properties":{"source":"ru_mod","source_name":"Ministry of Defence of Russia","group":"official_ru","id":67410,"posted_utc":"2026-09-17T11:55:54+00:00","link":"https://t.me/mod_russia/67410","text":"▫️ Мы давим – враг пятится\n💬 Командир зенитной ракетной батареи 1465-го мотострелкового полка «Южной» группировки с позывным «Памир» рассказал о работе подразделений в населенных пунктах Славянско-Краматорской агломерации.\n«В Дружковке, Алексеево-Дружковке летаем. Сейчас значительно меньше стал появляться коптеров R18 над Константиновкой. Это показатель того, что ПВО развивается, работает. Двигаемся вперед, их пункты управления БПЛА оттягиваются назад, и уже дальность не позволяет им залетать и осуществлять какую-либо логистику».\n🔹 Курс на MAКС!","links":["https://max.ru/morf"],"original_html":"<tg-emoji emoji-id=\"5352532894478793783\"><i class=\"emoji\" style=\"background-image:url('//telegram.org/img/emoji/40/E296AB.png')\"><b>▫️</b></i></tg-emoji> <b>Мы давим – враг пятится</b><br/><br/><tg-emoji emoji-id=\"5447486370761176298\"><i class=\"emoji\" style=\"background-image:url('//telegram.org/img/emoji/40/F09F92AC.png')\"><b>💬</b></i></tg-emoji> Командир зенитной ракетной батареи 1465-го мотострелкового полка «Южной» группировки с позывным «Памир» <b>рассказал о работе подразделений в населенных пунктах Славянско-Краматорской агломерации</b>.<br/><br/><blockquote>«В Дружковке, Алексеево-Дружковке летаем. Сейчас значительно меньше стал появляться коптеров R18 над Константиновкой. Это показатель того, что ПВО развивается, работает. Двигаемся вперед, их пункты управления БПЛА оттягиваются назад, и уже дальность не позволяет им залетать и осуществлять какую-либо логистику».</blockquote><br/><br/><tg-emoji emoji-id=\"5269510734265483362\"><i class=\"emoji\" style=\"background-image:url('//telegram.org/img/emoji/40/F09F94B9.png')\"><b>🔹</b></i></tg-emoji> <a href=\"https://max.ru/morf\" target=\"_blank\" rel=\"noopener\" onclick=\"return confirm('Open this link?\\n\\n'+this.href);\">Курс на MAКС&#33;</a>"}},{"type":"Feature","geometry":null,"properties":{"source":"ru_mod","source_name":"Ministry of Defence of Russia","group":"official_ru","id":67411,"posted_utc":"2026-09-17T13:54:09+00:00","link":"https://t.me/mod_russia/67411","text":"🔥 ФАБами – по живой силе ВСУ\nЭкипажи ВКС России нанесли авиаудар по местам сосредоточения личного состава противника в районе населенного пункта Сердобино в Харьковской области.\n🔹 Канал Минобороны России в MAКС – источник мощных новостей","links":["https://max.ru/morf"],"original_html":"<tg-emoji emoji-id=\"5449590921916082144\"><i class=\"emoji\" style=\"background-image:url('//telegram.org/img/emoji/40/F09F94A5.png')\"><b>🔥</b></i></tg-emoji> <b>ФАБами – по живой силе ВСУ</b><br/>&nbsp;<br/>Экипажи ВКС России нанесли авиаудар по местам сосредоточения личного состава противника в районе населенного пункта Сердобино в Харьковской области.<br/><br/><tg-emoji emoji-id=\"5269510734265483362\"><i class=\"emoji\" style=\"background-image:url('//telegram.org/img/emoji/40/F09F94B9.png')\"><b>🔹</b></i></tg-emoji> <a href=\"https://max.ru/morf\" target=\"_blank\" rel=\"noopener\" onclick=\"return confirm('Open this link?\\n\\n'+this.href);\">Канал Минобороны России в MAКС – источник мощных новостей</a>"}},{"type":"Feature","geometry":null,"properties":{"source":"ru_mod","source_name":"Ministry of Defence of Russia","group":"official_ru","id":67412,"posted_utc":"2026-09-17T14:52:12+00:00","link":"https://t.me/mod_russia/67412","text":"🚫 Вот это поворот\nДроноводы «Южной» группировки войск уничтожили квадроцикл с личным составом ВСУ в районе Славянска.\nУвидев в небе нашу «птичку», водитель потерял управление и кубарем полетел в кювет вместе с квадроциклом и пассажиром. Ротация сорвана.\n🎮 Канал Минобороны России в MAКС – боевая работа 24/7. Присоединяйся!","links":["https://max.ru/morf"],"original_html":"<i class=\"emoji\" style=\"background-image:url('//telegram.org/img/emoji/40/F09F9AAB.png')\"><b>🚫</b></i><b> Вот это поворот</b><br/><br/>Дроноводы «Южной» группировки войск <b>уничтожили квадроцикл с личным составом ВСУ</b> в районе Славянска.<br/><br/>Увидев в небе нашу «птичку», водитель потерял управление и кубарем полетел в кювет вместе с квадроциклом и пассажиром. Ротация сорвана.<br/><br/><tg-emoji emoji-id=\"5449767024165154360\"><i class=\"emoji\" style=\"background-image:url('//telegram.org/img/emoji/40/F09F8EAE.png')\"><b>🎮</b></i></tg-emoji> <a href=\"https://max.ru/morf\" target=\"_blank\" rel=\"noopener\" onclick=\"return confirm('Open this link?\\n\\n'+this.href);\">Канал Минобороны России в MAКС – боевая работа 24/7. Присоединяйся&#33;</a>"}},{"type":"Feature","geometry":null,"properties":{"source":"ru_mod","source_name":"Ministry of Defence of Russia","group":"official_ru","id":67413,"posted_utc":"2026-09-17T16:05:08+00:00","link":"https://t.me/mod_russia/67413","text":"Испытание на прочность\nТанковые экипажи МВО совершили 100-километровый марш в ходе занятий по боевой подготовке и слаживанию подразделений.\nНа маршруте будущие механики-водители отработали скоростное вождение по пересеченной местности, тактическое маневрирование под огнем условного противника, преодоление зараженного участка и противодействие беспилотникам с помощью штатных средств РЭБ.\n📍 полигон Московского военного округа, Владимирская область.\n🔹 MAКС – территория СВОих","links":["https://max.ru/morf"],"original_html":"<b>Испытание на прочность</b><br/><br/>Танковые экипажи МВО совершили <b>100-километровый марш в ходе занятий по боевой подготовке</b> и слаживанию подразделений.<br/><br/>На маршруте будущие механики-водители <b>отработали скоростное вождение по пересеченной местности</b>, тактическое маневрирование под огнем условного противника, преодоление зараженного участка и <b>противодействие беспилотникам</b> с помощью штатных средств РЭБ.<br/><br/><tg-emoji emoji-id=\"5449396879588614682\"><i class=\"emoji\" style=\"background-image:url('//telegram.org/img/emoji/40/F09F938D.png')\"><b>📍</b></i></tg-emoji> полигон Московского военного округа, Владимирская область.<br/><br/><tg-emoji emoji-id=\"5269510734265483362\"><i class=\"emoji\" style=\"background-image:url('//telegram.org/img/emoji/40/F09F94B9.png')\"><b>🔹</b></i></tg-emoji> <a href=\"https://max.ru/morf\" target=\"_blank\" rel=\"noopener\" onclick=\"return confirm('Open this link?\\n\\n'+this.href);\">MAКС – территория СВОих</a>"}},{"type":"Feature","geometry":null,"properties":{"source":"ru_mod","source_name":"Ministry of Defence of Russia","group":"official_ru","id":67417,"posted_utc":"2026-09-17T16:36:15+00:00","link":"https://t.me/mod_russia/67417","text":"❗️ В течение дня Вооруженными Силами Российской Федерации продолжено нанесение ударов беспилотными летательными аппаратами по портам Украины, а также морским судам, используемым в интересах ВСУ.\n🔥 В результате ударов в порту Черноморск Одесской области поражено морское судно типа «сухогруз» с грузом военного назначения.\n💥 Кроме того, на переходе морем поражено морское судно типа «сухогруз», доставлявшее в порт Измаил военное имущество для обеспечения ВСУ.\n🔹 Минобороны России","links":["https://max.ru/morf"],"original_html":"<tg-emoji emoji-id=\"5447116342148753425\"><i class=\"emoji\" style=\"background-image:url('//telegram.org/img/emoji/40/E29D97.png')\"><b>❗️</b></i></tg-emoji> В течение дня <b>Вооруженными Силами Российской Федерации продолжено нанесение ударов</b> беспилотными летательными аппаратами по портам Украины, а также морским судам, используемым в интересах ВСУ.<br/><br/><tg-emoji emoji-id=\"5449590921916082144\"><i class=\"emoji\" style=\"background-image:url('//telegram.org/img/emoji/40/F09F94A5.png')\"><b>🔥</b></i></tg-emoji> В результате ударов в порту Черноморск Одесской области <b>поражено морское судно типа «сухогруз»</b> с грузом военного назначения.<br/><br/><tg-emoji emoji-id=\"5449682610877918293\"><i class=\"emoji\" style=\"background-image:url('//telegram.org/img/emoji/40/F09F92A5.png')\"><b>💥</b></i></tg-emoji> Кроме того, на переходе морем <b>поражено морское судно типа «сухогруз»</b>, доставлявшее в порт Измаил военное имущество для обеспечения ВСУ.<br/><br/><tg-emoji emoji-id=\"5269510734265483362\"><i class=\"emoji\" style=\"background-image:url('//telegram.org/img/emoji/40/F09F94B9.png')\"><b>🔹</b></i></tg-emoji> <a href=\"https://max.ru/morf\" target=\"_blank\" rel=\"noopener\" onclick=\"return confirm('Open this link?\\n\\n'+this.href);\">Минобороны России</a>"}},{"type":"Feature","geometry":null,"properties":{"source":"ru_mod","source_name":"Ministry of Defence of Russia","group":"official_ru","id":67418,"posted_utc":"2026-09-17T17:22:03+00:00","link":"https://t.me/mod_russia/67418","text":"⚡️ В течение дня, с 08.00 до 20.00 мск, дежурными силами ПВО перехвачены и уничтожены 292 украинских беспилотных летательных аппарата самолетного типа над территориями Белгородской, Брянской, Калужской, Курской, Орловской, Тульской областей, Московского региона, Республики Крым и над акваториями Каспийского и Черного морей.\n💬 Канал Минобороны России в MAКС – только для своих!","links":["https://max.ru/morf"],"original_html":"<i class=\"emoji\" style=\"background-image:url('//telegram.org/img/emoji/40/E29AA1.png')\"><b>⚡️</b></i> В течение дня, с 08.00 до 20.00 мск, дежурными силами ПВО <b>перехвачены и уничтожены 292 украинских беспилотных летательных аппарата самолетного типа</b> над территориями Белгородской, Брянской, Калужской, Курской, Орловской, Тульской областей, Московского региона, Республики Крым и над акваториями Каспийского и Черного морей.<br/><br/><tg-emoji emoji-id=\"5447486370761176298\"><i class=\"emoji\" style=\"background-image:url('//telegram.org/img/emoji/40/F09F92AC.png')\"><b>💬</b></i></tg-emoji> <a href=\"https://max.ru/morf\" target=\"_blank\" rel=\"noopener\" onclick=\"return confirm('Open this link?\\n\\n'+this.href);\">Канал Минобороны России в MAКС – только для своих&#33;</a>"}},{"type":"Feature","geometry":null,"properties":{"source":"ru_mod","source_name":"Ministry of Defence of Russia","group":"official_ru","id":67419,"posted_utc":"2026-09-17T17:33:59+00:00","link":"https://t.me/mod_russia/67419","text":"💥 У врага аллергия на «Гиацинты»\nАртиллеристы группировки «Восток» уничтожили пункты управления дронами ВСУ в Запорожской области.\n🔹 Канал Минобороны России в MAКС – боевая работа 24/7. Присоединяйся!","links":["https://max.ru/morf"],"original_html":"<tg-emoji emoji-id=\"5449682610877918293\"><i class=\"emoji\" style=\"background-image:url('//telegram.org/img/emoji/40/F09F92A5.png')\"><b>💥</b></i></tg-emoji> <b>У врага аллергия на «Гиацинты»</b><br/><br/>Артиллеристы группировки «Восток» уничтожили пункты управления дронами ВСУ в Запорожской области.<br/><br/><tg-emoji emoji-id=\"5269510734265483362\"><i class=\"emoji\" style=\"background-image:url('//telegram.org/img/emoji/40/F09F94B9.png')\"><b>🔹</b></i></tg-emoji> <a href=\"https://max.ru/morf\" target=\"_blank\" rel=\"noopener\" onclick=\"return confirm('Open this link?\\n\\n'+this.href);\">Канал Минобороны России в MAКС – боевая работа 24/7. Присоединяйся&#33;</a>"}},{"type":"Feature","geometry":null,"properties":{"source":"ru_mod","source_name":"Ministry of Defence of Russia","group":"official_ru","id":67420,"posted_utc":"2026-09-17T18:03:33+00:00","link":"https://t.me/mod_russia/67420","text":"▫️ +2 в копилку побед. Работаем дальше!\n#СобытиеДня\n🔹 Минобороны России","links":["https://max.ru/morf"],"original_html":"<tg-emoji emoji-id=\"5352532894478793783\"><i class=\"emoji\" style=\"background-image:url('//telegram.org/img/emoji/40/E296AB.png')\"><b>▫️</b></i></tg-emoji> <b>+2 в копилку побед. Работаем дальше&#33;</b><br/><br/><a href=\"?q=%23%D0%A1%D0%BE%D0%B1%D1%8B%D1%82%D0%B8%D0%B5%D0%94%D0%BD%D1%8F\">#СобытиеДня</a><br/><tg-emoji emoji-id=\"5269510734265483362\"><i class=\"emoji\" style=\"background-image:url('//telegram.org/img/emoji/40/F09F94B9.png')\"><b>🔹</b></i></tg-emoji> <a href=\"https://max.ru/morf\" target=\"_blank\" rel=\"noopener\" onclick=\"return confirm('Open this link?\\n\\n'+this.href);\">Минобороны России</a>"}},{"type":"Feature","geometry":null,"properties":{"source":"ru_mod","source_name":"Ministry of Defence of Russia","group":"official_ru","id":67421,"posted_utc":"2026-09-17T18:33:16+00:00","link":"https://t.me/mod_russia/67421","text":"📆 Главное за день\n🚩 Разгоняем наступление: российские войска взяли под контроль населенный пункт Малая Волчья в Харьковской области, а также освободили Розовку в Запорожской области.\n💥 Бьем по тылам: наносим удары по предприятиям металлургической и радиоэлектронной промышленности, военно-промышленного комплекса Украины, объектам энергетической и транспортной инфраструктуры, а также морским судам, задействованным в интересах ВСУ.\n✈️ Разносим противника: экипажи ВКС России ударили авиабомбами ФАБ-500 по пунктам временной дислокации ВСУ.\n▫️ Мы давим – враг пятится: командир зенитной ракетной батареи 1465-го мотострелкового полка «Южной» группировки с позывным «Памир» рассказал о работе подразделений в Славянско-Краматорской агломерации.\n▫️ Испытание на прочность: танковые экипажи Московского военного округа совершили 100-километровый марш в ходе занятий по боевой подготовке.\n⚓️ Калибровка по-тихоокеански: подводная лодка «Уфа» Тихоокеанского флота в ходе учения запустила «Калибры» по морской и береговой целям.\nНаш курс неизменен – только вперед!\n#ИтогиДня\n🔹 Канал Минобороны России в MAКС – только для своих!","links":["https://t.me/mod_russia/67406","https://t.me/mod_russia/67407","https://t.me/mod_russia/67397","https://t.me/mod_russia/67404","https://t.me/mod_russia/67410","https://t.me/mod_russia/67413","https://t.me/mod_russia/67396","https://max.ru/morf"],"original_html":"<tg-emoji emoji-id=\"5472282252048104170\"><i class=\"emoji\" style=\"background-image:url('//telegram.org/img/emoji/40/F09F9386.png')\"><b>📆</b></i></tg-emoji> <b>Главное за день</b><br/><br/><tg-emoji emoji-id=\"5447466081335670917\"><i class=\"emoji\" style=\"background-image:url('//telegram.org/img/emoji/40/F09F9AA9.png')\"><b>🚩</b></i></tg-emoji> <b>Разгоняем наступление</b>: российские войска взяли под контроль населенный пункт <a href=\"https://t.me/mod_russia/67406\" target=\"_blank\" rel=\"noopener\" onclick=\"return confirm('Open this link?\\n\\n'+this.href);\">Малая Волчья</a> в Харьковской области, а также освободили <a href=\"https://t.me/mod_russia/67407\" target=\"_blank\" rel=\"noopener\" onclick=\"return confirm('Open this link?\\n\\n'+this.href);\">Розовку</a> в Запорожской области.<br/><br/><tg-emoji emoji-id=\"5449682610877918293\"><i class=\"emoji\" style=\"background-image:url('//telegram.org/img/emoji/40/F09F92A5.png')\"><b>💥</b></i></tg-emoji> <b>Бьем по тылам</b>: <a href=\"https://t.me/mod_russia/67397\" target=\"_blank\" rel=\"noopener\" onclick=\"return confirm('Open this link?\\n\\n'+this.href);\">наносим удары</a> по предприятиям металлургической и радиоэлектронной промышленности, военно-промышленного комплекса Украины, объектам энергетической и транспортной инфраструктуры, а также морским судам, задействованным в интересах ВСУ.<br/><br/><tg-emoji emoji-id=\"5449403034276751727\"><i class=\"emoji\" style=\"background-image:url('//telegram.org/img/emoji/40/E29C88.png')\"><b>✈️</b></i></tg-emoji> <b>Разносим противника</b>: экипажи ВКС России <a href=\"https://t.me/mod_russia/67404\" target=\"_blank\" rel=\"noopener\" onclick=\"return confirm('Open this link?\\n\\n'+this.href);\">ударили</a> авиабомбами ФАБ-500 по пунктам временной дислокации ВСУ. <br/><br/><tg-emoji emoji-id=\"5352532894478793783\"><i class=\"emoji\" style=\"background-image:url('//telegram.org/img/emoji/40/E296AB.png')\"><b>▫️</b></i></tg-emoji> <b>Мы давим – враг пятится</b>: командир зенитной ракетной батареи 1465-го мотострелкового полка «Южной» группировки с позывным «Памир» <a href=\"https://t.me/mod_russia/67410\" target=\"_blank\" rel=\"noopener\" onclick=\"return confirm('Open this link?\\n\\n'+this.href);\">рассказал</a> о работе подразделений в Славянско-Краматорской агломерации. <br/><br/><tg-emoji emoji-id=\"5264796878809099818\"><i class=\"emoji\" style=\"background-image:url('//telegram.org/img/emoji/40/E296AB.png')\"><b>▫️</b></i></tg-emoji> <b>Испытание на прочность</b>: танковые экипажи Московского военного округа <a href=\"https://t.me/mod_russia/67413\" target=\"_blank\" rel=\"noopener\" onclick=\"return confirm('Open this link?\\n\\n'+this.href);\">совершили</a> 100-километровый марш в ходе занятий по боевой подготовке.<br/><br/><tg-emoji emoji-id=\"5469905455801198241\"><i class=\"emoji\" style=\"background-image:url('//telegram.org/img/emoji/40/E29A93.png')\"><b>⚓️</b></i></tg-emoji> <b>Калибровка по-тихоокеански</b>: подводная лодка «Уфа» Тихоокеанского флота в ходе учения <a href=\"https://t.me/mod_russia/67396\" target=\"_blank\" rel=\"noopener\" onclick=\"return confirm('Open this link?\\n\\n'+this.href);\">запустила</a> «Калибры» по морской и береговой целям.<br/><br/><b>Наш курс неизменен – только вперед&#33;</b><br/><br/><a href=\"?q=%23%D0%98%D1%82%D0%BE%D0%B3%D0%B8%D0%94%D0%BD%D1%8F\">#ИтогиДня</a><br/><tg-emoji emoji-id=\"5269510734265483362\"><i class=\"emoji\" style=\"background-image:url('//telegram.org/img/emoji/40/F09F94B9.png')\"><b>🔹</b></i></tg-emoji> <a href=\"https://max.ru/morf\" target=\"_blank\" rel=\"noopener\" onclick=\"return confirm('Open this link?\\n\\n'+this.href);\">Канал Минобороны России в MAКС – только для своих&#33;</a>"}},{"type":"Feature","geometry":null,"properties":{"source":"ru_mod","source_name":"Ministry of Defence of Russia","group":"official_ru","id":67422,"posted_utc":"2026-09-17T19:12:35+00:00","link":"https://t.me/mod_russia/67422","text":"Нас не видно, мы видим всё 👀\nМы ловим каждый шорох ночи, чтобы дома вы спали в абсолютной тишине\n🔹 MAКС – территория СВОих","links":["https://max.ru/morf"],"original_html":"<b>Нас не видно, мы видим всё</b> <i class=\"emoji\" style=\"background-image:url('//telegram.org/img/emoji/40/F09F9180.png')\"><b>👀</b></i><br/><br/>Мы ловим каждый шорох ночи, чтобы дома вы спали в абсолютной тишине<br/><br/><tg-emoji emoji-id=\"5269510734265483362\"><i class=\"emoji\" style=\"background-image:url('//telegram.org/img/emoji/40/F09F94B9.png')\"><b>🔹</b></i></tg-emoji> <a href=\"https://max.ru/morf\" target=\"_blank\" rel=\"noopener\" onclick=\"return confirm('Open this link?\\n\\n'+this.href);\">MAКС – территория СВОих</a>"}},{"type":"Feature","geometry":null,"properties":{"source":"ru_mod","source_name":"Ministry of Defence of Russia","group":"official_ru","id":67423,"posted_utc":"2026-09-17T22:04:01+00:00","link":"https://t.me/mod_russia/67423","text":"Фронтовая гордость: 85 лет назад родилась советская гвардия\n▫️ 18 сентября 1941 года приказом Народного комиссара обороны СССР за боевые подвиги в гвардейские были переименованы четыре стрелковые дивизии Западного фронта, участвовавшие в Ельнинской операции: 100-я, 127-я, 153-я и 161-я.\n🚩 Чтобы подчеркнуть статус гвардейских частей, в мае 1942 года Указом Президиума Верховного Совета СССР был официально учрежден нагрудный знак. Этим же документом утверждалось появление гвардейских знаков на знаменах армий и корпусов.\n📊 К концу войны во всех видах и родах войск гвардейскими стали: 17 армий, 83 корпуса, 232 дивизии, 1793 полка и 34 корабля, заслуживших это почетное звание.\n#ВэтотДень\n🔹 Минобороны России","links":["https://max.ru/morf"],"original_html":"<b>Фронтовая гордость: 85 лет назад родилась советская гвардия</b><br/><br/><tg-emoji emoji-id=\"5469903849483431273\"><i class=\"emoji\" style=\"background-image:url('//telegram.org/img/emoji/40/E296AB.png')\"><b>▫️</b></i></tg-emoji> 18 сентября 1941 года приказом Народного комиссара обороны СССР <b>за боевые подвиги в гвардейские были переименованы четыре стрелковые дивизии Западного фронта, участвовавшие в Ельнинской операции</b>: 100-я, 127-я, 153-я и 161-я. <br/><br/><tg-emoji emoji-id=\"5447466081335670917\"><i class=\"emoji\" style=\"background-image:url('//telegram.org/img/emoji/40/F09F9AA9.png')\"><b>🚩</b></i></tg-emoji> Чтобы подчеркнуть статус гвардейских частей, в мае 1942 года Указом Президиума Верховного Совета СССР <b>был официально учрежден нагрудный знак</b>. Этим же документом утверждалось появление гвардейских знаков на знаменах армий и корпусов.<br/><br/><tg-emoji emoji-id=\"5471887681992551719\"><i class=\"emoji\" style=\"background-image:url('//telegram.org/img/emoji/40/F09F938A.png')\"><b>📊</b></i></tg-emoji> К концу войны во всех видах и родах войск <b>гвардейскими стали</b>: 17 армий, 83 корпуса, 232 дивизии, 1793 полка и 34 корабля, заслуживших это почетное звание.<br/><br/><a href=\"?q=%23%D0%92%D1%8D%D1%82%D0%BE%D1%82%D0%94%D0%B5%D0%BD%D1%8C\">#ВэтотДень</a><br/><tg-emoji emoji-id=\"5269510734265483362\"><i class=\"emoji\" style=\"background-image:url('//telegram.org/img/emoji/40/F09F94B9.png')\"><b>🔹</b></i></tg-emoji> <a href=\"https://max.ru/morf\" target=\"_blank\" rel=\"noopener\" onclick=\"return confirm('Open this link?\\n\\n'+this.href);\">Минобороны России</a>"}},{"type":"Feature","geometry":null,"properties":{"source":"ru_mod","source_name":"Ministry of Defence of Russia","group":"official_ru","id":67395,"posted_utc":"2026-09-17T02:02:01+00:00","link":"https://t.me/mod_russia/67395","text":"☦️ С верой в Бога и в свое мастерство\nВ подразделения группировки войск «Центр» доставили ковчег с мощами святого благоверного князя Дмитрия Донского.\nСвятыня побывала в нескольких полевых храмах подразделений, один из которых назван в честь князя Дмитрия Донского. После прикладывания к мощам каждому военнослужащему дали освященные иконы с изображением лика святого.\n«Мы оказались здесь в этот исторический момент. Всех нас радует, что Господь дает нам знак: Он с нами. И мы идем верным путем, мы должны двигаться дальше, вперед», – поделился один из военнослужащих.\n🔹 Канал Минобороны России в MAКС – только для своих!","links":["https://max.ru/morf"],"original_html":"<i class=\"emoji\" style=\"background-image:url('//telegram.org/img/emoji/40/E298A6.png')\"><b>☦️</b></i> <b>С верой в Бога и в свое мастерство</b><br/><br/>В подразделения группировки войск «Центр» <b>доставили ковчег с мощами святого благоверного князя Дмитрия Донского.</b><br/><br/><b>Святыня побывала в нескольких полевых храмах подразделений, </b>один из которых назван в честь князя Дмитрия Донского. После прикладывания к мощам каждому военнослужащему дали освященные иконы с изображением лика святого.<br/><br/><blockquote>«Мы оказались здесь в этот исторический момент. Всех нас радует, что Господь дает нам знак: Он с нами. И мы идем верным путем, мы должны двигаться дальше, вперед», – поделился один из военнослужащих. </blockquote><br/><br/><tg-emoji emoji-id=\"5269510734265483362\"><i class=\"emoji\" style=\"background-image:url('//telegram.org/img/emoji/40/F09F94B9.png')\"><b>🔹</b></i></tg-emoji> <a href=\"https://max.ru/morf\" target=\"_blank\" rel=\"noopener\" onclick=\"return confirm('Open this link?\\n\\n'+this.href);\">Канал Минобороны России в MAКС – только для своих&#33;</a>"}},{"type":"Feature","geometry":null,"properties":{"source":"ru_mod","source_name":"Ministry of Defence of Russia","group":"official_ru","id":67396,"posted_utc":"2026-09-17T03:51:01+00:00","link":"https://t.me/mod_russia/67396","text":"Калибровка по-тихоокеански: «Уфа» отработала точно по целям\n⚓️ Подводная лодка «Уфа» Тихоокеанского флота в ходе учения выполнила пуски «Калибров» по морской и береговой целям\n🔹 Первая ракета успешно поразила надводную цель – морской щит, имитирующий надводный боевой корабль условного противника. Дальность – около 130 километров.\n🔹 Вторая ракета поразила береговую мишенную позицию на тактическом поле Сюркум в Хабаровском крае. Расстояние до цели более 1 тысячи километров.\n✈️ Курс на MAКС!","links":["https://max.ru/morf"],"original_html":"<b>Калибровка по-тихоокеански: «Уфа» отработала точно по целям</b><br/><br/><tg-emoji emoji-id=\"5469905455801198241\"><i class=\"emoji\" style=\"background-image:url('//telegram.org/img/emoji/40/E29A93.png')\"><b>⚓️</b></i></tg-emoji> <b>Подводная лодка «Уфа» Тихоокеанского флота в ходе учения выполнила пуски «Калибров» по морской и береговой целям</b><br/><br/><tg-emoji emoji-id=\"5470000692406023380\"><i class=\"emoji\" style=\"background-image:url('//telegram.org/img/emoji/40/F09F94B9.png')\"><b>🔹</b></i></tg-emoji> <b>Первая ракета успешно поразила надводную цель</b> – морской щит, имитирующий надводный боевой корабль условного противника. <b>Дальность – около 130 километров.</b><br/><br/><tg-emoji emoji-id=\"5470000692406023380\"><i class=\"emoji\" style=\"background-image:url('//telegram.org/img/emoji/40/F09F94B9.png')\"><b>🔹</b></i></tg-emoji> <b>Вторая ракета поразила береговую мишенную позицию </b>на тактическом поле Сюркум в Хабаровском крае.<b> Расстояние до цели более 1 тысячи километров.</b><br/><br/><tg-emoji emoji-id=\"5449403034276751727\"><i class=\"emoji\" style=\"background-image:url('//telegram.org/img/emoji/40/E29C88.png')\"><b>✈️</b></i></tg-emoji> <a href=\"https://max.ru/morf\" target=\"_blank\" rel=\"noopener\" onclick=\"return confirm('Open this link?\\n\\n'+this.href);\">Курс на MAКС&#33;</a>"}},{"type":"Feature","geometry":null,"properties":{"source":"ru_mod","source_name":"Ministry of Defence of Russia","group":"official_ru","id":67397,"posted_utc":"2026-09-17T05:10:01+00:00","link":"https://t.me/mod_russia/67397","text":"❗️ Сегодня ночью Вооруженными Силами Российской Федерации в результате массированного удара высокоточным оружием наземного, морского и воздушного базирования, беспилотными летательными аппаратами поражены предприятия металлургической и радиоэлектронной промышленности, военно-промышленного комплекса Украины, объекты энергетической и транспортной инфраструктуры в Киеве, Запорожье и Одесской области, а также морские суда, задействованные в интересах ВСУ.\n🔹 Минобороны России","links":["https://max.ru/morf"],"original_html":"<tg-emoji emoji-id=\"5447116342148753425\"><i class=\"emoji\" style=\"background-image:url('//telegram.org/img/emoji/40/E29D97.png')\"><b>❗️</b></i></tg-emoji> Сегодня ночью Вооруженными Силами Российской Федерации<b> в результате массированного удара</b> высокоточным оружием наземного, морского и воздушного базирования, беспилотными летательными аппаратами <b>поражены предприятия металлургической и радиоэлектронной промышленности</b>, военно-промышленного комплекса Украины, <b>объекты энергетической и транспортной инфраструктуры</b> в Киеве, Запорожье и Одесской области, а также <b>морские суда</b>, задействованные в интересах ВСУ.<br/><br/><tg-emoji emoji-id=\"5269510734265483362\"><i class=\"emoji\" style=\"background-image:url('//telegram.org/img/emoji/40/F09F94B9.png')\"><b>🔹</b></i></tg-emoji> <a href=\"https://max.ru/morf\" target=\"_blank\" rel=\"noopener\" onclick=\"return confirm('Open this link?\\n\\n'+this.href);\">Минобороны России</a>"}},{"type":"Feature","geometry":null,"properties":{"source":"ru_mod","source_name":"Ministry of Defence of Russia","group":"official_ru","id":67398,"posted_utc":"2026-09-17T05:54:05+00:00","link":"https://t.me/mod_russia/67398","text":"⚡️ В течение прошедшей ночи дежурными силами ПВО перехвачен и уничтожен 641 украинский беспилотный летательный аппарат самолетного типа над территориями Астраханской, Белгородской, Брянской, Владимирской, Воронежской, Калужской, Костромской, Курской, Липецкой, Нижегородской, Орловской, Ростовской, Рязанской, Смоленской, Тамбовской, Тверской, Тульской, Ярославской областей, Краснодарского края, Московского региона, Республики Крым и над акваториями Азовского, Каспийского и Черного морей.\n🔹 MAКС – территория СВОих","links":["https://max.ru/morf"],"original_html":"<tg-emoji emoji-id=\"5449911936361724483\"><i class=\"emoji\" style=\"background-image:url('//telegram.org/img/emoji/40/E29AA1.png')\"><b>⚡️</b></i></tg-emoji> В течение прошедшей ночи дежурными силами ПВО <b>перехвачен и уничтожен 641 украинский беспилотный летательный аппарат самолетного типа </b>над территориями Астраханской, Белгородской, Брянской, Владимирской, Воронежской, Калужской, Костромской, Курской, Липецкой, Нижегородской, Орловской, Ростовской, Рязанской, Смоленской, Тамбовской, Тверской, Тульской, Ярославской областей, Краснодарского края, Московского региона, Республики Крым и над акваториями Азовского, Каспийского и Черного морей.<br/><br/><tg-emoji emoji-id=\"5269510734265483362\"><i class=\"emoji\" style=\"background-image:url('//telegram.org/img/emoji/40/F09F94B9.png')\"><b>🔹</b></i></tg-emoji> <a href=\"https://max.ru/morf\" target=\"_blank\" rel=\"noopener\" onclick=\"return confirm('Open this link?\\n\\n'+this.href);\">MAКС – территория СВОих</a>"}},{"type":"Feature","geometry":null,"properties":{"source":"ru_mod","source_name":"Ministry of Defence of Russia","group":"official_ru","id":67399,"posted_utc":"2026-09-17T05:57:35+00:00","link":"https://t.me/mod_russia/67399","text":"▫️ Наш танковый бой продолжается\nЭкипажи танков Т-80БВМ группировки «Север» уничтожили замаскированный блиндаж, пункт управления БПЛА и живую силу ВСУ на Харьковском направлении.\n💥 Канал Минобороны России в MAКС – боевая работа 24/7. Присоединяйся!","links":["https://max.ru/morf"],"original_html":"<b><tg-emoji emoji-id=\"5352532894478793783\"><i class=\"emoji\" style=\"background-image:url('//telegram.org/img/emoji/40/E296AB.png')\"><b>▫️</b></i></tg-emoji></b><b> Наш танковый бой продолжается</b><br/><br/>Экипажи танков Т-80БВМ группировки «Север» <b>уничтожили замаскированный блиндаж, пункт управления БПЛА и живую силу ВСУ</b> на Харьковском направлении.<br/><br/><tg-emoji emoji-id=\"5447408202356389121\"><i class=\"emoji\" style=\"background-image:url('//telegram.org/img/emoji/40/F09F92A5.png')\"><b>💥</b></i></tg-emoji> <a href=\"https://max.ru/morf\" target=\"_blank\" rel=\"noopener\" onclick=\"return confirm('Open this link?\\n\\n'+this.href);\">Канал Минобороны России в MAКС – боевая работа 24/7. Присоединяйся&#33;</a>"}},{"type":"Feature","geometry":null,"properties":{"source":"ru_mod","source_name":"Ministry of Defence of Russia","group":"official_ru","id":67400,"posted_utc":"2026-09-17T06:08:48+00:00","link":"https://t.me/mod_russia/67400","text":"❗️ Сегодня ночью Вооруженными Силами Российской Федерации в результате массированного удара высокоточным оружием наземного, морского и воздушного базирования, беспилотными летательными аппаратами поражены предприятия металлургической и радиоэлектронной промышленности…","links":[],"original_html":"<tg-emoji emoji-id=\"5447116342148753425\"><i class=\"emoji\" style=\"background-image:url('//telegram.org/img/emoji/40/E29D97.png')\"><b>❗️</b></i></tg-emoji> Сегодня ночью Вооруженными Силами Российской Федерации в результате массированного удара высокоточным оружием наземного, морского и воздушного базирования, беспилотными летательными аппаратами поражены предприятия металлургической и радиоэлектронной промышленности…"}},{"type":"Feature","geometry":null,"properties":{"source":"ru_mod","source_name":"Ministry of Defence of Russia","group":"official_ru","id":67402,"posted_utc":"2026-09-17T06:26:07+00:00","link":"https://t.me/mod_russia/67402","text":"🔥 Накрыли реактивной волной\nУдарные беспилотники «Герань-4 Сикер» отработали по трём сухогрузам и парому (типа «РО-РО»), которые доставляли военные грузы для ВСУ.\n📍 порт Черноморск, Одесская область\n#ВойскаБПС\n▫️ Канал Минобороны России в MAКС – источник мощных новостей","links":["https://max.ru/morf"],"original_html":"<tg-emoji emoji-id=\"5449590921916082144\"><i class=\"emoji\" style=\"background-image:url('//telegram.org/img/emoji/40/F09F94A5.png')\"><b>🔥</b></i></tg-emoji><b> Накрыли реактивной волной<br/></b><br/>Ударные беспилотники «Герань-4 Сикер»<b> отработали по трём сухогрузам и парому </b>(типа «РО-РО»), которые доставляли военные грузы для ВСУ.<br/><br/><tg-emoji emoji-id=\"5449396879588614682\"><i class=\"emoji\" style=\"background-image:url('//telegram.org/img/emoji/40/F09F938D.png')\"><b>📍</b></i></tg-emoji><i> порт Черноморск, Одесская область </i><br/><br/><a href=\"?q=%23%D0%92%D0%BE%D0%B9%D1%81%D0%BA%D0%B0%D0%91%D0%9F%D0%A1\">#ВойскаБПС</a><br/><tg-emoji emoji-id=\"5352532894478793783\"><i class=\"emoji\" style=\"background-image:url('//telegram.org/img/emoji/40/E296AB.png')\"><b>▫️</b></i></tg-emoji> <a href=\"https://max.ru/morf\" target=\"_blank\" rel=\"noopener\" onclick=\"return confirm('Open this link?\\n\\n'+this.href);\">Канал Минобороны России в MAКС – источник мощных новостей</a>"}},{"type":"Feature","geometry":null,"properties":{"source":"ru_mod","source_name":"Ministry of Defence of Russia","group":"official_ru","id":67403,"posted_utc":"2026-09-17T06:50:34+00:00","link":"https://t.me/mod_russia/67403","text":"На максималках и в контексте  🔹 Минобороны России","links":[],"original_html":"На максималках и в контексте  <tg-emoji emoji-id=\"5269510734265483362\"><i class=\"emoji\" style=\"background-image:url('//telegram.org/img/emoji/40/F09F94B9.png')\"><b>🔹</b></i></tg-emoji> Минобороны России"}}]}