{"type":"FeatureCollection","features":[{"type":"Feature","geometry":{"type":"Polygon","coordinates":[[[37.75174,49.6544],[37.72858,49.65144],[37.72429,49.65415],[37.73066,49.65744],[37.73985,49.66835],[37.76741,49.66715],[37.77781,49.67318],[37.77274,49.65771],[37.76997,49.65728],[37.77011,49.65429],[37.77732,49.65176],[37.77726,49.6515],[37.75174,49.6544]]]},"properties":{"source":"deepstate","source_name":"DeepStateMap","source_url":"https://deepstatemap.live/en","category":"gained","category_label":"Russian advance: became occupied","period":"1d","compared_with":"2026-08-09","snapshot_time":"2026-08-10","area_km2_approx":5.0}},{"type":"Feature","geometry":{"type":"MultiPolygon","coordinates":[[[[37.78609,49.61985],[37.76372,49.62103],[37.75456,49.63621],[37.72487,49.63983],[37.70566,49.63276],[37.70553,49.63302],[37.73689,49.65251],[37.73765,49.6526],[37.75653,49.64727],[37.76784,49.63915],[37.7866,49.63909],[37.78828,49.62851],[37.78562,49.62546],[37.79098,49.61293],[37.79068,49.61276],[37.78609,49.61985]]],[[[37.70262,49.67859],[37.70203,49.68778],[37.74087,49.69532],[37.74031,49.68434],[37.75931,49.67936],[37.75918,49.66751],[37.73985,49.66835],[37.73548,49.66316],[37.69462,49.67169],[37.70262,49.67859]]],[[[37.67835,49.73333],[37.67363,49.73839],[37.66775,49.74133],[37.65508,49.7435],[37.64404,49.74329],[37.63548,49.73895],[37.63532,49.7392],[37.64987,49.75072],[37.65465,49.75166],[37.66191,49.74721],[37.67311,49.74438],[37.68513,49.73955],[37.68712,49.73172],[37.67835,49.73333]]]]},"properties":{"source":"deepstate","source_name":"DeepStateMap","source_url":"https://deepstatemap.live/en","category":"ukrainian_to_contested","category_label":"Ukrainian-held became contested","period":"1d","compared_with":"2026-08-09","snapshot_time":"2026-08-10","area_km2_approx":20.3}}]}