{"type":"FeatureCollection","features":[{"type":"Feature","geometry":{"type":"MultiPolygon","coordinates":[[[[37.94903,48.80984],[37.94236,48.81105],[37.94025,48.81327],[37.93166,48.81278],[37.92994,48.81732],[37.93255,48.81936],[37.92794,48.83903],[37.92052,48.83955],[37.92053,48.83998],[37.93018,48.84038],[37.94096,48.84389],[37.9526,48.8428],[37.95535,48.82655],[37.95518,48.82186],[37.95036,48.8134],[37.95555,48.80973],[37.95352,48.80023],[37.94903,48.80984]]],[[[37.82237,48.56485],[37.83037,48.57154],[37.82868,48.57718],[37.82467,48.58157],[37.83228,48.58076],[37.8344,48.57829],[37.83773,48.57814],[37.8364,48.57545],[37.83307,48.57266],[37.8342,48.56839],[37.83616,48.56636],[37.82884,48.56166],[37.82237,48.56485]]],[[[37.75174,49.6544],[37.72858,49.65144],[37.72429,49.65415],[37.73066,49.65744],[37.73985,49.66835],[37.76741,49.66715],[37.77781,49.67318],[37.77274,49.65771],[37.76997,49.65728],[37.77011,49.65429],[37.77732,49.65176],[37.77726,49.6515],[37.75174,49.6544]]],[[[37.72649,48.47945],[37.74268,48.48121],[37.74852,48.47794],[37.76195,48.48311],[37.77041,48.46952],[37.75495,48.47267],[37.74558,48.47402],[37.7218,48.472],[37.71615,48.48442],[37.72649,48.47945]]],[[[37.65056,48.47572],[37.64816,48.48974],[37.63676,48.49423],[37.63768,48.49591],[37.64717,48.49383],[37.65949,48.49519],[37.66168,48.48979],[37.65314,48.48912],[37.65288,48.47572],[37.64784,48.47094],[37.64767,48.47108],[37.65056,48.47572]]],[[[37.2427,48.42682],[37.24207,48.43376],[37.24442,48.43392],[37.24397,48.43759],[37.24657,48.43822],[37.25002,48.44264],[37.24883,48.45344],[37.26933,48.45705],[37.27719,48.46406],[37.28533,48.46848],[37.29578,48.46988],[37.30784,48.47472],[37.31838,48.47393],[37.33935,48.47373],[37.36486,48.47782],[37.36712,48.48189],[37.36728,48.48183],[37.36529,48.47292],[37.36003,48.47196],[37.35143,48.46391],[37.33909,48.4597],[37.3254,48.45891],[37.31844,48.4647],[37.30217,48.46476],[37.28728,48.46037],[37.27457,48.45205],[37.25896,48.44285],[37.24362,48.42932],[37.2482,48.42585],[37.23943,48.4261],[37.23942,48.42653],[37.2427,48.42682]]],[[[37.18678,48.37367],[37.19119,48.38121],[37.21035,48.39198],[37.2156,48.39146],[37.22768,48.39767],[37.23609,48.39807],[37.22973,48.38724],[37.22819,48.38171],[37.21652,48.38052],[37.21594,48.37573],[37.20288,48.37779],[37.20003,48.37198],[37.1921,48.37424],[37.18947,48.37186],[37.18678,48.37367]]]]},"properties":{"source":"deepstate","source_name":"DeepStateMap","source_url":"https://deepstatemap.live/en","category":"gained","category_label":"Russian advance: became occupied","period":"7d","compared_with":"2026-08-03","snapshot_time":"2026-08-10","area_km2_approx":31.8}},{"type":"Feature","geometry":{"type":"MultiPolygon","coordinates":[[[[37.82332,48.82],[37.81202,48.82753],[37.82397,48.83442],[37.82781,48.82764],[37.83723,48.82542],[37.8348,48.81857],[37.83245,48.81668],[37.82332,48.82]]],[[[37.83245,48.81668],[37.84075,48.8053],[37.85522,48.79663],[37.83628,48.79897],[37.8184,48.805],[37.83245,48.81668]]],[[[37.7968,48.76674],[37.80744,48.77369],[37.80427,48.76215],[37.79493,48.7669],[37.79497,48.76702],[37.7968,48.76674]]],[[[37.77071,48.6536],[37.78731,48.66027],[37.78835,48.67387],[37.78865,48.67388],[37.79074,48.65721],[37.79131,48.64952],[37.7819,48.64476],[37.77071,48.6536]]],[[[37.78609,49.61985],[37.76372,49.62103],[37.75456,49.63621],[37.72487,49.63983],[37.70566,49.63276],[37.70553,49.63302],[37.73689,49.65251],[37.73765,49.6526],[37.75653,49.64727],[37.76784,49.63915],[37.7866,49.63909],[37.78828,49.62851],[37.78562,49.62546],[37.79098,49.61293],[37.79068,49.61276],[37.78609,49.61985]]],[[[37.70262,49.67859],[37.70203,49.68778],[37.74087,49.69532],[37.74031,49.68434],[37.75931,49.67936],[37.75918,49.66751],[37.73985,49.66835],[37.73548,49.66316],[37.69462,49.67169],[37.70262,49.67859]]],[[[37.67835,49.73333],[37.67363,49.73839],[37.66775,49.74133],[37.65508,49.7435],[37.64404,49.74329],[37.63548,49.73895],[37.63532,49.7392],[37.64987,49.75072],[37.65465,49.75166],[37.66191,49.74721],[37.67311,49.74438],[37.68513,49.73955],[37.68712,49.73172],[37.67835,49.73333]]],[[[37.65382,48.5212],[37.64086,48.53251],[37.64318,48.53904],[37.65311,48.54169],[37.66812,48.53808],[37.67386,48.53083],[37.67977,48.53113],[37.67833,48.52543],[37.67285,48.52948],[37.6715,48.52602],[37.65906,48.52318],[37.66077,48.51728],[37.65384,48.51527],[37.65382,48.5212]]],[[[37.60836,48.49364],[37.61245,48.50128],[37.62548,48.51551],[37.62799,48.49889],[37.61299,48.49466],[37.61123,48.48905],[37.60836,48.49364]]],[[[37.22143,48.45765],[37.22473,48.45234],[37.23104,48.44076],[37.21375,48.43616],[37.20756,48.44289],[37.22143,48.45765]]],[[[37.17218,48.39067],[37.18864,48.39259],[37.18977,48.37864],[37.17338,48.37956],[37.17218,48.39067]]],[[[37.16929,48.371],[37.17338,48.37956],[37.17478,48.37048],[37.17928,48.3609],[37.17758,48.36001],[37.17192,48.35851],[37.16276,48.35784],[37.16069,48.36618],[37.16929,48.371]]],[[[37.05862,48.3645],[37.06406,48.36492],[37.0692,48.36278],[37.06389,48.36162],[37.06233,48.35376],[37.04996,48.35362],[37.04655,48.35585],[37.05312,48.36256],[37.05212,48.3666],[37.05862,48.3645]]]]},"properties":{"source":"deepstate","source_name":"DeepStateMap","source_url":"https://deepstatemap.live/en","category":"ukrainian_to_contested","category_label":"Ukrainian-held became contested","period":"7d","compared_with":"2026-08-03","snapshot_time":"2026-08-10","area_km2_approx":38.9}}]}