{"type":"FeatureCollection","features":[{"type":"Feature","geometry":{"type":"MultiPolygon","coordinates":[[[[37.69813,49.05858],[37.69176,49.06047],[37.67753,49.06615],[37.67427,49.07107],[37.69171,49.08149],[37.70345,49.07935],[37.70697,49.07794],[37.70495,49.07367],[37.7019,49.07041],[37.69907,49.0594],[37.69813,49.05858]]],[[[37.59194,49.81222],[37.60707,49.81203],[37.61012,49.81045],[37.61445,49.8066],[37.61106,49.80364],[37.60948,49.79965],[37.59512,49.7973],[37.59286,49.80423],[37.59194,49.81222]]]]},"properties":{"source":"ukrdaily","source_name":"UkrDailyUpdate","source_url":"https://map.ukrdailyupdate.com/","category":"lost","category_label":"Ukrainian advance: became Ukrainian-held","period":"1d","compared_with":"2026-08-29","snapshot_time":"2026-08-30","area_km2_approx":5.5}},{"type":"Feature","geometry":{"type":"Polygon","coordinates":[[[37.68582,49.62924],[37.68389,49.63308],[37.68603,49.63411],[37.68681,49.636],[37.68822,49.64142],[37.69196,49.64152],[37.691,49.63701],[37.69907,49.63459],[37.69937,49.63108],[37.69592,49.62757],[37.69385,49.62733],[37.69319,49.62759],[37.68996,49.62719],[37.68524,49.62716],[37.68582,49.62924]]]},"properties":{"source":"ukrdaily","source_name":"UkrDailyUpdate","source_url":"https://map.ukrdailyupdate.com/","category":"ukrainian_to_contested","category_label":"Ukrainian-held became contested","period":"1d","compared_with":"2026-08-29","snapshot_time":"2026-08-30","area_km2_approx":1.1}}]}