{"type":"FeatureCollection","features":[{"type":"Feature","geometry":{"type":"Point","coordinates":[37.001196,46.915054]},"properties":{"original":{"id":47117,"type":"Transport","model":"KamAZ 6x6","status":"Destroyed","lost_by":"Russia","date":"2026-09-16","nearest_location":"Kulykivske, Berdiansk raion","geo":"46.915054,37.001196","unit":null,"tags":"Loitering"},"source":"warspotting","source_name":"WarSpotting","source_url":"https://ukr.warspotting.net/","id":47117,"date":"2026-09-16","link":"https://ukr.warspotting.net/view/47117/","category":"Transport","side":"Lost by Russia","color":"#E00000","description":"KamAZ 6x6 · Destroyed · near Kulykivske, Berdiansk raion · tags: Loitering","orbat":[]}},{"type":"Feature","geometry":{"type":"Point","coordinates":[36.972603,46.899833]},"properties":{"original":{"id":47118,"type":"Transport","model":"KamAZ-65117","status":"Destroyed","lost_by":"Russia","date":"2026-09-16","nearest_location":"Kulykivske, Berdiansk raion","geo":"46.899833,36.972603","unit":null,"tags":"Loitering"},"source":"warspotting","source_name":"WarSpotting","source_url":"https://ukr.warspotting.net/","id":47118,"date":"2026-09-16","link":"https://ukr.warspotting.net/view/47118/","category":"Transport","side":"Lost by Russia","color":"#E00000","description":"KamAZ-65117 · Destroyed · near Kulykivske, Berdiansk raion · tags: Loitering","orbat":[]}}]}