{"type":"FeatureCollection","features":[{"type":"Feature","geometry":{"type":"MultiPolygon","coordinates":[[[[37.85564,48.83199],[37.84569,48.83199],[37.84011,48.83312],[37.84037,48.83718],[37.84886,48.83679],[37.86054,48.8391],[37.87092,48.83868],[37.87144,48.83631],[37.87054,48.83221],[37.86745,48.828],[37.85788,48.82817],[37.85564,48.83199]]],[[[37.08492,48.36281],[37.10325,48.36532],[37.10449,48.35968],[37.14651,48.3643],[37.16221,48.36384],[37.17118,48.36079],[37.18341,48.36136],[37.18344,48.37228],[37.17739,48.37411],[37.17653,48.37861],[37.18859,48.37978],[37.18422,48.37343],[37.19012,48.36986],[37.19488,48.36505],[37.19342,48.36166],[37.18566,48.3609],[37.1805,48.35268],[37.16073,48.35098],[37.14479,48.3521],[37.14362,48.35733],[37.10431,48.35359],[37.09886,48.35519],[37.09568,48.35499],[37.09499,48.35604],[37.09272,48.35621],[37.09057,48.35681],[37.08525,48.35735],[37.08492,48.36281]]]]},"properties":{"source":"ukrdaily","source_name":"UkrDailyUpdate","source_url":"https://map.ukrdailyupdate.com/","category":"gained","category_label":"Newly Russian-occupied","period":"1d","compared_with":"2026-08-28","snapshot_time":"2026-08-29","area_km2_approx":10.0}},{"type":"Feature","geometry":{"type":"MultiPolygon","coordinates":[[[[37.81328,48.84523],[37.80826,48.85127],[37.80628,48.85695],[37.81004,48.85811],[37.8162,48.85904],[37.82751,48.85416],[37.82116,48.85332],[37.82242,48.84158],[37.81424,48.84108],[37.81328,48.84523]]],[[[37.58129,48.47265],[37.57675,48.49312],[37.58055,48.4947],[37.58332,48.49756],[37.58664,48.49807],[37.58943,48.50048],[37.59231,48.5013],[37.59501,48.5023],[37.59488,48.50486],[37.60605,48.50649],[37.60637,48.5037],[37.60401,48.49972],[37.60435,48.49703],[37.60241,48.4963],[37.60244,48.49621],[37.59903,48.4948],[37.59723,48.49173],[37.5962,48.48798],[37.59569,48.48411],[37.5962,48.48172],[37.59429,48.47357],[37.58129,48.47265]],[[37.59349,48.49968],[37.59357,48.49927],[37.59419,48.49932],[37.59408,48.49973],[37.59349,48.49968]]],[[[37.00371,48.40012],[37.03638,48.40391],[37.04865,48.40421],[37.0484,48.40937],[37.06131,48.40991],[37.07621,48.40928],[37.0823,48.40669],[37.09552,48.40327],[37.10595,48.39467],[37.11288,48.38769],[37.109,48.38716],[37.10506,48.38939],[37.10244,48.38733],[37.05798,48.38397],[37.03386,48.38307],[37.02094,48.38623],[37.00648,48.38471],[37.00371,48.40012]]],[[[34.78704,51.12239],[34.78129,51.12566],[34.77199,51.1209],[34.76871,51.12309],[34.76302,51.12307],[34.75954,51.12341],[34.74972,51.14487],[34.74729,51.14935],[34.75279,51.15066],[34.75313,51.14878],[34.76615,51.14947],[34.7722,51.14852],[34.76813,51.14713],[34.76708,51.14502],[34.7711,51.14308],[34.77112,51.14103],[34.77552,51.13988],[34.78231,51.13936],[34.7832,51.13541],[34.79182,51.13207],[34.79889,51.1225],[34.78704,51.12239]]]]},"properties":{"source":"ukrdaily","source_name":"UkrDailyUpdate","source_url":"https://map.ukrdailyupdate.com/","category":"gained_contested","category_label":"Newly contested","period":"1d","compared_with":"2026-08-28","snapshot_time":"2026-08-29","area_km2_approx":28.6}},{"type":"Feature","geometry":{"type":"MultiPolygon","coordinates":[[[[37.86143,49.1705],[37.85889,49.17553],[37.85836,49.17657],[37.8562,49.17817],[37.85545,49.18091],[37.85345,49.18115],[37.85128,49.18053],[37.85041,49.18113],[37.84535,49.18247],[37.84451,49.18485],[37.85186,49.18554],[37.85278,49.18543],[37.8583,49.18476],[37.86264,49.18401],[37.86549,49.18679],[37.86863,49.18804],[37.8709,49.19171],[37.8809,49.19204],[37.88428,49.19355],[37.88614,49.19862],[37.88523,49.20072],[37.88647,49.20394],[37.88934,49.20345],[37.89056,49.20753],[37.88931,49.2135],[37.88944,49.22479],[37.88779,49.22494],[37.88498,49.23045],[37.88678,49.23084],[37.88908,49.22688],[37.89469,49.22585],[37.898,49.22399],[37.90074,49.21893],[37.89965,49.21333],[37.89673,49.20736],[37.89627,49.20231],[37.89198,49.18795],[37.87439,49.16682],[37.86323,49.16563],[37.86114,49.16695],[37.86212,49.16918],[37.86144,49.17051],[37.86143,49.1705]]],[[[37.76023,49.17961],[37.76161,49.18006],[37.76397,49.17986],[37.77036,49.18073],[37.78264,49.17779],[37.81036,49.17218],[37.81546,49.17156],[37.81774,49.17808],[37.82234,49.1718],[37.83297,49.17659],[37.83502,49.17494],[37.83734,49.17458],[37.83734,49.1746],[37.84686,49.17311],[37.84948,49.1727],[37.84989,49.17108],[37.84925,49.16836],[37.84717,49.16837],[37.83627,49.17074],[37.8226,49.17003],[37.81378,49.17052],[37.78906,49.17355],[37.78022,49.17613],[37.77164,49.17658],[37.76795,49.1763],[37.76448,49.1742],[37.75993,49.17667],[37.76023,49.17961]]],[[[37.60707,49.81203],[37.60827,49.81538],[37.60854,49.81687],[37.60857,49.817],[37.60892,49.81893],[37.6103,49.82162],[37.61208,49.82567],[37.62237,49.82441],[37.63242,49.82342],[37.63014,49.82266],[37.62735,49.82058],[37.62118,49.82055],[37.61968,49.81595],[37.62461,49.81492],[37.62119,49.80987],[37.61719,49.81083],[37.60707,49.81203]]],[[[35.29024,50.93167],[35.29479,50.93951],[35.29803,50.93598],[35.30357,50.93379],[35.30851,50.93235],[35.29954,50.93035],[35.29024,50.93167]]]]},"properties":{"source":"ukrdaily","source_name":"UkrDailyUpdate","source_url":"https://map.ukrdailyupdate.com/","category":"lost","category_label":"Less Russian-held (occupied or contested area lost)","period":"1d","compared_with":"2026-08-28","snapshot_time":"2026-08-29","area_km2_approx":12.4}}]}