{"type":"FeatureCollection","features":[{"type":"Feature","geometry":null,"properties":{"source":"ua_mod","source_name":"Ministry of Defence of Ukraine","group":"official_ua","id":16303,"posted_utc":"2026-10-03T07:43:38+00:00","link":"https://t.me/ministry_of_defense_ua/16303","text":"Уражено три важливі нафтові об’єкти на відстані від 480 до 1000 км від лінії фронту. Удари по паливно-енергетичному комплексу росії — це справедлива відповідь на терор проти наших міст.\nСеред ключових цілей тижня:\n💥 НПЗ у Волгограді – одне з найбільших підприємств паливного профілю в рф, потужність переробки – близько 15 млн тонн нафти на рік. Серед продукції, яка постачається в російську армію – автомобільні бензини, дизпаливо, авіапальне та компоненти масел.\n💥 Нафтохімічний об’єкт у Самарській області – масштабне підприємство у сфері газопереробки й нафтохімії. Тут виготовляють сировину для вибухових речовин: бензол, фенол, ацетон, синтетичний етиловий спирт.\n💥 Станція «Самара» - найбільший у Європі резервуарний парк та ключовий виробничий вузол системи магістрального трубопровідного транспорту нафти у росії. Загальна місткість резервуарного парку становить 1,6 млн кубометрів.\nУ пріоритеті Сил оборони також ураження місць зберігання, підготовки та запуску ворожих БпЛА, знищення складів боєприпасів, випалювання пунктів управління БпЛА, паливно-мастильних складів та інших об’єктів.\nЗнищення цих об’єктів підриває спроможність росії продовжувати загарбницьку війну. Змусимо Кремль сісти за стіл переговорів.","links":[],"original_html":"<b>Уражено три важливі нафтові об’єкти на відстані від 480 до 1000 км від лінії фронту. Удари по паливно-енергетичному комплексу росії — це справедлива відповідь на терор проти наших міст.</b><br/> <br/>Серед ключових цілей тижня:<br/> <br/><i class=\"emoji\" style=\"background-image:url('//telegram.org/img/emoji/40/F09F92A5.png')\"><b>💥</b></i> НПЗ у Волгограді – одне з найбільших підприємств паливного профілю в рф, потужність переробки – близько 15 млн тонн нафти на рік. Серед продукції, яка постачається в російську армію – автомобільні бензини, дизпаливо, авіапальне та компоненти масел.<br/> <br/><i class=\"emoji\" style=\"background-image:url('//telegram.org/img/emoji/40/F09F92A5.png')\"><b>💥</b></i> Нафтохімічний об’єкт у Самарській області – масштабне підприємство у сфері газопереробки й нафтохімії. Тут виготовляють сировину для вибухових речовин: бензол, фенол, ацетон, синтетичний етиловий спирт. <br/> <br/><i class=\"emoji\" style=\"background-image:url('//telegram.org/img/emoji/40/F09F92A5.png')\"><b>💥</b></i> Станція «Самара» - найбільший у Європі резервуарний парк та ключовий виробничий вузол системи магістрального трубопровідного транспорту нафти у росії. Загальна місткість резервуарного парку становить 1,6 млн кубометрів.<br/> <br/>У пріоритеті Сил оборони також ураження місць зберігання, підготовки та запуску ворожих БпЛА, знищення складів боєприпасів, випалювання пунктів управління БпЛА, паливно-мастильних складів та інших об’єктів.<br/> <br/>Знищення цих об’єктів підриває спроможність росії продовжувати загарбницьку війну. Змусимо Кремль сісти за стіл переговорів."}}]}