{"type":"FeatureCollection","features":[{"type":"Feature","geometry":null,"properties":{"source":"ru_mod","source_name":"Ministry of Defence of Russia","group":"official_ru","id":67667,"posted_utc":"2026-09-27T02:01:01+00:00","link":"https://t.me/mod_russia/67667","text":"🎮 Рой «птичек» над вражескими позициями\nРасчёты войск БПС подразделения спецназначения группировки «Центр» вскрыли и уничтожили узел обороны ВСУ.\n📍 Днепропетровское направление\n#ВойскаБПС\n▫️ Канал Минобороны России в MAКС – источник мощных новостей","links":["https://max.ru/morf"],"original_html":"<b><tg-emoji emoji-id=\"5449767024165154360\"><i class=\"emoji\" style=\"background-image:url('//telegram.org/img/emoji/40/F09F8EAE.png')\"><b>🎮</b></i></tg-emoji></b><b> Рой «птичек» над вражескими позициями</b><br/><br/>Расчёты войск БПС подразделения спецназначения группировки «Центр» <b>вскрыли и уничтожили узел обороны ВСУ.</b><br/><br/><i><tg-emoji emoji-id=\"5449396879588614682\"><i class=\"emoji\" style=\"background-image:url('//telegram.org/img/emoji/40/F09F938D.png')\"><b>📍</b></i></tg-emoji></i><i> Днепропетровское направление</i><br/><br/><a href=\"?q=%23%D0%92%D0%BE%D0%B9%D1%81%D0%BA%D0%B0%D0%91%D0%9F%D0%A1\">#ВойскаБПС</a><br/><tg-emoji emoji-id=\"5352532894478793783\"><i class=\"emoji\" style=\"background-image:url('//telegram.org/img/emoji/40/E296AB.png')\"><b>▫️</b></i></tg-emoji> <a href=\"https://max.ru/morf\" target=\"_blank\" rel=\"noopener\" onclick=\"return confirm('Open this link?\\n\\n'+this.href);\">Канал Минобороны России в MAКС – источник мощных новостей</a>"}},{"type":"Feature","geometry":null,"properties":{"source":"ru_mod","source_name":"Ministry of Defence of Russia","group":"official_ru","id":67668,"posted_utc":"2026-09-27T03:31:01+00:00","link":"https://t.me/mod_russia/67668","text":"🛞 Наука быстрого наката\nВоеннослужащие 6-го гвардейского танкового полка группировки «Центр» отрабатывают управление мототехникой.\n📍 тыловой район зоны СВО\n🔹 MAКС – территория СВОих","links":["https://max.ru/morf"],"original_html":"<b><i class=\"emoji\" style=\"background-image:url('//telegram.org/img/emoji/40/F09F9B9E.png')\"><b>🛞</b></i> Наука быстрого наката</b><br/><br/>Военнослужащие 6-го гвардейского танкового полка группировки «Центр» <b>отрабатывают управление мототехникой. </b><br/><br/><tg-emoji emoji-id=\"5449396879588614682\"><i class=\"emoji\" style=\"background-image:url('//telegram.org/img/emoji/40/F09F938D.png')\"><b>📍</b></i></tg-emoji> <i>тыловой район зоны СВО</i><br/><br/><tg-emoji emoji-id=\"5269510734265483362\"><i class=\"emoji\" style=\"background-image:url('//telegram.org/img/emoji/40/F09F94B9.png')\"><b>🔹</b></i></tg-emoji> <a href=\"https://max.ru/morf\" target=\"_blank\" rel=\"noopener\" onclick=\"return confirm('Open this link?\\n\\n'+this.href);\">MAКС – территория СВОих</a>"}},{"type":"Feature","geometry":null,"properties":{"source":"ru_mod","source_name":"Ministry of Defence of Russia","group":"official_ru","id":67669,"posted_utc":"2026-09-27T05:33:29+00:00","link":"https://t.me/mod_russia/67669","text":"❗️ Сегодня ночью Вооруженными Силами Российской Федерации продолжено нанесение ударов беспилотными летательными аппаратами по логистическим центрам, объектам портовой, транспортной инфраструктуры, коммуникационным центрам и морским судам, задействованным в интересах ВСУ.\nВ результате ударов поражены:\n📍 в Киеве – центр обработки данных компании «Водафон», являющийся одной из крупнейших компаний, предоставляющих услуги мобильной связи и высокоскоростного интернета для ВСУ, в том числе для передачи разведывательных данных;\n📍 в Киевской области – логистический центр «Заммлер Групп» в Красиловке, на территории которого осуществлялось хранение и распределение западной военной помощи в интересах ВСУ;\n📍 в Николаеве – два склада беспилотных летательных аппаратов и боевых частей к ним;\n📍 в Одесской области – логистический центр «Дрон Калинш» в Ильичовке, на территории которого осуществлялось хранение FPV-перехватчиков;\n📍 в порту Килия:\n▫️ штаб военно-морской базы «Восток» военно-морских сил Украины,\n▫️ пункт базирования государственной пограничной службы Украины,\n▫️ четыре хранилища с военным имуществом, предназначенным для обеспечения ВСУ,\n▫️ объекты причальной инфраструктуры.\n💥 Кроме того, на переходе морем поражено морское судно типа «сухогруз», доставлявшее в порт Одесса военное имущество и грузы двойного назначения для обеспечения ВСУ.\n🔹 Минобороны России","links":["https://max.ru/morf"],"original_html":"<b><tg-emoji emoji-id=\"5447116342148753425\"><i class=\"emoji\" style=\"background-image:url('//telegram.org/img/emoji/40/E29D97.png')\"><b>❗️</b></i></tg-emoji></b><b> Сегодня ночью Вооруженными Силами Российской Федерации продолжено нанесение ударов беспилотными летательными аппаратами по логистическим центрам, объектам портовой, транспортной инфраструктуры, коммуникационным центрам и морским судам, задействованным в интересах ВСУ.</b><br/><br/>В результате ударов поражены:<br/><br/><b><tg-emoji emoji-id=\"5449396879588614682\"><i class=\"emoji\" style=\"background-image:url('//telegram.org/img/emoji/40/F09F938D.png')\"><b>📍</b></i></tg-emoji></b><b> в Киеве – центр обработки данных компании «Водафон»</b>, являющийся одной из крупнейших компаний, предоставляющих услуги мобильной связи и высокоскоростного интернета для ВСУ, в том числе для передачи разведывательных данных;<br/><br/><tg-emoji emoji-id=\"5449396879588614682\"><i class=\"emoji\" style=\"background-image:url('//telegram.org/img/emoji/40/F09F938D.png')\"><b>📍</b></i></tg-emoji> <b>в Киевской области – логистический центр «Заммлер Групп»</b> в Красиловке, на территории которого осуществлялось хранение и распределение западной военной помощи в интересах ВСУ;<br/><br/><tg-emoji emoji-id=\"5449396879588614682\"><i class=\"emoji\" style=\"background-image:url('//telegram.org/img/emoji/40/F09F938D.png')\"><b>📍</b></i></tg-emoji> <b>в Николаеве – два склада</b> беспилотных летательных аппаратов и боевых частей к ним;<br/><br/><tg-emoji emoji-id=\"5449396879588614682\"><i class=\"emoji\" style=\"background-image:url('//telegram.org/img/emoji/40/F09F938D.png')\"><b>📍</b></i></tg-emoji> <b>в Одесской области – логистический центр «Дрон Калинш»</b> в Ильичовке, на территории которого осуществлялось хранение FPV-перехватчиков;<br/><br/><tg-emoji emoji-id=\"5449396879588614682\"><i class=\"emoji\" style=\"background-image:url('//telegram.org/img/emoji/40/F09F938D.png')\"><b>📍</b></i></tg-emoji><b> в порту Килия:</b><br/><br/><tg-emoji emoji-id=\"5469903849483431273\"><i class=\"emoji\" style=\"background-image:url('//telegram.org/img/emoji/40/E296AB.png')\"><b>▫️</b></i></tg-emoji> штаб военно-морской базы «Восток» военно-морских сил Украины,<br/><tg-emoji emoji-id=\"5469903849483431273\"><i class=\"emoji\" style=\"background-image:url('//telegram.org/img/emoji/40/E296AB.png')\"><b>▫️</b></i></tg-emoji> пункт базирования государственной пограничной службы Украины, <br/><tg-emoji emoji-id=\"5469903849483431273\"><i class=\"emoji\" style=\"background-image:url('//telegram.org/img/emoji/40/E296AB.png')\"><b>▫️</b></i></tg-emoji> четыре хранилища с военным имуществом, предназначенным для обеспечения ВСУ,<br/><tg-emoji emoji-id=\"5469903849483431273\"><i class=\"emoji\" style=\"background-image:url('//telegram.org/img/emoji/40/E296AB.png')\"><b>▫️</b></i></tg-emoji> объекты причальной инфраструктуры.<br/><br/><tg-emoji emoji-id=\"5449682610877918293\"><i class=\"emoji\" style=\"background-image:url('//telegram.org/img/emoji/40/F09F92A5.png')\"><b>💥</b></i></tg-emoji> Кроме того, на переходе морем поражено <b>морское судно типа «сухогруз»</b>, доставлявшее в порт Одесса военное имущество и грузы двойного назначения для обеспечения ВСУ.<br/><br/><tg-emoji emoji-id=\"5269510734265483362\"><i class=\"emoji\" style=\"background-image:url('//telegram.org/img/emoji/40/F09F94B9.png')\"><b>🔹</b></i></tg-emoji> <a href=\"https://max.ru/morf\" target=\"_blank\" rel=\"noopener\" onclick=\"return confirm('Open this link?\\n\\n'+this.href);\">Минобороны России</a>"}},{"type":"Feature","geometry":null,"properties":{"source":"ru_mod","source_name":"Ministry of Defence of Russia","group":"official_ru","id":67670,"posted_utc":"2026-09-27T05:43:02+00:00","link":"https://t.me/mod_russia/67670","text":"⚡️ В течение прошедшей ночи в период с 20.00 мск 26 сентября до 8.00 мск 27 сентября дежурными силами ПВО перехвачены и уничтожены 96 украинских беспилотных летательных аппаратов самолетного типа над территориями Белгородской, Брянской, Курской областей, Республики Крым и над акваторией Черного моря.\n🔹 Канал Минобороны России в MAКС – боевая работа 24/7","links":["https://max.ru/morf"],"original_html":"<tg-emoji emoji-id=\"5449911936361724483\"><i class=\"emoji\" style=\"background-image:url('//telegram.org/img/emoji/40/E29AA1.png')\"><b>⚡️</b></i></tg-emoji> В течение прошедшей ночи в период с 20.00 мск 26 сентября до 8.00 мск 27 сентября дежурными силами ПВО <b>перехвачены и уничтожены 96 украинских беспилотных летательных аппаратов самолетного типа</b> над территориями Белгородской, Брянской, Курской областей, Республики Крым и над акваторией Черного моря.<br/><br/><tg-emoji emoji-id=\"5269510734265483362\"><i class=\"emoji\" style=\"background-image:url('//telegram.org/img/emoji/40/F09F94B9.png')\"><b>🔹</b></i></tg-emoji> <a href=\"https://max.ru/morf\" target=\"_blank\" rel=\"noopener\" onclick=\"return confirm('Open this link?\\n\\n'+this.href);\">Канал Минобороны России в MAКС – боевая работа 24/7</a>"}},{"type":"Feature","geometry":null,"properties":{"source":"ru_mod","source_name":"Ministry of Defence of Russia","group":"official_ru","id":67671,"posted_utc":"2026-09-27T06:24:33+00:00","link":"https://t.me/mod_russia/67671","text":"💥 «Пуск по реактиву! «Фламинго» уничтожен!»\n📍 Ночь с 19 на 20 сентября, Подмосковье\nНачальник расчета ЗРПК «Панцирь-С» с позывным «Барнаул» рассказал о воздушном бое👇\n🎯 Глубокой ночью на экране боевой машины вспыхнула отметка – высокоскоростная цель. Расчет сработал без колебаний: взяли на сопровождение, определили тип как крылатая ракета и ликвидировали воздушную угрозу. Именно расчет «Барнаула» сбил три «Фламинго» – это первый подобный случай за всю историю вражеских налетов на Москву!\n📊 Всего в ту ночь расчетами ПВО было сбито 1600 воздушных целей, из них 8 высокоскоростных реактивных крылатых ракет «Фламинго».\nТак держать, парни ▫️\n🔹 Канал Минобороны России в MAКС – источник мощных новостей","links":["https://max.ru/morf/AaC96cx3FuI","https://max.ru/morf"],"original_html":"<b><tg-emoji emoji-id=\"5449682610877918293\"><i class=\"emoji\" style=\"background-image:url('//telegram.org/img/emoji/40/F09F92A5.png')\"><b>💥</b></i></tg-emoji></b><b> «Пуск по реактиву&#33; «Фламинго» уничтожен&#33;»<br/></b><br/><tg-emoji emoji-id=\"5449396879588614682\"><i class=\"emoji\" style=\"background-image:url('//telegram.org/img/emoji/40/F09F938D.png')\"><b>📍</b></i></tg-emoji> <a href=\"https://max.ru/morf/AaC96cx3FuI\" target=\"_blank\" rel=\"noopener\" onclick=\"return confirm('Open this link?\\n\\n'+this.href);\"><i>Ночь с 19 на 20 сентября, Подмосковье</i></a><br/><br/>Начальник расчета ЗРПК «Панцирь-С» с позывным «Барнаул»<b> рассказал о воздушном бое<i class=\"emoji\" style=\"background-image:url('//telegram.org/img/emoji/40/F09F9187.png')\"><b>👇</b></i></b><br/><br/><tg-emoji emoji-id=\"5467558728620341717\"><i class=\"emoji\" style=\"background-image:url('//telegram.org/img/emoji/40/F09F8EAF.png')\"><b>🎯</b></i></tg-emoji> Глубокой ночью на экране боевой машины вспыхнула отметка – высокоскоростная цель. Расчет сработал без колебаний: взяли на сопровождение, <b>определили тип как крылатая ракета и ликвидировали воздушную угрозу. Именно расчет «Барнаула» сбил три «Фламинго» – это первый подобный случай за всю историю вражеских налетов на Москву&#33;</b><br/><br/><tg-emoji emoji-id=\"5471887681992551719\"><i class=\"emoji\" style=\"background-image:url('//telegram.org/img/emoji/40/F09F938A.png')\"><b>📊</b></i></tg-emoji> Всего в ту ночь расчетами ПВО было сбито <b>1600 воздушных целей</b>, из них <b>8</b> высокоскоростных реактивных крылатых ракет <b>«Фламинго»</b>.<br/><br/>Так держать, парни <tg-emoji emoji-id=\"5352532894478793783\"><i class=\"emoji\" style=\"background-image:url('//telegram.org/img/emoji/40/E296AB.png')\"><b>▫️</b></i></tg-emoji> <br/><br/><tg-emoji emoji-id=\"5269510734265483362\"><i class=\"emoji\" style=\"background-image:url('//telegram.org/img/emoji/40/F09F94B9.png')\"><b>🔹</b></i></tg-emoji> <a href=\"https://max.ru/morf\" target=\"_blank\" rel=\"noopener\" onclick=\"return confirm('Open this link?\\n\\n'+this.href);\">Канал Минобороны России в MAКС – источник мощных новостей</a>"}},{"type":"Feature","geometry":null,"properties":{"source":"ru_mod","source_name":"Ministry of Defence of Russia","group":"official_ru","id":67673,"posted_utc":"2026-09-27T06:28:49+00:00","link":"https://t.me/mod_russia/67673","text":"💬 Прямое включение: «Несем боевое дежурство круглосуточно!»\nНачальник боевого расчета ЗРПК «Панцирь-С» об основной задаче и особенностях работы ▶️\n🔹 MAКС – территория СВОих","links":["https://t.me/mod_russia/67671","https://max.ru/morf"],"original_html":"<tg-emoji emoji-id=\"5447486370761176298\"><i class=\"emoji\" style=\"background-image:url('//telegram.org/img/emoji/40/F09F92AC.png')\"><b>💬</b></i></tg-emoji> <b>Прямое включение: </b><a href=\"https://t.me/mod_russia/67671\" target=\"_blank\" rel=\"noopener\" onclick=\"return confirm('Open this link?\\n\\n'+this.href);\"><b>«Несем боевое дежурство круглосуточно&#33;» </b></a><br/><br/>Начальник боевого расчета ЗРПК «Панцирь-С» об основной задаче и особенностях работы <tg-emoji emoji-id=\"5469788413647416310\"><i class=\"emoji\" style=\"background-image:url('//telegram.org/img/emoji/40/E296B6.png')\"><b>▶️</b></i></tg-emoji><br/><br/><tg-emoji emoji-id=\"5269510734265483362\"><i class=\"emoji\" style=\"background-image:url('//telegram.org/img/emoji/40/F09F94B9.png')\"><b>🔹</b></i></tg-emoji> <a href=\"https://max.ru/morf\" target=\"_blank\" rel=\"noopener\" onclick=\"return confirm('Open this link?\\n\\n'+this.href);\">MAКС – территория СВОих</a>"}},{"type":"Feature","geometry":null,"properties":{"source":"ru_mod","source_name":"Ministry of Defence of Russia","group":"official_ru","id":67674,"posted_utc":"2026-09-27T07:41:41+00:00","link":"https://t.me/mod_russia/67674","text":"⚡️ Подразделениями группировки войск «Север» установлен контроль над населенным пунктом Хрипуны в Харьковской области.\nПодробнее об успехах наших войск ➡️ в MAКС","links":["https://max.ru/morf/AaDh28n1Uq8"],"original_html":"<tg-emoji emoji-id=\"5449911936361724483\"><i class=\"emoji\" style=\"background-image:url('//telegram.org/img/emoji/40/E29AA1.png')\"><b>⚡️</b></i></tg-emoji> Подразделениями группировки войск «Север» <b>установлен контроль над населенным пунктом Хрипуны</b> в Харьковской области.<br/><br/>Подробнее об успехах наших войск <tg-emoji emoji-id=\"5469902676957357453\"><i class=\"emoji\" style=\"background-image:url('//telegram.org/img/emoji/40/E29EA1.png')\"><b>➡️</b></i></tg-emoji> <a href=\"https://max.ru/morf/AaDh28n1Uq8\" target=\"_blank\" rel=\"noopener\" onclick=\"return confirm('Open this link?\\n\\n'+this.href);\">в MAКС</a>"}},{"type":"Feature","geometry":null,"properties":{"source":"ru_mod","source_name":"Ministry of Defence of Russia","group":"official_ru","id":67676,"posted_utc":"2026-09-27T09:02:40+00:00","link":"https://t.me/mod_russia/67676","text":"«Когда ранение получил, я в эфире сказал, что вернусь: «Ждите! Я этого \"Абрамса\" еще уничтожу».\nКомандир гаубичного артиллерийского дивизиона Руслан Кулиев в своем подразделении человек весьма известный. В результате подрыва он потерял стопу. Но вернулся на фронт, даже не сообщив о ранении родным.\nЖизнелюбию этого воина можно только позавидовать — и он сам рад быть примером для остальных бойцов!\nГерои в 📲 MAX,  📱 ВКонтакте и в 📱 Дзен","links":["https://max.ru/heroesofZ","https://vk.com/heroes0fz","http://dzen.ru/heroesofz"],"original_html":"<i>«Когда ранение получил, я в эфире сказал, что вернусь: «Ждите&#33; Я этого &quot;Абрамса&quot; еще уничтожу».</i><br/><br/>Командир гаубичного артиллерийского дивизиона <b>Руслан Кулиев</b> в своем подразделении человек весьма известный. В результате подрыва он потерял стопу. Но вернулся на фронт, даже не сообщив о ранении родным.<br/><br/>Жизнелюбию этого воина можно только позавидовать — и он сам рад быть примером для остальных бойцов&#33;<br/><br/><i>Герои в </i><i><tg-emoji emoji-id=\"5449407131675558756\"><i class=\"emoji\" style=\"background-image:url('//telegram.org/img/emoji/40/F09F93B2.png')\"><b>📲</b></i></tg-emoji></i><i> </i><a href=\"https://max.ru/heroesofZ\" target=\"_blank\" rel=\"noopener\" onclick=\"return confirm('Open this link?\\n\\n'+this.href);\"><i>MAX</i></a>,<i>  </i><i><tg-emoji emoji-id=\"5334853932915114338\"><i class=\"emoji\" style=\"background-image:url('//telegram.org/img/emoji/40/F09F93B1.png')\"><b>📱</b></i></tg-emoji></i><i> </i><a href=\"https://vk.com/heroes0fz\" target=\"_blank\" rel=\"noopener\" onclick=\"return confirm('Open this link?\\n\\n'+this.href);\"><i>ВКонтакте</i></a> <i>и в </i><i><tg-emoji emoji-id=\"5321533581472842536\"><i class=\"emoji\" style=\"background-image:url('//telegram.org/img/emoji/40/F09F93B1.png')\"><b>📱</b></i></tg-emoji></i><i> </i><a href=\"http://dzen.ru/heroesofz\" target=\"_blank\" rel=\"noopener\" onclick=\"return confirm('Open this link?\\n\\n'+this.href);\"><i>Дзен</i></a>"}},{"type":"Feature","geometry":null,"properties":{"source":"ru_mod","source_name":"Ministry of Defence of Russia","group":"official_ru","id":67677,"posted_utc":"2026-09-27T10:10:20+00:00","link":"https://t.me/mod_russia/67677","text":"❗️ На полигоне «Чебаркульский» стартовали учения ОДКБ\nВ Российской Федерации открылись совместные командно-штабные и специальные учения Коллективных сил оперативного реагирования ОДКБ «Взаимодействие-2026», «Поиск-2026» и «Эшелон-2026».\n▫️ В церемонии открытия приняли участие начальник Объединенного штаба ОДКБ генерал-полковник Андрей Сердюков, заместитель Генерального секретаря Организации Мирлан Тургунбеков и руководители воинских контингентов.\n💬 Обращаясь к участникам учений, начальник Объединенного штаба ОДКБ Андрей Сердюков отметил, что качественная организация совместной оперативной и боевой подготовки с учетом опыта современных вооруженных конфликтов, а также наращивание боевого потенциала Коллективных сил ОДКБ, оснащение их современными образцами вооружения, военной и специальной техники, в том числе беспилотными системами, средствами разведки, РЭБ, совершенствование организации противовоздушной обороны – являются приоритетными направлениями деятельности в период председательства Российской Федерации в Организации.\n«Актуальность этого обусловлена крайне сложной военно-политической обстановкой в мире. Дальнейшая деградация международных отношений, а также приближение «зон нестабильности» непосредственно к границам наших государств способствуют росту вызовов и угроз военной безопасности. Складывающиеся условия диктуют нам необходимость оперативно реагировать на изменения характера и содержания ведения боевых действий. Руководствуясь приоритетами, мы совершенствуем управленческие компоненты и формирования Коллективных сил и их готовность к действиям максимально приближенным к реальным условиям современных вооруженных конфликтов», – сказал генерал-полковник Андрей Сердюков.\n✅ «Уверен, что проводимые нами учения послужат дальнейшему совершенствованию и повышению готовности Коллективных сил к выполнению задач по предназначению, позволят продемонстрировать решимость Организации и готовность силового компонента к обеспечению коллективной безопасности», – отметил начальник Объединенного штаба ОДКБ.\n🔹 Минобороны России","links":["https://max.ru/morf"],"original_html":"<b><tg-emoji emoji-id=\"5447116342148753425\"><i class=\"emoji\" style=\"background-image:url('//telegram.org/img/emoji/40/E29D97.png')\"><b>❗️</b></i></tg-emoji></b><b> На полигоне «Чебаркульский» стартовали учения ОДКБ <br/></b><br/><i>В Российской Федерации открылись совместные командно-штабные и специальные учения Коллективных сил оперативного реагирования ОДКБ «Взаимодействие-2026», «Поиск-2026» и «Эшелон-2026».</i><br/><br/><tg-emoji emoji-id=\"5469903849483431273\"><i class=\"emoji\" style=\"background-image:url('//telegram.org/img/emoji/40/E296AB.png')\"><b>▫️</b></i></tg-emoji> В церемонии открытия приняли участие начальник Объединенного штаба ОДКБ генерал-полковник Андрей Сердюков, заместитель Генерального секретаря Организации Мирлан Тургунбеков и руководители воинских контингентов.<br/><br/><tg-emoji emoji-id=\"5447486370761176298\"><i class=\"emoji\" style=\"background-image:url('//telegram.org/img/emoji/40/F09F92AC.png')\"><b>💬</b></i></tg-emoji> Обращаясь к участникам учений, начальник Объединенного штаба ОДКБ Андрей Сердюков отметил, что <b>качественная организация совместной оперативной и боевой подготовки с учетом опыта современных вооруженных конфликтов, а также наращивание боевого потенциала Коллективных сил ОДКБ, оснащение их современными образцами вооружения, военной и специальной техники, в том числе беспилотными системами, средствами разведки, РЭБ, совершенствование организации противовоздушной обороны</b> – являются приоритетными направлениями деятельности в период председательства Российской Федерации в Организации.<br/><br/><blockquote>«Актуальность этого обусловлена крайне сложной военно-политической обстановкой в мире. Дальнейшая деградация международных отношений, а также приближение «зон нестабильности» непосредственно к границам наших государств способствуют росту вызовов и угроз военной безопасности. Складывающиеся условия диктуют нам необходимость оперативно реагировать на изменения характера и содержания ведения боевых действий. Руководствуясь приоритетами, мы совершенствуем управленческие компоненты и формирования Коллективных сил и их готовность к действиям максимально приближенным к реальным условиям современных вооруженных конфликтов», – сказал генерал-полковник Андрей Сердюков.</blockquote><br/><br/> <tg-emoji emoji-id=\"5469909785128234267\"><i class=\"emoji\" style=\"background-image:url('//telegram.org/img/emoji/40/E29C85.png')\"><b>✅</b></i></tg-emoji> «Уверен, что <b>проводимые нами учения послужат дальнейшему совершенствованию и повышению готовности Коллективных сил к выполнению задач по предназначению, позволят продемонстрировать решимость Организации и готовность силового компонента к обеспечению коллективной безопасности</b>», – отметил начальник Объединенного штаба ОДКБ.<br/><br/><tg-emoji emoji-id=\"5269510734265483362\"><i class=\"emoji\" style=\"background-image:url('//telegram.org/img/emoji/40/F09F94B9.png')\"><b>🔹</b></i></tg-emoji> <a href=\"https://max.ru/morf\" target=\"_blank\" rel=\"noopener\" onclick=\"return confirm('Open this link?\\n\\n'+this.href);\">Минобороны России</a>"}},{"type":"Feature","geometry":null,"properties":{"source":"ru_mod","source_name":"Ministry of Defence of Russia","group":"official_ru","id":67679,"posted_utc":"2026-09-27T12:45:03+00:00","link":"https://t.me/mod_russia/67679","text":"Итоги недели: уверенное продвижение и укрепление боевой мощи\n🔹 Бьем по тылам. Нанесена серия массированных ударов по военным заводам, объектам энергетики, логистическим центрам и морским судам, задействованным в интересах ВСУ.\n🔹 Наступление полным ходом. Российские войска сохраняют высокий темп продвижения, освобождая населенные пункты в ДНР, Запорожской, Харьковской и Сумской областях.\n🔹 Контроль на местах и разгром противника. Министр обороны РФ Андрей Белоусов проинспектировал группировку «Север», где ему доложили об успешном создании полосы безопасности в приграничье. Группировка «Центр» продолжается ликвидация окруженных сил противника в Доброполье в ДНР.\n🔹 Новая техника и учения. Воздушно-космические силы приняли новую партию модернизированных истребителей Су-57. Боевая готовность оттачивается на масштабных учениях.\n🔹 Поддержка бойцов. Параллельно с выполнением боевых задач, укрепляется боевой дух военнослужащих, а участники СВО получают высокие госнаграды и проходят профессиональную переподготовку.\nДвижемся вперед на всех направлениях! Наша сила – в единстве и верности долгу. ▫️\n#СобытияНедели\n🔹 Канал Минобороны России в MAКС – только для своих!","links":["https://max.ru/morf"],"original_html":"<b>Итоги недели: уверенное продвижение и укрепление боевой мощи<br/><br/></b><b><tg-emoji emoji-id=\"5470000692406023380\"><i class=\"emoji\" style=\"background-image:url('//telegram.org/img/emoji/40/F09F94B9.png')\"><b>🔹</b></i></tg-emoji></b><b> Бьем по тылам. </b>Нанесена серия массированных ударов по военным заводам, объектам энергетики, логистическим центрам и морским судам, задействованным в интересах ВСУ.<br/><b><br/></b><b><tg-emoji emoji-id=\"5470000692406023380\"><i class=\"emoji\" style=\"background-image:url('//telegram.org/img/emoji/40/F09F94B9.png')\"><b>🔹</b></i></tg-emoji></b><b> Наступление полным ходом.</b> Российские войска сохраняют высокий темп продвижения, освобождая населенные пункты в ДНР, Запорожской, Харьковской и Сумской областях. <br/><b><br/></b><b><tg-emoji emoji-id=\"5470000692406023380\"><i class=\"emoji\" style=\"background-image:url('//telegram.org/img/emoji/40/F09F94B9.png')\"><b>🔹</b></i></tg-emoji></b><b> Контроль на местах и разгром противника. </b>Министр обороны РФ Андрей Белоусов проинспектировал группировку «Север», где ему доложили об успешном создании полосы безопасности в приграничье. Группировка «Центр» продолжается ликвидация окруженных сил противника в Доброполье в ДНР.<br/><b><br/></b><b><tg-emoji emoji-id=\"5470000692406023380\"><i class=\"emoji\" style=\"background-image:url('//telegram.org/img/emoji/40/F09F94B9.png')\"><b>🔹</b></i></tg-emoji></b><b> Новая техника и учения. </b>Воздушно-космические силы приняли новую партию модернизированных истребителей Су-57. Боевая готовность оттачивается на масштабных учениях.<br/><b><br/></b><b><tg-emoji emoji-id=\"5470000692406023380\"><i class=\"emoji\" style=\"background-image:url('//telegram.org/img/emoji/40/F09F94B9.png')\"><b>🔹</b></i></tg-emoji></b><b> Поддержка бойцов. </b>Параллельно с выполнением боевых задач, укрепляется боевой дух военнослужащих, а участники СВО получают высокие госнаграды и проходят профессиональную переподготовку. <br/><br/>Движемся вперед на всех направлениях&#33; Наша сила – в единстве и верности долгу. <tg-emoji emoji-id=\"5352532894478793783\"><i class=\"emoji\" style=\"background-image:url('//telegram.org/img/emoji/40/E296AB.png')\"><b>▫️</b></i></tg-emoji><br/><br/><a href=\"?q=%23%D0%A1%D0%BE%D0%B1%D1%8B%D1%82%D0%B8%D1%8F%D0%9D%D0%B5%D0%B4%D0%B5%D0%BB%D0%B8\">#СобытияНедели</a><br/><tg-emoji emoji-id=\"5269510734265483362\"><i class=\"emoji\" style=\"background-image:url('//telegram.org/img/emoji/40/F09F94B9.png')\"><b>🔹</b></i></tg-emoji> <a href=\"https://max.ru/morf\" target=\"_blank\" rel=\"noopener\" onclick=\"return confirm('Open this link?\\n\\n'+this.href);\">Канал Минобороны России в MAКС – только для своих&#33;</a>"}},{"type":"Feature","geometry":null,"properties":{"source":"ru_mod","source_name":"Ministry of Defence of Russia","group":"official_ru","id":67689,"posted_utc":"2026-09-27T14:34:29+00:00","link":"https://t.me/mod_russia/67689","text":"⚡️ «Молния» ударила точно\nРасчет ударных БПЛА «Молния-2» группировки войск «Днепр» уничтожил пункт управления дронами ВСУ.\n#ВойскаБПС\n🎮 Канал Минобороны России в MAКС – боевая работа 24/7. Присоединяйся!","links":["https://max.ru/morf"],"original_html":"<b><tg-emoji emoji-id=\"5449911936361724483\"><i class=\"emoji\" style=\"background-image:url('//telegram.org/img/emoji/40/E29AA1.png')\"><b>⚡️</b></i></tg-emoji></b><b> «Молния» ударила точно</b><br/><br/>Расчет ударных БПЛА «Молния-2» группировки войск «Днепр» <b>уничтожил пункт управления дронами ВСУ. </b><br/><br/><a href=\"?q=%23%D0%92%D0%BE%D0%B9%D1%81%D0%BA%D0%B0%D0%91%D0%9F%D0%A1\">#ВойскаБПС</a><br/><tg-emoji emoji-id=\"5449767024165154360\"><i class=\"emoji\" style=\"background-image:url('//telegram.org/img/emoji/40/F09F8EAE.png')\"><b>🎮</b></i></tg-emoji> <a href=\"https://max.ru/morf\" target=\"_blank\" rel=\"noopener\" onclick=\"return confirm('Open this link?\\n\\n'+this.href);\">Канал Минобороны России в MAКС – боевая работа 24/7. Присоединяйся&#33;</a>"}},{"type":"Feature","geometry":null,"properties":{"source":"ru_mod","source_name":"Ministry of Defence of Russia","group":"official_ru","id":67691,"posted_utc":"2026-09-27T14:55:22+00:00","link":"https://t.me/mod_russia/67691","text":"❗️ Вооруженные Силы Российской Федерации продолжают наносить удары по коммуникационным и логистическим центрам, а также морским судам, задействованным в интересах ВСУ.\n💥 Сегодня днем в результате ударов беспилотными летательными аппаратами поражены:\n📍 в Киеве:\n▫️ центр обработки данных компании «Омега Телеком», являющейся одной из крупнейших компаний, предоставляющих услуги высокоскоростного интернета для ВСУ, в том числе хранения большого объема баз данных;\n▫️ центр обработки данных компании «Киевстар», являющейся одной из крупнейших компаний, предоставляющих услуги мобильной связи и высокоскоростного интернета для ВСУ;\n📍 в Одессе:\n▫️ логистический центр «Новая почта», осуществлявший хранение военных грузов.\n▫️ Кроме того, на переходе морем поражен сухогруз, доставлявший в порт Одесса военное имущество и грузы двойного назначения для обеспечения ВСУ.\n🔹 Минобороны России","links":["https://max.ru/morf"],"original_html":"<tg-emoji emoji-id=\"5447116342148753425\"><i class=\"emoji\" style=\"background-image:url('//telegram.org/img/emoji/40/E29D97.png')\"><b>❗️</b></i></tg-emoji> Вооруженные Силы Российской Федерации <b>продолжают наносить удары по коммуникационным и логистическим центрам, а также морским судам, </b>задействованным в интересах ВСУ.<br/><br/><tg-emoji emoji-id=\"5449682610877918293\"><i class=\"emoji\" style=\"background-image:url('//telegram.org/img/emoji/40/F09F92A5.png')\"><b>💥</b></i></tg-emoji> <b>Сегодня днем в результате ударов беспилотными летательными аппаратами поражены:</b><br/><br/><tg-emoji emoji-id=\"5449396879588614682\"><i class=\"emoji\" style=\"background-image:url('//telegram.org/img/emoji/40/F09F938D.png')\"><b>📍</b></i></tg-emoji> в Киеве: <br/><br/><tg-emoji emoji-id=\"5469903849483431273\"><i class=\"emoji\" style=\"background-image:url('//telegram.org/img/emoji/40/E296AB.png')\"><b>▫️</b></i></tg-emoji> <b>центр обработки данных компании «Омега Телеком»</b>, являющейся одной из крупнейших компаний, предоставляющих услуги высокоскоростного интернета для ВСУ, в том числе хранения большого объема баз данных;<br/><br/><tg-emoji emoji-id=\"5469903849483431273\"><i class=\"emoji\" style=\"background-image:url('//telegram.org/img/emoji/40/E296AB.png')\"><b>▫️</b></i></tg-emoji> <b>центр обработки данных компании «Киевстар»</b>, являющейся одной из крупнейших компаний, предоставляющих услуги мобильной связи и высокоскоростного интернета для ВСУ;<br/><br/><tg-emoji emoji-id=\"5449396879588614682\"><i class=\"emoji\" style=\"background-image:url('//telegram.org/img/emoji/40/F09F938D.png')\"><b>📍</b></i></tg-emoji> в Одессе:<br/><br/><tg-emoji emoji-id=\"5469903849483431273\"><i class=\"emoji\" style=\"background-image:url('//telegram.org/img/emoji/40/E296AB.png')\"><b>▫️</b></i></tg-emoji> <b>логистический центр «Новая почта»</b>, осуществлявший хранение военных грузов.<br/><br/><tg-emoji emoji-id=\"5469903849483431273\"><i class=\"emoji\" style=\"background-image:url('//telegram.org/img/emoji/40/E296AB.png')\"><b>▫️</b></i></tg-emoji> Кроме того, <b>на переходе морем поражен сухогруз</b>, доставлявший в порт Одесса военное имущество и грузы двойного назначения для обеспечения ВСУ.<br/><br/><tg-emoji emoji-id=\"5269510734265483362\"><i class=\"emoji\" style=\"background-image:url('//telegram.org/img/emoji/40/F09F94B9.png')\"><b>🔹</b></i></tg-emoji> <a href=\"https://max.ru/morf\" target=\"_blank\" rel=\"noopener\" onclick=\"return confirm('Open this link?\\n\\n'+this.href);\">Минобороны России</a>"}},{"type":"Feature","geometry":null,"properties":{"source":"ru_mod","source_name":"Ministry of Defence of Russia","group":"official_ru","id":67692,"posted_utc":"2026-09-27T14:57:51+00:00","link":"https://t.me/mod_russia/67692","text":"❗️ Вооруженные Силы Российской Федерации продолжают наносить удары по коммуникационным и логистическим центрам, а также морским судам, задействованным в интересах ВСУ.  💥 Сегодня днем в результате ударов беспилотными летательными аппаратами поражены:  📍 в…","links":[],"original_html":"<tg-emoji emoji-id=\"5447116342148753425\"><i class=\"emoji\" style=\"background-image:url('//telegram.org/img/emoji/40/E29D97.png')\"><b>❗️</b></i></tg-emoji> Вооруженные Силы Российской Федерации продолжают наносить удары по коммуникационным и логистическим центрам, а также морским судам, задействованным в интересах ВСУ.  <tg-emoji emoji-id=\"5449682610877918293\"><i class=\"emoji\" style=\"background-image:url('//telegram.org/img/emoji/40/F09F92A5.png')\"><b>💥</b></i></tg-emoji> Сегодня днем в результате ударов беспилотными летательными аппаратами поражены:  <tg-emoji emoji-id=\"5449396879588614682\"><i class=\"emoji\" style=\"background-image:url('//telegram.org/img/emoji/40/F09F938D.png')\"><b>📍</b></i></tg-emoji> в…"}},{"type":"Feature","geometry":null,"properties":{"source":"ru_mod","source_name":"Ministry of Defence of Russia","group":"official_ru","id":67693,"posted_utc":"2026-09-27T17:17:05+00:00","link":"https://t.me/mod_russia/67693","text":"⚡️ В течение дня в период с 8.00 до 20.00 мск дежурными силами ПВО перехвачены и уничтожены 43 украинских беспилотных летательных аппарата самолетного типа над территориями Курской, Белгородской, Орловской, Брянской и Ростовской областей, Республики Крым, а также над акваторией Черного моря.\n🔹 MAКС – территория СВОих","links":["https://max.ru/morf"],"original_html":"<tg-emoji emoji-id=\"5449911936361724483\"><i class=\"emoji\" style=\"background-image:url('//telegram.org/img/emoji/40/E29AA1.png')\"><b>⚡️</b></i></tg-emoji> В течение дня в период с 8.00 до 20.00 мск дежурными силами ПВО <b>перехвачены и уничтожены 43 украинских беспилотных летательных аппарата самолетного типа</b> над территориями Курской, Белгородской, Орловской, Брянской и Ростовской областей, Республики Крым, а также над акваторией Черного моря.<br/><br/><tg-emoji emoji-id=\"5269510734265483362\"><i class=\"emoji\" style=\"background-image:url('//telegram.org/img/emoji/40/F09F94B9.png')\"><b>🔹</b></i></tg-emoji> <a href=\"https://max.ru/morf\" target=\"_blank\" rel=\"noopener\" onclick=\"return confirm('Open this link?\\n\\n'+this.href);\">MAКС – территория СВОих</a>"}},{"type":"Feature","geometry":null,"properties":{"source":"ru_mod","source_name":"Ministry of Defence of Russia","group":"official_ru","id":67695,"posted_utc":"2026-09-27T17:21:31+00:00","link":"https://t.me/mod_russia/67695","text":"🔥 Восстановлению не подлежит: дроноводы 51-й армии группировки «Центр» нанесли сокрушительные удары по объектам тылового обеспечения ВСУ.\n📍 Добропольское направление\n#ВойскаБПС\n▫️ Канал Минобороны России в MAКС – источник мощных новостей","links":["https://max.ru/morf"],"original_html":"<b><tg-emoji emoji-id=\"5449590921916082144\"><i class=\"emoji\" style=\"background-image:url('//telegram.org/img/emoji/40/F09F94A5.png')\"><b>🔥</b></i></tg-emoji></b><b> Восстановлению не подлежит:</b> дроноводы 51-й армии группировки «Центр» <b>нанесли сокрушительные удары по объектам тылового обеспечения ВСУ.</b><br/><br/><i><tg-emoji emoji-id=\"5469680584198483528\"><i class=\"emoji\" style=\"background-image:url('//telegram.org/img/emoji/40/F09F938D.png')\"><b>📍</b></i></tg-emoji></i><i> Добропольское направление</i><br/><br/><a href=\"?q=%23%D0%92%D0%BE%D0%B9%D1%81%D0%BA%D0%B0%D0%91%D0%9F%D0%A1\">#ВойскаБПС</a><br/><tg-emoji emoji-id=\"5352532894478793783\"><i class=\"emoji\" style=\"background-image:url('//telegram.org/img/emoji/40/E296AB.png')\"><b>▫️</b></i></tg-emoji> <a href=\"https://max.ru/morf\" target=\"_blank\" rel=\"noopener\" onclick=\"return confirm('Open this link?\\n\\n'+this.href);\">Канал Минобороны России в MAКС – источник мощных новостей</a>"}},{"type":"Feature","geometry":null,"properties":{"source":"ru_mod","source_name":"Ministry of Defence of Russia","group":"official_ru","id":67696,"posted_utc":"2026-09-27T18:45:31+00:00","link":"https://t.me/mod_russia/67696","text":"Смеркается. В небе расправляют крылья наши стальные птицы ❤️\nРаботаем дальше ▫️\n🔹 Минобороны России","links":["https://max.ru/morf"],"original_html":"<b>Смеркается. В небе расправляют крылья наши стальные птицы <i class=\"emoji\" style=\"background-image:url('//telegram.org/img/emoji/40/E29DA4.png')\"><b>❤️</b></i></b><br/><br/>Работаем дальше <tg-emoji emoji-id=\"5352532894478793783\"><i class=\"emoji\" style=\"background-image:url('//telegram.org/img/emoji/40/E296AB.png')\"><b>▫️</b></i></tg-emoji><br/><br/><tg-emoji emoji-id=\"5269510734265483362\"><i class=\"emoji\" style=\"background-image:url('//telegram.org/img/emoji/40/F09F94B9.png')\"><b>🔹</b></i></tg-emoji> <a href=\"https://max.ru/morf\" target=\"_blank\" rel=\"noopener\" onclick=\"return confirm('Open this link?\\n\\n'+this.href);\">Минобороны России</a>"}},{"type":"Feature","geometry":null,"properties":{"source":"ru_mod","source_name":"Ministry of Defence of Russia","group":"official_ru","id":67678,"posted_utc":"2026-09-27T12:15:49+00:00","link":"https://t.me/mod_russia/67678","text":"💥 Слепая зона: танкисты «Востока» разобрали «гнезда» вражеских дронов.\nЭкипажи танков Т-80БВ отработали по координатам разведки и разнесли замаскированные пункты управления БПЛА ВСУ в Запорожской области.\n💥 Канал Минобороны России в MAКС – источник мощных новостей","links":["https://max.ru/morf"],"original_html":"<b><tg-emoji emoji-id=\"5449682610877918293\"><i class=\"emoji\" style=\"background-image:url('//telegram.org/img/emoji/40/F09F92A5.png')\"><b>💥</b></i></tg-emoji></b><b> Слепая зона: танкисты «Востока» разобрали «гнезда» вражеских дронов.</b><br/><br/>Экипажи танков Т-80БВ отработали по координатам разведки и <b>разнесли замаскированные пункты управления БПЛА ВСУ</b> в Запорожской области.<br/><br/><tg-emoji emoji-id=\"5447408202356389121\"><i class=\"emoji\" style=\"background-image:url('//telegram.org/img/emoji/40/F09F92A5.png')\"><b>💥</b></i></tg-emoji> <a href=\"https://max.ru/morf\" target=\"_blank\" rel=\"noopener\" onclick=\"return confirm('Open this link?\\n\\n'+this.href);\">Канал Минобороны России в MAКС – источник мощных новостей</a>"}}]}