{"type":"FeatureCollection","features":[{"type":"Feature","geometry":{"type":"MultiPolygon","coordinates":[[[[37.92883,48.84061],[37.94297,48.84131],[37.95256,48.84105],[37.95595,48.82625],[37.95712,48.82272],[37.95043,48.81614],[37.94893,48.81071],[37.94326,48.81046],[37.93764,48.81337],[37.9312,48.81295],[37.93017,48.81688],[37.93253,48.81976],[37.92883,48.84061]]],[[[37.83114,48.55801],[37.82466,48.56347],[37.82342,48.56475],[37.8226,48.5659],[37.82398,48.56729],[37.82779,48.56931],[37.83181,48.572],[37.83024,48.57605],[37.82962,48.58073],[37.8242,48.58526],[37.82556,48.58688],[37.82415,48.58817],[37.8209,48.58882],[37.81836,48.58857],[37.81633,48.58934],[37.818,48.59052],[37.821,48.59096],[37.82195,48.59034],[37.82251,48.59019],[37.82429,48.59123],[37.82562,48.5917],[37.82694,48.59096],[37.82777,48.59152],[37.83089,48.58972],[37.82906,48.58829],[37.82886,48.58842],[37.82788,48.58787],[37.83146,48.58563],[37.83319,48.58422],[37.83315,48.58363],[37.83431,48.58287],[37.83498,48.58269],[37.83503,48.58197],[37.83372,48.58035],[37.83466,48.57899],[37.83617,48.57925],[37.83717,48.57809],[37.83754,48.57599],[37.83691,48.57216],[37.83729,48.57088],[37.83778,48.57056],[37.83666,48.56774],[37.84038,48.56422],[37.83912,48.56342],[37.83747,48.56187],[37.83734,48.56045],[37.83786,48.55838],[37.8352,48.55665],[37.82868,48.55315],[37.83114,48.55801]]],[[[37.72048,48.47133],[37.72027,48.47289],[37.72005,48.4745],[37.71795,48.48402],[37.72705,48.47954],[37.74269,48.4809],[37.74795,48.47871],[37.75456,48.47979],[37.76086,48.48208],[37.76197,48.48336],[37.76946,48.47002],[37.76517,48.46941],[37.76264,48.47045],[37.75912,48.47223],[37.74243,48.47267],[37.72048,48.47133]]],[[[37.74829,49.65505],[37.73405,49.654],[37.72727,49.65199],[37.72452,49.65494],[37.73044,49.65788],[37.73267,49.66266],[37.73958,49.66782],[37.73997,49.67027],[37.76728,49.66729],[37.7641,49.6629],[37.76457,49.65984],[37.76801,49.65476],[37.74829,49.65505]]],[[[37.24422,48.4376],[37.24719,48.43794],[37.2504,48.44246],[37.24914,48.45077],[37.24953,48.45282],[37.25255,48.45288],[37.27126,48.46059],[37.27673,48.46738],[37.2947,48.4683],[37.30967,48.46928],[37.31782,48.47454],[37.33167,48.47275],[37.34086,48.47457],[37.35043,48.47488],[37.36526,48.47299],[37.3653,48.47174],[37.35757,48.47239],[37.35598,48.47149],[37.35334,48.46701],[37.35066,48.46297],[37.3471,48.46102],[37.33858,48.45977],[37.33096,48.45825],[37.32577,48.4627],[37.32036,48.4656],[37.31264,48.46532],[37.30594,48.46392],[37.29609,48.46222],[37.28907,48.46316],[37.28139,48.45271],[37.27798,48.44921],[37.27003,48.44697],[37.25924,48.44277],[37.25379,48.43855],[37.24222,48.43335],[37.24422,48.4376]]],[[[37.18422,48.37343],[37.19134,48.38378],[37.20804,48.387],[37.21123,48.39278],[37.2146,48.39289],[37.22765,48.39403],[37.22928,48.39794],[37.2432,48.39972],[37.24174,48.41143],[37.23559,48.41166],[37.2334,48.41898],[37.2402,48.41832],[37.24651,48.41626],[37.25082,48.41546],[37.25127,48.41434],[37.25525,48.41392],[37.25701,48.41346],[37.25764,48.4102],[37.25007,48.40828],[37.25177,48.39788],[37.24796,48.39289],[37.24409,48.39255],[37.24285,48.38861],[37.23684,48.38559],[37.23659,48.38209],[37.23192,48.38147],[37.20495,48.38062],[37.20038,48.37213],[37.19304,48.37409],[37.19061,48.37121],[37.19012,48.36986],[37.18422,48.37343]]]]},"properties":{"source":"ukrdaily","source_name":"UkrDailyUpdate","source_url":"https://map.ukrdailyupdate.com/","category":"gained","category_label":"Newly Russian-occupied","period":"7d","compared_with":"2026-08-03","snapshot_time":"2026-08-10","area_km2_approx":32.7}}]}