{"type":"FeatureCollection","features":[{"type":"Feature","geometry":{"type":"Point","coordinates":[26.990942,49.408007]},"properties":{"original":{"Date":"2026-09-05","Name":"05 SEP 2026","Faction":"Russia","Origin":"VID","Latitude":"49.408007","Longitude":"26.990942","PlusCode":"8GX8CX5R+69 Khmelnytskyi, Khmelnytskyi Oblast, Ukraine","Description":"Point of View - Moment when Russian drone struck an apartment building in Khmelnytskyi.","Source":"https://bsky.app/profile/gik1893.bsky.social/post/3musgujjqmc2c, https://t.me/khmelnytskyi_real/35732","Geolocation":"https://bsky.app/profile/gik1893.bsky.social/post/3musgujjqmc2c","Equipment":"","EquipmentItems":"Geran-4","Units":"","OrbatUnits":"","Id":"a0d9ec05-4690-4b58-8b04-057ba3a9d083","icon":"/api/icons/E00000/False/template/30.png"},"source":"geoconfirmed","source_name":"GeoConfirmed","source_url":"https://geoconfirmed.org/map/ukraine","id":"a0d9ec05-4690-4b58-8b04-057ba3a9d083","date":"2026-09-05","link":"https://geoconfirmed.org/map/ukraine/a0d9ec05-4690-4b58-8b04-057ba3a9d083","category":"Video - Always Point of View in description - In the colour of who is doing the attack or is responsable for the incident in the video.","side":"Russia","color":"#E00000","description":"Point of View - Moment when Russian drone struck an apartment building in Khmelnytskyi.","orbat":[],"geolocation":["https://bsky.app/profile/gik1893.bsky.social/post/3musgujjqmc2c"],"sources":["https://bsky.app/profile/gik1893.bsky.social/post/3musgujjqmc2c","https://t.me/khmelnytskyi_real/35732"]}},{"type":"Feature","geometry":{"type":"Point","coordinates":[35.909978,47.531349]},"properties":{"original":{"Date":"2026-09-05","Name":"05 SEP 2026","Faction":"Ukraine","Origin":"UAV","Latitude":"47.531349","Longitude":"35.909978","PlusCode":"8GVQGWJ5+GX Mala Tokmachka, Zaporizhia Oblast, Ukraine","Description":"Russian soldier in a building targeted by a Ukrainian FPV drone if the 118th Mechanized Brigade in Mala Tokmachka","Source":"https://x.com/Bielitzling/status/2096192340649984447, https://t.me/intelligencecompany/256, ","Geolocation":"https://x.com/Bielitzling/status/2096192335423979775","Equipment":"","EquipmentItems":"FPV (First Person View) OWAD (One Way Attack Drone)","Units":"","OrbatUnits":"118th Mechanized Brigade","Id":"2bfffda2-b9d7-42f4-adb8-0d959ed809da","icon":"/api/icons/0051CA/False/template/111.png"},"source":"geoconfirmed","source_name":"GeoConfirmed","source_url":"https://geoconfirmed.org/map/ukraine","id":"2bfffda2-b9d7-42f4-adb8-0d959ed809da","date":"2026-09-05","link":"https://geoconfirmed.org/map/ukraine/2bfffda2-b9d7-42f4-adb8-0d959ed809da","category":"Short Range (<50km) OWAD (One Way Attack Drone), mostly rotary wing, Flying OR Attacking a target without knowing the outcome: if something is damaged --> icon of the damaged equipment.","side":"Ukraine","color":"#0051CA","description":"Russian soldier in a building targeted by a Ukrainian FPV drone if the 118th Mechanized Brigade in Mala Tokmachka","orbat":["118th Mechanized Brigade"],"geolocation":["https://x.com/Bielitzling/status/2096192335423979775"],"sources":["https://x.com/Bielitzling/status/2096192340649984447","https://t.me/intelligencecompany/256"]}},{"type":"Feature","geometry":{"type":"Point","coordinates":[35.194192,47.807186]},"properties":{"original":{"Date":"2026-09-05","Name":"05 SEP 2026","Faction":"Neutral","Origin":"VID","Latitude":"47.807186","Longitude":"35.194192","PlusCode":"8GVQR54V+VM Zaporizhzhia, Zaporizhia Oblast, Ukraine","Description":"A Russian drone strike on Zaporizhzhia wounded a 26 year old man and destroyed a house. ","Source":"https://bsky.app/profile/scaratlas.bsky.social/post/3murxfqlxpk2s, https://t.me/gu_dsns_zp/31030","Geolocation":"https://bsky.app/profile/scaratlas.bsky.social/post/3murxfqx73k2s","Equipment":"reportedly UAV","EquipmentItems":"","Units":"","OrbatUnits":"","Id":"da32fc20-1476-430b-a529-30920e54f8ba","icon":"/api/icons/AC7339/False/template/192.png"},"source":"geoconfirmed","source_name":"GeoConfirmed","source_url":"https://geoconfirmed.org/map/ukraine","id":"da32fc20-1476-430b-a529-30920e54f8ba","date":"2026-09-05","link":"https://geoconfirmed.org/map/ukraine/da32fc20-1476-430b-a529-30920e54f8ba","category":"Recently destroyed/Damaged[Visible in footage] or still burning infrastucture","side":"Neutral","color":"#AC7339","description":"A Russian drone strike on Zaporizhzhia wounded a 26 year old man and destroyed a house.","orbat":[],"geolocation":["https://bsky.app/profile/scaratlas.bsky.social/post/3murxfqx73k2s"],"sources":["https://bsky.app/profile/scaratlas.bsky.social/post/3murxfqlxpk2s","https://t.me/gu_dsns_zp/31030"]}},{"type":"Feature","geometry":{"type":"Point","coordinates":[34.9967,47.39428]},"properties":{"original":{"Date":"2026-09-05","Name":"05 SEP 2026","Faction":"Ukraine","Origin":"UAV","Latitude":"47.39428","Longitude":"34.9967","PlusCode":"8GVP9XVW+PM Dniprorudne, Zaporizhia Oblast, Ukraine","Description":"00:20-0:23 - FPV drone of the 1st Unmanned Systems Battalion 'Wild Field' of the 128th Heavy Mechanized Brigade targeted a vehicle in Dniprorudne","Source":"https://x.com/meowqai/status/2097678219948310529, https://t.me/orcocide128/18, ","Geolocation":"https://x.com/meowqai/status/2097678219948310529","Equipment":"","EquipmentItems":"FPV (First Person View) OWAD (One Way Attack Drone)","Units":"","OrbatUnits":"1st Unmanned Systems Battalion \"Wild Field\"","Id":"96cd4cb3-69a0-4f86-95f8-323619cef87b","icon":"/api/icons/0051CA/False/template/111.png"},"source":"geoconfirmed","source_name":"GeoConfirmed","source_url":"https://geoconfirmed.org/map/ukraine","id":"96cd4cb3-69a0-4f86-95f8-323619cef87b","date":"2026-09-05","link":"https://geoconfirmed.org/map/ukraine/96cd4cb3-69a0-4f86-95f8-323619cef87b","category":"Short Range (<50km) OWAD (One Way Attack Drone), mostly rotary wing, Flying OR Attacking a target without knowing the outcome: if something is damaged --> icon of the damaged equipment.","side":"Ukraine","color":"#0051CA","description":"00:20-0:23 - FPV drone of the 1st Unmanned Systems Battalion 'Wild Field' of the 128th Heavy Mechanized Brigade targeted a vehicle in Dniprorudne","orbat":["1st Unmanned Systems Battalion \"Wild Field\""],"geolocation":["https://x.com/meowqai/status/2097678219948310529"],"sources":["https://x.com/meowqai/status/2097678219948310529","https://t.me/orcocide128/18"]}},{"type":"Feature","geometry":{"type":"Point","coordinates":[37.698738,49.168305]},"properties":{"original":{"Date":"2026-09-05","Name":"05 SEP 2026","Faction":"Ukraine","Origin":"UAV","Latitude":"49.168305","Longitude":"37.698738","PlusCode":"8GXV5M9X+8F Karpivka, Donetsk Oblast, Ukraine","Description":"Recovery of an M113 using another M113 by the 66th Mechanized Brigade.","Source":"https://x.com/PuenteUribarri/status/2096150502073409573, https://t.me/ombr66/3008","Geolocation":"https://x.com/moklasen/status/2096335257104437462","Equipment":"M113","EquipmentItems":"","Units":"","OrbatUnits":"66th Mechanized Brigade","Id":"5165632c-47b0-48b9-9df4-3e6d772567f7","icon":"/api/icons/0051CA/False/template/41.png"},"source":"geoconfirmed","source_name":"GeoConfirmed","source_url":"https://geoconfirmed.org/map/ukraine","id":"5165632c-47b0-48b9-9df4-3e6d772567f7","date":"2026-09-05","link":"https://geoconfirmed.org/map/ukraine/5165632c-47b0-48b9-9df4-3e6d772567f7","category":"Tank (Driving or fighting)","side":"Ukraine","color":"#0051CA","description":"Recovery of an M113 using another M113 by the 66th Mechanized Brigade.","orbat":["66th Mechanized Brigade"],"geolocation":["https://x.com/moklasen/status/2096335257104437462"],"sources":["https://x.com/PuenteUribarri/status/2096150502073409573","https://t.me/ombr66/3008"]}},{"type":"Feature","geometry":{"type":"Point","coordinates":[37.378005,48.514382]},"properties":{"original":{"Date":"2026-09-05","Name":"05 SEP 2026","Faction":"Ukraine","Origin":"UAV","Latitude":"48.514382","Longitude":"37.378005","PlusCode":"8GWVG97H+Q6 Torets'ke, Donetsk Oblast, Ukraine","Description":"1:45-end - Russian drone from the 74th  Guards Motor Rifle Brigade observes a Russian soldier targeted by several Ukrainian FPV drones","Source":"https://x.com/Bielitzling/status/2096213149959557233, https://t.me/urga_74/9571","Geolocation":"https://x.com/Bielitzling/status/2096213145152811058","Equipment":"","EquipmentItems":"FPV (First Person View) OWAD (One Way Attack Drone)","Units":"","OrbatUnits":"74th Guards Motorized Rifle Brigade \"Mad Dogs\" / \"Бешеные псы\"","Id":"8340c004-2a83-45b9-85dd-5607813c992e","icon":"/api/icons/0051CA/False/template/111.png"},"source":"geoconfirmed","source_name":"GeoConfirmed","source_url":"https://geoconfirmed.org/map/ukraine","id":"8340c004-2a83-45b9-85dd-5607813c992e","date":"2026-09-05","link":"https://geoconfirmed.org/map/ukraine/8340c004-2a83-45b9-85dd-5607813c992e","category":"Short Range (<50km) OWAD (One Way Attack Drone), mostly rotary wing, Flying OR Attacking a target without knowing the outcome: if something is damaged --> icon of the damaged equipment.","side":"Ukraine","color":"#0051CA","description":"1:45-end - Russian drone from the 74th  Guards Motor Rifle Brigade observes a Russian soldier targeted by several Ukrainian FPV drones","orbat":["74th Guards Motorized Rifle Brigade \"Mad Dogs\" / \"Бешеные псы\""],"geolocation":["https://x.com/Bielitzling/status/2096213145152811058"],"sources":["https://x.com/Bielitzling/status/2096213149959557233","https://t.me/urga_74/9571"]}},{"type":"Feature","geometry":{"type":"Point","coordinates":[37.225823,48.419815]},"properties":{"original":{"Date":"2026-09-05","Name":"05 SEP 2026","Faction":"Russia","Origin":"UAV","Latitude":"48.419815","Longitude":"37.225823","PlusCode":"8GWVC69G+W8 Dorozhnje, Donetsk Oblast, Ukraine","Description":"Russian drone intercepts Ukrainian drone trying to hit Russian Infantry.","Source":"https://x.com/moklasen/status/2096313917693644988, https://t.me/Don_Guards_51st/1890","Geolocation":"https://x.com/moklasen/status/2096313912647938491","Equipment":"","EquipmentItems":"FPV (First Person View) OWAD (One Way Attack Drone)","Units":"","OrbatUnits":"1st Separate Guards Motorized Rifle Slavic Brigade","Id":"dd71c340-1313-4794-a054-62dcd0ffc9de","icon":"/api/icons/E00000/False/template/82c8f84f-3212-4d5f-8a7f-9fafdcb97265.png"},"source":"geoconfirmed","source_name":"GeoConfirmed","source_url":"https://geoconfirmed.org/map/ukraine","id":"dd71c340-1313-4794-a054-62dcd0ffc9de","date":"2026-09-05","link":"https://geoconfirmed.org/map/ukraine/dd71c340-1313-4794-a054-62dcd0ffc9de","category":"Interception of a UAV - Colour of the force intercepting - If UAV destroyed --> Destroyed UAV icon instead.","side":"Russia","color":"#E00000","description":"Russian drone intercepts Ukrainian drone trying to hit Russian Infantry.","orbat":["1st Separate Guards Motorized Rifle Slavic Brigade"],"geolocation":["https://x.com/moklasen/status/2096313912647938491"],"sources":["https://x.com/moklasen/status/2096313917693644988","https://t.me/Don_Guards_51st/1890"]}},{"type":"Feature","geometry":{"type":"Point","coordinates":[32.570994,46.623526]},"properties":{"original":{"Date":"2026-09-05","Name":"05 SEP 2026","Faction":"Unknown","Origin":"UAV","Latitude":"46.623526","Longitude":"32.570994","PlusCode":"8GRJJHFC+C9 Kherson, Kherson Oblast, Ukraine","Description":"A Russian drone dropped a grenade on a person.","Source":"https://x.com/99Dominik_/status/2096160088008303082, https://t.me/zona_Red/1175","Geolocation":"https://x.com/99Dominik_/status/2096159876594446601","Equipment":"","EquipmentItems":"(Multi-Purpose) Bomber UAV","Units":"","OrbatUnits":"","Id":"8a5634e0-8266-4a6f-9dcd-6ad8f4786d13","icon":"/api/icons/666666/False/template/92.png"},"source":"geoconfirmed","source_name":"GeoConfirmed","source_url":"https://geoconfirmed.org/map/ukraine","id":"8a5634e0-8266-4a6f-9dcd-6ad8f4786d13","date":"2026-09-05","link":"https://geoconfirmed.org/map/ukraine/8a5634e0-8266-4a6f-9dcd-6ad8f4786d13","category":"WIA/KIA Soldier/Militant","side":"Unknown","color":"#666666","description":"A Russian drone dropped a grenade on a person.","orbat":[],"geolocation":["https://x.com/99Dominik_/status/2096159876594446601"],"sources":["https://x.com/99Dominik_/status/2096160088008303082","https://t.me/zona_Red/1175"]}},{"type":"Feature","geometry":{"type":"Point","coordinates":[37.862212,49.33652]},"properties":{"original":{"Date":"2026-09-05","Name":"05 SEP 2026","Faction":"Ukraine","Origin":"UAV","Latitude":"49.33652","Longitude":"37.862212","PlusCode":"8GXV8VP6+JV Novoserhiivka, Kharkiv Oblast, Ukraine","Description":"Ukrainian UGV hit by the Russian 752nd Motorized Rifle Regiment of the 3rd Motorized Rifle Division","Source":"https://x.com/moklasen/status/2096344169270698156, https://t.me/kantemirovec_svo/920, ","Geolocation":"https://x.com/moklasen/status/2096344164895953066","Equipment":"","EquipmentItems":"Unmanned Ground Vehicle (UGV) | FPV (First Person View) OWAD (One Way Attack Drone)","Units":"","OrbatUnits":"752nd Motorized Rifle Regiment","Id":"765aedde-a9eb-4dd3-b4e8-754dd756ab12","icon":"/api/icons/0051CA/False/template/25508da3-5341-4843-b7e6-b955eaad7ce8.png"},"source":"geoconfirmed","source_name":"GeoConfirmed","source_url":"https://geoconfirmed.org/map/ukraine","id":"765aedde-a9eb-4dd3-b4e8-754dd756ab12","date":"2026-09-05","link":"https://geoconfirmed.org/map/ukraine/765aedde-a9eb-4dd3-b4e8-754dd756ab12","category":"Recently Destroyed/Damaged[Visible in footage] Multipurpose UGV","side":"Ukraine","color":"#0051CA","description":"Ukrainian UGV hit by the Russian 752nd Motorized Rifle Regiment of the 3rd Motorized Rifle Division","orbat":["752nd Motorized Rifle Regiment"],"geolocation":["https://x.com/moklasen/status/2096344164895953066"],"sources":["https://x.com/moklasen/status/2096344169270698156","https://t.me/kantemirovec_svo/920"]}},{"type":"Feature","geometry":{"type":"Point","coordinates":[35.29083,47.44061]},"properties":{"original":{"Date":"2026-09-05","Name":"05 SEP 2026","Faction":"Ukraine","Origin":"UAV","Latitude":"47.44061","Longitude":"35.29083","PlusCode":"8GVP9XVW+PM Dniprorudne, Zaporizhia Oblast, Ukraine","Description":"0:31-0:35 - FPV drone of the 1st Unmanned Systems Battalion 'Wild Field' of the 128th Heavy Mechanized Brigade targeted a truck in Dniprorudne","Source":"https://x.com/meowqai/status/2097678219948310529, https://t.me/orcocide128/18, ","Geolocation":"https://x.com/meowqai/status/2097682865794232645","Equipment":"","EquipmentItems":"FPV (First Person View) OWAD (One Way Attack Drone) | Truck","Units":"","OrbatUnits":"1st Unmanned Systems Battalion \"Wild Field\"","Id":"356151e7-0570-46bd-ad05-903370a57d47","icon":"/api/icons/0051CA/False/template/111.png"},"source":"geoconfirmed","source_name":"GeoConfirmed","source_url":"https://geoconfirmed.org/map/ukraine","id":"356151e7-0570-46bd-ad05-903370a57d47","date":"2026-09-05","link":"https://geoconfirmed.org/map/ukraine/356151e7-0570-46bd-ad05-903370a57d47","category":"Short Range (<50km) OWAD (One Way Attack Drone), mostly rotary wing, Flying OR Attacking a target without knowing the outcome: if something is damaged --> icon of the damaged equipment.","side":"Ukraine","color":"#0051CA","description":"0:31-0:35 - FPV drone of the 1st Unmanned Systems Battalion 'Wild Field' of the 128th Heavy Mechanized Brigade targeted a truck in Dniprorudne","orbat":["1st Unmanned Systems Battalion \"Wild Field\""],"geolocation":["https://x.com/meowqai/status/2097682865794232645"],"sources":["https://x.com/meowqai/status/2097678219948310529","https://t.me/orcocide128/18"]}},{"type":"Feature","geometry":{"type":"Point","coordinates":[35.238373,47.847444]},"properties":{"original":{"Date":"2026-09-05","Name":"05 SEP 2026","Faction":"Russia","Origin":"VID","Latitude":"47.847444","Longitude":"35.238373","PlusCode":"8GVQR6WQ+X8 Zaporizhzhia, Zaporizhia Oblast, Ukraine","Description":"Damage at the Trading house Amstor - aftermath of a reported Russian FPV drone attack that injured 9 persons.","Source":"Vid1, https://x.com/99Dominik_/status/2096259604099256604, https://t.me/five_redakcia/108556, Vid2, https://x.com/99Dominik_/status/2096261212564586538, https://t.me/truexazaporozie/69268, Vid3, https://x.com/99Dominik_/status/2096262150436110467, https://t.me/eyes_everywhere_ua/139196, More information, https://x.com/99Dominik_/status/2096308159665086552, https://t.me/ivan_fedorov_zp/47715, , ","Geolocation":"https://x.com/99Dominik_/status/2096259210770034948","Equipment":"","EquipmentItems":"","Units":"","OrbatUnits":"","Id":"e4fb3f98-e3c5-47a0-b304-a41c9df14b63","icon":"/api/icons/E00000/False/template/50.png"},"source":"geoconfirmed","source_name":"GeoConfirmed","source_url":"https://geoconfirmed.org/map/ukraine","id":"e4fb3f98-e3c5-47a0-b304-a41c9df14b63","date":"2026-09-05","link":"https://geoconfirmed.org/map/ukraine/e4fb3f98-e3c5-47a0-b304-a41c9df14b63","category":"Killed or wounded civilian. Potential Warcrime. In the colour of who is assessed as doing the attack/killing.","side":"Russia","color":"#E00000","description":"Damage at the Trading house Amstor - aftermath of a reported Russian FPV drone attack that injured 9 persons.","orbat":[],"geolocation":["https://x.com/99Dominik_/status/2096259210770034948"],"sources":["https://x.com/99Dominik_/status/2096259604099256604","https://t.me/five_redakcia/108556","https://x.com/99Dominik_/status/2096261212564586538","https://t.me/truexazaporozie/69268","https://x.com/99Dominik_/status/2096262150436110467","https://t.me/eyes_everywhere_ua/139196","https://x.com/99Dominik_/status/2096308159665086552","https://t.me/ivan_fedorov_zp/47715"]}},{"type":"Feature","geometry":{"type":"Point","coordinates":[35.014279,47.38528]},"properties":{"original":{"Date":"2026-09-05","Name":"05 SEP 2026","Faction":"Ukraine","Origin":"UAV","Latitude":"47.38528","Longitude":"35.014279","PlusCode":"8GVQ92P7+4P Dniprorudne, Zaporizhia Oblast, Ukraine","Description":"0:39-0:42 - FPV drone of the 1st Unmanned Systems Battalion 'Wild Field' of the 128th Heavy Mechanized Brigade targeted a fuel truck in Dniprorudne","Source":"https://x.com/meowqai/status/2097678219948310529, https://t.me/orcocide128/18, ","Geolocation":"https://x.com/meowqai/status/2097685897659441315","Equipment":"","EquipmentItems":"FPV (First Person View) OWAD (One Way Attack Drone) | Truck","Units":"","OrbatUnits":"1st Unmanned Systems Battalion \"Wild Field\"","Id":"42097472-b188-40d9-85d9-b56d3003f11a","icon":"/api/icons/0051CA/False/template/111.png"},"source":"geoconfirmed","source_name":"GeoConfirmed","source_url":"https://geoconfirmed.org/map/ukraine","id":"42097472-b188-40d9-85d9-b56d3003f11a","date":"2026-09-05","link":"https://geoconfirmed.org/map/ukraine/42097472-b188-40d9-85d9-b56d3003f11a","category":"Short Range (<50km) OWAD (One Way Attack Drone), mostly rotary wing, Flying OR Attacking a target without knowing the outcome: if something is damaged --> icon of the damaged equipment.","side":"Ukraine","color":"#0051CA","description":"0:39-0:42 - FPV drone of the 1st Unmanned Systems Battalion 'Wild Field' of the 128th Heavy Mechanized Brigade targeted a fuel truck in Dniprorudne","orbat":["1st Unmanned Systems Battalion \"Wild Field\""],"geolocation":["https://x.com/meowqai/status/2097685897659441315"],"sources":["https://x.com/meowqai/status/2097678219948310529","https://t.me/orcocide128/18"]}},{"type":"Feature","geometry":{"type":"Point","coordinates":[35.763454,47.562318]},"properties":{"original":{"Date":"2026-09-05","Name":"05 SEP 2026","Faction":"Russia","Origin":"UAV","Latitude":"47.562318","Longitude":"35.763454","PlusCode":"8GVQHQ67+W9 Orikhiv, Zaporizhia Oblast, Ukraine","Description":"Area grid - Claimed Ukrainian position hit by Molniya drones of the \"Vostok-Akhmat\" battalion","Source":"https://x.com/RedHibana/status/2096603364939137124, https://t.me/ZS42MSD/8967","Geolocation":"https://x.com/richardzai38580/status/2096493243341168979","Equipment":"","EquipmentItems":"Molniya","Units":"","OrbatUnits":"\"Vostok-Akhmat\" battalion","Id":"9880f36c-4b03-4281-80cb-bd658d9c5acc","icon":"/api/icons/E00000/False/template/111.png"},"source":"geoconfirmed","source_name":"GeoConfirmed","source_url":"https://geoconfirmed.org/map/ukraine","id":"9880f36c-4b03-4281-80cb-bd658d9c5acc","date":"2026-09-05","link":"https://geoconfirmed.org/map/ukraine/9880f36c-4b03-4281-80cb-bd658d9c5acc","category":"Short Range (<50km) OWAD (One Way Attack Drone), mostly rotary wing, Flying OR Attacking a target without knowing the outcome: if something is damaged --> icon of the damaged equipment.","side":"Russia","color":"#E00000","description":"Area grid - Claimed Ukrainian position hit by Molniya drones of the \"Vostok-Akhmat\" battalion","orbat":["\"Vostok-Akhmat\" battalion"],"geolocation":["https://x.com/richardzai38580/status/2096493243341168979"],"sources":["https://x.com/RedHibana/status/2096603364939137124","https://t.me/ZS42MSD/8967"]}},{"type":"Feature","geometry":{"type":"Point","coordinates":[37.07286,48.407488]},"properties":{"original":{"Date":"2026-09-05","Name":"05 SEP 2026","Faction":"Russia","Origin":"UAV","Latitude":"48.407488","Longitude":"37.07286","PlusCode":"8GWVC34F+X4 Matyasheve, Donetsk Oblast, Ukraine","Description":"0:42-0:48 -  Russian soldier hit by a Ukrainian drone drop of the 25th Airborne Brigade","Source":"https://x.com/moklasen/status/2096146953310458120, https://t.me/ywjQfBTXyys5YWQy/905, ","Geolocation":"https://x.com/moklasen/status/2096146949208498623","Equipment":"","EquipmentItems":"(Multi-Purpose) Bomber UAV","Units":"","OrbatUnits":"Drone Company","Id":"12daf1c8-f8ad-458b-9c60-bf3cdf83f4c4","icon":"/api/icons/E00000/False/template/92.png"},"source":"geoconfirmed","source_name":"GeoConfirmed","source_url":"https://geoconfirmed.org/map/ukraine","id":"12daf1c8-f8ad-458b-9c60-bf3cdf83f4c4","date":"2026-09-05","link":"https://geoconfirmed.org/map/ukraine/12daf1c8-f8ad-458b-9c60-bf3cdf83f4c4","category":"WIA/KIA Soldier/Militant","side":"Russia","color":"#E00000","description":"0:42-0:48 -  Russian soldier hit by a Ukrainian drone drop of the 25th Airborne Brigade","orbat":["Drone Company"],"geolocation":["https://x.com/moklasen/status/2096146949208498623"],"sources":["https://x.com/moklasen/status/2096146953310458120","https://t.me/ywjQfBTXyys5YWQy/905"]}},{"type":"Feature","geometry":{"type":"Point","coordinates":[36.685247,49.838856]},"properties":{"original":{"Date":"2026-09-05","Name":"05 SEP 2026","Faction":"Neutral","Origin":"PIC","Latitude":"49.838856","Longitude":"36.685247","PlusCode":"8GXRRMQP+G3 Chuhuiv, Kharkiv Oblast, Ukraine","Description":"A Russian drone hit a residential area, killing three people and injuring another.","Source":"https://x.com/99Dominik_/status/2096525417645523332, https://t.me/synegubov/25480, , ","Geolocation":"https://x.com/99Dominik_/status/2096333981138444754","Equipment":"","EquipmentItems":"","Units":"","OrbatUnits":"","Id":"c085e0ad-96b4-444d-b973-d4cb7741ad81","icon":"/api/icons/AC7339/False/template/192.png"},"source":"geoconfirmed","source_name":"GeoConfirmed","source_url":"https://geoconfirmed.org/map/ukraine","id":"c085e0ad-96b4-444d-b973-d4cb7741ad81","date":"2026-09-05","link":"https://geoconfirmed.org/map/ukraine/c085e0ad-96b4-444d-b973-d4cb7741ad81","category":"Recently destroyed/Damaged[Visible in footage] or still burning infrastucture","side":"Neutral","color":"#AC7339","description":"A Russian drone hit a residential area, killing three people and injuring another.","orbat":[],"geolocation":["https://x.com/99Dominik_/status/2096333981138444754"],"sources":["https://x.com/99Dominik_/status/2096525417645523332","https://t.me/synegubov/25480"]}},{"type":"Feature","geometry":{"type":"Point","coordinates":[37.551317,48.553244]},"properties":{"original":{"Date":"2026-09-05","Name":"05 SEP 2026","Faction":"Russia","Origin":"UAV","Latitude":"48.553244","Longitude":"37.551317","PlusCode":"8GWVHH32+7G Mykolaipillya, Donetsk Oblast, Ukraine","Description":"1:44-end - The 242nd Motorized Rifle Regiment, part of the 20th Motorized Rifle Division, attacked a claimed Ukrainian UAV control station north of Mykolaipillia using a FPV drone.","Source":"https://x.com/AudaxonX/status/2103205494886412332, https://t.me/nm_dnr/15831","Geolocation":"https://x.com/AudaxonX/status/2103205490654171465","Equipment":"","EquipmentItems":"FPV (First Person View) OWAD (One Way Attack Drone)","Units":"","OrbatUnits":"242nd Motorized Rifle Regiment","Id":"c9fca01d-ca23-45a5-98ea-dc202d7cbfa9","icon":"/api/icons/E00000/False/template/111.png"},"source":"geoconfirmed","source_name":"GeoConfirmed","source_url":"https://geoconfirmed.org/map/ukraine","id":"c9fca01d-ca23-45a5-98ea-dc202d7cbfa9","date":"2026-09-05","link":"https://geoconfirmed.org/map/ukraine/c9fca01d-ca23-45a5-98ea-dc202d7cbfa9","category":"Short Range (<50km) OWAD (One Way Attack Drone), mostly rotary wing, Flying OR Attacking a target without knowing the outcome: if something is damaged --> icon of the damaged equipment.","side":"Russia","color":"#E00000","description":"1:44-end - The 242nd Motorized Rifle Regiment, part of the 20th Motorized Rifle Division, attacked a claimed Ukrainian UAV control station north of Mykolaipillia using a FPV drone.","orbat":["242nd Motorized Rifle Regiment"],"geolocation":["https://x.com/AudaxonX/status/2103205490654171465"],"sources":["https://x.com/AudaxonX/status/2103205494886412332","https://t.me/nm_dnr/15831"]}},{"type":"Feature","geometry":{"type":"Point","coordinates":[37.709408,48.547246]},"properties":{"original":{"Date":"2026-09-05","Name":"05 SEP 2026","Faction":"Russia","Origin":"UAV","Latitude":"48.547246","Longitude":"37.709408","PlusCode":"8GWVGPW5+VQ Kostyantynivka, Donetsk Oblast, Ukraine","Description":"3rd Motorized Rifle Battalion, 136th Separate Guards Motorized Rifle Brigade observes a Russian soldier throwing an anti-tank mine into a Ukrainian-held trench near Kostyantynivka - blowing it up","Source":"https://x.com/AudaxonX/status/2102714088858226984, Private group Telegram, https://t.me/c/2110161421/2","Geolocation":"https://x.com/AudaxonX/status/2102713987863588990","Equipment":"UNK (anti-tank mine)","EquipmentItems":"","Units":"","OrbatUnits":"","Id":"b2a97ec7-c9e1-4209-a55b-f98f84acc91a","icon":"/api/icons/E00000/False/template/70.png"},"source":"geoconfirmed","source_name":"GeoConfirmed","source_url":"https://geoconfirmed.org/map/ukraine","id":"b2a97ec7-c9e1-4209-a55b-f98f84acc91a","date":"2026-09-05","link":"https://geoconfirmed.org/map/ukraine/b2a97ec7-c9e1-4209-a55b-f98f84acc91a","category":"Controlled Demolition OR explosion of unknown origin OR fire of unknown origin where no other icon fits","side":"Russia","color":"#E00000","description":"3rd Motorized Rifle Battalion, 136th Separate Guards Motorized Rifle Brigade observes a Russian soldier throwing an anti-tank mine into a Ukrainian-held trench near Kostyantynivka - blowing it up","orbat":[],"geolocation":["https://x.com/AudaxonX/status/2102713987863588990"],"sources":["https://x.com/AudaxonX/status/2102714088858226984","https://t.me/c/2110161421/2"]}}]}