{"type":"FeatureCollection","features":[{"type":"Feature","geometry":{"type":"MultiPolygon","coordinates":[[[[37.85622,48.8197],[37.85779,48.82852],[37.8675,48.82773],[37.87055,48.83812],[37.87978,48.83903],[37.88402,48.83456],[37.89685,48.83507],[37.8892,48.8301],[37.85914,48.82128],[37.8598,48.81982],[37.85622,48.8197]]],[[[37.79663,48.67942],[37.78659,48.69076],[37.80335,48.69272],[37.80771,48.68895],[37.80546,48.68008],[37.79663,48.67942]]],[[[37.75681,48.51932],[37.74513,48.52361],[37.74238,48.52994],[37.74463,48.53194],[37.74127,48.54089],[37.76617,48.54322],[37.76623,48.54289],[37.75209,48.53896],[37.74737,48.53467],[37.7465,48.53244],[37.7599,48.53342],[37.77088,48.52236],[37.75681,48.51932]]],[[[37.56928,50.22982],[37.54458,50.23409],[37.53875,50.23587],[37.53979,50.23788],[37.57001,50.23683],[37.586,50.23913],[37.59439,50.23387],[37.58662,50.23036],[37.59868,50.22149],[37.59865,50.22142],[37.56928,50.22982]]],[[[37.19376,48.36777],[37.1894,48.36903],[37.18947,48.37186],[37.1921,48.37424],[37.20003,48.37198],[37.20288,48.37779],[37.21594,48.37573],[37.21652,48.38052],[37.22819,48.38171],[37.22973,48.38724],[37.23609,48.39807],[37.2423,48.39904],[37.2397,48.41129],[37.24531,48.41145],[37.25655,48.41334],[37.25694,48.41013],[37.24999,48.40807],[37.2502,48.39979],[37.23661,48.3963],[37.23222,48.38833],[37.23137,48.37567],[37.22107,48.3755],[37.21954,48.36809],[37.2088,48.36393],[37.20226,48.36799],[37.19957,48.36837],[37.19541,48.36503],[37.19399,48.36082],[37.1939,48.36083],[37.19376,48.36777]]],[[[37.16139,48.35141],[37.18283,48.35341],[37.20219,48.35379],[37.20094,48.34873],[37.16164,48.34428],[37.1568,48.34807],[37.16139,48.35141]]],[[[36.1589,47.64249],[36.15418,47.65087],[36.15938,47.65304],[36.17195,47.64508],[36.17729,47.64322],[36.18279,47.63314],[36.16259,47.64138],[36.144,47.63458],[36.14383,47.63498],[36.1589,47.64249]]],[[[35.39205,50.69877],[35.38762,50.70388],[35.38849,50.70752],[35.39631,50.70731],[35.40834,50.70317],[35.40655,50.70263],[35.40127,50.69855],[35.39205,50.69877]]]]},"properties":{"source":"deepstate","source_name":"DeepStateMap","source_url":"https://deepstatemap.live/en","category":"gained","category_label":"Newly Russian-occupied","period":"7d","compared_with":"2026-07-27","snapshot_time":"2026-08-03","area_km2_approx":19.4}}]}