{"type":"FeatureCollection","features":[{"type":"Feature","geometry":{"type":"MultiPolygon","coordinates":[[[[37.24547,48.4597],[37.26452,48.46448],[37.27512,48.46974],[37.28096,48.4723],[37.2934,48.4758],[37.29984,48.47643],[37.30203,48.47609],[37.30237,48.47674],[37.30383,48.47734],[37.30636,48.47586],[37.31194,48.47424],[37.31782,48.47454],[37.30967,48.46928],[37.2947,48.4683],[37.27673,48.46738],[37.27126,48.46059],[37.26344,48.45739],[37.24425,48.45557],[37.24547,48.4597]]],[[[37.17003,48.37965],[37.17409,48.38983],[37.18527,48.39236],[37.18718,48.40053],[37.1955,48.40153],[37.19515,48.40479],[37.19962,48.40612],[37.20263,48.40506],[37.21839,48.40581],[37.213,48.39606],[37.18889,48.39327],[37.19134,48.38378],[37.18943,48.38104],[37.18933,48.3809],[37.18855,48.37978],[37.17653,48.37861],[37.17003,48.37965]]],[[[37.03055,48.26721],[37.05666,48.26961],[37.05687,48.26305],[37.05047,48.26165],[37.05236,48.25459],[37.05112,48.25392],[37.05113,48.2539],[37.04611,48.25121],[37.03622,48.25584],[37.03405,48.25961],[37.03209,48.25982],[37.03055,48.26721]]]]},"properties":{"source":"ukrdaily","source_name":"UkrDailyUpdate","source_url":"https://map.ukrdailyupdate.com/","category":"gained","category_label":"Newly Russian-occupied","period":"7d","compared_with":"2026-09-13","snapshot_time":"2026-09-20","area_km2_approx":10.1}},{"type":"Feature","geometry":{"type":"Polygon","coordinates":[[[37.61968,49.81595],[37.62118,49.82055],[37.62735,49.82058],[37.63014,49.82266],[37.63242,49.82342],[37.63415,49.82264],[37.62939,49.81656],[37.62461,49.81492],[37.61968,49.81595]]]},"properties":{"source":"ukrdaily","source_name":"UkrDailyUpdate","source_url":"https://map.ukrdailyupdate.com/","category":"lost","category_label":"No longer Russian-occupied","period":"7d","compared_with":"2026-09-13","snapshot_time":"2026-09-20","area_km2_approx":0.5}}]}