{"type":"FeatureCollection","features":[{"type":"Feature","geometry":{"type":"MultiPolygon","coordinates":[[[[37.82523,48.75642],[37.81845,48.76191],[37.83591,48.77845],[37.83682,48.77825],[37.84235,48.77777],[37.84849,48.77511],[37.87119,48.77641],[37.87226,48.78197],[37.88029,48.76967],[37.87951,48.76552],[37.8631,48.76199],[37.84636,48.76167],[37.8419,48.76326],[37.83769,48.76383],[37.83335,48.76157],[37.83141,48.76001],[37.83453,48.75175],[37.82523,48.75642]]],[[[37.78567,48.6562],[37.78344,48.66596],[37.78224,48.67338],[37.785,48.67492],[37.79571,48.67999],[37.79708,48.67849],[37.80854,48.68064],[37.80874,48.6792],[37.81091,48.66559],[37.79862,48.66385],[37.79672,48.66126],[37.79492,48.66044],[37.79414,48.65911],[37.79178,48.6581],[37.78719,48.655],[37.78567,48.6562]]],[[[37.79632,48.558],[37.79369,48.55914],[37.7894,48.5586],[37.78679,48.55898],[37.78706,48.56012],[37.78807,48.56073],[37.78942,48.56118],[37.79044,48.56176],[37.79029,48.56242],[37.79216,48.56282],[37.79176,48.56389],[37.79581,48.56412],[37.7964,48.56012],[37.79632,48.558]]],[[[37.71737,48.48653],[37.72036,48.48911],[37.72334,48.49086],[37.72557,48.49241],[37.72626,48.4936],[37.72854,48.49523],[37.72921,48.49572],[37.73187,48.4963],[37.73342,48.49557],[37.73709,48.49439],[37.73815,48.49628],[37.73987,48.49665],[37.74188,48.49392],[37.74292,48.4909],[37.74758,48.4867],[37.75264,48.4848],[37.75704,48.48564],[37.75922,48.4837],[37.76197,48.48336],[37.76086,48.48208],[37.75456,48.47979],[37.74795,48.47871],[37.74269,48.4809],[37.72705,48.47954],[37.71795,48.48402],[37.71454,48.48502],[37.71737,48.48653]]],[[[37.61311,48.49609],[37.62108,48.49972],[37.62207,48.51033],[37.62271,48.51866],[37.62405,48.52419],[37.63671,48.52569],[37.64568,48.52481],[37.64929,48.5106],[37.66187,48.50463],[37.64368,48.50287],[37.64252,48.50776],[37.62837,48.5067],[37.6302,48.49639],[37.61261,48.49474],[37.61311,48.49609]]],[[[37.60541,48.45234],[37.60683,48.45673],[37.6091,48.45721],[37.61,48.45919],[37.61125,48.45932],[37.61541,48.45727],[37.62318,48.45815],[37.62373,48.46028],[37.62416,48.46191],[37.62712,48.46384],[37.62858,48.46677],[37.6268,48.47672],[37.61681,48.48763],[37.6217,48.48626],[37.62677,48.48177],[37.63355,48.47776],[37.63834,48.45761],[37.63937,48.45358],[37.63787,48.45315],[37.61597,48.44565],[37.613,48.45128],[37.60588,48.45079],[37.60348,48.45133],[37.60541,48.45234]]],[[[37.605,50.25353],[37.61307,50.25561],[37.62612,50.25575],[37.6264,50.23882],[37.60908,50.24051],[37.59706,50.24594],[37.5914,50.25094],[37.605,50.25353]]],[[[37.10671,48.37868],[37.10946,48.38139],[37.11126,48.38219],[37.1201,48.37737],[37.12237,48.37013],[37.12852,48.3653],[37.15944,48.36613],[37.167,48.3657],[37.1664,48.37224],[37.16769,48.37379],[37.17005,48.37965],[37.17653,48.37861],[37.17739,48.37411],[37.18344,48.37228],[37.18341,48.36136],[37.17118,48.36079],[37.16221,48.36384],[37.14651,48.3643],[37.10449,48.35968],[37.10325,48.36532],[37.10671,48.37868]]],[[[37.06614,48.28155],[37.06078,48.31323],[37.06308,48.31791],[37.06523,48.31666],[37.09644,48.30781],[37.10531,48.30203],[37.10901,48.29955],[37.113,48.29675],[37.11412,48.28725],[37.10579,48.28586],[37.06734,48.28167],[37.06614,48.28155]]],[[[37.03405,48.25961],[37.03622,48.25584],[37.04611,48.25121],[37.04626,48.24972],[37.03959,48.2464],[37.03471,48.24523],[37.02736,48.244],[37.01594,48.24258],[37.01211,48.25939],[37.01177,48.26197],[37.03405,48.25961]]]]},"properties":{"source":"ukrdaily","source_name":"UkrDailyUpdate","source_url":"https://map.ukrdailyupdate.com/","category":"gained","category_label":"Russian advance: became occupied","period":"7d","compared_with":"2026-09-04","snapshot_time":"2026-09-11","area_km2_approx":46.3}},{"type":"Feature","geometry":{"type":"Polygon","coordinates":[[[36.67631,47.96356],[36.69747,47.97538],[36.71292,47.97975],[36.71217,47.97191],[36.7119,47.97131],[36.70293,47.97004],[36.70422,47.96468],[36.69289,47.96304],[36.66879,47.95975],[36.66876,47.95987],[36.67631,47.96356]]]},"properties":{"source":"ukrdaily","source_name":"UkrDailyUpdate","source_url":"https://map.ukrdailyupdate.com/","category":"lost","category_label":"Ukrainian advance: became Ukrainian-held","period":"7d","compared_with":"2026-09-04","snapshot_time":"2026-09-11","area_km2_approx":2.5}},{"type":"Feature","geometry":{"type":"MultiPolygon","coordinates":[[[[37.93288,49.1948],[37.93403,49.19576],[37.9352,49.19214],[37.9352,49.19214],[37.93288,49.1948]]],[[[37.88976,49.09296],[37.88293,49.09133],[37.86653,49.08643],[37.8628,49.07863],[37.84028,49.07851],[37.83014,49.07502],[37.82507,49.07109],[37.82369,49.07021],[37.82189,49.06986],[37.81956,49.07006],[37.81776,49.07108],[37.81712,49.07242],[37.81497,49.07243],[37.80392,49.07022],[37.79726,49.07165],[37.78727,49.07434],[37.78019,49.07024],[37.77431,49.07209],[37.76646,49.06804],[37.75826,49.06858],[37.74981,49.06637],[37.74498,49.06376],[37.74425,49.0638],[37.73601,49.06511],[37.73125,49.06568],[37.72838,49.06544],[37.7193,49.0669],[37.71239,49.06623],[37.71123,49.07354],[37.71237,49.07796],[37.71691,49.0801],[37.71923,49.08439],[37.71046,49.08443],[37.70323,49.08628],[37.70342,49.09011],[37.7076,49.09678],[37.70836,49.10134],[37.70089,49.10569],[37.69313,49.10605],[37.6844,49.10526],[37.67729,49.10689],[37.67798,49.11086],[37.68618,49.12618],[37.68994,49.12864],[37.70065,49.13082],[37.71544,49.12902],[37.71522,49.12527],[37.71844,49.12208],[37.72228,49.12023],[37.7308,49.11784],[37.73686,49.11576],[37.74148,49.11574],[37.74492,49.11753],[37.74822,49.12064],[37.75444,49.12554],[37.75383,49.13674],[37.74971,49.14068],[37.74607,49.14234],[37.74552,49.14435],[37.7466,49.14516],[37.75007,49.14592],[37.75417,49.15006],[37.76063,49.14721],[37.76302,49.1445],[37.76469,49.14383],[37.77615,49.14019],[37.77997,49.13633],[37.78384,49.13253],[37.78903,49.12855],[37.79059,49.12735],[37.7948,49.12573],[37.80025,49.12439],[37.80413,49.12414],[37.82045,49.12425],[37.8338,49.11798],[37.84522,49.11161],[37.851,49.11127],[37.86193,49.10941],[37.88782,49.10542],[37.89565,49.10675],[37.8994,49.10251],[37.89454,49.09228],[37.88976,49.09296]]],[[[36.69288,47.96304],[36.70422,47.96468],[36.70293,47.97004],[36.7119,47.97131],[36.71221,47.97198],[36.72694,47.97377],[36.73686,47.97607],[36.73534,47.98958],[36.73744,47.99432],[36.73974,47.99381],[36.74075,47.9906],[36.74198,47.98934],[36.74231,47.98823],[36.74149,47.98598],[36.74202,47.98395],[36.74191,47.97896],[36.74122,47.97678],[36.74,47.97605],[36.73951,47.97553],[36.73495,47.96881],[36.7195,47.96674],[36.72226,47.95585],[36.68971,47.95097],[36.69288,47.96304]]],[[[36.28719,50.30193],[36.28677,50.30473],[36.28991,50.2997],[36.28976,50.29957],[36.28719,50.30193]]]]},"properties":{"source":"ukrdaily","source_name":"UkrDailyUpdate","source_url":"https://map.ukrdailyupdate.com/","category":"occupied_to_contested","category_label":"Occupied became contested","period":"7d","compared_with":"2026-09-04","snapshot_time":"2026-09-11","area_km2_approx":82.5}},{"type":"Feature","geometry":{"type":"MultiPolygon","coordinates":[[[[37.83673,48.85674],[37.84381,48.86225],[37.85768,48.85579],[37.86511,48.85504],[37.86374,48.84913],[37.8595,48.84498],[37.84473,48.8451],[37.83658,48.85024],[37.8276,48.85417],[37.83673,48.85674]]],[[[37.78224,48.67338],[37.78344,48.66596],[37.77546,48.66409],[37.75434,48.66131],[37.75949,48.66488],[37.76293,48.6659],[37.77203,48.67214],[37.77246,48.68676],[37.77846,48.68798],[37.78112,48.68232],[37.78541,48.67733],[37.78499,48.67492],[37.78224,48.67338]]],[[[37.69379,48.59211],[37.69731,48.59648],[37.70782,48.5979],[37.71241,48.59555],[37.7188,48.5878],[37.71374,48.5861],[37.71421,48.58321],[37.7173,48.58068],[37.71442,48.57977],[37.71075,48.57932],[37.69835,48.5798],[37.68946,48.57662],[37.69379,48.59211]]],[[[37.69257,48.53443],[37.69343,48.53404],[37.69408,48.53466],[37.6947,48.53532],[37.69782,48.53382],[37.69558,48.53175],[37.69391,48.53248],[37.6908,48.53399],[37.69257,48.53443]]],[[[37.61583,48.53008],[37.61789,48.53361],[37.61854,48.53742],[37.62047,48.54253],[37.62167,48.54614],[37.62394,48.5496],[37.62394,48.5529],[37.62982,48.55512],[37.63622,48.55531],[37.64077,48.55227],[37.63965,48.55009],[37.64068,48.5481],[37.64377,48.54668],[37.6514,48.54785],[37.65504,48.54994],[37.6644,48.54608],[37.67025,48.54302],[37.67017,48.5428],[37.66688,48.5436],[37.6654,48.54416],[37.65757,48.54768],[37.65384,48.54461],[37.65288,48.54226],[37.64988,48.54167],[37.64749,48.53937],[37.64535,48.54037],[37.64258,48.53767],[37.63951,48.53389],[37.61642,48.52682],[37.61376,48.5233],[37.61367,48.52334],[37.61583,48.53008]]],[[[37.38745,48.54236],[37.39459,48.54921],[37.3989,48.55225],[37.40204,48.55556],[37.40893,48.55426],[37.41107,48.54557],[37.41307,48.53808],[37.4227,48.52935],[37.42903,48.5126],[37.42917,48.49971],[37.42369,48.50306],[37.42284,48.50677],[37.41547,48.51208],[37.39558,48.51556],[37.39107,48.5188],[37.37859,48.51704],[37.38745,48.54236]]],[[[37.14977,48.37431],[37.1517,48.37371],[37.15412,48.37701],[37.15579,48.37951],[37.15835,48.37904],[37.15921,48.38098],[37.15792,48.38143],[37.16273,48.38812],[37.16367,48.38927],[37.16727,48.39131],[37.17286,48.39367],[37.17104,48.39058],[37.1716,48.38582],[37.16376,48.37333],[37.15005,48.37153],[37.14123,48.37297],[37.13205,48.37559],[37.12518,48.37895],[37.12329,48.38368],[37.14977,48.37431]]],[[[36.87314,48.18381],[36.87039,48.18439],[36.86811,48.18893],[36.87558,48.19388],[36.89112,48.19569],[36.91059,48.20062],[36.91873,48.20515],[36.91719,48.1943],[36.91046,48.19347],[36.90595,48.19018],[36.90713,48.18358],[36.90714,48.18039],[36.90324,48.1788],[36.90323,48.17881],[36.88992,48.17345],[36.8897,48.17327],[36.88968,48.17326],[36.88308,48.16764],[36.87683,48.16649],[36.87314,48.18381]]],[[[36.27664,50.29354],[36.27378,50.29596],[36.26943,50.30852],[36.26986,50.31354],[36.2684,50.31927],[36.26728,50.33091],[36.2736,50.32402],[36.28036,50.32308],[36.27918,50.32113],[36.27795,50.31898],[36.27705,50.31806],[36.27664,50.31766],[36.27598,50.31757],[36.27666,50.31588],[36.27819,50.31372],[36.27876,50.31272],[36.27997,50.31193],[36.28173,50.3099],[36.28456,50.30623],[36.28537,50.30416],[36.28563,50.29993],[36.28251,50.29779],[36.28569,50.29112],[36.27664,50.29354]]],[[[35.86344,47.53768],[35.86546,47.54573],[35.88181,47.5488],[35.89499,47.54498],[35.91317,47.54162],[35.93429,47.53714],[35.93425,47.53681],[35.92564,47.53703],[35.91715,47.5377],[35.91461,47.53507],[35.90716,47.53693],[35.90521,47.53527],[35.90429,47.53364],[35.89802,47.53484],[35.89536,47.53249],[35.89639,47.52835],[35.86344,47.53768]]],[[[35.78801,47.49092],[35.78976,47.49119],[35.79163,47.49444],[35.79622,47.49579],[35.79815,47.49594],[35.80115,47.49614],[35.80162,47.50022],[35.80277,47.50241],[35.8051,47.50749],[35.80661,47.51122],[35.80757,47.52532],[35.80277,47.54687],[35.80787,47.55212],[35.80552,47.55267],[35.80163,47.55503],[35.79756,47.56051],[35.80008,47.56333],[35.81572,47.5609],[35.82803,47.56344],[35.8298,47.56421],[35.83277,47.56399],[35.84505,47.56104],[35.84033,47.5531],[35.83006,47.54421],[35.8362,47.51885],[35.83595,47.50929],[35.83418,47.50424],[35.83404,47.5011],[35.84574,47.49713],[35.85362,47.49676],[35.86493,47.49597],[35.86494,47.49589],[35.85347,47.49266],[35.85189,47.49266],[35.85189,47.49268],[35.85155,47.49268],[35.85155,47.49266],[35.84267,47.49275],[35.83515,47.49234],[35.83429,47.49188],[35.83428,47.49189],[35.82582,47.48751],[35.82239,47.48931],[35.81234,47.48589],[35.81129,47.48482],[35.80535,47.48325],[35.80216,47.48171],[35.80049,47.48038],[35.79937,47.48031],[35.7939,47.47995],[35.79176,47.48398],[35.78129,47.48425],[35.78424,47.49074],[35.78801,47.49092]]]]},"properties":{"source":"ukrdaily","source_name":"UkrDailyUpdate","source_url":"https://map.ukrdailyupdate.com/","category":"ukrainian_to_contested","category_label":"Ukrainian-held became contested","period":"7d","compared_with":"2026-09-04","snapshot_time":"2026-09-11","area_km2_approx":65.3}}]}