{"type":"FeatureCollection","features":[{"type":"Feature","geometry":null,"properties":{"source":"ru_mod","source_name":"Ministry of Defence of Russia","group":"official_ru","id":67528,"posted_utc":"2026-09-21T11:21:01+00:00","link":"https://t.me/mod_russia/67528","text":"С Божьей помощью и верой в победу\n☦️ В День воинской славы военнослужащие и курсанты Военного университета радиоэлектроники приняли участие в Божественной литургии, приуроченной к памятному событию – обретению мощей Святого благоверного князя Дмитрия Донского.\n💬 Об этом рассказал помощник начальника вуза по работе с верующими военнослужащими:\n«Храм нашего военного вуза освящен в честь Святого князя Димитрия Донского. Храм функционирует, каждое воскресенье неукоснительно совершается служба, приходит личный состав. Благодаря усилию личного состава нашего военного вуза храм благоукрашается», – сказал священнослужитель.\n🔹 Священнослужитель также добавил, что личность Дмитрия Донского имеет особое значение для защитников Отечества:\n«Теперь, когда мы живем в такое непростое время и когда были обретены мощи Святого князя Димитрия в Кремле, сейчас, нам необходима поддержка свыше. И как раз Господь в такие непростые времена через своих святых угодников подает помощь всем, кто Господа призывает», – сказал церковнослужитель.\n🔹 Канал Минобороны России в MAКС – только для своих!","links":["https://t.me/mod_russia/67514","https://max.ru/morf"],"original_html":"<b>С Божьей помощью и верой в победу</b><br/><br/><i class=\"emoji\" style=\"background-image:url('//telegram.org/img/emoji/40/E298A6.png')\"><b>☦️</b></i> В <a href=\"https://t.me/mod_russia/67514\" target=\"_blank\" rel=\"noopener\" onclick=\"return confirm('Open this link?\\n\\n'+this.href);\">День воинской славы</a> <b>военнослужащие и курсанты Военного университета радиоэлектроники приняли участие в Божественной литургии</b>, приуроченной к памятному событию – обретению мощей Святого благоверного князя Дмитрия Донского. <br/><br/><tg-emoji emoji-id=\"5447486370761176298\"><i class=\"emoji\" style=\"background-image:url('//telegram.org/img/emoji/40/F09F92AC.png')\"><b>💬</b></i></tg-emoji> Об этом рассказал помощник начальника вуза по работе с верующими военнослужащими:<br/><br/><blockquote>«Храм нашего военного вуза освящен в честь Святого князя Димитрия Донского. Храм функционирует, каждое воскресенье неукоснительно совершается служба, приходит личный состав. Благодаря усилию личного состава нашего военного вуза храм благоукрашается», – сказал священнослужитель.</blockquote><br/><br/><tg-emoji emoji-id=\"5470000692406023380\"><i class=\"emoji\" style=\"background-image:url('//telegram.org/img/emoji/40/F09F94B9.png')\"><b>🔹</b></i></tg-emoji> Священнослужитель также добавил, что <b>личность Дмитрия Донского имеет особое значение для защитников Отечества</b>:<br/><br/><blockquote>«Теперь, когда мы живем в такое непростое время и когда были обретены мощи Святого князя Димитрия в Кремле, сейчас, нам необходима поддержка свыше. И как раз Господь в такие непростые времена через своих святых угодников подает помощь всем, кто Господа призывает», – сказал церковнослужитель.</blockquote><br/><br/><tg-emoji emoji-id=\"5269510734265483362\"><i class=\"emoji\" style=\"background-image:url('//telegram.org/img/emoji/40/F09F94B9.png')\"><b>🔹</b></i></tg-emoji> <a href=\"https://max.ru/morf\" target=\"_blank\" rel=\"noopener\" onclick=\"return confirm('Open this link?\\n\\n'+this.href);\">Канал Минобороны России в MAКС – только для своих&#33;</a>"}},{"type":"Feature","geometry":null,"properties":{"source":"ru_mod","source_name":"Ministry of Defence of Russia","group":"official_ru","id":67529,"posted_utc":"2026-09-21T13:16:48+00:00","link":"https://t.me/mod_russia/67529","text":"Дорожный патруль от наших дронщиков\nДроны сожгли бронетехнику и автотранспорт врага. Пехота противника попыталась укрыться в лесополосе, но была ликвидирована. Ротация – сорвана.\n#ВойскаБПС\n🎮 Канал Минобороны России в MAКС – боевая работа 24/7. Присоединяйся!","links":["https://max.ru/morf"],"original_html":"<b>Дорожный патруль от наших дронщиков</b><br/><br/><b>Дроны сожгли бронетехнику и автотранспорт врага.</b> Пехота противника попыталась укрыться в лесополосе, но была ликвидирована. Ротация – сорвана.<br/><br/><a href=\"?q=%23%D0%92%D0%BE%D0%B9%D1%81%D0%BA%D0%B0%D0%91%D0%9F%D0%A1\">#ВойскаБПС</a><br/><tg-emoji emoji-id=\"5449767024165154360\"><i class=\"emoji\" style=\"background-image:url('//telegram.org/img/emoji/40/F09F8EAE.png')\"><b>🎮</b></i></tg-emoji> <a href=\"https://max.ru/morf\" target=\"_blank\" rel=\"noopener\" onclick=\"return confirm('Open this link?\\n\\n'+this.href);\">Канал Минобороны России в MAКС – боевая работа 24/7. Присоединяйся&#33;</a>"}},{"type":"Feature","geometry":null,"properties":{"source":"ru_mod","source_name":"Ministry of Defence of Russia","group":"official_ru","id":67530,"posted_utc":"2026-09-21T15:04:33+00:00","link":"https://t.me/mod_russia/67530","text":"Ижевским студентам рассказали о «службе на высоте»\n💬 Военнослужащие подразделения БПС группировки «Центр» провели телемост со студентами Колледжа муниципальной и государственной службы Ижевска. Студенты узнали, что служба в войсках БПС – это престижно и перспективно, а востребованность специалистов в этой области постоянно растёт.\n#ВойскаБПС\n🔹 Минобороны России","links":["https://max.ru/morf"],"original_html":"<b>Ижевским студентам рассказали о «службе на высоте»</b><br/><br/><tg-emoji emoji-id=\"5447486370761176298\"><i class=\"emoji\" style=\"background-image:url('//telegram.org/img/emoji/40/F09F92AC.png')\"><b>💬</b></i></tg-emoji> <b>Военнослужащие подразделения БПС группировки «Центр» провели телемост со студентами</b> Колледжа муниципальной и государственной службы Ижевска. Студенты узнали, что служба в войсках БПС – это престижно и перспективно, а востребованность специалистов в этой области постоянно растёт.<br/><br/><a href=\"?q=%23%D0%92%D0%BE%D0%B9%D1%81%D0%BA%D0%B0%D0%91%D0%9F%D0%A1\">#ВойскаБПС</a><br/><tg-emoji emoji-id=\"5269510734265483362\"><i class=\"emoji\" style=\"background-image:url('//telegram.org/img/emoji/40/F09F94B9.png')\"><b>🔹</b></i></tg-emoji> <a href=\"https://max.ru/morf\" target=\"_blank\" rel=\"noopener\" onclick=\"return confirm('Open this link?\\n\\n'+this.href);\">Минобороны России</a>"}},{"type":"Feature","geometry":null,"properties":{"source":"ru_mod","source_name":"Ministry of Defence of Russia","group":"official_ru","id":67531,"posted_utc":"2026-09-21T17:23:24+00:00","link":"https://t.me/mod_russia/67531","text":"⚡️ В течение дня, с 8.00 до 20.00 мск, дежурными силами ПВО перехвачены и уничтожены 45 беспилотных летательных аппаратов самолетного типа над территориями Белгородской, Брянской, Курской, Рязанской областей, Республики Башкортостан и Республики Крым.\n🔹 Канал Минобороны России в MAКС – только для своих!","links":["https://max.ru/morf"],"original_html":"<i class=\"emoji\" style=\"background-image:url('//telegram.org/img/emoji/40/E29AA1.png')\"><b>⚡️</b></i> В течение дня, с 8.00 до 20.00 мск, дежурными силами ПВО <b>перехвачены и уничтожены 45 беспилотных летательных аппаратов самолетного типа</b> над территориями Белгородской, Брянской, Курской, Рязанской областей, Республики Башкортостан и Республики Крым.<br/><br/><tg-emoji emoji-id=\"5269510734265483362\"><i class=\"emoji\" style=\"background-image:url('//telegram.org/img/emoji/40/F09F94B9.png')\"><b>🔹</b></i></tg-emoji> <a href=\"https://max.ru/morf\" target=\"_blank\" rel=\"noopener\" onclick=\"return confirm('Open this link?\\n\\n'+this.href);\">Канал Минобороны России в MAКС – только для своих&#33;</a>"}},{"type":"Feature","geometry":null,"properties":{"source":"ru_mod","source_name":"Ministry of Defence of Russia","group":"official_ru","id":67532,"posted_utc":"2026-09-21T17:34:01+00:00","link":"https://t.me/mod_russia/67532","text":"▫️ Бескомпромиссная работа «крылатой пехоты»\n💥 Слаженными действиями артиллеристов и операторов БПЛА Новороссийских десантников уничтожен пикап с живой силой и укрытие противника.\n📍 Запорожское направление\n🔹 Канал Минобороны России в MAКС – источник мощных новостей","links":["https://max.ru/morf"],"original_html":"<tg-emoji emoji-id=\"5352532894478793783\"><i class=\"emoji\" style=\"background-image:url('//telegram.org/img/emoji/40/E296AB.png')\"><b>▫️</b></i></tg-emoji> <b>Бескомпромиссная работа «крылатой пехоты»</b><br/><br/><tg-emoji emoji-id=\"5449682610877918293\"><i class=\"emoji\" style=\"background-image:url('//telegram.org/img/emoji/40/F09F92A5.png')\"><b>💥</b></i></tg-emoji> Слаженными действиями артиллеристов и операторов БПЛА Новороссийских десантников уничтожен пикап с живой силой и укрытие противника.<br/><br/><tg-emoji emoji-id=\"5449396879588614682\"><i class=\"emoji\" style=\"background-image:url('//telegram.org/img/emoji/40/F09F938D.png')\"><b>📍</b></i></tg-emoji> <i>Запорожское направление</i><br/><br/><tg-emoji emoji-id=\"5269510734265483362\"><i class=\"emoji\" style=\"background-image:url('//telegram.org/img/emoji/40/F09F94B9.png')\"><b>🔹</b></i></tg-emoji> <a href=\"https://max.ru/morf\" target=\"_blank\" rel=\"noopener\" onclick=\"return confirm('Open this link?\\n\\n'+this.href);\">Канал Минобороны России в MAКС – источник мощных новостей</a>"}},{"type":"Feature","geometry":null,"properties":{"source":"ru_mod","source_name":"Ministry of Defence of Russia","group":"official_ru","id":67533,"posted_utc":"2026-09-21T18:07:09+00:00","link":"https://t.me/mod_russia/67533","text":"Затягиваем удавку ▫️\n#СобытиеДня\n🔹 Минобороны России","links":["https://max.ru/morf"],"original_html":"<b>Затягиваем удавку</b> <tg-emoji emoji-id=\"5352532894478793783\"><i class=\"emoji\" style=\"background-image:url('//telegram.org/img/emoji/40/E296AB.png')\"><b>▫️</b></i></tg-emoji> <br/><br/><a href=\"?q=%23%D0%A1%D0%BE%D0%B1%D1%8B%D1%82%D0%B8%D0%B5%D0%94%D0%BD%D1%8F\">#СобытиеДня</a><br/><tg-emoji emoji-id=\"5269510734265483362\"><i class=\"emoji\" style=\"background-image:url('//telegram.org/img/emoji/40/F09F94B9.png')\"><b>🔹</b></i></tg-emoji> <a href=\"https://max.ru/morf\" target=\"_blank\" rel=\"noopener\" onclick=\"return confirm('Open this link?\\n\\n'+this.href);\">Минобороны России</a>"}},{"type":"Feature","geometry":null,"properties":{"source":"ru_mod","source_name":"Ministry of Defence of Russia","group":"official_ru","id":67534,"posted_utc":"2026-09-21T18:31:01+00:00","link":"https://t.me/mod_russia/67534","text":"📆 Главное за день\n🚩 Давили и давим: подразделения группировки войск «Север» взяли под контроль населенные пункты Польная и Новоалександровка в Харьковской области.\n💥 Враг не укроется: нанесли удары по логистическим центрам, складам и портам Украины, а также судам, задействованным в интересах ВСУ.\n💬 Испортили утро боевикам ВСУ: штурмовики 5-й отдельной танковой бригады группировки «Восток» рассказали об освобождении Зелёной Дибровы в Запорожской области.\n▫️ Стойкость, проверенная боем: добровольцам отрядов «БАРС» группировки «Южная» вручили боевые награды за мужество и героизм, проявленные при выполнении задач в ДНР.\n☦️ С Божьей помощью и верой в победу: в День воинской славы военнослужащие и курсанты Военного университета радиоэлектроники приняли участие в Божественной литургии, приуроченной к памятному событию – обретению мощей Святого благоверного князя Дмитрия Донского.\n🖥 О службе на высоте: военнослужащие подразделения БПС группировки «Центр» провели телемост со студентами Колледжа муниципальной и государственной службы Ижевска.\nТолько вперед, к победе!\n#ИтогиДня\n🔹 Канал Минобороны России в MAКС – только для своих!","links":["https://t.me/mod_russia/67526","https://t.me/mod_russia/67517","https://t.me/mod_russia/67525","https://t.me/mod_russia/67520","https://t.me/mod_russia/67514","https://t.me/mod_russia/67528","https://t.me/mod_russia/67530","https://max.ru/morf"],"original_html":"<tg-emoji emoji-id=\"5472282252048104170\"><i class=\"emoji\" style=\"background-image:url('//telegram.org/img/emoji/40/F09F9386.png')\"><b>📆</b></i></tg-emoji> <b>Главное за день</b><br/><br/><tg-emoji emoji-id=\"5447466081335670917\"><i class=\"emoji\" style=\"background-image:url('//telegram.org/img/emoji/40/F09F9AA9.png')\"><b>🚩</b></i></tg-emoji> <b>Давили и давим</b>: подразделения группировки войск «Север» <a href=\"https://t.me/mod_russia/67526\" target=\"_blank\" rel=\"noopener\" onclick=\"return confirm('Open this link?\\n\\n'+this.href);\">взяли под контроль</a> населенные пункты Польная и Новоалександровка в Харьковской области.<br/><br/><tg-emoji emoji-id=\"5449682610877918293\"><i class=\"emoji\" style=\"background-image:url('//telegram.org/img/emoji/40/F09F92A5.png')\"><b>💥</b></i></tg-emoji> <b>Враг не укроется</b>: <a href=\"https://t.me/mod_russia/67517\" target=\"_blank\" rel=\"noopener\" onclick=\"return confirm('Open this link?\\n\\n'+this.href);\">нанесли удары</a> по логистическим центрам, складам и портам Украины, а также судам, задействованным в интересах ВСУ.<br/><br/><tg-emoji emoji-id=\"5447486370761176298\"><i class=\"emoji\" style=\"background-image:url('//telegram.org/img/emoji/40/F09F92AC.png')\"><b>💬</b></i></tg-emoji> <b>Испортили утро боевикам ВСУ</b>: штурмовики 5-й отдельной танковой бригады группировки «Восток» <a href=\"https://t.me/mod_russia/67525\" target=\"_blank\" rel=\"noopener\" onclick=\"return confirm('Open this link?\\n\\n'+this.href);\">рассказали</a> об освобождении Зелёной Дибровы в Запорожской области.<br/><br/><tg-emoji emoji-id=\"5264796878809099818\"><i class=\"emoji\" style=\"background-image:url('//telegram.org/img/emoji/40/E296AB.png')\"><b>▫️</b></i></tg-emoji> <b>Стойкость, проверенная боем</b>: добровольцам отрядов «БАРС» группировки «Южная» <a href=\"https://t.me/mod_russia/67520\" target=\"_blank\" rel=\"noopener\" onclick=\"return confirm('Open this link?\\n\\n'+this.href);\">вручили</a> боевые награды за мужество и героизм, проявленные при выполнении задач в ДНР.<br/><br/><i class=\"emoji\" style=\"background-image:url('//telegram.org/img/emoji/40/E298A6.png')\"><b>☦️</b></i> <b>С Божьей помощью и верой в победу</b>: в <a href=\"https://t.me/mod_russia/67514\" target=\"_blank\" rel=\"noopener\" onclick=\"return confirm('Open this link?\\n\\n'+this.href);\">День воинской славы</a> военнослужащие и курсанты Военного университета радиоэлектроники <a href=\"https://t.me/mod_russia/67528\" target=\"_blank\" rel=\"noopener\" onclick=\"return confirm('Open this link?\\n\\n'+this.href);\">приняли участие</a> в Божественной литургии, приуроченной к памятному событию – обретению мощей Святого благоверного князя Дмитрия Донского.<br/><br/><tg-emoji emoji-id=\"5449528846753754177\"><i class=\"emoji\" style=\"background-image:url('//telegram.org/img/emoji/40/F09F96A5.png')\"><b>🖥</b></i></tg-emoji> <b>О службе на высоте</b>: военнослужащие подразделения БПС группировки «Центр» <a href=\"https://t.me/mod_russia/67530\" target=\"_blank\" rel=\"noopener\" onclick=\"return confirm('Open this link?\\n\\n'+this.href);\">провели</a> телемост со студентами Колледжа муниципальной и государственной службы Ижевска.<br/><br/><b>Только вперед, к победе&#33;</b><br/>&nbsp;<br/><a href=\"?q=%23%D0%98%D1%82%D0%BE%D0%B3%D0%B8%D0%94%D0%BD%D1%8F\">#ИтогиДня</a><br/><tg-emoji emoji-id=\"5269510734265483362\"><i class=\"emoji\" style=\"background-image:url('//telegram.org/img/emoji/40/F09F94B9.png')\"><b>🔹</b></i></tg-emoji> <a href=\"https://max.ru/morf\" target=\"_blank\" rel=\"noopener\" onclick=\"return confirm('Open this link?\\n\\n'+this.href);\">Канал Минобороны России в MAКС – только для своих&#33;</a>"}},{"type":"Feature","geometry":null,"properties":{"source":"ru_mod","source_name":"Ministry of Defence of Russia","group":"official_ru","id":67535,"posted_utc":"2026-09-21T19:02:01+00:00","link":"https://t.me/mod_russia/67535","text":"▫️ Моя работа, моя честь.\n🔹 MAКС – территория СВОих","links":["https://max.ru/morf"],"original_html":"<tg-emoji emoji-id=\"5447420966999193906\"><i class=\"emoji\" style=\"background-image:url('//telegram.org/img/emoji/40/E296AB.png')\"><b>▫️</b></i></tg-emoji> Моя работа, моя честь.<br/><br/><tg-emoji emoji-id=\"5269510734265483362\"><i class=\"emoji\" style=\"background-image:url('//telegram.org/img/emoji/40/F09F94B9.png')\"><b>🔹</b></i></tg-emoji> <a href=\"https://max.ru/morf\" target=\"_blank\" rel=\"noopener\" onclick=\"return confirm('Open this link?\\n\\n'+this.href);\">MAКС – территория СВОих</a>"}},{"type":"Feature","geometry":null,"properties":{"source":"ru_mod","source_name":"Ministry of Defence of Russia","group":"official_ru","id":67515,"posted_utc":"2026-09-21T02:01:01+00:00","link":"https://t.me/mod_russia/67515","text":"🔥 Враг не укроется: разносим укрепления и технику ВСУ\nРасчеты БПЛА громят укрепления, укрытия и технику противника в зоне спецоперации. Среди уничтоженных целей – вражеский пикап и беспилотник «Фурия».\n#ВойскаБПС\n🎮 Канал Минобороны России в MAКС – боевая работа 24/7. Присоединяйся!","links":["https://max.ru/morf"],"original_html":"<b><tg-emoji emoji-id=\"5449590921916082144\"><i class=\"emoji\" style=\"background-image:url('//telegram.org/img/emoji/40/F09F94A5.png')\"><b>🔥</b></i></tg-emoji></b><b> Враг не укроется: разносим укрепления и технику ВСУ</b><br/><br/>Расчеты БПЛА<b> громят укрепления, укрытия и технику противника </b>в зоне спецоперации. Среди уничтоженных целей – вражеский пикап и беспилотник «Фурия».<br/><br/><a href=\"?q=%23%D0%92%D0%BE%D0%B9%D1%81%D0%BA%D0%B0%D0%91%D0%9F%D0%A1\">#ВойскаБПС</a><br/><tg-emoji emoji-id=\"5449767024165154360\"><i class=\"emoji\" style=\"background-image:url('//telegram.org/img/emoji/40/F09F8EAE.png')\"><b>🎮</b></i></tg-emoji> <a href=\"https://max.ru/morf\" target=\"_blank\" rel=\"noopener\" onclick=\"return confirm('Open this link?\\n\\n'+this.href);\">Канал Минобороны России в MAКС – боевая работа 24/7. Присоединяйся&#33;</a>"}},{"type":"Feature","geometry":null,"properties":{"source":"ru_mod","source_name":"Ministry of Defence of Russia","group":"official_ru","id":67516,"posted_utc":"2026-09-21T03:51:01+00:00","link":"https://t.me/mod_russia/67516","text":"💥 Разорили «гнездо» врага\nАртиллеристы группировки «Восток» разгромили пункты управления гексакоптерами ВСУ вместе с боевиками и полевой склад боеприпасов.\n📍 Запорожская область\n🔹 Канал Минобороны России в MAКС – боевая работа 24/7","links":["https://max.ru/morf"],"original_html":"<b><tg-emoji emoji-id=\"5449682610877918293\"><i class=\"emoji\" style=\"background-image:url('//telegram.org/img/emoji/40/F09F92A5.png')\"><b>💥</b></i></tg-emoji></b><b> Разорили «гнездо» врага</b><br/><br/>Артиллеристы группировки «Восток» разгромили пункты управления гексакоптерами ВСУ вместе с боевиками и полевой склад боеприпасов.<br/><br/><tg-emoji emoji-id=\"5449396879588614682\"><i class=\"emoji\" style=\"background-image:url('//telegram.org/img/emoji/40/F09F938D.png')\"><b>📍</b></i></tg-emoji><i> Запорожская область</i><br/><br/><tg-emoji emoji-id=\"5269510734265483362\"><i class=\"emoji\" style=\"background-image:url('//telegram.org/img/emoji/40/F09F94B9.png')\"><b>🔹</b></i></tg-emoji> <a href=\"https://max.ru/morf\" target=\"_blank\" rel=\"noopener\" onclick=\"return confirm('Open this link?\\n\\n'+this.href);\">Канал Минобороны России в MAКС – боевая работа 24/7</a>"}},{"type":"Feature","geometry":null,"properties":{"source":"ru_mod","source_name":"Ministry of Defence of Russia","group":"official_ru","id":67517,"posted_utc":"2026-09-21T05:16:27+00:00","link":"https://t.me/mod_russia/67517","text":"❗️ Сегодня ночью Вооруженными Силами Российской Федерации нанесены удары беспилотными летательными аппаратами по логистическим центрам, складам и портам Украины, а также судам, задействованным в интересах ВСУ.\n💥 В результате ударов поражены:\n📍 в Киевской области:\n▫️ логистический центр «BDU Logistic» в н.п. Счастливое, в складских помещениях которого организовано хранение и распределение продукции военного назначения;\n▫️ газораспределительная станция в н.п. Боярка, обеспечивающая подачу газа на предприятия оборонно-промышленного комплекса Украины;\n📍 в Одесской области:\n▫️ в порту Одесса – сухогруз, доставивший грузы, предназначенные для обеспечения ВСУ;\n▫️ в порту Измаил – объекты портовой инфраструктуры, используемые для разгрузки и хранения грузов военного назначения.\n▫️ Кроме того, на переходе морем поражен сухогруз, доставлявший в порт Одесса грузы, предназначенные для обеспечения ВСУ.\n🔹 Минобороны России","links":["https://max.ru/morf"],"original_html":"<tg-emoji emoji-id=\"5447116342148753425\"><i class=\"emoji\" style=\"background-image:url('//telegram.org/img/emoji/40/E29D97.png')\"><b>❗️</b></i></tg-emoji> Сегодня ночью Вооруженными Силами Российской Федерации<b> нанесены удары</b> беспилотными летательными аппаратами <b>по логистическим центрам, складам и портам Украины, а также судам</b>, задействованным в интересах ВСУ.<br/><b><br/></b><b><tg-emoji emoji-id=\"5449682610877918293\"><i class=\"emoji\" style=\"background-image:url('//telegram.org/img/emoji/40/F09F92A5.png')\"><b>💥</b></i></tg-emoji></b><b> В результате ударов поражены:</b><br/><br/><tg-emoji emoji-id=\"5449396879588614682\"><i class=\"emoji\" style=\"background-image:url('//telegram.org/img/emoji/40/F09F938D.png')\"><b>📍</b></i></tg-emoji> в Киевской области:<br/><b><br/></b><b><tg-emoji emoji-id=\"5469903849483431273\"><i class=\"emoji\" style=\"background-image:url('//telegram.org/img/emoji/40/E296AB.png')\"><b>▫️</b></i></tg-emoji></b><b> логистический центр «BDU Logistic»</b> в н.п. Счастливое, в складских помещениях которого организовано хранение и распределение продукции военного назначения;<br/><b><br/></b><b><tg-emoji emoji-id=\"5469903849483431273\"><i class=\"emoji\" style=\"background-image:url('//telegram.org/img/emoji/40/E296AB.png')\"><b>▫️</b></i></tg-emoji></b><b> газораспределительная станция</b> в н.п. Боярка, обеспечивающая подачу газа на предприятия оборонно-промышленного комплекса Украины;<br/><br/><tg-emoji emoji-id=\"5449396879588614682\"><i class=\"emoji\" style=\"background-image:url('//telegram.org/img/emoji/40/F09F938D.png')\"><b>📍</b></i></tg-emoji> в Одесской области:<br/><br/><b><tg-emoji emoji-id=\"5469903849483431273\"><i class=\"emoji\" style=\"background-image:url('//telegram.org/img/emoji/40/E296AB.png')\"><b>▫️</b></i></tg-emoji></b><b> </b>в порту Одесса – <b>сухогруз</b>, доставивший грузы, предназначенные для обеспечения ВСУ;<br/><br/><b><tg-emoji emoji-id=\"5469903849483431273\"><i class=\"emoji\" style=\"background-image:url('//telegram.org/img/emoji/40/E296AB.png')\"><b>▫️</b></i></tg-emoji></b><b> </b>в порту Измаил – <b>объекты портовой инфраструктуры</b>, используемые для разгрузки и хранения грузов военного назначения.<br/><br/><b><tg-emoji emoji-id=\"5469903849483431273\"><i class=\"emoji\" style=\"background-image:url('//telegram.org/img/emoji/40/E296AB.png')\"><b>▫️</b></i></tg-emoji></b><b> </b>Кроме того, на переходе морем поражен <b>сухогруз</b>, доставлявший в порт Одесса грузы, предназначенные для обеспечения ВСУ.<br/><br/><tg-emoji emoji-id=\"5269510734265483362\"><i class=\"emoji\" style=\"background-image:url('//telegram.org/img/emoji/40/F09F94B9.png')\"><b>🔹</b></i></tg-emoji> <a href=\"https://max.ru/morf\" target=\"_blank\" rel=\"noopener\" onclick=\"return confirm('Open this link?\\n\\n'+this.href);\">Минобороны России</a>"}},{"type":"Feature","geometry":null,"properties":{"source":"ru_mod","source_name":"Ministry of Defence of Russia","group":"official_ru","id":67518,"posted_utc":"2026-09-21T05:41:41+00:00","link":"https://t.me/mod_russia/67518","text":"⚡️ В течение прошедшей ночи дежурными силами ПВО перехвачены и уничтожены 244 беспилотных летательных аппарата самолетного типа над территориями Белгородской, Брянской, Воронежской, Волгоградской, Калужской, Курской, Орловской, Оренбургской, Ростовской, Рязанской, Самарской, Саратовской, Тверской, Тульской, Ульяновской областей, Краснодарского края, Республики Адыгея, Республики Башкортостан, Республики Татарстан и над акваторией Черного моря.\n🔹 Канал Минобороны России в MAКС – только для своих!","links":["https://max.ru/morf"],"original_html":"<tg-emoji emoji-id=\"5449911936361724483\"><i class=\"emoji\" style=\"background-image:url('//telegram.org/img/emoji/40/E29AA1.png')\"><b>⚡️</b></i></tg-emoji> В течение прошедшей ночи дежурными силами ПВО <b>перехвачены и уничтожены 244 беспилотных летательных аппарата самолетного типа </b>над территориями Белгородской, Брянской, Воронежской, Волгоградской, Калужской, Курской, Орловской, Оренбургской, Ростовской, Рязанской, Самарской, Саратовской, Тверской, Тульской, Ульяновской областей, Краснодарского края, Республики Адыгея, Республики Башкортостан, Республики Татарстан и над акваторией Черного моря.<br/><br/><tg-emoji emoji-id=\"5269510734265483362\"><i class=\"emoji\" style=\"background-image:url('//telegram.org/img/emoji/40/F09F94B9.png')\"><b>🔹</b></i></tg-emoji> <a href=\"https://max.ru/morf\" target=\"_blank\" rel=\"noopener\" onclick=\"return confirm('Open this link?\\n\\n'+this.href);\">Канал Минобороны России в MAКС – только для своих&#33;</a>"}},{"type":"Feature","geometry":null,"properties":{"source":"ru_mod","source_name":"Ministry of Defence of Russia","group":"official_ru","id":67519,"posted_utc":"2026-09-21T05:45:28+00:00","link":"https://t.me/mod_russia/67519","text":"🔥 «Варим-жарим» в харьковском котле\nДроноводы группировки «Север» отрабатывают по пунктам управления БПЛА противника, укрытиям техники и боевиков.\n📍 Харьковская область\n#ВойскаБПС\n▫️ Канал Минобороны России в MAКС – источник мощных новостей","links":["https://max.ru/morf"],"original_html":"<b><tg-emoji emoji-id=\"5449590921916082144\"><i class=\"emoji\" style=\"background-image:url('//telegram.org/img/emoji/40/F09F94A5.png')\"><b>🔥</b></i></tg-emoji></b><b> «Варим-жарим» в харьковском котле</b><br/><br/>Дроноводы группировки «Север» отрабатывают по пунктам управления БПЛА противника, укрытиям техники и боевиков.<br/><br/><i><tg-emoji emoji-id=\"5449396879588614682\"><i class=\"emoji\" style=\"background-image:url('//telegram.org/img/emoji/40/F09F938D.png')\"><b>📍</b></i></tg-emoji></i><i> Харьковская область</i><br/><br/><a href=\"?q=%23%D0%92%D0%BE%D0%B9%D1%81%D0%BA%D0%B0%D0%91%D0%9F%D0%A1\">#ВойскаБПС</a><br/><tg-emoji emoji-id=\"5352532894478793783\"><i class=\"emoji\" style=\"background-image:url('//telegram.org/img/emoji/40/E296AB.png')\"><b>▫️</b></i></tg-emoji> <a href=\"https://max.ru/morf\" target=\"_blank\" rel=\"noopener\" onclick=\"return confirm('Open this link?\\n\\n'+this.href);\">Канал Минобороны России в MAКС – источник мощных новостей</a>"}},{"type":"Feature","geometry":null,"properties":{"source":"ru_mod","source_name":"Ministry of Defence of Russia","group":"official_ru","id":67520,"posted_utc":"2026-09-21T06:49:10+00:00","link":"https://t.me/mod_russia/67520","text":"▫️ Стойкость, проверенная боем\nДобровольцам отрядов «БАРС» группировки «Южная» вручили боевые награды. Военнослужащих отметили за мужество и героизм, проявленные при выполнении задач в ДНР.\n💬 Представитель Генерального штаба ВС РФ поблагодарил бойцов за стойкость и верность воинскому долгу, а также подчеркнул значимый вклад добровольческих подразделений в успешное продвижение и удержание рубежей.\n🔹 MAКС – территория СВОих","links":["https://max.ru/morf"],"original_html":"<tg-emoji emoji-id=\"5352532894478793783\"><i class=\"emoji\" style=\"background-image:url('//telegram.org/img/emoji/40/E296AB.png')\"><b>▫️</b></i></tg-emoji> <b>Стойкость, проверенная боем</b><br/><br/><b>Добровольцам отрядов «БАРС» группировки «Южная» вручили боевые награды.</b> Военнослужащих отметили за мужество и героизм, проявленные при выполнении задач в ДНР.<br/><br/><tg-emoji emoji-id=\"5447486370761176298\"><i class=\"emoji\" style=\"background-image:url('//telegram.org/img/emoji/40/F09F92AC.png')\"><b>💬</b></i></tg-emoji> Представитель Генерального штаба ВС РФ поблагодарил бойцов за стойкость и верность воинскому долгу, а также подчеркнул значимый вклад добровольческих подразделений в успешное продвижение и удержание рубежей.<br/><br/><tg-emoji emoji-id=\"5269510734265483362\"><i class=\"emoji\" style=\"background-image:url('//telegram.org/img/emoji/40/F09F94B9.png')\"><b>🔹</b></i></tg-emoji> <a href=\"https://max.ru/morf\" target=\"_blank\" rel=\"noopener\" onclick=\"return confirm('Open this link?\\n\\n'+this.href);\">MAКС – территория СВОих</a>"}},{"type":"Feature","geometry":null,"properties":{"source":"ru_mod","source_name":"Ministry of Defence of Russia","group":"official_ru","id":67521,"posted_utc":"2026-09-21T07:06:07+00:00","link":"https://t.me/mod_russia/67521","text":"🕊 С праздником, воины православные!\nСегодня, 21 сентября, православные военнослужащие вместе со всей Церковью отмечают светлый праздник — Рождество Пресвятой Богородицы.\nДля тех, кто ежедневно несет службу на благо Отечества, вера остается надежным духовным тылом, источником мужества, стойкости и внутренней силы.\nПусть Пресвятая Богородица хранит наших защитников от всех невзгод, дарует им крепость духа в исполнении долга и благополучие их семьям! 🙏\n🔹 Минобороны России","links":["https://max.ru/morf"],"original_html":"<i class=\"emoji\" style=\"background-image:url('//telegram.org/img/emoji/40/F09F958A.png')\"><b>🕊</b></i> <b>С праздником, воины&nbsp;православные&#33;</b><br/><br/>Сегодня, 21 сентября, православные военнослужащие вместе со всей Церковью отмечают светлый праздник — <b>Рождество Пресвятой Богородицы</b>.<br/><br/>Для тех, кто ежедневно несет службу на благо Отечества, вера остается надежным духовным тылом, источником мужества, стойкости и внутренней силы.<br/><br/>Пусть Пресвятая Богородица хранит наших защитников от всех невзгод, дарует им крепость духа в исполнении долга и благополучие их семьям&#33; <i class=\"emoji\" style=\"background-image:url('//telegram.org/img/emoji/40/F09F998F.png')\"><b>🙏</b></i><br/><br/><tg-emoji emoji-id=\"5269510734265483362\"><i class=\"emoji\" style=\"background-image:url('//telegram.org/img/emoji/40/F09F94B9.png')\"><b>🔹</b></i></tg-emoji> <a href=\"https://max.ru/morf\" target=\"_blank\" rel=\"noopener\" onclick=\"return confirm('Open this link?\\n\\n'+this.href);\">Минобороны России</a>"}},{"type":"Feature","geometry":null,"properties":{"source":"ru_mod","source_name":"Ministry of Defence of Russia","group":"official_ru","id":67524,"posted_utc":"2026-09-21T07:48:17+00:00","link":"https://t.me/mod_russia/67524","text":"Написал песню — послание семье.\nНаводчик орудия Д-20 с позывным «Гном» — воин-доброволец. На гражданке он работал на заводе «Северсталь», но ушел на СВО, когда пошли воевать два его родных брата. В составе 810-й бригады морской пехоты он был сначала на Херсонском направлении, потом на Авдеевском, затем принимал участие в освобождении Курской области. Там получил ранение.\nВсе это время дома бойца ждет семья, которой он посвятил песню под названием «Письмо». Слушайте в конце этого видео 💔\nРассказываем об участниках СВО в 📲 MAX,  📱 ВКонтакте и в 📱 Дзен","links":["https://max.ru/heroesofZ","https://vk.com/heroes0fz","http://dzen.ru/heroesofz"],"original_html":"<i>Написал песню — послание семье.</i><br/><br/>Наводчик орудия Д-20 с <b>позывным «Гном»</b> — воин-доброволец. На гражданке он работал на заводе «Северсталь», но ушел на СВО, когда пошли воевать два его родных брата. В составе 810-й бригады морской пехоты он был сначала на Херсонском направлении, потом на Авдеевском, затем принимал участие в освобождении Курской области. Там получил ранение.<br/><br/>Все это время дома бойца ждет семья, которой он посвятил песню под названием «Письмо». Слушайте в конце этого видео <i class=\"emoji\" style=\"background-image:url('//telegram.org/img/emoji/40/F09F9294.png')\"><b>💔</b></i><br/><br/><i>Рассказываем об участниках СВО в</i> <i><tg-emoji emoji-id=\"5449407131675558756\"><i class=\"emoji\" style=\"background-image:url('//telegram.org/img/emoji/40/F09F93B2.png')\"><b>📲</b></i></tg-emoji></i><i> </i><a href=\"https://max.ru/heroesofZ\" target=\"_blank\" rel=\"noopener\" onclick=\"return confirm('Open this link?\\n\\n'+this.href);\"><i>MAX</i></a>,<i>  </i><i><tg-emoji emoji-id=\"5334853932915114338\"><i class=\"emoji\" style=\"background-image:url('//telegram.org/img/emoji/40/F09F93B1.png')\"><b>📱</b></i></tg-emoji></i><i> </i><a href=\"https://vk.com/heroes0fz\" target=\"_blank\" rel=\"noopener\" onclick=\"return confirm('Open this link?\\n\\n'+this.href);\"><i>ВКонтакте</i></a> <i>и в </i><i><tg-emoji emoji-id=\"5321533581472842536\"><i class=\"emoji\" style=\"background-image:url('//telegram.org/img/emoji/40/F09F93B1.png')\"><b>📱</b></i></tg-emoji></i><i> </i><a href=\"http://dzen.ru/heroesofz\" target=\"_blank\" rel=\"noopener\" onclick=\"return confirm('Open this link?\\n\\n'+this.href);\"><i>Дзен</i></a>"}},{"type":"Feature","geometry":null,"properties":{"source":"ru_mod","source_name":"Ministry of Defence of Russia","group":"official_ru","id":67525,"posted_utc":"2026-09-21T09:14:21+00:00","link":"https://t.me/mod_russia/67525","text":"⏰ Проснитесь, вас штурмуют: как наши бойцы испортили утро боевикам ВСУ\n💬 Штурмовики 5-й отдельной танковой бригады группировки «Восток» рассказали об освобождении Зелёной Дибровы в Запорожской области.\n«На рассвете, под туман, ворвались по-тихому в первый дом, затем во второй, третий – и всё, рассредоточились», – сказал командир штурмового отделения с позывным «Дэф».\n📊 Потери ВСУ составили до роты живой силы. Уничтожены пять боевых бронированных машин, 17 автомобилей, 10 единиц мототехники, 14 НРТК и более 30 тяжёлых гексакоптеров.\n🔹 MAКС – территория СВОих","links":["https://t.me/mod_russia/67464","https://max.ru/morf"],"original_html":"<i class=\"emoji\" style=\"background-image:url('//telegram.org/img/emoji/40/E28FB0.png')\"><b>⏰</b></i> <b>Проснитесь, вас штурмуют: как наши бойцы испортили утро боевикам ВСУ</b><br/><br/><tg-emoji emoji-id=\"5447486370761176298\"><i class=\"emoji\" style=\"background-image:url('//telegram.org/img/emoji/40/F09F92AC.png')\"><b>💬</b></i></tg-emoji> Штурмовики 5-й отдельной танковой бригады группировки «Восток» <b>рассказали об освобождении </b><a href=\"https://t.me/mod_russia/67464\" target=\"_blank\" rel=\"noopener\" onclick=\"return confirm('Open this link?\\n\\n'+this.href);\"><b>Зелёной Дибровы</b></a><b> в Запорожской области</b>.<br/><br/><blockquote>«На рассвете, под туман, ворвались по-тихому в первый дом, затем во второй, третий – и всё, рассредоточились», – сказал командир штурмового отделения с позывным «Дэф».</blockquote><br/><br/><tg-emoji emoji-id=\"5471887681992551719\"><i class=\"emoji\" style=\"background-image:url('//telegram.org/img/emoji/40/F09F938A.png')\"><b>📊</b></i></tg-emoji> Потери ВСУ составили до роты живой силы. Уничтожены пять боевых бронированных машин, 17 автомобилей, 10 единиц мототехники, 14 НРТК и более 30 тяжёлых гексакоптеров.<br/><br/><tg-emoji emoji-id=\"5269510734265483362\"><i class=\"emoji\" style=\"background-image:url('//telegram.org/img/emoji/40/F09F94B9.png')\"><b>🔹</b></i></tg-emoji> <a href=\"https://max.ru/morf\" target=\"_blank\" rel=\"noopener\" onclick=\"return confirm('Open this link?\\n\\n'+this.href);\">MAКС – территория СВОих</a>"}},{"type":"Feature","geometry":null,"properties":{"source":"ru_mod","source_name":"Ministry of Defence of Russia","group":"official_ru","id":67526,"posted_utc":"2026-09-21T09:29:27+00:00","link":"https://t.me/mod_russia/67526","text":"⚡️ Подразделения группировки войск «Север» взяли под контроль населенные пункты Польная и Новоалександровка Харьковской области.\nПодробнее об успехах наших войск ➡️ в MAКС","links":["https://max.ru/morf/AaDDV3EFOn0"],"original_html":"<i class=\"emoji\" style=\"background-image:url('//telegram.org/img/emoji/40/E29AA1.png')\"><b>⚡️</b></i> Подразделения группировки войск «Север» <b>взяли под контроль населенные пункты Польная и Новоалександровка</b> Харьковской области.<br/><br/>Подробнее об успехах наших войск <tg-emoji emoji-id=\"5469902676957357453\"><i class=\"emoji\" style=\"background-image:url('//telegram.org/img/emoji/40/E29EA1.png')\"><b>➡️</b></i></tg-emoji> в <a href=\"https://max.ru/morf/AaDDV3EFOn0\" target=\"_blank\" rel=\"noopener\" onclick=\"return confirm('Open this link?\\n\\n'+this.href);\">MAКС</a>"}}]}