{"type":"FeatureCollection","features":[{"type":"Feature","geometry":{"type":"Polygon","coordinates":[[[37.18673,48.39364],[37.20468,48.39768],[37.21319,48.40149],[37.24056,48.40383],[37.24026,48.40645],[37.24071,48.40652],[37.2423,48.39904],[37.23609,48.39807],[37.22768,48.39767],[37.2156,48.39146],[37.21035,48.39198],[37.19119,48.38121],[37.18678,48.37367],[37.18673,48.39364]]]},"properties":{"source":"deepstate","source_name":"DeepStateMap","source_url":"https://deepstatemap.live/en","category":"gained","category_label":"Newly Russian-occupied","period":"1d","compared_with":"2026-08-13","snapshot_time":"2026-08-14","area_km2_approx":4.0}}]}