{"type":"FeatureCollection","features":[{"type":"Feature","geometry":{"type":"Polygon","coordinates":[[[37.82109,48.71917],[37.83469,48.71346],[37.8393,48.71773],[37.85157,48.71118],[37.8589,48.7056],[37.85225,48.70082],[37.84416,48.70445],[37.83395,48.7064],[37.82516,48.70542],[37.81542,48.70932],[37.82099,48.7212],[37.82109,48.71917]]]},"properties":{"source":"deepstate","source_name":"DeepStateMap","source_url":"https://deepstatemap.live/en","category":"gained","category_label":"Russian advance: became occupied","period":"1d","compared_with":"2026-08-30","snapshot_time":"2026-08-31","area_km2_approx":3.2}}]}