{"type":"FeatureCollection","features":[{"type":"Feature","geometry":{"type":"Point","coordinates":[36.269239,47.656657]},"properties":{"source":"warspotting","source_name":"WarSpotting","source_url":"https://ukr.warspotting.net/","id":47323,"date":"2026-09-05","link":"https://ukr.warspotting.net/view/47323/","category":"Rocket and missile artillery","side":"Lost by Russia","color":"#E00000","description":"122mm 2B17 BM-21-1 (for 9K51 'Grad') · Destroyed · near Huliaipole, Polohy raion","orbat":[]}}]}