{"type":"FeatureCollection","features":[{"type":"Feature","geometry":null,"properties":{"source":"ua_mod","source_name":"Ministry of Defence of Ukraine","group":"official_ua","id":16093,"posted_utc":"2026-08-26T08:22:30+00:00","link":"https://t.me/ministry_of_defense_ua/16093","text":"❗️Залишилося всього 25 днів на повернення з СЗЧ на особливих умовах до обраного підрозділу.\nДля спрощеного повернення доступні понад 70 підрозділів Сил оборони: механізовані, штурмові й артилерійські бригади, підрозділи безпілотних систем, Національної гвардії, Державної спеціальної служби транспорту тощо.\nЩоб визначитися з підрозділом для повернення, ознайомтеся з інформацією про частину на порталі szch.army.gov.ua.\nСпрощений механізм діє до 20 вересня для військовослужбовців, у яких СЗЧ зафіксовано до 12 червня 2026 року включно.\n🔗 Як обрати підрозділ і подати рапорт — читайте за посиланням.","links":["https://szch.army.gov.ua/","https://mod.gov.ua/news/yak-obraty-odyn-iz-ponad-70-pidrozdiliv-dlia-sproshchenoho-povernennia-iz-szch?utm_source=mod-telegram&utm_medium=social"],"original_html":"<i class=\"emoji\" style=\"background-image:url('//telegram.org/img/emoji/40/E29D97.png')\"><b>❗️</b></i><b>Залишилося всього 25 днів на повернення з СЗЧ на особливих умовах до обраного підрозділу</b>.<br/><br/>Для спрощеного повернення доступні понад 70 підрозділів Сил оборони: механізовані, штурмові й артилерійські бригади, підрозділи безпілотних систем, Національної гвардії, Державної спеціальної служби транспорту тощо.<br/><br/>Щоб визначитися з підрозділом для повернення, ознайомтеся з інформацією про частину на порталі <a href=\"https://szch.army.gov.ua/\" target=\"_blank\" rel=\"noopener\" onclick=\"return confirm('Open this link?\\n\\n'+this.href);\"><u>szch.army.gov.ua</u></a>.&nbsp;<br/><br/>Спрощений механізм діє до 20 вересня для військовослужбовців, у яких СЗЧ зафіксовано до 12 червня 2026 року включно.<br/><br/><b><i class=\"emoji\" style=\"background-image:url('//telegram.org/img/emoji/40/F09F9497.png')\"><b>🔗</b></i> Як обрати підрозділ і подати рапорт — </b><a href=\"https://mod.gov.ua/news/yak-obraty-odyn-iz-ponad-70-pidrozdiliv-dlia-sproshchenoho-povernennia-iz-szch?utm_source=mod-telegram&amp;amp;utm_medium=social\" target=\"_blank\" rel=\"noopener\" onclick=\"return confirm('Open this link?\\n\\n'+this.href);\"><b>читайте за посиланням</b></a><b>.</b>"}},{"type":"Feature","geometry":null,"properties":{"source":"ua_mod","source_name":"Ministry of Defence of Ukraine","group":"official_ua","id":16094,"posted_utc":"2026-08-26T10:30:21+00:00","link":"https://t.me/ministry_of_defense_ua/16094","text":"✅ Грошове забезпечення військовим платитимуть протягом усього часу стаціонарного лікування або реабілітації.\nВідповідний закон підписав Президент України.\nЗараз виплати за останньою займаною посадою зберігаються не більше ніж 12 місяців поспіль. Новий закон прибирає це обмеження – зокрема для військових, які проходять тривале лікування за кордоном.\nВимога проходити ВЛК при цьому залишається. Якщо лікування триває понад рік, повторний огляд має проводитися не рідше ніж кожні чотири місяці.\nВиплата додаткових винагород під час лікування регулюватиметься окремою постановою Кабміну.\n🔗 Про покращене харчування та забезпечення протезами читайте за посиланням","links":["https://itd.rada.gov.ua/billinfo/Bills/Card/58727","https://mod.gov.ua/news/viiskovym-zberihatymut-vyplatu-hroshovoho-zabezpechennia-na-ves-chas-likuvannia?utm_source=mod-telegram&utm_medium=social"],"original_html":"<i class=\"emoji\" style=\"background-image:url('//telegram.org/img/emoji/40/E29C85.png')\"><b>✅</b></i> <b>Грошове забезпечення військовим платитимуть протягом усього часу стаціонарного лікування або реабілітації.</b><br/><br/>Відповідний <a href=\"https://itd.rada.gov.ua/billinfo/Bills/Card/58727\" target=\"_blank\" rel=\"noopener\" onclick=\"return confirm('Open this link?\\n\\n'+this.href);\">закон</a> підписав Президент України. <br/><br/>Зараз виплати за останньою займаною посадою зберігаються не більше ніж 12 місяців поспіль. Новий закон прибирає це обмеження – зокрема для військових, які проходять тривале лікування за кордоном.<br/><br/>Вимога проходити ВЛК при цьому залишається. Якщо лікування триває понад рік, повторний огляд має проводитися не рідше ніж кожні чотири місяці.<br/><br/>Виплата додаткових винагород під час лікування регулюватиметься окремою постановою Кабміну.<br/><br/><b><i class=\"emoji\" style=\"background-image:url('//telegram.org/img/emoji/40/F09F9497.png')\"><b>🔗</b></i> Про покращене харчування та забезпечення протезами </b><a href=\"https://mod.gov.ua/news/viiskovym-zberihatymut-vyplatu-hroshovoho-zabezpechennia-na-ves-chas-likuvannia?utm_source=mod-telegram&amp;amp;utm_medium=social\" target=\"_blank\" rel=\"noopener\" onclick=\"return confirm('Open this link?\\n\\n'+this.href);\"><b>читайте за посиланням</b></a>"}},{"type":"Feature","geometry":null,"properties":{"source":"ua_mod","source_name":"Ministry of Defence of Ukraine","group":"official_ua","id":16095,"posted_utc":"2026-08-26T13:49:49+00:00","link":"https://t.me/ministry_of_defense_ua/16095","text":"🤝 Бойовий досвід ЗСУ допомагає НАТО будувати протидронову оборону.\nПід час масштабних навчань у Латвії експерти Спільного центру НАТО-Україна з аналізу, підготовки та освіти (JATEC) консультували Альянс щодо відбиття атак БпЛА.\nУкраїнські фахівці коригували сценарії відповідно до реалій сучасного поля бою та координували дії екіпажів «умовного противника».\nУ навчаннях взяли участь понад 1 000 військових із 25 країн НАТО та України.\nНАТО переходить від тестування окремих засобів протидії дронам до їх інтеграції на тактичному рівні, в системи командування й управління. Український досвід дає поштовх цьому процесу.\n🔗 Докладніше про навчання","links":["https://mod.gov.ua/news/ukrainski-eksperty-jatec-konsultuiut-nato-shchodo-protydii-dronam?utm_source=mod-telegram&utm_medium=social"],"original_html":"<i class=\"emoji\" style=\"background-image:url('//telegram.org/img/emoji/40/F09FA49D.png')\"><b>🤝</b></i> <b>Бойовий досвід ЗСУ допомагає НАТО будувати протидронову оборону.</b><br/><br/>Під час масштабних навчань у Латвії експерти Спільного центру НАТО-Україна з аналізу, підготовки та освіти (JATEC) консультували Альянс щодо відбиття атак БпЛА. <br/><br/>Українські фахівці коригували сценарії відповідно до реалій сучасного поля бою та координували дії екіпажів «умовного противника».<br/><br/>У навчаннях взяли участь понад 1 000 військових із 25 країн НАТО та України.<br/><br/>НАТО переходить від тестування окремих засобів протидії дронам до їх інтеграції на тактичному рівні, в системи командування й управління. Український досвід дає поштовх цьому процесу.<br/><br/><a href=\"https://mod.gov.ua/news/ukrainski-eksperty-jatec-konsultuiut-nato-shchodo-protydii-dronam?utm_source=mod-telegram&amp;amp;utm_medium=social\" target=\"_blank\" rel=\"noopener\" onclick=\"return confirm('Open this link?\\n\\n'+this.href);\"><b><i class=\"emoji\" style=\"background-image:url('//telegram.org/img/emoji/40/F09F9497.png')\"><b>🔗</b></i> Докладніше про навчання</b></a>"}},{"type":"Feature","geometry":null,"properties":{"source":"ua_mod","source_name":"Ministry of Defence of Ukraine","group":"official_ua","id":16096,"posted_utc":"2026-08-26T14:31:52+00:00","link":"https://t.me/ministry_of_defense_ua/16096","text":"🔥 Масштабна пожежа охопила нафтопереробний завод у Кстові після нічної атаки українських безпілотників.\n«Лукойл-Ніжегороднєфтєоргсінтез» здатен переробляти близько 16 млн тонн нафти на рік. Це четвертий за розміром і другий за обсягом виробництва бензину НПЗ у рф.\nУся економічна база, що живить російську агресію, – наша ціль.","links":[],"original_html":"<b><i class=\"emoji\" style=\"background-image:url('//telegram.org/img/emoji/40/F09F94A5.png')\"><b>🔥</b></i> Масштабна пожежа охопила нафтопереробний завод у Кстові після нічної атаки українських безпілотників.</b><br/><br/>«Лукойл-Ніжегороднєфтєоргсінтез» здатен переробляти близько 16 млн тонн нафти на рік. Це четвертий за розміром і другий за обсягом виробництва бензину НПЗ у рф.<br/><br/>Уся економічна база, що живить російську агресію, – наша ціль."}}]}