{"type":"FeatureCollection","features":[{"type":"Feature","geometry":null,"properties":{"source":"ru_mod","source_name":"Ministry of Defence of Russia","group":"official_ru","id":68076,"posted_utc":"2026-10-10T02:01:01+00:00","link":"https://t.me/mod_russia/68076","text":"🙌  «В умелых руках эффективно любое оружие»\nЭкипажи модернизированных БМП-2М с боевым модулем «Бережок» из 1-й гвардейской танковой армии доказали, что могут эффективно сбивать даже вражеские беспилотники самолетного типа.\n💬  Наводчик-оператор БМП с позывным «Поляк» рассказал, как развитие беспилотных систем изменило их привычную боевую работу:\n«Если раньше мы завозили мотострелков на позиции, прикрывали их огнем, подвозили боеприпасы, то теперь еще и работаем по воздушным целям: «Лютые», «Хорнеты» и прочие».\n🔹 Канал Минобороны России в MAКС – боевая работа 24/7","links":["https://max.ru/morf"],"original_html":"<i class=\"emoji\" style=\"background-image:url('//telegram.org/img/emoji/40/F09F998C.png')\"><b>🙌</b></i>  <b>«В умелых руках эффективно любое оружие»</b><br/><br/>Экипажи модернизированных БМП-2М с боевым модулем «Бережок» из 1-й гвардейской танковой армии доказали, что могут эффективно <b>сбивать даже вражеские беспилотники самолетного типа. </b><br/><br/><i class=\"emoji\" style=\"background-image:url('//telegram.org/img/emoji/40/F09F92AC.png')\"><b>💬</b></i>  Наводчик-оператор БМП с позывным «Поляк» рассказал, <b>как развитие беспилотных систем изменило их привычную боевую работу:<br/><br/></b><blockquote>«Если раньше мы завозили мотострелков на позиции, прикрывали их огнем, подвозили боеприпасы, то теперь еще и работаем по воздушным целям: «Лютые», «Хорнеты» и прочие». </blockquote><br/><br/><tg-emoji emoji-id=\"5269510734265483362\"><i class=\"emoji\" style=\"background-image:url('//telegram.org/img/emoji/40/F09F94B9.png')\"><b>🔹</b></i></tg-emoji> <a href=\"https://max.ru/morf\" target=\"_blank\" rel=\"noopener\" onclick=\"return confirm('Open this link?\\n\\n'+this.href);\">Канал Минобороны России в MAКС – боевая работа 24/7</a>"}},{"type":"Feature","geometry":null,"properties":{"source":"ru_mod","source_name":"Ministry of Defence of Russia","group":"official_ru","id":68077,"posted_utc":"2026-10-10T03:58:11+00:00","link":"https://t.me/mod_russia/68077","text":"Один выстрел – и путь открыт\n🪖  Командир снайперской роты с позывным «Дербент» работает в одиночку, чтобы оставаться незаметным. Он ликвидирует вражеские цели, расчищая путь нашим штурмовикам. Об одной из таких операций боец рассказал в интервью «Уральским военным вестям».\nВражеский снайпер мешал продвижению нашим штурмовым группам. За дело взялся «Дербент». Заняв огневую позицию, он обнаружил цель в тепловизор:\n«Я не стал сразу стрелять, так как не успел восстановить дыхание с сердечным ритмом. Через время, полностью восстановившись, я опять посмотрел в прицел. Он уже стоял по пояс. Я подумал про себя: «Подарок» – и сделал выстрел. На следующий день мы заняли ту лесополосу».\n👉 За мужество и отвагу «Дербент» награжден орденом Мужества, медалью Жукова и знаком отличия ордена Святого Георгия – Георгиевским Крестом IV степени.\n#ИсторииСВОих\n🔹 Минобороны России","links":["https://max.ru/uralskiye_vesti","https://max.ru/morf"],"original_html":"<b>Один выстрел – и путь открыт</b><br/><br/><i class=\"emoji\" style=\"background-image:url('//telegram.org/img/emoji/40/F09FAA96.png')\"><b>🪖</b></i>  Командир снайперской роты с позывным<b> «Дербент» работает в одиночку, чтобы оставаться незаметным.</b> Он ликвидирует вражеские цели, расчищая путь нашим штурмовикам. Об одной из таких операций боец рассказал в интервью <a href=\"https://max.ru/uralskiye_vesti\" target=\"_blank\" rel=\"noopener\" onclick=\"return confirm('Open this link?\\n\\n'+this.href);\"><u>«Уральским военным вестям»</u></a>.<br/><br/>Вражеский снайпер мешал продвижению нашим штурмовым группам. За дело взялся «Дербент». Заняв огневую позицию, он обнаружил цель в тепловизор:<br/><br/><blockquote>«Я не стал сразу стрелять, так как не успел восстановить дыхание с сердечным ритмом. Через время, полностью восстановившись, я опять посмотрел в прицел. Он уже стоял по пояс. Я подумал про себя: «Подарок» – и сделал выстрел. На следующий день мы заняли ту лесополосу». </blockquote><br/><br/><i class=\"emoji\" style=\"background-image:url('//telegram.org/img/emoji/40/F09F9189.png')\"><b>👉</b></i> За мужество и отвагу «Дербент» награжден <b>орденом Мужества, медалью Жукова и знаком отличия ордена Святого Георгия</b> – Георгиевским Крестом IV степени. <br/><br/><a href=\"?q=%23%D0%98%D1%81%D1%82%D0%BE%D1%80%D0%B8%D0%B8%D0%A1%D0%92%D0%9E%D0%B8%D1%85\">#ИсторииСВОих</a><br/><tg-emoji emoji-id=\"5269510734265483362\"><i class=\"emoji\" style=\"background-image:url('//telegram.org/img/emoji/40/F09F94B9.png')\"><b>🔹</b></i></tg-emoji> <a href=\"https://max.ru/morf\" target=\"_blank\" rel=\"noopener\" onclick=\"return confirm('Open this link?\\n\\n'+this.href);\">Минобороны России</a>"}},{"type":"Feature","geometry":null,"properties":{"source":"ru_mod","source_name":"Ministry of Defence of Russia","group":"official_ru","id":68078,"posted_utc":"2026-10-10T05:08:33+00:00","link":"https://t.me/mod_russia/68078","text":"❗ Сегодня ночью Вооруженными Силами Российской Федерации продолжено нанесение ударов беспилотными летательными аппаратами по объектам портовой инфраструктуры Украины, а также морским судам, задействованным в интересах ВСУ.\n💥  В результате удара на переходе морем поражен сухогруз, доставлявший в порт Одесса грузы военного назначения.\n🔹 Минобороны России","links":["https://max.ru/morf"],"original_html":"<i class=\"emoji\" style=\"background-image:url('//telegram.org/img/emoji/40/E29D97.png')\"><b>❗</b></i> Сегодня ночью Вооруженными Силами Российской Федерации<b> продолжено нанесение ударов беспилотными летательными аппаратами по объектам портовой инфраструктуры Украины, а также морским судам</b>, задействованным в интересах ВСУ.<br/><br/><i class=\"emoji\" style=\"background-image:url('//telegram.org/img/emoji/40/F09F92A5.png')\"><b>💥</b></i>  В результате удара на переходе морем <b>поражен сухогруз</b>, доставлявший в порт Одесса грузы военного назначения.<br/><br/><tg-emoji emoji-id=\"5269510734265483362\"><i class=\"emoji\" style=\"background-image:url('//telegram.org/img/emoji/40/F09F94B9.png')\"><b>🔹</b></i></tg-emoji> <a href=\"https://max.ru/morf\" target=\"_blank\" rel=\"noopener\" onclick=\"return confirm('Open this link?\\n\\n'+this.href);\">Минобороны России</a>"}},{"type":"Feature","geometry":null,"properties":{"source":"ru_mod","source_name":"Ministry of Defence of Russia","group":"official_ru","id":68079,"posted_utc":"2026-10-10T05:50:43+00:00","link":"https://t.me/mod_russia/68079","text":"⚡ В течение прошедшей ночи с 20.00 9 октября до 8.00 10 октября дежурными силами ПВО перехвачены и уничтожены 560 украинских беспилотных летательных средств над территориями Белгородской, Брянской, Волгоградской, Воронежской, Калужской, Курской, Липецкой, Орловской, Пензенской, Ростовской, Самарской, Саратовской, Смоленской, Тамбовской, Тульской областей, Московского региона, Республики Крым и над акваториями Азовского и Черного морей.\n🔹 Минобороны России","links":["https://max.ru/morf"],"original_html":"<i class=\"emoji\" style=\"background-image:url('//telegram.org/img/emoji/40/E29AA1.png')\"><b>⚡</b></i> В течение прошедшей ночи с 20.00 9 октября до 8.00 10 октября дежурными силами ПВО <b>перехвачены и уничтожены 560 украинских беспилотных летательных средств</b> над территориями Белгородской, Брянской, Волгоградской, Воронежской, Калужской, Курской, Липецкой, Орловской, Пензенской, Ростовской, Самарской, Саратовской, Смоленской, Тамбовской, Тульской областей, Московского региона, Республики Крым и над акваториями Азовского и Черного морей.<br/><br/><tg-emoji emoji-id=\"5269510734265483362\"><i class=\"emoji\" style=\"background-image:url('//telegram.org/img/emoji/40/F09F94B9.png')\"><b>🔹</b></i></tg-emoji> <a href=\"https://max.ru/morf\" target=\"_blank\" rel=\"noopener\" onclick=\"return confirm('Open this link?\\n\\n'+this.href);\">Минобороны России</a>"}},{"type":"Feature","geometry":null,"properties":{"source":"ru_mod","source_name":"Ministry of Defence of Russia","group":"official_ru","id":68080,"posted_utc":"2026-10-10T06:05:54+00:00","link":"https://t.me/mod_russia/68080","text":"Позиции противника накрыло «Торнадо»\n💥  Расчёты высокоточных РСЗО «Торнадо-С» группировки «Восток» снесли места размещения живой силы и пункты управления беспилотниками ВСУ в Запорожской области.\n🔹 MAКС – территория СВОих","links":["https://max.ru/morf"],"original_html":"<b>Позиции противника накрыло «Торнадо»</b><br/><br/><i class=\"emoji\" style=\"background-image:url('//telegram.org/img/emoji/40/F09F92A5.png')\"><b>💥</b></i>  Расчёты высокоточных РСЗО «Торнадо-С» группировки «Восток» снесли места размещения живой силы и пункты управления беспилотниками ВСУ в Запорожской области.<br/><br/><tg-emoji emoji-id=\"5269510734265483362\"><i class=\"emoji\" style=\"background-image:url('//telegram.org/img/emoji/40/F09F94B9.png')\"><b>🔹</b></i></tg-emoji> <a href=\"https://max.ru/morf\" target=\"_blank\" rel=\"noopener\" onclick=\"return confirm('Open this link?\\n\\n'+this.href);\">MAКС – территория СВОих</a>"}},{"type":"Feature","geometry":null,"properties":{"source":"ru_mod","source_name":"Ministry of Defence of Russia","group":"official_ru","id":68081,"posted_utc":"2026-10-10T07:29:54+00:00","link":"https://t.me/mod_russia/68081","text":"«Варяги» жгут 💥\nРасчеты ударных беспилотников нанесли удары по технике, средствам связи, фортификационным сооружениям и местам размещения личного состава противника.\n#ВойскаБПС\n🔹 Курс на MAКС!","links":["https://max.ru/morf"],"original_html":"<b>«Варяги» жгут</b> <tg-emoji emoji-id=\"5449682610877918293\"><i class=\"emoji\" style=\"background-image:url('//telegram.org/img/emoji/40/F09F92A5.png')\"><b>💥</b></i></tg-emoji><br/><br/>Расчеты ударных беспилотников нанесли удары по технике, средствам связи, фортификационным сооружениям и местам размещения личного состава противника.<br/><br/><a href=\"?q=%23%D0%92%D0%BE%D0%B9%D1%81%D0%BA%D0%B0%D0%91%D0%9F%D0%A1\">#ВойскаБПС</a><br/><tg-emoji emoji-id=\"5269510734265483362\"><i class=\"emoji\" style=\"background-image:url('//telegram.org/img/emoji/40/F09F94B9.png')\"><b>🔹</b></i></tg-emoji> <a href=\"https://max.ru/morf\" target=\"_blank\" rel=\"noopener\" onclick=\"return confirm('Open this link?\\n\\n'+this.href);\">Курс на MAКС&#33;</a>"}},{"type":"Feature","geometry":null,"properties":{"source":"ru_mod","source_name":"Ministry of Defence of Russia","group":"official_ru","id":68082,"posted_utc":"2026-10-10T08:23:47+00:00","link":"https://t.me/mod_russia/68082","text":"🤝 Мощная связка: в результате совместной работы расчетов Центра «Рубикон» и экипажей ВКС России уничтожены вражеские пункты управления беспилотниками.\n🔹 Канал Минобороны России в MAКС – боевая работа 24/7","links":["https://max.ru/morf"],"original_html":"<tg-emoji emoji-id=\"5447324252925620983\"><i class=\"emoji\" style=\"background-image:url('//telegram.org/img/emoji/40/F09FA49D.png')\"><b>🤝</b></i></tg-emoji> <b>Мощная связка: </b>в результате совместной работы расчетов Центра «Рубикон» и экипажей ВКС России уничтожены вражеские пункты управления беспилотниками.<br/><br/><tg-emoji emoji-id=\"5269510734265483362\"><i class=\"emoji\" style=\"background-image:url('//telegram.org/img/emoji/40/F09F94B9.png')\"><b>🔹</b></i></tg-emoji> <a href=\"https://max.ru/morf\" target=\"_blank\" rel=\"noopener\" onclick=\"return confirm('Open this link?\\n\\n'+this.href);\">Канал Минобороны России в MAКС – боевая работа 24/7</a>"}},{"type":"Feature","geometry":null,"properties":{"source":"ru_mod","source_name":"Ministry of Defence of Russia","group":"official_ru","id":68083,"posted_utc":"2026-10-10T08:42:38+00:00","link":"https://t.me/mod_russia/68083","text":"➡️ Подразделения группировки войск «Север» в Харьковской области сжимают кольцо окружения и расширяют внешнюю зону контроля.\n⚡️ В кольце окружения взяты под контроль населенные пункты Лукашово и Лобановка.\nПодробнее об успехах наших войск ➡️ в MAКС","links":["https://max.ru/morf/AaElCUMGJPw"],"original_html":"<tg-emoji emoji-id=\"5469902676957357453\"><i class=\"emoji\" style=\"background-image:url('//telegram.org/img/emoji/40/E29EA1.png')\"><b>➡️</b></i></tg-emoji> Подразделения группировки войск «Север» в Харьковской области <b>сжимают кольцо окружения и расширяют внешнюю зону контроля. <br/></b><br/><tg-emoji emoji-id=\"5449911936361724483\"><i class=\"emoji\" style=\"background-image:url('//telegram.org/img/emoji/40/E29AA1.png')\"><b>⚡️</b></i></tg-emoji> В кольце окружения <b>взяты под контроль населенные пункты Лукашово и Лобановка. </b><br/><br/>Подробнее об успехах наших войск <tg-emoji emoji-id=\"5469902676957357453\"><i class=\"emoji\" style=\"background-image:url('//telegram.org/img/emoji/40/E29EA1.png')\"><b>➡️</b></i></tg-emoji> <a href=\"https://max.ru/morf/AaElCUMGJPw\" target=\"_blank\" rel=\"noopener\" onclick=\"return confirm('Open this link?\\n\\n'+this.href);\">в MAКС</a>"}},{"type":"Feature","geometry":null,"properties":{"source":"ru_mod","source_name":"Ministry of Defence of Russia","group":"official_ru","id":68085,"posted_utc":"2026-10-10T10:16:42+00:00","link":"https://t.me/mod_russia/68085","text":"Позиции вскрыты – норы разбиты\n🔥 Операторы ударных дронов группировки «Восток» выжгли укреплённые позиции противника в лесополосах Запорожской области.\n#ВойскаБПС\n🔹 MAКС – территория СВОих","links":["https://max.ru/morf"],"original_html":"<b>Позиции вскрыты – норы разбиты</b><br/><br/><i class=\"emoji\" style=\"background-image:url('//telegram.org/img/emoji/40/F09F94A5.png')\"><b>🔥</b></i> Операторы ударных дронов группировки «Восток» <b>выжгли укреплённые позиции противника</b> в лесополосах Запорожской области.<br/><br/><a href=\"?q=%23%D0%92%D0%BE%D0%B9%D1%81%D0%BA%D0%B0%D0%91%D0%9F%D0%A1\">#ВойскаБПС</a><br/><tg-emoji emoji-id=\"5269510734265483362\"><i class=\"emoji\" style=\"background-image:url('//telegram.org/img/emoji/40/F09F94B9.png')\"><b>🔹</b></i></tg-emoji> <a href=\"https://max.ru/morf\" target=\"_blank\" rel=\"noopener\" onclick=\"return confirm('Open this link?\\n\\n'+this.href);\">MAКС – территория СВОих</a>"}}]}