{"type":"FeatureCollection","features":[{"type":"Feature","geometry":{"type":"Polygon","coordinates":[[[37.82007,48.72146],[37.83615,48.71432],[37.83911,48.71658],[37.84383,48.71431],[37.85568,48.70972],[37.86328,48.70667],[37.86376,48.70311],[37.84944,48.69362],[37.84781,48.69406],[37.84781,48.69408],[37.84091,48.69606],[37.83681,48.69676],[37.8368,48.69674],[37.83416,48.69721],[37.83167,48.69911],[37.83227,48.70285],[37.8138,48.70991],[37.82005,48.7196],[37.8176,48.72025],[37.82007,48.72146]]]},"properties":{"source":"ukrdaily","source_name":"UkrDailyUpdate","source_url":"https://map.ukrdailyupdate.com/","category":"gained","category_label":"Russian advance: became occupied","period":"1d","compared_with":"2026-08-30","snapshot_time":"2026-08-31","area_km2_approx":5.6}},{"type":"Feature","geometry":{"type":"MultiPolygon","coordinates":[[[[35.35828,50.90028],[35.34883,50.90618],[35.34303,50.91342],[35.35547,50.9111],[35.36109,50.90978],[35.3653,50.90534],[35.36766,50.90123],[35.36676,50.89979],[35.36328,50.89931],[35.36248,50.89633],[35.35828,50.90028]]],[[[35.32809,50.91484],[35.3211,50.91262],[35.32054,50.91665],[35.31745,50.92152],[35.3189,50.92895],[35.3249,50.9169],[35.33061,50.9158],[35.32809,50.91484]]]]},"properties":{"source":"ukrdaily","source_name":"UkrDailyUpdate","source_url":"https://map.ukrdailyupdate.com/","category":"lost","category_label":"Ukrainian advance: became Ukrainian-held","period":"1d","compared_with":"2026-08-30","snapshot_time":"2026-08-31","area_km2_approx":1.9}},{"type":"Feature","geometry":{"type":"Polygon","coordinates":[[[37.78468,49.16014],[37.78096,49.16536],[37.77337,49.16861],[37.76547,49.17268],[37.76448,49.1742],[37.76795,49.1763],[37.77164,49.17658],[37.78022,49.17613],[37.78906,49.17355],[37.81378,49.17052],[37.8226,49.17003],[37.83627,49.17074],[37.84717,49.16837],[37.84925,49.16836],[37.85194,49.16688],[37.85619,49.16566],[37.86114,49.16695],[37.86323,49.16563],[37.87439,49.16682],[37.87722,49.17019],[37.89198,49.18795],[37.89627,49.20231],[37.89673,49.20736],[37.89862,49.21103],[37.89943,49.21283],[37.89965,49.21333],[37.90074,49.21893],[37.898,49.22399],[37.91699,49.22607],[37.92179,49.22658],[37.92235,49.22547],[37.92476,49.22328],[37.92713,49.22217],[37.9282,49.21948],[37.93454,49.21167],[37.93532,49.20074],[37.93403,49.19576],[37.9352,49.19214],[37.93034,49.19083],[37.92476,49.18646],[37.92416,49.18068],[37.9185,49.17815],[37.91463,49.17366],[37.90614,49.16732],[37.90614,49.16165],[37.90307,49.1546],[37.89836,49.15394],[37.88366,49.1456],[37.87842,49.14445],[37.86357,49.1438],[37.84385,49.14544],[37.83378,49.14479],[37.8195,49.15063],[37.80134,49.15194],[37.79703,49.14963],[37.78468,49.16014]]]},"properties":{"source":"ukrdaily","source_name":"UkrDailyUpdate","source_url":"https://map.ukrdailyupdate.com/","category":"occupied_to_contested","category_label":"Occupied became contested","period":"1d","compared_with":"2026-08-30","snapshot_time":"2026-08-31","area_km2_approx":37.9}},{"type":"Feature","geometry":{"type":"MultiPolygon","coordinates":[[[[37.73663,49.46789],[37.74045,49.47143],[37.74345,49.47199],[37.74309,49.47292],[37.74795,49.47125],[37.74917,49.47041],[37.74194,49.46583],[37.74074,49.46622],[37.73985,49.46489],[37.73691,49.46298],[37.73661,49.46225],[37.73893,49.46159],[37.74193,49.46016],[37.74269,49.45939],[37.74117,49.45829],[37.73969,49.45786],[37.73309,49.46191],[37.73663,49.46789]]],[[[37.71732,48.58066],[37.71421,48.58321],[37.71374,48.5861],[37.7188,48.5878],[37.72558,48.58343],[37.72084,48.58175],[37.71732,48.58066]]],[[[37.67569,48.52804],[37.67513,48.52883],[37.67492,48.52925],[37.67513,48.52948],[37.67525,48.52993],[37.6744,48.53035],[37.67292,48.53194],[37.67133,48.53409],[37.67199,48.53624],[37.67265,48.53779],[37.67457,48.53963],[37.67429,48.54118],[37.68319,48.53692],[37.68733,48.53507],[37.6908,48.53399],[37.69391,48.53248],[37.70294,48.52853],[37.70243,48.52805],[37.70222,48.52781],[37.70241,48.52731],[37.70338,48.52692],[37.70469,48.52777],[37.70666,48.52691],[37.71047,48.52475],[37.70463,48.52323],[37.70305,48.5232],[37.69826,48.52229],[37.69489,48.52093],[37.69349,48.51996],[37.69192,48.5206],[37.69114,48.52191],[37.69184,48.52212],[37.69119,48.52296],[37.69148,48.52307],[37.69117,48.52348],[37.69058,48.52371],[37.69009,48.52451],[37.69019,48.52677],[37.68906,48.52817],[37.68846,48.53016],[37.68762,48.53092],[37.68665,48.53157],[37.68612,48.53279],[37.68553,48.53324],[37.68446,48.53345],[37.68349,48.53317],[37.68265,48.53225],[37.68252,48.53148],[37.68283,48.53099],[37.67861,48.52888],[37.6793,48.52771],[37.67885,48.52638],[37.67891,48.52606],[37.67816,48.52597],[37.67828,48.5257],[37.6776,48.52555],[37.67587,48.5281],[37.67569,48.52804]]],[[[37.65384,48.54461],[37.65757,48.54768],[37.6654,48.54416],[37.66445,48.54299],[37.66638,48.54274],[37.66688,48.5436],[37.67114,48.54256],[37.66585,48.54057],[37.66327,48.54054],[37.66086,48.54044],[37.65771,48.54115],[37.65453,48.54113],[37.65288,48.54226],[37.65384,48.54461]]],[[[37.1799,48.46477],[37.16028,48.46944],[37.12703,48.47847],[37.11192,48.48296],[37.09639,48.4843],[37.0954,48.48875],[37.09725,48.49184],[37.10964,48.49545],[37.1264,48.49544],[37.15458,48.49157],[37.17176,48.49248],[37.17898,48.49589],[37.1773,48.50538],[37.17801,48.51441],[37.20857,48.51566],[37.20925,48.51313],[37.21867,48.49919],[37.22106,48.48835],[37.22156,48.47456],[37.21709,48.46848],[37.22018,48.45567],[37.20828,48.4546],[37.19622,48.45026],[37.18921,48.4528],[37.1799,48.46477]]],[[[37.03409,48.41965],[37.02947,48.42002],[37.02253,48.42265],[37.02349,48.42449],[37.03314,48.42477],[37.05795,48.42455],[37.07194,48.42147],[37.07296,48.41421],[37.07621,48.40928],[37.06131,48.40991],[37.0484,48.40937],[37.04865,48.40421],[37.03638,48.40391],[37.03409,48.41965]]]]},"properties":{"source":"ukrdaily","source_name":"UkrDailyUpdate","source_url":"https://map.ukrdailyupdate.com/","category":"ukrainian_to_contested","category_label":"Ukrainian-held became contested","period":"1d","compared_with":"2026-08-30","snapshot_time":"2026-08-31","area_km2_approx":41.3}}]}