{"type":"FeatureCollection","features":[{"type":"Feature","geometry":null,"properties":{"source":"ua_mod","source_name":"Ministry of Defence of Ukraine","group":"official_ua","id":15988,"posted_utc":"2026-08-06T07:27:09+00:00","link":"https://t.me/ministry_of_defense_ua/15988","text":"🇺🇦🇬🇧 Євгеній Хмара:\nЗустрівся з Міністром оборони Великої Британії Весом Стрітінгом.\nРазом із тимчасово виконуючим обовʼязки заступника Головнокомандувача бригадним генералом Сергієм Собком та представником розвідки поінформували іноземну делегацію про ситуацію на полі бою, актуальні загрози, наші кроки у відповідь на дії агресора та потреби України.\nВелика Британія гарантує довгострокову підтримку України – щонайменше £3 млрд на рік. Розраховуємо на продовження цієї допомоги за ключовими напрямами.\nПерший – поставки засобів для захисту неба. Україні потрібні засоби проти балістики та крилатих ракет, а також швидше постачання радарів і розбудова радарного поля.\nДругий – авіаційні спроможності. Обговорили підтримку проєкту постачання літаків Gripen із ракетами Meteor для протидії російським носіям керованих авіабомб.\nТретій – протидія «шахедам». Уже маємо домовленість щодо постачання сотень ракет проти безпілотників цього року.\nЧетвертий – українські дрони. Розраховуємо на продовження та збільшення фінансування виробництва наших безпілотників, зокрема за рахунок доходів від заморожених російських активів.\nДомовилися надалі розвивати довгострокове і взаємовигідне оборонне партнерство.\nВдячний Великій Британії за лідерство та силу підтримки України.","links":[],"original_html":"<div class=\"tgme_widget_message_text js-message_text\" dir=\"auto\"><b><i class=\"emoji\" style=\"background-image:url('//telegram.org/img/emoji/40/F09F87BAF09F87A6.png')\"><b>🇺🇦</b></i><i class=\"emoji\" style=\"background-image:url('//telegram.org/img/emoji/40/F09F87ACF09F87A7.png')\"><b>🇬🇧</b></i> Євгеній Хмара:</b><br/>Зустрівся з Міністром оборони Великої Британії Весом Стрітінгом.&nbsp;<br/><br/>Разом із тимчасово виконуючим обовʼязки заступника Головнокомандувача бригадним генералом Сергієм Собком та представником розвідки поінформували іноземну делегацію про ситуацію на полі бою, актуальні загрози, наші кроки у відповідь на дії агресора та потреби України.<br/><br/>Велика Британія гарантує довгострокову підтримку України – щонайменше £3 млрд на рік. Розраховуємо на продовження цієї допомоги за ключовими напрямами.<br/><br/>Перший – поставки засобів для захисту неба. Україні потрібні засоби проти балістики та крилатих ракет, а також швидше постачання радарів і розбудова радарного поля.<br/><br/>Другий – авіаційні спроможності. Обговорили підтримку проєкту постачання літаків Gripen із ракетами Meteor для протидії російським носіям керованих авіабомб.<br/><br/>Третій – протидія «шахедам». Уже маємо домовленість щодо постачання сотень ракет проти безпілотників цього року.&nbsp;<br/><br/>Четвертий – українські дрони. Розраховуємо на продовження та збільшення фінансування виробництва наших безпілотників, зокрема за рахунок доходів від заморожених російських активів.<br/><br/>Домовилися надалі розвивати довгострокове і взаємовигідне оборонне партнерство.<br/><br/>Вдячний Великій Британії за лідерство та силу підтримки України."}},{"type":"Feature","geometry":null,"properties":{"source":"ua_mod","source_name":"Ministry of Defence of Ukraine","group":"official_ua","id":15991,"posted_utc":"2026-08-06T08:15:31+00:00","link":"https://t.me/ministry_of_defense_ua/15991","text":"✅ ЄС виділив €1,4 млрд доходів від заморожених російських активів на підтримку України. Частина коштів буде спрямована на нагальні оборонні потреби.\nВ умовах посилення російських атак кожне додаткове джерело фінансування оборони має критичне значення. Україні необхідні боєприпаси, системи ППО, ракети, безпілотники та інше озброєння, яке допомагає захищати військових, цивільне населення і критичну інфраструктуру.\nМіністерство оборони вдячне Європейській Комісії, державам-членам ЄС та партнерам за послідовну підтримку України і конкретний внесок у зміцнення нашої обороноздатності.","links":["https://mod.gov.ua/news/oborona-ta-stiikist-ukrainy-yes-spriamovuie-novyi-paket-pidtrymky-u-1-4-mlrd?utm_source=mod-telegram&utm_medium=social"],"original_html":"<b><i class=\"emoji\" style=\"background-image:url('//telegram.org/img/emoji/40/E29C85.png')\"><b>✅</b></i></b> <b>ЄС виділив €1,4 млрд доходів від заморожених російських активів на підтримку України. Частина коштів буде спрямована </b><a href=\"https://mod.gov.ua/news/oborona-ta-stiikist-ukrainy-yes-spriamovuie-novyi-paket-pidtrymky-u-1-4-mlrd?utm_source=mod-telegram&amp;amp;utm_medium=social\" target=\"_blank\" rel=\"noopener\" onclick=\"return confirm('Open this link?\\n\\n'+this.href);\"><b>на нагальні оборонні потреби</b></a><b>.<br/></b><br/>В умовах посилення російських атак кожне додаткове джерело фінансування оборони має критичне значення. Україні необхідні боєприпаси, системи ППО, ракети, безпілотники та інше озброєння, яке допомагає захищати військових, цивільне населення і критичну інфраструктуру.<br/><br/>Міністерство оборони вдячне Європейській Комісії, державам-членам ЄС та партнерам за послідовну підтримку України і конкретний внесок у зміцнення нашої обороноздатності."}},{"type":"Feature","geometry":null,"properties":{"source":"ua_mod","source_name":"Ministry of Defence of Ukraine","group":"official_ua","id":15992,"posted_utc":"2026-08-06T09:07:38+00:00","link":"https://t.me/ministry_of_defense_ua/15992","text":"🇺🇦  У ЗСУ почали оформлювати перші спрощені переведення в межах 16 та 19 корпусів.\nВійськові, які подали рапорти на початку тестування, відповідають умовам програми та потрапляють в місячні ліміти, можуть готуватися до переведення.\nРозпорядження формується автоматично, після чого командир поточної частини має до 20 календарних днів, щоб підготувати документи та організувати переведення.\nЕкспериментальна програма дає змогу військовослужбовцям штатних і приданих частин 16 та 19 корпусів змінити місце служби в межах свого корпусу через Армія+. Усі етапи розгляду відображаються в застосунку.\nТестування триватиме до 24 вересня 2026 року. Перелік доступних частин і вакансій – на aplus.mod.gov.ua.","links":["https://aplus.mod.gov.ua/perevedennia-v-mezhakh-korpusu-zsu?utm_source=mod-telegram&utm_medium=social","https://aplus.mod.gov.ua/"],"original_html":"<tg-emoji emoji-id=\"5233438162939815111\"><i class=\"emoji\" style=\"background-image:url('//telegram.org/img/emoji/40/F09F87BAF09F87A6.png')\"><b>🇺🇦</b></i></tg-emoji>  <b>У ЗСУ почали оформлювати перші спрощені переведення в межах 16 та 19 корпусів.<br/></b><br/>Військові, які подали рапорти на початку тестування, відповідають <a href=\"https://aplus.mod.gov.ua/perevedennia-v-mezhakh-korpusu-zsu?utm_source=mod-telegram&amp;amp;utm_medium=social\" target=\"_blank\" rel=\"noopener\" onclick=\"return confirm('Open this link?\\n\\n'+this.href);\">умовам програми</a> та потрапляють в місячні ліміти, можуть готуватися до переведення.<br/><br/>Розпорядження формується автоматично, після чого командир поточної частини має до 20 календарних днів, щоб підготувати документи та організувати переведення.<br/><br/>Експериментальна програма дає змогу військовослужбовцям штатних і приданих частин 16 та 19 корпусів змінити місце служби в межах свого корпусу через Армія+. Усі етапи розгляду відображаються в застосунку.<br/><br/>Тестування триватиме до 24 вересня 2026 року. Перелік доступних частин і вакансій – на <a href=\"https://aplus.mod.gov.ua/\" target=\"_blank\" rel=\"noopener\" onclick=\"return confirm('Open this link?\\n\\n'+this.href);\">aplus.mod.gov.ua</a>."}}]}