{"type":"FeatureCollection","features":[{"type":"Feature","geometry":{"type":"Polygon","coordinates":[[[37.16139,48.35141],[37.18283,48.35341],[37.20219,48.35379],[37.20094,48.34873],[37.16164,48.34428],[37.1568,48.34807],[37.16139,48.35141]]]},"properties":{"source":"deepstate","source_name":"DeepStateMap","source_url":"https://deepstatemap.live/en","category":"gained","category_label":"Newly Russian-occupied","period":"1d","compared_with":"2026-07-27","snapshot_time":"2026-07-28","area_km2_approx":2.3}}]}