{"type":"FeatureCollection","features":[{"type":"Feature","geometry":{"type":"Point","coordinates":[36.454491,50.789538]},"properties":{"original":{"id":46501,"type":"Transport","model":"Ural-4320","status":"Destroyed","lost_by":"Russia","date":"2026-08-14","nearest_location":"Stroitel, Yakovlevo raion","geo":"50.789538,36.454491","unit":null,"tags":"Loitering"},"source":"warspotting","source_name":"WarSpotting","source_url":"https://ukr.warspotting.net/","id":46501,"date":"2026-08-14","link":"https://ukr.warspotting.net/view/46501/","category":"Transport","side":"Lost by Russia","color":"#E00000","description":"Ural-4320 · Destroyed · near Stroitel, Yakovlevo raion · tags: Loitering","orbat":[]}},{"type":"Feature","geometry":{"type":"Point","coordinates":[36.36146,46.90674]},"properties":{"original":{"id":46502,"type":"Transport","model":"KamAZ 6x6","status":"Destroyed","lost_by":"Russia","date":"2026-08-14","nearest_location":"Sofiivka (Sofiivka hromada), Berdiansk raion","geo":"46.906740,36.361460","unit":null,"tags":"Loitering"},"source":"warspotting","source_name":"WarSpotting","source_url":"https://ukr.warspotting.net/","id":46502,"date":"2026-08-14","link":"https://ukr.warspotting.net/view/46502/","category":"Transport","side":"Lost by Russia","color":"#E00000","description":"KamAZ 6x6 · Destroyed · near Sofiivka (Sofiivka hromada), Berdiansk raion · tags: Loitering","orbat":[]}},{"type":"Feature","geometry":{"type":"Point","coordinates":[39.26872,48.3494]},"properties":{"original":{"id":47009,"type":"Anti-aircraft systems","model":"9A83M2 TELAR (for 9K81M2 S-300V4)","status":"Destroyed","lost_by":"Russia","date":"2026-08-14","nearest_location":"Volnukhyne, Luhansk raion","geo":"48.349400,39.268720","unit":null,"tags":"Loitering"},"source":"warspotting","source_name":"WarSpotting","source_url":"https://ukr.warspotting.net/","id":47009,"date":"2026-08-14","link":"https://ukr.warspotting.net/view/47009/","category":"Anti-aircraft systems","side":"Lost by Russia","color":"#E00000","description":"9A83M2 TELAR (for 9K81M2 S-300V4) · Destroyed · near Volnukhyne, Luhansk raion · tags: Loitering","orbat":[]}}]}