{"type":"FeatureCollection","features":[{"type":"Feature","geometry":null,"properties":{"source":"ua_mod","source_name":"Ministry of Defence of Ukraine","group":"official_ua","id":16181,"posted_utc":"2026-09-12T06:31:27+00:00","link":"https://t.me/ministry_of_defense_ua/16181","text":"🇺🇦  Міністр оборони України Євгеній Хмара привітав представників військ радіоелектронної боротьби з професійним святом.\nРЕБ — непомітна, але критично важлива складова сучасної війни, яка захищає наші позиції та міста, воїнів і цивільних від російських ударів.\nФахівці РЕБ щодня допомагають Силам оборони діяти ефективніше та здобувати перевагу над ворогом. Українські системи РЕБ обмежують можливість противника застосовувати дрони, використовувати зв’язок і навігацію.\nМіністр подякував воїнам радіоелектронної боротьби за професійність та щоденну роботу для посилення Сил оборони.\nШануємо пам’ять воїнів РЕБ, які віддали життя за Україну.\nСлава Україні!","links":[],"original_html":"<tg-emoji emoji-id=\"5233438162939815111\"><i class=\"emoji\" style=\"background-image:url('//telegram.org/img/emoji/40/F09F87BAF09F87A6.png')\"><b>🇺🇦</b></i></tg-emoji>  <b>Міністр оборони України Євгеній Хмара привітав представників військ радіоелектронної боротьби з професійним святом.<br/></b><br/>РЕБ — непомітна, але критично важлива складова сучасної війни, яка захищає наші позиції та міста, воїнів і цивільних від російських ударів.<br/><br/>Фахівці РЕБ щодня допомагають Силам оборони діяти ефективніше та здобувати перевагу над ворогом. Українські системи РЕБ обмежують можливість противника застосовувати дрони, використовувати зв’язок і навігацію.<br/><br/>Міністр подякував воїнам радіоелектронної боротьби за професійність та щоденну роботу для посилення Сил оборони.<br/><br/>Шануємо пам’ять воїнів РЕБ, які віддали життя за Україну.<br/><br/>Слава Україні&#33;"}},{"type":"Feature","geometry":null,"properties":{"source":"ua_mod","source_name":"Ministry of Defence of Ukraine","group":"official_ua","id":16182,"posted_utc":"2026-09-12T09:32:42+00:00","link":"https://t.me/ministry_of_defense_ua/16182","text":"🤝 Підтримка США допомагає зберігати життя українців і зміцнювати Сили оборони.\nМіністр оборони України Євгеній Хмара зустрівся з сенаторами США Томом Тіллісом, Джоном Кертісом та Аланом Армстронгом.\nОчільник Міноборони подякував США за надзвичайно важливу підтримку України, зокрема за допомогу в постачанні критичного озброєння через механізми PURL та JUMPSTART.\nЄвгеній Хмара детально поінформував сенаторів про ситуацію на полі бою та загрози з боку росії. Ворог нарощує удари по цивільних об’єктах, збільшує виробництво балістичних ракет і реактивних дронів, а також атакує судна, які забезпечують український зерновий експорт.\nМіністр оборони наголосив: зупинити росію можна лише силою. Для цього важливо продовжувати підтримку Сил оборони та давати Україні засоби для захисту людей і знищення російського воєнного потенціалу.\nУкраїнська сторона передала конкретний перелік потреб для протидії російській агресії, зокрема за напрямком протиповітряної оборони.\nВодночас досвід України здатний посилити США. Українська сторона представила напрями та проєкти, які можуть допомогти союзникам бути готовими до сучасних загроз.\nВдячні Сполученим Штатам за підтримку України на шляху до справедливого і тривалого миру.","links":[],"original_html":"<div class=\"tgme_widget_message_text js-message_text\" dir=\"auto\"><b><i class=\"emoji\" style=\"background-image:url('//telegram.org/img/emoji/40/F09FA49D.png')\"><b>🤝</b></i> Підтримка США допомагає зберігати життя українців і зміцнювати Сили оборони.<br/></b><br/>Міністр оборони України Євгеній Хмара зустрівся з сенаторами США Томом Тіллісом, Джоном Кертісом та Аланом Армстронгом.<br/><br/>Очільник Міноборони подякував США за надзвичайно важливу підтримку України, зокрема за допомогу в постачанні критичного озброєння через механізми PURL та JUMPSTART.<br/><br/>Євгеній Хмара детально поінформував сенаторів про ситуацію на полі бою та загрози з боку росії. Ворог нарощує удари по цивільних об’єктах, збільшує виробництво балістичних ракет і реактивних дронів, а також атакує судна, які забезпечують український зерновий експорт.<br/><br/>Міністр оборони наголосив: зупинити росію можна лише силою. Для цього важливо продовжувати підтримку Сил оборони та давати Україні засоби для захисту людей і знищення російського воєнного потенціалу.<br/><br/>Українська сторона передала конкретний перелік потреб для протидії російській агресії, зокрема за напрямком протиповітряної оборони.<br/><br/>Водночас досвід України здатний посилити США. Українська сторона представила напрями та проєкти, які можуть допомогти союзникам бути готовими до сучасних загроз.<br/><br/>Вдячні Сполученим Штатам за підтримку України на шляху до справедливого і тривалого миру."}},{"type":"Feature","geometry":null,"properties":{"source":"ua_mod","source_name":"Ministry of Defence of Ukraine","group":"official_ua","id":16185,"posted_utc":"2026-09-12T11:53:42+00:00","link":"https://t.me/ministry_of_defense_ua/16185","text":"❗️Позиція Міністерства оборони щодо фінансування програми єБали\nМіністерство оборони надає роз’яснення щодо фінансування програми єБали та проведення розрахунків із виробниками.\nПрограма єБали залишається чинним механізмом забезпечення бойових підрозділів необхідними засобами, а кошти на фінансування програми передбачені до кінця року. Тому всі належні виплати за поставлену техніку будуть проведені.\nОкремі технічні затримки пов’язані зокрема з тим, що рефінансування програми планується здійснити за рахунок кредитних коштів Європейського Союзу, що передбачає додаткові процедури, а також плановими змінами до “бальної системи”.\nВарто зазначити, що Міністерство оборони конструктивно працює з Комітетом Верховної Ради з питань національної безпеки, оборони та розвідки, зокрема щодо реалізації програми.\nПрограма єБали довела свою ефективність і стала важливим інструментом швидкого забезпечення бойових підрозділів. Вона дає військовим можливість самостійно обирати необхідні дрони, засоби РЕБ, наземні роботизовані комплекси та іншу техніку й отримувати її безпосередньо від виробників.\nВід часу інтеграції програми з Brave1 Market військові замовили понад 750 тисяч одиниць засобів на суму понад 51,9 млрд грн. Обсяг уже поставленої техніки становить майже 40 млрд грн. Програмою скористалися понад 400 підрозділів, а середній строк постачання товарів зі складу становить 7–10 днів.\nСтабільне фінансування програми і оплата поставок є одним із пріоритетів Міністерства, оскільки безпосередньо впливають на забезпечення бойових підрозділів та стійкість українського оборонно-промислового комплексу.","links":[],"original_html":"<b><i class=\"emoji\" style=\"background-image:url('//telegram.org/img/emoji/40/E29D97.png')\"><b>❗️</b></i>Позиція Міністерства оборони щодо фінансування програми єБали</b><br/><br/>Міністерство оборони надає роз’яснення щодо фінансування програми єБали та проведення розрахунків із виробниками.<br/><br/>Програма єБали залишається чинним механізмом забезпечення бойових підрозділів необхідними засобами, а кошти на фінансування програми передбачені до кінця року. Тому всі належні виплати за поставлену техніку будуть проведені.<br/><br/>Окремі технічні затримки пов’язані зокрема з тим, що рефінансування програми планується здійснити за рахунок кредитних коштів Європейського Союзу, що передбачає додаткові процедури, а також плановими змінами до “бальної системи”.&nbsp;<br/><br/>Варто зазначити, що Міністерство оборони конструктивно працює з Комітетом Верховної Ради з питань національної безпеки, оборони та розвідки, зокрема щодо реалізації програми.&nbsp;<br/><br/>Програма єБали довела свою ефективність і стала важливим інструментом швидкого забезпечення бойових підрозділів. Вона дає військовим можливість самостійно обирати необхідні дрони, засоби РЕБ, наземні роботизовані комплекси та іншу техніку й отримувати її безпосередньо від виробників.&nbsp;<br/><br/>Від часу інтеграції програми з Brave1 Market військові замовили понад 750 тисяч одиниць засобів на суму понад 51,9 млрд грн. Обсяг уже поставленої техніки становить майже 40 млрд грн. Програмою скористалися понад 400 підрозділів, а середній строк постачання товарів зі складу становить 7–10 днів.<br/><br/>Стабільне фінансування програми і оплата поставок є одним із пріоритетів Міністерства, оскільки безпосередньо впливають на забезпечення бойових підрозділів та стійкість українського оборонно-промислового комплексу."}},{"type":"Feature","geometry":null,"properties":{"source":"ua_mod","source_name":"Ministry of Defence of Ukraine","group":"official_ua","id":16186,"posted_utc":"2026-09-12T13:05:59+00:00","link":"https://t.me/ministry_of_defense_ua/16186","text":"💥 Українські далекобійні удари продовжують руйнувати російські об'єкти, які живлять війну.\nМіністр оборони України Євгеній Хмара відзначив чергові результативні удари Сил оборони по комбінату з виробництва високооктанових добавок до бензину, синтетичних каучуків та мономерів у Самарській області рф. Ці елементи використовують при виробництві твердого ракетного палива для тактичних і балістичних ракет.\nТакож минулої доби запалили нафтопереробний завод у Саратові. Під атакою опинився й підсанкційний хімзавод у Волгограді, який виготовляє фероценовмісні каталізатори горіння та розробляє технології виробництва хімічних речовин.\nЦе продовження ефективних дій Сил оборони протягом цього тижня.\nЗ понеділка були уражені місця дислокації та запуску ударних БпЛА поблизу Донецька. Окрім того, на Брянщині знищено три радіолокаційні станції та наземний ретранслятор, за допомогою якого російські терористи наводили дрони на українські цивільні об’єкти.\nТакож Сили оборони побили діпстрайк-рекорд 2026 року: за 3000 км від кордону уражено ключове підприємство з переробки газового конденсату в Новому Уренгої.\nУражено щонайменше три військові кораблі у Новоросійську, а в Криму – патрульний катер та антенні комплекси розвідки. У Дагестані поцілили у морський порт – критичний вузол постачання іранських дронів Shahed та компонентів.\nСили оборони роблять усе можливе, щоб усунути першопричину повітряних тривог – можливість росії атакувати українські міста.\nПозбавляємо ворога матеріальних ресурсів для війни. Продовжуємо виконувати план з примушення росії до справедливого миру.","links":[],"original_html":"<b><i class=\"emoji\" style=\"background-image:url('//telegram.org/img/emoji/40/F09F92A5.png')\"><b>💥</b></i> Українські далекобійні удари продовжують руйнувати російські об&#39;єкти, які живлять війну.</b><br/><br/>Міністр оборони України Євгеній Хмара відзначив чергові результативні удари Сил оборони по комбінату з виробництва високооктанових добавок до бензину, синтетичних каучуків та мономерів у Самарській області рф. Ці елементи використовують при виробництві твердого ракетного палива для тактичних і балістичних ракет.<br/><br/>Також минулої доби запалили нафтопереробний завод у Саратові. Під атакою опинився й підсанкційний хімзавод у Волгограді, який виготовляє фероценовмісні каталізатори горіння та розробляє технології виробництва хімічних речовин.<br/><br/>Це продовження ефективних дій Сил оборони протягом цього тижня.<br/>&nbsp;<br/>З понеділка були уражені місця дислокації та запуску ударних БпЛА поблизу Донецька. Окрім того, на Брянщині знищено три радіолокаційні станції та наземний ретранслятор, за допомогою якого російські терористи наводили дрони на українські цивільні об’єкти.<br/>&nbsp;<br/>Також Сили оборони побили діпстрайк-рекорд 2026 року: за 3000 км від кордону уражено ключове підприємство з переробки газового конденсату в Новому Уренгої.<br/>&nbsp;<br/>Уражено щонайменше три військові кораблі у Новоросійську, а в Криму – патрульний катер та антенні комплекси розвідки. У Дагестані поцілили у морський порт – критичний вузол постачання іранських дронів Shahed та компонентів.<br/>&nbsp;<br/>Сили оборони роблять усе можливе, щоб усунути першопричину повітряних тривог – можливість росії атакувати українські міста.&nbsp;<br/><br/>Позбавляємо ворога матеріальних ресурсів для війни. Продовжуємо виконувати план з примушення росії до справедливого миру."}}]}