{"type":"FeatureCollection","features":[{"type":"Feature","geometry":{"type":"Point","coordinates":[37.322678,48.337386]},"properties":{"source":"warspotting","source_name":"WarSpotting","source_url":"https://ukr.warspotting.net/","id":46984,"date":"2026-05-22","link":"https://ukr.warspotting.net/view/46984/","category":"Infantry fighting vehicles","side":"Lost by Russia","color":"#E00000","description":"BTR-82AT · Destroyed · near Novoekonomichne, Pokrovsk raion · tags: Turretless, Shattered, Cope cage","orbat":[]}},{"type":"Feature","geometry":{"type":"Point","coordinates":[37.322678,48.337386]},"properties":{"source":"warspotting","source_name":"WarSpotting","source_url":"https://ukr.warspotting.net/","id":46948,"date":"2026-05-22","link":"https://ukr.warspotting.net/view/46948/","category":"Infantry fighting vehicles","side":"Lost by Russia","color":"#E00000","description":"MT-LB(V) · Destroyed · near Novoekonomichne, Pokrovsk raion · tags: Flipped","orbat":[]}}]}