{"type":"FeatureCollection","features":[{"type":"Feature","geometry":{"type":"Point","coordinates":[31.0173,46.64354]},"properties":{"original":{"Date":"2026-07-30","Name":"30 JUL 2026","Faction":"Russia","Origin":"UAV","Latitude":"46.64354","Longitude":"31.0173","PlusCode":"8GRHJ2V8+CW Novi Biliari, Odesa Oblast, Ukraine","Description":"0:11-0:20 - Russian Geran-4 seeker drone targeted a cargo ship","Source":"https://x.com/franfran2424/status/2084664540499718328, https://t.me/The_Wrong_Side/30253","Geolocation":"https://x.com/franfran2424/status/2084667101671759876","Equipment":"","EquipmentItems":"Geran-4 \"Seeker\"","Units":"","OrbatUnits":"","Id":"caae6959-5e77-4256-ae66-02b2007fea3b","icon":"/api/icons/E00000/False/template/181.png"},"source":"geoconfirmed","source_name":"GeoConfirmed","source_url":"https://geoconfirmed.org/map/ukraine","id":"caae6959-5e77-4256-ae66-02b2007fea3b","date":"2026-07-30","link":"https://geoconfirmed.org/map/ukraine/caae6959-5e77-4256-ae66-02b2007fea3b","category":"Longe Range (>50km) OWAD (One Way Attack Drone) or Loitering munition, mostly fixed wing, Flying OR Attacking a target without knowing the outcome: if something is damaged --> icon of the damaged equipment.","side":"Russia","color":"#E00000","description":"0:11-0:20 - Russian Geran-4 seeker drone targeted a cargo ship","orbat":[],"geolocation":["https://x.com/franfran2424/status/2084667101671759876"],"sources":["https://x.com/franfran2424/status/2084664540499718328","https://t.me/The_Wrong_Side/30253"]}},{"type":"Feature","geometry":{"type":"Point","coordinates":[22.639365,50.846645]},"properties":{"original":{"Date":"2026-07-30","Name":"30 JUL 2026","Faction":"Neutral","Origin":"VID","Latitude":"50.846645","Longitude":"22.639365","PlusCode":"9G24RJWQ+MP Tarnawa-Kolonia, Poland","Description":"Rough location - A large crater has been found in Poland, allegedly caused by Russian Kh-101 missile.","Source":"https://x.com/99Dominik_/status/2082716462288966125, https://kurierlubelski.pl/mieszkancy-informuja-o-zestrzelonym-obiekcie-trwaja-poszukiwania/ar/c1p2-29223247, https://x.com/michaljadczak/status/2082679692788658177, , Pic, https://x.com/99Dominik_/status/2082723965944930533, https://lublin.eska.pl/tylko-u-nas-potezny-wybuch-na-lubelszczyznie-i-ogromny-krater-mamy-zdjecia-aa-mKTV-zxoJ-BJTK.html","Geolocation":"https://x.com/GeoConfirmed/status/2082767749911068776, https://x.com/99Dominik_/status/2082715913225163235, https://x.com/isaacyeephoto/status/2082722939091480839","Equipment":"","EquipmentItems":"Kh-101","Units":"","OrbatUnits":"","Id":"c4e51aaa-3e08-4d01-8662-0ae2687d026f","icon":"/api/icons/AC7339/False/template/70.png"},"source":"geoconfirmed","source_name":"GeoConfirmed","source_url":"https://geoconfirmed.org/map/ukraine","id":"c4e51aaa-3e08-4d01-8662-0ae2687d026f","date":"2026-07-30","link":"https://geoconfirmed.org/map/ukraine/c4e51aaa-3e08-4d01-8662-0ae2687d026f","category":"Controlled Demolition OR explosion of unknown origin OR fire of unknown origin where no other icon fits","side":"Neutral","color":"#AC7339","description":"Rough location - A large crater has been found in Poland, allegedly caused by Russian Kh-101 missile.","orbat":[],"geolocation":["https://x.com/GeoConfirmed/status/2082767749911068776","https://x.com/99Dominik_/status/2082715913225163235","https://x.com/isaacyeephoto/status/2082722939091480839"],"sources":["https://x.com/99Dominik_/status/2082716462288966125","https://kurierlubelski.pl/mieszkancy-informuja-o-zestrzelonym-obiekcie-trwaja-poszukiwania/ar/c1p2-29223247","https://x.com/michaljadczak/status/2082679692788658177","https://x.com/99Dominik_/status/2082723965944930533","https://lublin.eska.pl/tylko-u-nas-potezny-wybuch-na-lubelszczyznie-i-ogromny-krater-mamy-zdjecia-aa-mKTV-zxoJ-BJTK.html"]}},{"type":"Feature","geometry":{"type":"Point","coordinates":[53.7443,56.439574]},"properties":{"original":{"Date":"2026-07-30","Name":"30 JUL 2026","Faction":"Ukraine","Origin":"UAV","Latitude":"56.439574","Longitude":"53.7443","PlusCode":"9H8MCPQV+RP Sarapul, Udmurt Republic, Russia","Description":"POV - The Wildberries warehouse in Sarapul is on fire after being struck by Ukrainian drones. ","Source":"https://x.com/Grimm_Intel/status/2082710312386441464, https://t.me/exilenova_plus/27476","Geolocation":"https://x.com/Grimm_Intel/status/2082710618147008686, related: https://x.com/Vlad_23456/status/2082909401577337011","Equipment":"","EquipmentItems":"Fixed Wing OWAD (One Way Attack Drone)","Units":"","OrbatUnits":"","Id":"3ae54ebb-8992-4376-a3a9-1c245a5f7111","icon":"/api/icons/0051CA/False/template/30.png"},"source":"geoconfirmed","source_name":"GeoConfirmed","source_url":"https://geoconfirmed.org/map/ukraine","id":"3ae54ebb-8992-4376-a3a9-1c245a5f7111","date":"2026-07-30","link":"https://geoconfirmed.org/map/ukraine/3ae54ebb-8992-4376-a3a9-1c245a5f7111","category":"Video - Always Point of View in description - In the colour of who is doing the attack or is responsable for the incident in the video.","side":"Ukraine","color":"#0051CA","description":"POV - The Wildberries warehouse in Sarapul is on fire after being struck by Ukrainian drones.","orbat":[],"geolocation":["https://x.com/Grimm_Intel/status/2082710618147008686","https://x.com/Vlad_23456/status/2082909401577337011"],"sources":["https://x.com/Grimm_Intel/status/2082710312386441464","https://t.me/exilenova_plus/27476"]}},{"type":"Feature","geometry":{"type":"Point","coordinates":[36.703033,50.319637]},"properties":{"original":{"Date":"2026-07-30","Name":"30 JUL 2026","Faction":"Ukraine","Origin":"UAV","Latitude":"50.319637","Longitude":"36.703033","PlusCode":"9G2R8P93+V6 Murom, Belgorod Oblast, Russia","Description":"0:00-0:14 - Russian ammunition dump destroyed by Ukrainian FPV drone of the Battalion of unmanned strike aerial systems \"Bulava\" of the 72nd Mechanized Brigade","Source":"https://x.com/PuenteUribarri/status/2082817285421498380, https://t.me/BULAVA72b/587","Geolocation":"https://x.com/99Dominik_/status/2082819067887436009","Equipment":"","EquipmentItems":"","Units":"","OrbatUnits":"Battalion of unmanned strike aerial systems \"Bulava\"","Id":"37e505be-474b-4073-a127-2371b2c7632d","icon":"/api/icons/0051CA/False/template/70.png"},"source":"geoconfirmed","source_name":"GeoConfirmed","source_url":"https://geoconfirmed.org/map/ukraine","id":"37e505be-474b-4073-a127-2371b2c7632d","date":"2026-07-30","link":"https://geoconfirmed.org/map/ukraine/37e505be-474b-4073-a127-2371b2c7632d","category":"Controlled Demolition OR explosion of unknown origin OR fire of unknown origin where no other icon fits","side":"Ukraine","color":"#0051CA","description":"0:00-0:14 - Russian ammunition dump destroyed by Ukrainian FPV drone of the Battalion of unmanned strike aerial systems \"Bulava\" of the 72nd Mechanized Brigade","orbat":["Battalion of unmanned strike aerial systems \"Bulava\""],"geolocation":["https://x.com/99Dominik_/status/2082819067887436009"],"sources":["https://x.com/PuenteUribarri/status/2082817285421498380","https://t.me/BULAVA72b/587"]}},{"type":"Feature","geometry":{"type":"Point","coordinates":[38.66708,47.17152]},"properties":{"original":{"Date":"2026-07-30","Name":"30 JUL 2026","Faction":"Russia","Origin":"UAV","Latitude":"47.17152","Longitude":"38.66708","PlusCode":"8GVW5MC8+JR Russkii Kolodets, Rostov Oblast, Russia","Description":"2:34-2:52 - A Russian Nebo-SVU radar is hit with a Ukrainian drone by the 9th battalion 'Kairos' of the 414th unmanned systems brigade.","Source":"https://bsky.app/profile/noelreports.com/post/3mru3jgcu2227, https://x.com/NOELreports/status/2082753639538397236, https://x.com/414magyarbirds/status/2082771817530294523","Geolocation":"https://bsky.app/profile/blinzka.bsky.social/post/3mrugbsaci224, https://x.com/blinzka/status/2082802862279500005","Equipment":"(likely FirePoint) Ukrainian FPV;, Nebo-SVU","EquipmentItems":"FP-2","Units":"","OrbatUnits":"9th Long-Range Strike Battalion \"Kairos\"","Id":"84c0da81-92a1-49ff-b1f0-301384b261e6","icon":"/api/icons/E00000/False/template/15380368-63be-4bf9-8373-a30ef0d31bed.png"},"source":"geoconfirmed","source_name":"GeoConfirmed","source_url":"https://geoconfirmed.org/map/ukraine","id":"84c0da81-92a1-49ff-b1f0-301384b261e6","date":"2026-07-30","link":"https://geoconfirmed.org/map/ukraine/84c0da81-92a1-49ff-b1f0-301384b261e6","category":"Recently Destroyed/Damaged[Visible in footage] Radar System (Mobile or fixed)","side":"Russia","color":"#E00000","description":"2:34-2:52 - A Russian Nebo-SVU radar is hit with a Ukrainian drone by the 9th battalion 'Kairos' of the 414th unmanned systems brigade.","orbat":["9th Long-Range Strike Battalion \"Kairos\""],"geolocation":["https://bsky.app/profile/blinzka.bsky.social/post/3mrugbsaci224","https://x.com/blinzka/status/2082802862279500005"],"sources":["https://bsky.app/profile/noelreports.com/post/3mru3jgcu2227","https://x.com/NOELreports/status/2082753639538397236","https://x.com/414magyarbirds/status/2082771817530294523"]}},{"type":"Feature","geometry":{"type":"Point","coordinates":[37.247368,47.989584]},"properties":{"original":{"Date":"2026-07-30","Name":"30 JUL 2026","Faction":"Ukraine","Origin":"UAV","Latitude":"47.989584","Longitude":"37.247368","PlusCode":"8GVVX6QW+RW Kurakhove, Donetsk Oblast, Ukraine","Description":"0:56-1:00 - Ukrainian drone strikes a light vehicle","Source":"https://x.com/dim0kq/status/2083704650151424185, https://t.me/u2brotherhood/2436","Geolocation":"https://x.com/klinger66/status/2083903060066115966","Equipment":"","EquipmentItems":"Thermal FPV (First Person View) OWAD (One Way Attack Drone) | Light Vehicle","Units":"SBU \"Project M2\" appears to have renamed to \"U2 Brotherhood\", see telegram link","OrbatUnits":"UAS Unit \"Project M2\"","Id":"bce35f6c-8531-48d7-9bac-3185a1303089","icon":"/api/icons/0051CA/False/template/111.png"},"source":"geoconfirmed","source_name":"GeoConfirmed","source_url":"https://geoconfirmed.org/map/ukraine","id":"bce35f6c-8531-48d7-9bac-3185a1303089","date":"2026-07-30","link":"https://geoconfirmed.org/map/ukraine/bce35f6c-8531-48d7-9bac-3185a1303089","category":"Short Range (<50km) OWAD (One Way Attack Drone), mostly rotary wing, Flying OR Attacking a target without knowing the outcome: if something is damaged --> icon of the damaged equipment.","side":"Ukraine","color":"#0051CA","description":"0:56-1:00 - Ukrainian drone strikes a light vehicle","orbat":["UAS Unit \"Project M2\""],"geolocation":["https://x.com/klinger66/status/2083903060066115966"],"sources":["https://x.com/dim0kq/status/2083704650151424185","https://t.me/u2brotherhood/2436"]}},{"type":"Feature","geometry":{"type":"Point","coordinates":[30.48867,50.486813]},"properties":{"original":{"Date":"2026-07-30","Name":"30 JUL 2026","Faction":"Neutral","Origin":"VID","Latitude":"50.486813","Longitude":"30.48867","PlusCode":"9G2GFFPQ+PF Kyiv, Kyiv city, Ukraine","Description":"Area grid - Russian strike destroyed Ukrainian market in Kyiv","Source":"https://x.com/Euan_MacDonald/status/2082691888285438291, https://t.me/kyiv_tviyy/66682, ","Geolocation":"https://x.com/GeoConfirmed/status/2082767857390154130, https://x.com/RedHibana/status/2082728926002983306","Equipment":"","EquipmentItems":"","Units":"","OrbatUnits":"","Id":"32dc9ac9-e82f-4fa5-87d0-370259461a6f","icon":"/api/icons/AC7339/False/template/192.png"},"source":"geoconfirmed","source_name":"GeoConfirmed","source_url":"https://geoconfirmed.org/map/ukraine","id":"32dc9ac9-e82f-4fa5-87d0-370259461a6f","date":"2026-07-30","link":"https://geoconfirmed.org/map/ukraine/32dc9ac9-e82f-4fa5-87d0-370259461a6f","category":"Recently destroyed/Damaged[Visible in footage] or still burning infrastucture","side":"Neutral","color":"#AC7339","description":"Area grid - Russian strike destroyed Ukrainian market in Kyiv","orbat":[],"geolocation":["https://x.com/GeoConfirmed/status/2082767857390154130","https://x.com/RedHibana/status/2082728926002983306"],"sources":["https://x.com/Euan_MacDonald/status/2082691888285438291","https://t.me/kyiv_tviyy/66682"]}},{"type":"Feature","geometry":{"type":"Point","coordinates":[44.790018,53.261856]},"properties":{"original":{"Date":"2026-07-30","Name":"30 JUL 2026","Faction":"Ukraine","Origin":"VID","Latitude":"53.261856","Longitude":"44.790018","PlusCode":"9H567Q6R+P2 Priovrazhnoe, Russia","Description":"Point of view - Drone impact on the Wildberries warehouse in Penza.","Source":"https://x.com/Grimm_Intel/status/2082641381906899258, https://t.me/exilenova_plus/27463?single","Geolocation":"https://x.com/Grimm_Intel/status/2082641741471969336","Equipment":"","EquipmentItems":"Fixed Wing OWAD (One Way Attack Drone)","Units":"","OrbatUnits":"","Id":"cbbf9b50-0e8b-449d-af2b-50df5d82685b","icon":"/api/icons/0051CA/False/template/30.png"},"source":"geoconfirmed","source_name":"GeoConfirmed","source_url":"https://geoconfirmed.org/map/ukraine","id":"cbbf9b50-0e8b-449d-af2b-50df5d82685b","date":"2026-07-30","link":"https://geoconfirmed.org/map/ukraine/cbbf9b50-0e8b-449d-af2b-50df5d82685b","category":"Video - Always Point of View in description - In the colour of who is doing the attack or is responsable for the incident in the video.","side":"Ukraine","color":"#0051CA","description":"Point of view - Drone impact on the Wildberries warehouse in Penza.","orbat":[],"geolocation":["https://x.com/Grimm_Intel/status/2082641741471969336"],"sources":["https://x.com/Grimm_Intel/status/2082641381906899258","https://t.me/exilenova_plus/27463?single"]}},{"type":"Feature","geometry":{"type":"Point","coordinates":[53.69252,56.488777]},"properties":{"original":{"Date":"2026-07-30","Name":"30 JUL 2026","Faction":"Ukraine","Origin":"VID","Latitude":"56.488777","Longitude":"53.69252","PlusCode":"9H8MFMQV+G2 Sarapul, Udmurt Republic, Russia","Description":"Point of view - Ukrainian drone striking a Wildberries warehouse","Source":"https://x.com/Grimm_Intel/status/2082717084597829661, https://t.me/exilenova_plus/27491?single","Geolocation":"https://x.com/Grimm_Intel/status/2082717374482915361","Equipment":"","EquipmentItems":"Fixed Wing OWAD (One Way Attack Drone)","Units":"","OrbatUnits":"","Id":"b5a50b5b-9b63-41a8-bce0-5814789dc882","icon":"/api/icons/0051CA/False/template/30.png"},"source":"geoconfirmed","source_name":"GeoConfirmed","source_url":"https://geoconfirmed.org/map/ukraine","id":"b5a50b5b-9b63-41a8-bce0-5814789dc882","date":"2026-07-30","link":"https://geoconfirmed.org/map/ukraine/b5a50b5b-9b63-41a8-bce0-5814789dc882","category":"Video - Always Point of View in description - In the colour of who is doing the attack or is responsable for the incident in the video.","side":"Ukraine","color":"#0051CA","description":"Point of view - Ukrainian drone striking a Wildberries warehouse","orbat":[],"geolocation":["https://x.com/Grimm_Intel/status/2082717374482915361"],"sources":["https://x.com/Grimm_Intel/status/2082717084597829661","https://t.me/exilenova_plus/27491?single"]}},{"type":"Feature","geometry":{"type":"Point","coordinates":[37.283114,47.974754]},"properties":{"original":{"Date":"2026-07-30","Name":"30 JUL 2026","Faction":"Ukraine","Origin":"UAV","Latitude":"47.974754","Longitude":"37.283114","PlusCode":"8GVVX7FM+W6 Kurakhove, Donetsk Oblast, Ukraine","Description":"1:04-1:06 - Ukrainian drone strikes a light vehicle","Source":"https://x.com/dim0kq/status/2083704650151424185, https://t.me/u2brotherhood/2436","Geolocation":"https://x.com/klinger66/status/2083898787257373019","Equipment":"","EquipmentItems":"Thermal FPV (First Person View) OWAD (One Way Attack Drone) | Light Vehicle","Units":"SBU \"Project M2\" appears to have renamed to \"U2 Brotherhood\", see telegram link","OrbatUnits":"UAS Unit \"Project M2\"","Id":"5a477c6f-407b-43b2-82e5-61087b0d8a0d","icon":"/api/icons/0051CA/False/template/111.png"},"source":"geoconfirmed","source_name":"GeoConfirmed","source_url":"https://geoconfirmed.org/map/ukraine","id":"5a477c6f-407b-43b2-82e5-61087b0d8a0d","date":"2026-07-30","link":"https://geoconfirmed.org/map/ukraine/5a477c6f-407b-43b2-82e5-61087b0d8a0d","category":"Short Range (<50km) OWAD (One Way Attack Drone), mostly rotary wing, Flying OR Attacking a target without knowing the outcome: if something is damaged --> icon of the damaged equipment.","side":"Ukraine","color":"#0051CA","description":"1:04-1:06 - Ukrainian drone strikes a light vehicle","orbat":["UAS Unit \"Project M2\""],"geolocation":["https://x.com/klinger66/status/2083898787257373019"],"sources":["https://x.com/dim0kq/status/2083704650151424185","https://t.me/u2brotherhood/2436"]}},{"type":"Feature","geometry":{"type":"Point","coordinates":[32.624888,46.659175]},"properties":{"original":{"Date":"2026-07-30","Name":"30 JUL 2026","Faction":"Russia","Origin":"VID","Latitude":"46.659175","Longitude":"32.624888","PlusCode":"8GRJMJ5F+MX Kherson, Kherson Oblast, Ukraine","Description":"Reported Russian FPV drone killes a Ukrainian man riding a bicycle","Source":"https://x.com/99Dominik_/status/2082828355624116523, https://www.instagram.com/p/DbYfuF-M85A, https://instagram.com/p/DbYfuF-M85A","Geolocation":"https://x.com/GeoConfirmed/status/2083329953932730453, https://x.com/99Dominik_/status/2082827929864556756","Equipment":"","EquipmentItems":"FPV (First Person View) OWAD (One Way Attack Drone)","Units":"","OrbatUnits":"","Id":"c9638cb7-34d3-42c0-85a3-659b09527750","icon":"/api/icons/E00000/False/template/50.png"},"source":"geoconfirmed","source_name":"GeoConfirmed","source_url":"https://geoconfirmed.org/map/ukraine","id":"c9638cb7-34d3-42c0-85a3-659b09527750","date":"2026-07-30","link":"https://geoconfirmed.org/map/ukraine/c9638cb7-34d3-42c0-85a3-659b09527750","category":"Killed or wounded civilian. Potential Warcrime. In the colour of who is assessed as doing the attack/killing.","side":"Russia","color":"#E00000","description":"Reported Russian FPV drone killes a Ukrainian man riding a bicycle","orbat":[],"geolocation":["https://x.com/GeoConfirmed/status/2083329953932730453","https://x.com/99Dominik_/status/2082827929864556756"],"sources":["https://x.com/99Dominik_/status/2082828355624116523","https://www.instagram.com/p/DbYfuF-M85A","https://instagram.com/p/DbYfuF-M85A"]}},{"type":"Feature","geometry":{"type":"Point","coordinates":[53.69587,56.482062]},"properties":{"original":{"Date":"2026-07-30","Name":"30 JUL 2026","Faction":"Ukraine","Origin":"VID","Latitude":"56.482062","Longitude":"53.69587","PlusCode":"9H8MFMJW+R8 Pastukhovo, Russia","Description":"Point of view in Western direction - Ukrainian drone striking a Wildberries warehouse","Source":"https://x.com/Vlad_23456/status/2082909582586782187, https://t.me/exilenova_plus/27478","Geolocation":"https://x.com/Vlad_23456/status/2082909401577337011","Equipment":"","EquipmentItems":"Fixed Wing OWAD (One Way Attack Drone)","Units":"","OrbatUnits":"","Id":"234de99f-4556-49d8-b294-6810fe673d91","icon":"/api/icons/0051CA/False/template/30.png"},"source":"geoconfirmed","source_name":"GeoConfirmed","source_url":"https://geoconfirmed.org/map/ukraine","id":"234de99f-4556-49d8-b294-6810fe673d91","date":"2026-07-30","link":"https://geoconfirmed.org/map/ukraine/234de99f-4556-49d8-b294-6810fe673d91","category":"Video - Always Point of View in description - In the colour of who is doing the attack or is responsable for the incident in the video.","side":"Ukraine","color":"#0051CA","description":"Point of view in Western direction - Ukrainian drone striking a Wildberries warehouse","orbat":[],"geolocation":["https://x.com/Vlad_23456/status/2082909401577337011"],"sources":["https://x.com/Vlad_23456/status/2082909582586782187","https://t.me/exilenova_plus/27478"]}},{"type":"Feature","geometry":{"type":"Point","coordinates":[23.961695,49.821653]},"properties":{"original":{"Date":"2026-07-30","Name":"30 JUL 2026","Faction":"Neutral","Origin":"VID","Latitude":"49.821653","Longitude":"23.961695","PlusCode":"8GX5RXC6+MM Lviv, Lviv Oblast, Ukraine","Description":"Apartment building destroyed by Russian attack, reportedly injuring at least 34 people","Source":"https://x.com/99Dominik_/status/2082741933332373821, https://t.me/lvivych_news/73121, , Vid 2, https://x.com/99Dominik_/status/2082744568278040714, https://t.me/novynylive/207384, , Vid 3, https://x.com/99Dominik_/status/2082746315075711163, https://t.me/mvs_ukraine/65661, , Info, https://x.com/99Dominik_/status/2082754235444138495, https://t.me/kozytskyy_maksym_official/31905","Geolocation":"https://x.com/GeoConfirmed/status/2082767211647615254, https://x.com/99Dominik_/status/2082741476891492593","Equipment":"","EquipmentItems":"","Units":"","OrbatUnits":"","Id":"7990c8e4-c1ad-40da-9ae5-7627362061fb","icon":"/api/icons/AC7339/False/template/192.png"},"source":"geoconfirmed","source_name":"GeoConfirmed","source_url":"https://geoconfirmed.org/map/ukraine","id":"7990c8e4-c1ad-40da-9ae5-7627362061fb","date":"2026-07-30","link":"https://geoconfirmed.org/map/ukraine/7990c8e4-c1ad-40da-9ae5-7627362061fb","category":"Recently destroyed/Damaged[Visible in footage] or still burning infrastucture","side":"Neutral","color":"#AC7339","description":"Apartment building destroyed by Russian attack, reportedly injuring at least 34 people","orbat":[],"geolocation":["https://x.com/GeoConfirmed/status/2082767211647615254","https://x.com/99Dominik_/status/2082741476891492593"],"sources":["https://x.com/99Dominik_/status/2082741933332373821","https://t.me/lvivych_news/73121","https://x.com/99Dominik_/status/2082744568278040714","https://t.me/novynylive/207384","https://x.com/99Dominik_/status/2082746315075711163","https://t.me/mvs_ukraine/65661","https://x.com/99Dominik_/status/2082754235444138495","https://t.me/kozytskyy_maksym_official/31905"]}},{"type":"Feature","geometry":{"type":"Point","coordinates":[33.357267,46.248106]},"properties":{"original":{"Date":"2026-07-30","Name":"30 JUL 2026","Faction":"Russia","Origin":"UAV","Latitude":"46.248106","Longitude":"33.357267","PlusCode":"8GRM69X4+6W Kalanchak, Kherson Oblast, Ukraine","Description":"0:15-0:23 - Russian KamAZ truck damaged by Ukrainian FPV drone of the 426th Separate Unmanned Systems Regiment","Source":"https://x.com/99Dominik_/status/2083286390981206397, https://www.facebook.com/reel/1948880972467453, ","Geolocation":"https://x.com/99Dominik_/status/2083285813215846577","Equipment":"","EquipmentItems":"FPV (First Person View) OWAD (One Way Attack Drone) | Truck","Units":"","OrbatUnits":"426th Separate Unmanned Systems Regiment","Id":"a6c8888a-cc85-4cc8-8744-7e20c4e37680","icon":"/api/icons/E00000/False/template/62.png"},"source":"geoconfirmed","source_name":"GeoConfirmed","source_url":"https://geoconfirmed.org/map/ukraine","id":"a6c8888a-cc85-4cc8-8744-7e20c4e37680","date":"2026-07-30","link":"https://geoconfirmed.org/map/ukraine/a6c8888a-cc85-4cc8-8744-7e20c4e37680","category":"Recently Destroyed/Damaged[Visible in footage] Logistical Trucks (Soft skin OR armoured)","side":"Russia","color":"#E00000","description":"0:15-0:23 - Russian KamAZ truck damaged by Ukrainian FPV drone of the 426th Separate Unmanned Systems Regiment","orbat":["426th Separate Unmanned Systems Regiment"],"geolocation":["https://x.com/99Dominik_/status/2083285813215846577"],"sources":["https://x.com/99Dominik_/status/2083286390981206397","https://www.facebook.com/reel/1948880972467453"]}},{"type":"Feature","geometry":{"type":"Point","coordinates":[35.847477,48.528333]},"properties":{"original":{"Date":"2026-07-30","Name":"30 JUL 2026","Faction":"Neutral","Origin":"VID","Latitude":"48.528333","Longitude":"35.847477","PlusCode":"8GWQGRHW+8X Pavlohrad, Dnipropetrovsk Oblast, Ukraine","Description":"Russian FAB strike hit playground near apartment building in Pavlohrad, reportedly killing 1 person","Source":"https://x.com/giK1893/status/2082931643497533721, , Pic1, https://t.me/suspilnednipro/67426, Pic2, https://t.me/suspilnednipro/67436, , Vid1, https://t.me/suspilnednipro/67448, Vid2, https://t.me/jacksons_dairy/13281","Geolocation":"https://x.com/giK1893/status/2082931647712723233, https://x.com/giK1893/status/2082931651147907577","Equipment":"","EquipmentItems":"Fugasnaya Aviatsionnaya Bomba (FAB)","Units":"","OrbatUnits":"","Id":"8bd1082f-ed6d-4f59-9f64-84d5a3e2f542","icon":"/api/icons/AC7339/False/template/192.png"},"source":"geoconfirmed","source_name":"GeoConfirmed","source_url":"https://geoconfirmed.org/map/ukraine","id":"8bd1082f-ed6d-4f59-9f64-84d5a3e2f542","date":"2026-07-30","link":"https://geoconfirmed.org/map/ukraine/8bd1082f-ed6d-4f59-9f64-84d5a3e2f542","category":"Recently destroyed/Damaged[Visible in footage] or still burning infrastucture","side":"Neutral","color":"#AC7339","description":"Russian FAB strike hit playground near apartment building in Pavlohrad, reportedly killing 1 person","orbat":[],"geolocation":["https://x.com/giK1893/status/2082931647712723233","https://x.com/giK1893/status/2082931651147907577"],"sources":["https://x.com/giK1893/status/2082931643497533721","https://t.me/suspilnednipro/67426","https://t.me/suspilnednipro/67436","https://t.me/suspilnednipro/67448","https://t.me/jacksons_dairy/13281"]}},{"type":"Feature","geometry":{"type":"Point","coordinates":[31.026155,46.61424]},"properties":{"original":{"Date":"2026-07-30","Name":"30 JUL 2026","Faction":"Russia","Origin":"UAV","Latitude":"46.61424","Longitude":"31.026155","PlusCode":"8GRHJ27G+MF Bilyari, Odesa Oblast, Ukraine","Description":"0:21-end - Russian Geran-4 seeker drone targeted a cargo ship","Source":"https://x.com/franfran2424/status/2084664540499718328, https://t.me/The_Wrong_Side/30253","Geolocation":"https://x.com/franfran2424/status/2084667101671759876","Equipment":"","EquipmentItems":"Geran-4 \"Seeker\"","Units":"","OrbatUnits":"","Id":"c32426e3-9fa9-4812-a3fe-87ac31798ba0","icon":"/api/icons/E00000/False/template/181.png"},"source":"geoconfirmed","source_name":"GeoConfirmed","source_url":"https://geoconfirmed.org/map/ukraine","id":"c32426e3-9fa9-4812-a3fe-87ac31798ba0","date":"2026-07-30","link":"https://geoconfirmed.org/map/ukraine/c32426e3-9fa9-4812-a3fe-87ac31798ba0","category":"Longe Range (>50km) OWAD (One Way Attack Drone) or Loitering munition, mostly fixed wing, Flying OR Attacking a target without knowing the outcome: if something is damaged --> icon of the damaged equipment.","side":"Russia","color":"#E00000","description":"0:21-end - Russian Geran-4 seeker drone targeted a cargo ship","orbat":[],"geolocation":["https://x.com/franfran2424/status/2084667101671759876"],"sources":["https://x.com/franfran2424/status/2084664540499718328","https://t.me/The_Wrong_Side/30253"]}},{"type":"Feature","geometry":{"type":"Point","coordinates":[37.598165,50.139395]},"properties":{"original":{"Date":"2026-07-30","Name":"30 JUL 2026","Faction":"Ukraine","Origin":"UAV","Latitude":"50.139395","Longitude":"37.598165","PlusCode":"9G2V4HQX+Q7 Khatnje, Kharkiv Oblast, Ukraine","Description":"0:33-1:01 - Static Ukrainian tank destroyed by FPV strikes.","Source":"https://x.com/ukrliberation/status/2082926662673396017, https://t.me/RVvoenkor/120278","Geolocation":"https://x.com/giK1893/status/2082943700334756268","Equipment":"","EquipmentItems":"Tank | Fiber Optic (FO) FPV (First Person View) OWAD (One Way Attack Drone)","Units":"\"Anvar special forces\"","OrbatUnits":"11th Army Corps ","Id":"3fa50342-6079-49a1-9a9f-9697cc81c62d","icon":"/api/icons/0051CA/False/template/42.png"},"source":"geoconfirmed","source_name":"GeoConfirmed","source_url":"https://geoconfirmed.org/map/ukraine","id":"3fa50342-6079-49a1-9a9f-9697cc81c62d","date":"2026-07-30","link":"https://geoconfirmed.org/map/ukraine/3fa50342-6079-49a1-9a9f-9697cc81c62d","category":"Recently Destroyed/Damaged[Visible in footage] Tank","side":"Ukraine","color":"#0051CA","description":"0:33-1:01 - Static Ukrainian tank destroyed by FPV strikes.","orbat":["11th Army Corps"],"geolocation":["https://x.com/giK1893/status/2082943700334756268"],"sources":["https://x.com/ukrliberation/status/2082926662673396017","https://t.me/RVvoenkor/120278"]}},{"type":"Feature","geometry":{"type":"Point","coordinates":[44.791648,53.267132]},"properties":{"original":{"Date":"2026-07-30","Name":"30 JUL 2026","Faction":"Neutral","Origin":"VID","Latitude":"53.267132","Longitude":"44.791648","PlusCode":"9H567Q8R+VM Priovrazhnoe, Russia","Description":"Wildberries warehouse on fire.","Source":"https://x.com/Grimm_Intel/status/2082634388412539213, https://t.me/exilenova_plus/27447, , SAT, https://x.com/HpwWJVafCv83954/status/2090528743731438004","Geolocation":"Based on: https://x.com/Grimm_Intel/status/2082634807964520580, Based on: https://x.com/neonhandrail/status/2082690098546811257, Based on: https://x.com/Grimm_Intel/status/2082641741471969336","Equipment":"","EquipmentItems":"Fixed Wing OWAD (One Way Attack Drone)","Units":"","OrbatUnits":"","Id":"0ebf224a-b16a-4060-9bfb-9aaae4095ae2","icon":"/api/icons/AC7339/False/template/193.png"},"source":"geoconfirmed","source_name":"GeoConfirmed","source_url":"https://geoconfirmed.org/map/ukraine","id":"0ebf224a-b16a-4060-9bfb-9aaae4095ae2","date":"2026-07-30","link":"https://geoconfirmed.org/map/ukraine/0ebf224a-b16a-4060-9bfb-9aaae4095ae2","category":"Older destroyed infrastucture","side":"Neutral","color":"#AC7339","description":"Wildberries warehouse on fire.","orbat":[],"geolocation":["https://x.com/Grimm_Intel/status/2082634807964520580","https://x.com/neonhandrail/status/2082690098546811257","https://x.com/Grimm_Intel/status/2082641741471969336"],"sources":["https://x.com/Grimm_Intel/status/2082634388412539213","https://t.me/exilenova_plus/27447","https://x.com/HpwWJVafCv83954/status/2090528743731438004"]}},{"type":"Feature","geometry":{"type":"Point","coordinates":[53.691766,56.481203]},"properties":{"original":{"Date":"2026-07-30","Name":"30 JUL 2026","Faction":"Ukraine","Origin":"VID","Latitude":"56.481203","Longitude":"53.691766","PlusCode":"9H8MFMJR+FP Sarapul, Udmurt Republic, Russia","Description":"Rough location - Ukrainian drone strikes on a Wildberries warehouse.","Source":"Vid1 https://x.com/Vlad_23456/status/2082909582586782187, https://t.me/exilenova_plus/27478, Vid2 https://x.com/Grimm_Intel/status/2082717084597829661, https://t.me/exilenova_plus/27491?single","Geolocation":"Vid1 https://x.com/Vlad_23456/status/2082909401577337011, Vid2 https://x.com/Grimm_Intel/status/2082717374482915361","Equipment":"","EquipmentItems":"Fixed Wing OWAD (One Way Attack Drone)","Units":"","OrbatUnits":"","Id":"7e47a5b9-af00-44b2-ae8c-b054f6c1bdea","icon":"/api/icons/0051CA/False/template/181.png"},"source":"geoconfirmed","source_name":"GeoConfirmed","source_url":"https://geoconfirmed.org/map/ukraine","id":"7e47a5b9-af00-44b2-ae8c-b054f6c1bdea","date":"2026-07-30","link":"https://geoconfirmed.org/map/ukraine/7e47a5b9-af00-44b2-ae8c-b054f6c1bdea","category":"Longe Range (>50km) OWAD (One Way Attack Drone) or Loitering munition, mostly fixed wing, Flying OR Attacking a target without knowing the outcome: if something is damaged --> icon of the damaged equipment.","side":"Ukraine","color":"#0051CA","description":"Rough location - Ukrainian drone strikes on a Wildberries warehouse.","orbat":[],"geolocation":["https://x.com/Vlad_23456/status/2082909401577337011","https://x.com/Grimm_Intel/status/2082717374482915361"],"sources":["https://x.com/Vlad_23456/status/2082909582586782187","https://t.me/exilenova_plus/27478","https://x.com/Grimm_Intel/status/2082717084597829661","https://t.me/exilenova_plus/27491?single"]}},{"type":"Feature","geometry":{"type":"Point","coordinates":[37.666929,48.534459]},"properties":{"original":{"Date":"2026-07-30","Name":"30 JUL 2026","Faction":"Russia","Origin":"UAV","Latitude":"48.534459","Longitude":"37.666929","PlusCode":"8GWVGMM8+QQ Kostyantynivka, Donetsk Oblast, Ukraine","Description":"0:00-0:32, area grid, location where Ukrainians entered - drones from the Russian 1465th Motorized Rifle Regiment targeted Ukrainian soldiers with multiple drones.","Source":"https://x.com/Mocca2X/status/2083102525054685325, https://t.me/MSP1465/917","Geolocation":"https://x.com/GeoConfirmed/status/2083955636790849715, https://x.com/Mocca2X/status/2083101154326835278","Equipment":"","EquipmentItems":"Molniya","Units":"","OrbatUnits":"1465th Motorized Rifle Regiment","Id":"3fcf9e01-46a6-4f12-a2ba-b4329b0b017d","icon":"/api/icons/E00000/False/template/111.png"},"source":"geoconfirmed","source_name":"GeoConfirmed","source_url":"https://geoconfirmed.org/map/ukraine","id":"3fcf9e01-46a6-4f12-a2ba-b4329b0b017d","date":"2026-07-30","link":"https://geoconfirmed.org/map/ukraine/3fcf9e01-46a6-4f12-a2ba-b4329b0b017d","category":"Short Range (<50km) OWAD (One Way Attack Drone), mostly rotary wing, Flying OR Attacking a target without knowing the outcome: if something is damaged --> icon of the damaged equipment.","side":"Russia","color":"#E00000","description":"0:00-0:32, area grid, location where Ukrainians entered - drones from the Russian 1465th Motorized Rifle Regiment targeted Ukrainian soldiers with multiple drones.","orbat":["1465th Motorized Rifle Regiment"],"geolocation":["https://x.com/GeoConfirmed/status/2083955636790849715","https://x.com/Mocca2X/status/2083101154326835278"],"sources":["https://x.com/Mocca2X/status/2083102525054685325","https://t.me/MSP1465/917"]}},{"type":"Feature","geometry":{"type":"Point","coordinates":[36.750279,48.04584]},"properties":{"original":{"Date":"2026-07-30","Name":"30 JUL 2026","Faction":"Russia","Origin":"UAV","Latitude":"48.04584","Longitude":"36.750279","PlusCode":"8GWR2QW2+84 Yalta, Donetsk Oblast, Ukraine","Description":"0:20 - Russian Soldier in Yalta","Source":"https://x.com/richardzai38580/status/2082414913352593813, https://t.me/boris_rozhin/220001","Geolocation":"https://x.com/richardzai38580/status/2082414843035017338","Equipment":"","EquipmentItems":"","Units":"","OrbatUnits":"","Id":"c2d5242e-a4e8-46dc-9d4d-b782fb8be232","icon":"/api/icons/E00000/False/template/100.png"},"source":"geoconfirmed","source_name":"GeoConfirmed","source_url":"https://geoconfirmed.org/map/ukraine","id":"c2d5242e-a4e8-46dc-9d4d-b782fb8be232","date":"2026-07-30","link":"https://geoconfirmed.org/map/ukraine/c2d5242e-a4e8-46dc-9d4d-b782fb8be232","category":"Civilian or Soldier or Militant (Depending on the colour)","side":"Russia","color":"#E00000","description":"0:20 - Russian Soldier in Yalta","orbat":[],"geolocation":["https://x.com/richardzai38580/status/2082414843035017338"],"sources":["https://x.com/richardzai38580/status/2082414913352593813","https://t.me/boris_rozhin/220001"]}},{"type":"Feature","geometry":{"type":"Point","coordinates":[35.73661,47.23223]},"properties":{"original":{"Date":"2026-07-30","Name":"30 JUL 2026","Faction":"Ukraine","Origin":"UAV","Latitude":"47.23223","Longitude":"35.73661","PlusCode":"8GVQ6PJP+VJ Tokmak, Zaporizhia Oblast, Ukraine","Description":"0:31-0:34 - A Russian locomotive is hit with drones by the 'Ronin' unmanned systems battalion of the 65th mechanized brigade of Ukraine.","Source":"https://x.com/PuenteUribarri/status/2082805836162740270, https://t.me/Ronins_65/1331","Geolocation":"https://x.com/blinzka/status/2082901879378375000","Equipment":"UNK (Locomotive)","EquipmentItems":"FPV (First Person View) OWAD (One Way Attack Drone)","Units":"","OrbatUnits":"Unmanned Systems Battalion \"Ronin\"","Id":"5094d65c-526a-4b1d-848e-be213257f603","icon":"/api/icons/0051CA/False/template/111.png"},"source":"geoconfirmed","source_name":"GeoConfirmed","source_url":"https://geoconfirmed.org/map/ukraine","id":"5094d65c-526a-4b1d-848e-be213257f603","date":"2026-07-30","link":"https://geoconfirmed.org/map/ukraine/5094d65c-526a-4b1d-848e-be213257f603","category":"Short Range (<50km) OWAD (One Way Attack Drone), mostly rotary wing, Flying OR Attacking a target without knowing the outcome: if something is damaged --> icon of the damaged equipment.","side":"Ukraine","color":"#0051CA","description":"0:31-0:34 - A Russian locomotive is hit with drones by the 'Ronin' unmanned systems battalion of the 65th mechanized brigade of Ukraine.","orbat":["Unmanned Systems Battalion \"Ronin\""],"geolocation":["https://x.com/blinzka/status/2082901879378375000"],"sources":["https://x.com/PuenteUribarri/status/2082805836162740270","https://t.me/Ronins_65/1331"]}},{"type":"Feature","geometry":{"type":"Point","coordinates":[32.789258,46.748199]},"properties":{"original":{"Date":"2026-07-30","Name":"30 JUL 2026","Faction":"Russia","Origin":"VID","Latitude":"46.748199","Longitude":"32.789258","PlusCode":"8GRJPQXQ+7P Dar'ivka, Kherson Oblast, Ukraine","Description":"A man was killed by a reported Russian drone.","Source":"https://x.com/99Dominik_/status/2083274929131139174, https://www.instagram.com/andry_boxer/reel/DbbFOhNMmKf/","Geolocation":"https://x.com/99Dominik_/status/2083274585231765851","Equipment":"(Reportedly)","EquipmentItems":"FPV (First Person View) OWAD (One Way Attack Drone)","Units":"","OrbatUnits":"","Id":"76648a0b-0c1b-4498-8a4b-c059b8158d6a","icon":"/api/icons/E00000/False/template/50.png"},"source":"geoconfirmed","source_name":"GeoConfirmed","source_url":"https://geoconfirmed.org/map/ukraine","id":"76648a0b-0c1b-4498-8a4b-c059b8158d6a","date":"2026-07-30","link":"https://geoconfirmed.org/map/ukraine/76648a0b-0c1b-4498-8a4b-c059b8158d6a","category":"Killed or wounded civilian. Potential Warcrime. In the colour of who is assessed as doing the attack/killing.","side":"Russia","color":"#E00000","description":"A man was killed by a reported Russian drone.","orbat":[],"geolocation":["https://x.com/99Dominik_/status/2083274585231765851"],"sources":["https://x.com/99Dominik_/status/2083274929131139174","https://www.instagram.com/andry_boxer/reel/DbbFOhNMmKf/"]}},{"type":"Feature","geometry":{"type":"Point","coordinates":[36.578421,46.788905]},"properties":{"original":{"Date":"2026-07-30","Name":"30 JUL 2026","Faction":"Russia","Origin":"PIC","Latitude":"46.788905","Longitude":"36.578421","PlusCode":"8GRRQHQH+H9 Dmytrivka, Zaporizhia Oblast, Ukraine","Description":"Russian KamAZ truck destroyed by a Hornet drone of the 422nd Regiment of Unmanned Systems \"Luftwaffe\"","Source":"https://x.com/PuenteUribarri/status/2082927142099120227, (1/3), https://t.me/luftwaffe422/1049/, ","Geolocation":"https://x.com/neonhandrail/status/2082934527002050890, https://x.com/99Dominik_/status/2082925261847204093","Equipment":"","EquipmentItems":"Hornet | Truck","Units":"","OrbatUnits":"422nd Regiment of Unmanned Systems \"Luftwaffe\"","Id":"ff1b4fc9-6d45-43dd-8482-c4a9ff561a4d","icon":"/api/icons/E00000/False/template/62.png"},"source":"geoconfirmed","source_name":"GeoConfirmed","source_url":"https://geoconfirmed.org/map/ukraine","id":"ff1b4fc9-6d45-43dd-8482-c4a9ff561a4d","date":"2026-07-30","link":"https://geoconfirmed.org/map/ukraine/ff1b4fc9-6d45-43dd-8482-c4a9ff561a4d","category":"Recently Destroyed/Damaged[Visible in footage] Logistical Trucks (Soft skin OR armoured)","side":"Russia","color":"#E00000","description":"Russian KamAZ truck destroyed by a Hornet drone of the 422nd Regiment of Unmanned Systems \"Luftwaffe\"","orbat":["422nd Regiment of Unmanned Systems \"Luftwaffe\""],"geolocation":["https://x.com/neonhandrail/status/2082934527002050890","https://x.com/99Dominik_/status/2082925261847204093"],"sources":["https://x.com/PuenteUribarri/status/2082927142099120227","https://t.me/luftwaffe422/1049/"]}},{"type":"Feature","geometry":{"type":"Point","coordinates":[38.3571,47.3135]},"properties":{"original":{"Date":"2026-07-30","Name":"30 JUL 2026","Faction":"Russia","Origin":"UAV","Latitude":"47.3135","Longitude":"38.3571","PlusCode":"8GVW8974+CR Ofental', Rostov Oblast, Russia","Description":"2:53-3:11 - A Russian Sopka-2 long-range radar is hit with a drone by the 9th battalion 'Kairos' of the 414th unmanned systems brigade 'Birds of Madyar'.","Source":"https://bsky.app/profile/noelreports.com/post/3mru3jgcu2227, https://x.com/NOELreports/status/2082753639538397236, https://x.com/414magyarbirds/status/2082771817530294523","Geolocation":"https://bsky.app/profile/blinzka.bsky.social/post/3mruia3ljv224, https://x.com/blinzka/status/2082811633584222469","Equipment":"(likely FirePoint) Ukrainian FPV;, Sopka-2","EquipmentItems":"","Units":"","OrbatUnits":"9th Long-Range Strike Battalion \"Kairos\"","Id":"f06ce9ba-81ee-48c8-aa0b-c61f311f2fe8","icon":"/api/icons/E00000/False/template/15380368-63be-4bf9-8373-a30ef0d31bed.png"},"source":"geoconfirmed","source_name":"GeoConfirmed","source_url":"https://geoconfirmed.org/map/ukraine","id":"f06ce9ba-81ee-48c8-aa0b-c61f311f2fe8","date":"2026-07-30","link":"https://geoconfirmed.org/map/ukraine/f06ce9ba-81ee-48c8-aa0b-c61f311f2fe8","category":"Recently Destroyed/Damaged[Visible in footage] Radar System (Mobile or fixed)","side":"Russia","color":"#E00000","description":"2:53-3:11 - A Russian Sopka-2 long-range radar is hit with a drone by the 9th battalion 'Kairos' of the 414th unmanned systems brigade 'Birds of Madyar'.","orbat":["9th Long-Range Strike Battalion \"Kairos\""],"geolocation":["https://bsky.app/profile/blinzka.bsky.social/post/3mruia3ljv224","https://x.com/blinzka/status/2082811633584222469"],"sources":["https://bsky.app/profile/noelreports.com/post/3mru3jgcu2227","https://x.com/NOELreports/status/2082753639538397236","https://x.com/414magyarbirds/status/2082771817530294523"]}},{"type":"Feature","geometry":{"type":"Point","coordinates":[33.513683,47.818214]},"properties":{"original":{"Date":"2026-07-30","Name":"30 JUL 2026","Faction":"Neutral","Origin":"PIC","Latitude":"47.818214","Longitude":"33.513683","PlusCode":"8GVMRG97+7F Radushne, Dnipropetrovsk Oblast, Ukraine","Description":"Russian missile hit a house in Radushne, Dnipropetrovsk Oblast, 6 people were killed and 8 injured. ","Source":"https://x.com/99Dominik_/status/2082881710853628337, https://t.me/dnipropetrovskaODA/31101, , Vid1, https://x.com/99Dominik_/status/2082885439824724406, https://www.youtube.com/watch?v=-FLfbKjysQ4, , Pic2, https://x.com/99Dominik_/status/2082896077200536037, https://t.me/dnipropetrovskaODA/31112, ","Geolocation":"https://x.com/99Dominik_/status/2082881595829035209","Equipment":"","EquipmentItems":"","Units":"","OrbatUnits":"","Id":"b861b76e-bb2c-4738-bdf0-e0c5bbfa3e48","icon":"/api/icons/AC7339/False/template/192.png"},"source":"geoconfirmed","source_name":"GeoConfirmed","source_url":"https://geoconfirmed.org/map/ukraine","id":"b861b76e-bb2c-4738-bdf0-e0c5bbfa3e48","date":"2026-07-30","link":"https://geoconfirmed.org/map/ukraine/b861b76e-bb2c-4738-bdf0-e0c5bbfa3e48","category":"Recently destroyed/Damaged[Visible in footage] or still burning infrastucture","side":"Neutral","color":"#AC7339","description":"Russian missile hit a house in Radushne, Dnipropetrovsk Oblast, 6 people were killed and 8 injured.","orbat":[],"geolocation":["https://x.com/99Dominik_/status/2082881595829035209"],"sources":["https://x.com/99Dominik_/status/2082881710853628337","https://t.me/dnipropetrovskaODA/31101","https://x.com/99Dominik_/status/2082885439824724406","https://www.youtube.com/watch?v=-FLfbKjysQ4","https://x.com/99Dominik_/status/2082896077200536037","https://t.me/dnipropetrovskaODA/31112"]}},{"type":"Feature","geometry":{"type":"Point","coordinates":[35.216185,47.779088]},"properties":{"original":{"Date":"2026-07-30","Name":"30 JUL 2026","Faction":"Russia","Origin":"UAV","Latitude":"47.779088","Longitude":"35.216185","PlusCode":"8GVQQ6H8+JF Zaporizhzhia, Zaporizhia Oblast, Ukraine","Description":"Russian FPV drone hit a vegetable market in Zaporizhzhia, three people were reportedly injured","Source":"Vid1, https://x.com/99Dominik_/status/2082834174080172501, https://t.me/eyes_everywhere_ua/121532, , Vid2, https://x.com/99Dominik_/status/2082834686682738963, https://t.me/eyes_everywhere_ua/121538, , Info, https://t.me/ivan_fedorov_zp/45169","Geolocation":"https://x.com/GeoConfirmed/status/2083329811510907302, https://x.com/99Dominik_/status/2082833848878911659","Equipment":"","EquipmentItems":"FPV (First Person View) OWAD (One Way Attack Drone)","Units":"","OrbatUnits":"","Id":"d5debf51-02b5-4b98-83f5-e3d1c9e42767","icon":"/api/icons/E00000/False/template/50.png"},"source":"geoconfirmed","source_name":"GeoConfirmed","source_url":"https://geoconfirmed.org/map/ukraine","id":"d5debf51-02b5-4b98-83f5-e3d1c9e42767","date":"2026-07-30","link":"https://geoconfirmed.org/map/ukraine/d5debf51-02b5-4b98-83f5-e3d1c9e42767","category":"Killed or wounded civilian. Potential Warcrime. In the colour of who is assessed as doing the attack/killing.","side":"Russia","color":"#E00000","description":"Russian FPV drone hit a vegetable market in Zaporizhzhia, three people were reportedly injured","orbat":[],"geolocation":["https://x.com/GeoConfirmed/status/2083329811510907302","https://x.com/99Dominik_/status/2082833848878911659"],"sources":["https://x.com/99Dominik_/status/2082834174080172501","https://t.me/eyes_everywhere_ua/121532","https://x.com/99Dominik_/status/2082834686682738963","https://t.me/eyes_everywhere_ua/121538","https://t.me/ivan_fedorov_zp/45169"]}},{"type":"Feature","geometry":{"type":"Point","coordinates":[44.875648,53.234116]},"properties":{"original":{"Date":"2026-07-30","Name":"30 JUL 2026","Faction":"Ukraine","Origin":"VID","Latitude":"53.234116","Longitude":"44.875648","PlusCode":"9H566VMG+J7 Penza, Penza Oblast, Russia","Description":"Point of view in North-western direction - Smoke rising in the direction of the Wildberries warehouse","Source":"https://x.com/Grimm_Intel/status/2082634388412539213, https://t.me/exilenova_plus/27447","Geolocation":"https://x.com/Grimm_Intel/status/2082634807964520580","Equipment":"","EquipmentItems":"","Units":"","OrbatUnits":"","Id":"45dcc0b1-b66b-4fb9-9eff-eea316c8b74c","icon":"/api/icons/0051CA/False/template/30.png"},"source":"geoconfirmed","source_name":"GeoConfirmed","source_url":"https://geoconfirmed.org/map/ukraine","id":"45dcc0b1-b66b-4fb9-9eff-eea316c8b74c","date":"2026-07-30","link":"https://geoconfirmed.org/map/ukraine/45dcc0b1-b66b-4fb9-9eff-eea316c8b74c","category":"Video - Always Point of View in description - In the colour of who is doing the attack or is responsable for the incident in the video.","side":"Ukraine","color":"#0051CA","description":"Point of view in North-western direction - Smoke rising in the direction of the Wildberries warehouse","orbat":[],"geolocation":["https://x.com/Grimm_Intel/status/2082634807964520580"],"sources":["https://x.com/Grimm_Intel/status/2082634388412539213","https://t.me/exilenova_plus/27447"]}},{"type":"Feature","geometry":{"type":"Point","coordinates":[44.806849,53.276393]},"properties":{"original":{"Date":"2026-07-30","Name":"30 JUL 2026","Faction":"Ukraine","Origin":"PIC","Latitude":"53.276393","Longitude":"44.806849","PlusCode":"9H567RG4+HP Mastinovka, Penza Oblast, Russia","Description":"Point of view in Southwestern direction -  Heavy smoke plume in the direction of a Russian Wildberries warehouse","Source":"(1/4 & 2/4) https://x.com/Exilenova_plus/status/2082686977921740956","Geolocation":"https://x.com/GeoConfirmed/status/2082768178866720828, https://x.com/neonhandrail/status/2082690098546811257","Equipment":"","EquipmentItems":"","Units":"","OrbatUnits":"","Id":"c0e0abd1-45fe-4258-83cd-f023a9a86ec7","icon":"/api/icons/0051CA/False/template/20.png"},"source":"geoconfirmed","source_name":"GeoConfirmed","source_url":"https://geoconfirmed.org/map/ukraine","id":"c0e0abd1-45fe-4258-83cd-f023a9a86ec7","date":"2026-07-30","link":"https://geoconfirmed.org/map/ukraine/c0e0abd1-45fe-4258-83cd-f023a9a86ec7","category":"Picture - Always Point of View in description - - In the colour of who is doing the attack or is responsable for the incident in the picture.","side":"Ukraine","color":"#0051CA","description":"Point of view in Southwestern direction -  Heavy smoke plume in the direction of a Russian Wildberries warehouse","orbat":[],"geolocation":["https://x.com/GeoConfirmed/status/2082768178866720828","https://x.com/neonhandrail/status/2082690098546811257"],"sources":["https://x.com/Exilenova_plus/status/2082686977921740956"]}},{"type":"Feature","geometry":{"type":"Point","coordinates":[36.748109,48.043965]},"properties":{"original":{"Date":"2026-07-30","Name":"30 JUL 2026","Faction":"Russia","Origin":"UAV","Latitude":"48.043965","Longitude":"36.748109","PlusCode":"8GWR2PVX+H6 Yalta, Donetsk Oblast, Ukraine","Description":"0:15 - Russian Soldier in Yalta","Source":"https://x.com/richardzai38580/status/2082414913352593813, https://t.me/boris_rozhin/220001","Geolocation":"https://x.com/richardzai38580/status/2082414843035017338","Equipment":"","EquipmentItems":"","Units":"","OrbatUnits":"","Id":"fab171f1-2144-48be-b86e-f5e451b18a8d","icon":"/api/icons/E00000/False/template/100.png"},"source":"geoconfirmed","source_name":"GeoConfirmed","source_url":"https://geoconfirmed.org/map/ukraine","id":"fab171f1-2144-48be-b86e-f5e451b18a8d","date":"2026-07-30","link":"https://geoconfirmed.org/map/ukraine/fab171f1-2144-48be-b86e-f5e451b18a8d","category":"Civilian or Soldier or Militant (Depending on the colour)","side":"Russia","color":"#E00000","description":"0:15 - Russian Soldier in Yalta","orbat":[],"geolocation":["https://x.com/richardzai38580/status/2082414843035017338"],"sources":["https://x.com/richardzai38580/status/2082414913352593813","https://t.me/boris_rozhin/220001"]}},{"type":"Feature","geometry":{"type":"Point","coordinates":[37.015723,48.23914]},"properties":{"original":{"Date":"2026-07-30","Name":"30 JUL 2026","Faction":"Russia","Origin":"UAV","Latitude":"48.23914","Longitude":"37.015723","PlusCode":"8GWV62Q8+M7 Udachne, Donetsk Oblast, Ukraine","Description":"0:15-0:22 - Russian soldier hit by FPV","Source":"https://x.com/Mocca2X/status/2083906327638835303, https://t.me/skala425/952","Geolocation":"https://x.com/Mocca2X/status/2083906011820360035","Equipment":"","EquipmentItems":"FPV (First Person View) OWAD (One Way Attack Drone)","Units":"","OrbatUnits":"425th Assault Regiment \"Skala\"","Id":"4746cc1b-12d0-4ea3-906d-f7ee7a9721dd","icon":"/api/icons/E00000/False/template/92.png"},"source":"geoconfirmed","source_name":"GeoConfirmed","source_url":"https://geoconfirmed.org/map/ukraine","id":"4746cc1b-12d0-4ea3-906d-f7ee7a9721dd","date":"2026-07-30","link":"https://geoconfirmed.org/map/ukraine/4746cc1b-12d0-4ea3-906d-f7ee7a9721dd","category":"WIA/KIA Soldier/Militant","side":"Russia","color":"#E00000","description":"0:15-0:22 - Russian soldier hit by FPV","orbat":["425th Assault Regiment \"Skala\""],"geolocation":["https://x.com/Mocca2X/status/2083906011820360035"],"sources":["https://x.com/Mocca2X/status/2083906327638835303","https://t.me/skala425/952"]}},{"type":"Feature","geometry":{"type":"Point","coordinates":[37.681958333333334,48.523355555555554]},"properties":{"original":{"Date":"2026-07-30","Name":"30 JUL 2026","Faction":"Russia","Origin":"UAV","Latitude":"48.523355555555554","Longitude":"37.681958333333334","PlusCode":"8GWVGMFJ+8Q Kostyantynivka, Donetsk Oblast, Ukraine","Description":"0:52-0:58 - Drones from the Russian 1465th Motorized Rifle Regiment target a presumed Ukrainian position with a Molniya ","Source":"https://x.com/Mocca2X/status/2083102525054685325, https://t.me/MSP1465/917","Geolocation":"https://x.com/GeoConfirmed/status/2083955636790849715, https://x.com/Mocca2X/status/2083113246815596833","Equipment":"","EquipmentItems":"Molniya","Units":"","OrbatUnits":"1465th Motorized Rifle Regiment","Id":"d44e7381-2d6c-4564-8d78-f82afffedf05","icon":"/api/icons/E00000/False/template/111.png"},"source":"geoconfirmed","source_name":"GeoConfirmed","source_url":"https://geoconfirmed.org/map/ukraine","id":"d44e7381-2d6c-4564-8d78-f82afffedf05","date":"2026-07-30","link":"https://geoconfirmed.org/map/ukraine/d44e7381-2d6c-4564-8d78-f82afffedf05","category":"Short Range (<50km) OWAD (One Way Attack Drone), mostly rotary wing, Flying OR Attacking a target without knowing the outcome: if something is damaged --> icon of the damaged equipment.","side":"Russia","color":"#E00000","description":"0:52-0:58 - Drones from the Russian 1465th Motorized Rifle Regiment target a presumed Ukrainian position with a Molniya","orbat":["1465th Motorized Rifle Regiment"],"geolocation":["https://x.com/GeoConfirmed/status/2083955636790849715","https://x.com/Mocca2X/status/2083113246815596833"],"sources":["https://x.com/Mocca2X/status/2083102525054685325","https://t.me/MSP1465/917"]}}]}