{"type":"FeatureCollection","features":[{"type":"Feature","geometry":{"type":"Point","coordinates":[36.722793,50.384797]},"properties":{"original":{"id":46380,"type":"Self-propelled artillery","model":"152mm 2S19(M1) 'Msta-S'","status":"Destroyed","lost_by":"Russia","date":"2026-08-08","nearest_location":"Grafovka, Shebekino raion","geo":"50.384797,36.722793","unit":null,"tags":"Turretless, Cope cage, ◇, ✕"},"source":"warspotting","source_name":"WarSpotting","source_url":"https://ukr.warspotting.net/","id":46380,"date":"2026-08-08","link":"https://ukr.warspotting.net/view/46380/","category":"Self-propelled artillery","side":"Lost by Russia","color":"#E00000","description":"152mm 2S19(M1) 'Msta-S' · Destroyed · near Grafovka, Shebekino raion · tags: Turretless, Cope cage, ◇, ✕","orbat":[]}},{"type":"Feature","geometry":{"type":"Point","coordinates":[36.722793,50.384797]},"properties":{"original":{"id":46381,"type":"Self-propelled artillery","model":"152mm 2S19(M1) 'Msta-S'","status":"Destroyed","lost_by":"Russia","date":"2026-08-08","nearest_location":"Grafovka, Shebekino raion","geo":"50.384797,36.722793","unit":null,"tags":"Cope cage, Additional armour"},"source":"warspotting","source_name":"WarSpotting","source_url":"https://ukr.warspotting.net/","id":46381,"date":"2026-08-08","link":"https://ukr.warspotting.net/view/46381/","category":"Self-propelled artillery","side":"Lost by Russia","color":"#E00000","description":"152mm 2S19(M1) 'Msta-S' · Destroyed · near Grafovka, Shebekino raion · tags: Cope cage, Additional armour","orbat":[]}},{"type":"Feature","geometry":{"type":"Point","coordinates":[37.99598,44.568817]},"properties":{"original":{"id":46409,"type":"Anti-aircraft systems","model":"5P85SM2-01 TEL (for 40R6 S-400 'Triumf')","status":"Destroyed","lost_by":"Russia","date":"2026-08-08","nearest_location":"Gelendzhik, Gelendzhik okrug","geo":"44.568817,37.995980","unit":null,"tags":"Loitering"},"source":"warspotting","source_name":"WarSpotting","source_url":"https://ukr.warspotting.net/","id":46409,"date":"2026-08-08","link":"https://ukr.warspotting.net/view/46409/","category":"Anti-aircraft systems","side":"Lost by Russia","color":"#E00000","description":"5P85SM2-01 TEL (for 40R6 S-400 'Triumf') · Destroyed · near Gelendzhik, Gelendzhik okrug · tags: Loitering","orbat":[]}},{"type":"Feature","geometry":{"type":"Point","coordinates":[34.877941,51.263457]},"properties":{"original":{"id":46434,"type":"Transport","model":"'Ulan-2' all-terrain vehicle","status":"Destroyed","lost_by":"Russia","date":"2026-08-08","nearest_location":"Vnezapnoe, Korenevo raion","geo":"51.263457,34.877941","unit":null,"tags":"Cope cage, Jammer, Additional armour"},"source":"warspotting","source_name":"WarSpotting","source_url":"https://ukr.warspotting.net/","id":46434,"date":"2026-08-08","link":"https://ukr.warspotting.net/view/46434/","category":"Transport","side":"Lost by Russia","color":"#E00000","description":"'Ulan-2' all-terrain vehicle · Destroyed · near Vnezapnoe, Korenevo raion · tags: Cope cage, Jammer, Additional armour","orbat":[]}},{"type":"Feature","geometry":{"type":"Point","coordinates":[34.877958,51.263723]},"properties":{"original":{"id":46435,"type":"Transport","model":"'Ulan' all-terrain vehicle","status":"Destroyed","lost_by":"Russia","date":"2026-08-08","nearest_location":"Vnezapnoe, Korenevo raion","geo":"51.263723,34.877958","unit":null,"tags":null},"source":"warspotting","source_name":"WarSpotting","source_url":"https://ukr.warspotting.net/","id":46435,"date":"2026-08-08","link":"https://ukr.warspotting.net/view/46435/","category":"Transport","side":"Lost by Russia","color":"#E00000","description":"'Ulan' all-terrain vehicle · Destroyed · near Vnezapnoe, Korenevo raion","orbat":[]}}]}