{"type":"FeatureCollection","features":[{"type":"Feature","geometry":{"type":"Point","coordinates":[36.29375,50.484194]},"properties":{"original":{"id":46794,"type":"Self-propelled artillery","model":"152mm 2S43 'Malva'","status":"Destroyed","lost_by":"Russia","date":"2026-09-03","nearest_location":"Shirokii, Belgorod raion","geo":"50.484194,36.293750","unit":null,"tags":"Jammer"},"source":"warspotting","source_name":"WarSpotting","source_url":"https://ukr.warspotting.net/","id":46794,"date":"2026-09-03","link":"https://ukr.warspotting.net/view/46794/","category":"Self-propelled artillery","side":"Lost by Russia","color":"#E00000","description":"152mm 2S43 'Malva' · Destroyed · near Shirokii, Belgorod raion · tags: Jammer","orbat":[]}},{"type":"Feature","geometry":{"type":"Point","coordinates":[38.33827,49.29149]},"properties":{"original":{"id":46797,"type":"Anti-aircraft systems","model":"9A316 TEL (for 9K317 'Buk-M2')","status":"Destroyed","lost_by":"Russia","date":"2026-09-03","nearest_location":"Ivanivka, Svatove raion","geo":"49.291490,38.338270","unit":null,"tags":"Cope cage"},"source":"warspotting","source_name":"WarSpotting","source_url":"https://ukr.warspotting.net/","id":46797,"date":"2026-09-03","link":"https://ukr.warspotting.net/view/46797/","category":"Anti-aircraft systems","side":"Lost by Russia","color":"#E00000","description":"9A316 TEL (for 9K317 'Buk-M2') · Destroyed · near Ivanivka, Svatove raion · tags: Cope cage","orbat":[]}},{"type":"Feature","geometry":{"type":"Point","coordinates":[40.005066,43.388299]},"properties":{"original":{"id":46806,"type":"Anti-aircraft systems","model":"5P85D or S TEL (for 75R6 S-300PS)","status":"Destroyed","lost_by":"Russia","date":"2026-09-03","nearest_location":"Sirius, Krasnodar krai","geo":"43.388299,40.005066","unit":"1721st Anti-Aircraft Missile Regiment","tags":"Shattered, Loitering"},"source":"warspotting","source_name":"WarSpotting","source_url":"https://ukr.warspotting.net/","id":46806,"date":"2026-09-03","link":"https://ukr.warspotting.net/view/46806/","category":"Anti-aircraft systems","side":"Lost by Russia","color":"#E00000","description":"5P85D or S TEL (for 75R6 S-300PS) · Destroyed · near Sirius, Krasnodar krai · tags: Shattered, Loitering","orbat":["1721st Anti-Aircraft Missile Regiment"]}},{"type":"Feature","geometry":{"type":"Point","coordinates":[39.937694,43.43794]},"properties":{"original":{"id":46877,"type":"Helicopters","model":"Unknown helicopter","status":"Destroyed","lost_by":"Russia","date":"2026-09-03","nearest_location":"Sochi airport, Sochi","geo":"43.437940,39.937694","unit":null,"tags":"Loitering"},"source":"warspotting","source_name":"WarSpotting","source_url":"https://ukr.warspotting.net/","id":46877,"date":"2026-09-03","link":"https://ukr.warspotting.net/view/46877/","category":"Helicopters","side":"Lost by Russia","color":"#E00000","description":"Unknown helicopter · Destroyed · near Sochi airport, Sochi · tags: Loitering","orbat":[]}}]}