{"type":"FeatureCollection","features":[{"type":"Feature","geometry":{"type":"Point","coordinates":[37.54421,48.83822]},"properties":{"source":"lost_warinua","source_name":"lost_warinua (Telegram)","source_url":"https://t.me/s/lost_warinua","id":140928,"date":"2026-08-18","date_note":null,"posted_utc":"2026-09-23T13:54:57+00:00","link":"https://t.me/lost_warinua/140928","category":"Telegram post","side":"Claimed loss: Ukraine (ВСУ)","color":"#0051CA","description":"Уничтоженный бронеавтомобиль International MaxxPro с мангалом ВСУ в г. Славянск Донецкой области.","orbat":[],"sources":["https://www.tiktok.com/@smyrfik_donbas/video/7688425637803068679","https://www.tiktok.com/@gusar080/video/7674985031353257234?_r=1&_t=ZS-98xX3VtCu2y"],"original_html":"<div class=\"tgme_widget_message_text js-message_text\" dir=\"auto\">18.08.2026<br/>Уничтоженный бронеавтомобиль International MaxxPro с мангалом ВСУ в г. Славянск Донецкой области.<br/>(<code>48.83822, 37.54421</code>)<br/><a href=\"https://www.tiktok.com/@smyrfik_donbas/video/7688425637803068679\" target=\"_blank\" rel=\"noopener\" onclick=\"return confirm('Open this link?\\n\\n'+this.href);\">Источник</a><br/><a href=\"https://www.tiktok.com/@gusar080/video/7674985031353257234?_r=1&amp;amp;_t=ZS-98xX3VtCu2y\" target=\"_blank\" rel=\"noopener\" onclick=\"return confirm('Open this link?\\n\\n'+this.href);\">Источник</a>"}}]}