{"type":"FeatureCollection","features":[{"type":"Feature","geometry":{"type":"Polygon","coordinates":[[[37.14055,48.46792],[37.12717,48.47458],[37.1198,48.4747],[37.10932,48.47242],[37.11,48.47515],[37.10913,48.47765],[37.10445,48.47809],[37.09763,48.47533],[37.09548,48.46782],[37.08888,48.46715],[37.08538,48.47688],[37.08144,48.4795],[37.08097,48.48462],[37.08755,48.48639],[37.08995,48.49386],[37.09606,48.49398],[37.10772,48.49525],[37.10779,48.49491],[37.09725,48.49184],[37.0954,48.48875],[37.09639,48.4843],[37.11192,48.48296],[37.12703,48.47847],[37.16003,48.46951],[37.16002,48.46942],[37.14055,48.46792]]]},"properties":{"source":"ukrdaily","source_name":"UkrDailyUpdate","source_url":"https://map.ukrdailyupdate.com/","category":"ukrainian_to_contested","category_label":"Ukrainian-held became contested","period":"1d","compared_with":"2026-09-20","snapshot_time":"2026-09-21","area_km2_approx":5.3}}]}