{"type":"FeatureCollection","features":[{"type":"Feature","geometry":{"type":"Point","coordinates":[30.83113,50.52336]},"properties":{"original":{"Date":"2026-08-22","Name":"22 AUG 2026","Faction":"Neutral","Origin":"SAT","Latitude":"50.52336","Longitude":"30.83113","PlusCode":"9G2GGRFJ+8F Brovary, Kyiv Oblast, Ukraine","Description":"Severe damage at the KLO fuel depot following reported Russian strikes overnight on August 19-20.","Source":"https://x.com/zarGEOINT/status/2091204878366343413, , More information:, https://x.com/Maks_NAFO_FELLA/status/2090433503124943308, ","Geolocation":"https://x.com/zarGEOINT/status/2091204878366343413","Equipment":"","EquipmentItems":"","Units":"","OrbatUnits":"","Id":"d56bdca7-5ee8-4dda-8e7e-07c933b3ebb6","icon":"/api/icons/AC7339/False/template/192.png"},"source":"geoconfirmed","source_name":"GeoConfirmed","source_url":"https://geoconfirmed.org/map/ukraine","id":"d56bdca7-5ee8-4dda-8e7e-07c933b3ebb6","date":"2026-08-22","link":"https://geoconfirmed.org/map/ukraine/d56bdca7-5ee8-4dda-8e7e-07c933b3ebb6","category":"Recently destroyed/Damaged[Visible in footage] or still burning infrastucture","side":"Neutral","color":"#AC7339","description":"Severe damage at the KLO fuel depot following reported Russian strikes overnight on August 19-20.","orbat":[],"geolocation":["https://x.com/zarGEOINT/status/2091204878366343413"],"sources":["https://x.com/zarGEOINT/status/2091204878366343413","https://x.com/Maks_NAFO_FELLA/status/2090433503124943308"]}},{"type":"Feature","geometry":{"type":"Point","coordinates":[49.704585,52.976564]},"properties":{"original":{"Date":"2026-08-22","Name":"22 AUG 2026","Faction":"Ukraine","Origin":"UAV","Latitude":"52.976564","Longitude":"49.704585","PlusCode":"9H4FXPG3+JR Chapayevsk, Samara Oblast, Russia","Description":"POV - Burning Ozon distribution center.","Source":"https://x.com/Vlad_23456/status/2091269620305101231, https://t.me/exilenova_plus/29367","Geolocation":"https://x.com/Vlad_23456/status/2091269447608901897","Equipment":"","EquipmentItems":"Fixed Wing OWAD (One Way Attack Drone)","Units":"","OrbatUnits":"","Id":"129784e0-9a9f-4188-a2f7-15aff7a49f54","icon":"/api/icons/0051CA/False/template/30.png"},"source":"geoconfirmed","source_name":"GeoConfirmed","source_url":"https://geoconfirmed.org/map/ukraine","id":"129784e0-9a9f-4188-a2f7-15aff7a49f54","date":"2026-08-22","link":"https://geoconfirmed.org/map/ukraine/129784e0-9a9f-4188-a2f7-15aff7a49f54","category":"Video - Always Point of View in description - In the colour of who is doing the attack or is responsable for the incident in the video.","side":"Ukraine","color":"#0051CA","description":"POV - Burning Ozon distribution center.","orbat":[],"geolocation":["https://x.com/Vlad_23456/status/2091269447608901897"],"sources":["https://x.com/Vlad_23456/status/2091269620305101231","https://t.me/exilenova_plus/29367"]}},{"type":"Feature","geometry":{"type":"Point","coordinates":[30.07386,46.85036]},"properties":{"original":{"Date":"2026-08-22","Name":"22 AUG 2026","Faction":"Neutral","Origin":"PIC","Latitude":"46.85036","Longitude":"30.07386","PlusCode":"8GRGV32F+4G Rozdil'na, Odesa Oblast, Ukraine","Description":"The building of the railway station Rozdilna-1 was severely damaged by a reported Russian strike. Reportedly, train operations remain unaffected.","Source":"https://x.com/Gerashchenko_en/status/2091052396982022576, , , More information, https://www.kyivpost.com/post/82874","Geolocation":"https://x.com/zarGEOINT/status/2091068018642088250","Equipment":"railway station","EquipmentItems":"","Units":"","OrbatUnits":"","Id":"e68b14e1-2379-490e-bfe8-30e88de60d00","icon":"/api/icons/AC7339/False/template/192.png"},"source":"geoconfirmed","source_name":"GeoConfirmed","source_url":"https://geoconfirmed.org/map/ukraine","id":"e68b14e1-2379-490e-bfe8-30e88de60d00","date":"2026-08-22","link":"https://geoconfirmed.org/map/ukraine/e68b14e1-2379-490e-bfe8-30e88de60d00","category":"Recently destroyed/Damaged[Visible in footage] or still burning infrastucture","side":"Neutral","color":"#AC7339","description":"The building of the railway station Rozdilna-1 was severely damaged by a reported Russian strike. Reportedly, train operations remain unaffected.","orbat":[],"geolocation":["https://x.com/zarGEOINT/status/2091068018642088250"],"sources":["https://x.com/Gerashchenko_en/status/2091052396982022576","https://www.kyivpost.com/post/82874"]}},{"type":"Feature","geometry":{"type":"Point","coordinates":[30.389217,50.46446]},"properties":{"original":{"Date":"2026-08-22","Name":"22 AUG 2026","Faction":"Ukraine","Origin":"SAT","Latitude":"50.46446","Longitude":"30.389217","PlusCode":"9G2GF97Q+QM Kyiv, Kyiv city, Ukraine","Description":"Area grid - Damage visible at the 'former' warehouse n°10 at the Antonov Aircraft Plant in Kyiv following Russian strikes overnight on August 19. (Low resolution imagery).  , Plant is also known as \"AVIANT\" Plant (Kyiv)","Source":"https://x.com/zarGEOINT/status/2091227463120543842, , More information, https://en.wikipedia.org/wiki/Antonov_Serial_Production_Plant, https://wikimapia.org/#lang=ro&lat=50.464460&lon=30.389184&z=13&m","Geolocation":"https://x.com/zarGEOINT/status/2091227463120543842","Equipment":"","EquipmentItems":"","Units":"","OrbatUnits":"","Id":"9838ca34-798e-415d-84bf-38fc65dcc317","icon":"/api/icons/0051CA/False/template/192.png"},"source":"geoconfirmed","source_name":"GeoConfirmed","source_url":"https://geoconfirmed.org/map/ukraine","id":"9838ca34-798e-415d-84bf-38fc65dcc317","date":"2026-08-22","link":"https://geoconfirmed.org/map/ukraine/9838ca34-798e-415d-84bf-38fc65dcc317","category":"Recently destroyed/Damaged[Visible in footage] or still burning infrastucture","side":"Ukraine","color":"#0051CA","description":"Area grid - Damage visible at the 'former' warehouse n°10 at the Antonov Aircraft Plant in Kyiv following Russian strikes overnight on August 19. (Low resolution imagery).  , Plant is also known as \"AVIANT\" Plant (Kyiv)","orbat":[],"geolocation":["https://x.com/zarGEOINT/status/2091227463120543842"],"sources":["https://x.com/zarGEOINT/status/2091227463120543842","https://en.wikipedia.org/wiki/Antonov_Serial_Production_Plant","https://wikimapia.org/#lang=ro&lat=50.464460&lon=30.389184&z=13&m"]}},{"type":"Feature","geometry":{"type":"Point","coordinates":[37.66998,48.755107]},"properties":{"original":{"Date":"2026-08-22","Name":"22 AUG 2026","Faction":"Russia","Origin":"UAV","Latitude":"48.755107","Longitude":"37.66998","PlusCode":"8GWVQM49+2X Kramatorsk, Donetsk Oblast, Ukraine","Description":"A civilian on a bicycle was attacked by a Russian FPV drone.","Source":"https://x.com/AndrewPerpetua/status/2091129079051272305, https://x.com/United24media/status/2091253967271465282, https://www.reddit.com/r/UkraineRussiaReport/comments/1vvdvid/ru_pov_ambush_drone_of_the_2nd_artillery_brigade/, , source (deleted) https://t.me/shock3OA/8796, Screenshot of deleted original post: , https://x.com/Sumniy_Yar/status/2091476655344689549","Geolocation":"https://x.com/GeoConfirmed/status/2092270761729798649, https://x.com/AndrewPerpetua/status/2091984852031537200, , reference for geolocation 1 (1:25-end): https://x.com/AndrewPerpetua/status/2091984987385999490, , reference for geolocation 2, https://www.youtube.com/watch?v=lJ4fJGtpYI4","Equipment":"","EquipmentItems":"Fiber Optic (FO) FPV (First Person View) OWAD (One Way Attack Drone)","Units":"","OrbatUnits":"2nd Guards Artillery Brigade","Id":"0c3e9a83-b13a-49a4-86f9-3a403752c6df","icon":"/api/icons/E00000/False/template/111.png"},"source":"geoconfirmed","source_name":"GeoConfirmed","source_url":"https://geoconfirmed.org/map/ukraine","id":"0c3e9a83-b13a-49a4-86f9-3a403752c6df","date":"2026-08-22","link":"https://geoconfirmed.org/map/ukraine/0c3e9a83-b13a-49a4-86f9-3a403752c6df","category":"Short Range (<50km) OWAD (One Way Attack Drone), mostly rotary wing, Flying OR Attacking a target without knowing the outcome: if something is damaged --> icon of the damaged equipment.","side":"Russia","color":"#E00000","description":"A civilian on a bicycle was attacked by a Russian FPV drone.","orbat":["2nd Guards Artillery Brigade"],"geolocation":["https://x.com/GeoConfirmed/status/2092270761729798649","https://x.com/AndrewPerpetua/status/2091984852031537200","https://x.com/AndrewPerpetua/status/2091984987385999490","https://www.youtube.com/watch?v=lJ4fJGtpYI4"],"sources":["https://x.com/AndrewPerpetua/status/2091129079051272305","https://x.com/United24media/status/2091253967271465282","https://www.reddit.com/r/UkraineRussiaReport/comments/1vvdvid/ru_pov_ambush_drone_of_the_2nd_artillery_brigade/","https://t.me/shock3OA/8796","https://x.com/Sumniy_Yar/status/2091476655344689549"]}},{"type":"Feature","geometry":{"type":"Point","coordinates":[36.65078,48.075485]},"properties":{"original":{"Date":"2026-08-22","Name":"22 AUG 2026","Faction":"Russia","Origin":"UAV","Latitude":"48.075485","Longitude":"36.65078","PlusCode":"8GWR3MG2+58 Zelenyi Hai, Donetsk Oblast, Ukraine","Description":"0:30 - Russian FPV strike.","Source":"https://x.com/moklasen/status/2091108788434583757, https://t.me/vbs_orel/15","Geolocation":"https://x.com/moklasen/status/2091108785041318314","Equipment":"","EquipmentItems":"FPV (First Person View) OWAD (One Way Attack Drone)","Units":"VBS Orel","OrbatUnits":"","Id":"f37bc6f9-46d0-457c-bdc0-3eaf3a288c8e","icon":"/api/icons/E00000/False/template/111.png"},"source":"geoconfirmed","source_name":"GeoConfirmed","source_url":"https://geoconfirmed.org/map/ukraine","id":"f37bc6f9-46d0-457c-bdc0-3eaf3a288c8e","date":"2026-08-22","link":"https://geoconfirmed.org/map/ukraine/f37bc6f9-46d0-457c-bdc0-3eaf3a288c8e","category":"Short Range (<50km) OWAD (One Way Attack Drone), mostly rotary wing, Flying OR Attacking a target without knowing the outcome: if something is damaged --> icon of the damaged equipment.","side":"Russia","color":"#E00000","description":"0:30 - Russian FPV strike.","orbat":["VBS Orel"],"geolocation":["https://x.com/moklasen/status/2091108785041318314"],"sources":["https://x.com/moklasen/status/2091108788434583757","https://t.me/vbs_orel/15"]}},{"type":"Feature","geometry":{"type":"Point","coordinates":[49.74574,52.960638]},"properties":{"original":{"Date":"2026-08-22","Name":"22 AUG 2026","Faction":"Neutral","Origin":"UAV","Latitude":"52.960638","Longitude":"49.74574","PlusCode":"9H4FXP6W+77 Chapayevsk, Samara Oblast, Russia","Description":"Destroyed Ozon distribution center.","Source":"https://x.com/Vlad_23456/status/2091269620305101231, https://t.me/exilenova_plus/29367","Geolocation":"https://t.me/exilenova_plus/29507, based on:, https://x.com/Vlad_23456/status/2091269447608901897","Equipment":"","EquipmentItems":"Fixed Wing OWAD (One Way Attack Drone)","Units":"","OrbatUnits":"","Id":"9a444180-4ddd-4b2d-9e96-4ddb821729f3","icon":"/api/icons/AC7339/False/template/192.png"},"source":"geoconfirmed","source_name":"GeoConfirmed","source_url":"https://geoconfirmed.org/map/ukraine","id":"9a444180-4ddd-4b2d-9e96-4ddb821729f3","date":"2026-08-22","link":"https://geoconfirmed.org/map/ukraine/9a444180-4ddd-4b2d-9e96-4ddb821729f3","category":"Recently destroyed/Damaged[Visible in footage] or still burning infrastucture","side":"Neutral","color":"#AC7339","description":"Destroyed Ozon distribution center.","orbat":[],"geolocation":["https://t.me/exilenova_plus/29507","https://x.com/Vlad_23456/status/2091269447608901897"],"sources":["https://x.com/Vlad_23456/status/2091269620305101231","https://t.me/exilenova_plus/29367"]}},{"type":"Feature","geometry":{"type":"Point","coordinates":[35.36551,46.850928]},"properties":{"original":{"Date":"2026-08-22","Name":"22 AUG 2026","Faction":"Neutral","Origin":"PIC","Latitude":"46.850928","Longitude":"35.36551","PlusCode":"8GRQV928+96 Melitopol', Zaporizhia Oblast, Ukraine","Description":"A former Epicentr-K hypermarket was destroyed reportedly by Ukrainian drones. The Epicenter parent group had officially categorized the Melitopol hypermarket as lost due to Russian occupation.","Source":"https://x.com/Exilenova_plus/status/2091046451782758639, https://x.com/99Dominik_/status/2091052405227974783, https://t.me/BalitskyEV/8867, , Strike: https://x.com/99Dominik_/status/2091421112668139947, https://t.me/luftwaffe422/1119, , More information, https://english.nv.ua/business/epicentr-group-lost-10-shopping-centers-due-to-war-says-ceo-halyna-hereha-50455277.html","Geolocation":"https://x.com/99Dominik_/status/2091052142270292105","Equipment":"","EquipmentItems":"Fixed Wing OWAD (One Way Attack Drone)","Units":"","OrbatUnits":"422nd Regiment of Unmanned Systems \"Luftwaffe\"","Id":"32bac43c-6856-4d3f-86e3-59ed0dbe2565","icon":"/api/icons/AC7339/False/template/192.png"},"source":"geoconfirmed","source_name":"GeoConfirmed","source_url":"https://geoconfirmed.org/map/ukraine","id":"32bac43c-6856-4d3f-86e3-59ed0dbe2565","date":"2026-08-22","link":"https://geoconfirmed.org/map/ukraine/32bac43c-6856-4d3f-86e3-59ed0dbe2565","category":"Recently destroyed/Damaged[Visible in footage] or still burning infrastucture","side":"Neutral","color":"#AC7339","description":"A former Epicentr-K hypermarket was destroyed reportedly by Ukrainian drones. The Epicenter parent group had officially categorized the Melitopol hypermarket as lost due to Russian occupation.","orbat":["422nd Regiment of Unmanned Systems \"Luftwaffe\""],"geolocation":["https://x.com/99Dominik_/status/2091052142270292105"],"sources":["https://x.com/Exilenova_plus/status/2091046451782758639","https://x.com/99Dominik_/status/2091052405227974783","https://t.me/BalitskyEV/8867","https://x.com/99Dominik_/status/2091421112668139947","https://t.me/luftwaffe422/1119","https://english.nv.ua/business/epicentr-group-lost-10-shopping-centers-due-to-war-says-ceo-halyna-hereha-50455277.html"]}},{"type":"Feature","geometry":{"type":"Point","coordinates":[31.246731,51.511044]},"properties":{"original":{"Date":"2026-08-22","Name":"22 AUG 2026","Faction":"Neutral","Origin":"VID","Latitude":"51.511044","Longitude":"31.246731","PlusCode":"9G3HG66W+CM Chernihiv, Chernihiv Oblast, Ukraine","Description":"Aftermath of a reported jet-powered drone strike on a family house in Chernihiv.","Source":"https://x.com/Zeldamices/status/20917736648909334144, https://www.youtube.com/watch?v=XcFuE6X2-dw","Geolocation":"https://bsky.app/profile/scaratlas.bsky.social/post/3mtpfzopxis2f","Equipment":"Jet powered drone (homeowner claim)","EquipmentItems":"","Units":"","OrbatUnits":"","Id":"3493af73-0964-4cb2-900a-5d01b1da3a1c","icon":"/api/icons/AC7339/False/template/192.png"},"source":"geoconfirmed","source_name":"GeoConfirmed","source_url":"https://geoconfirmed.org/map/ukraine","id":"3493af73-0964-4cb2-900a-5d01b1da3a1c","date":"2026-08-22","link":"https://geoconfirmed.org/map/ukraine/3493af73-0964-4cb2-900a-5d01b1da3a1c","category":"Recently destroyed/Damaged[Visible in footage] or still burning infrastucture","side":"Neutral","color":"#AC7339","description":"Aftermath of a reported jet-powered drone strike on a family house in Chernihiv.","orbat":[],"geolocation":["https://bsky.app/profile/scaratlas.bsky.social/post/3mtpfzopxis2f"],"sources":["https://x.com/Zeldamices/status/20917736648909334144","https://www.youtube.com/watch?v=XcFuE6X2-dw"]}},{"type":"Feature","geometry":{"type":"Point","coordinates":[35.371379,47.549776]},"properties":{"original":{"Date":"2026-08-22","Name":"22 AUG 2026","Faction":"Ukraine","Origin":"UAV","Latitude":"47.549776","Longitude":"35.371379","PlusCode":"8GVQG9XC+WH Kam'yans'ke, Zaporizhia Oblast, Ukraine","Description":"Ukrainian Airstrike","Source":"https://x.com/PuenteUribarri/status/2091232043162108274, https://t.me/soniah_hub/17823, https://x.com/Volodimyrovich_/status/2091533794528333869","Geolocation":"https://x.com/Kukulkan415/status/2091464956466073945, https://x.com/Volodimyrovich_/status/2091533622985609526","Equipment":"","EquipmentItems":"AASM (Armement Air-Sol Modulaire) Hammer (Higly Agile Modular Munition Extended Range) | Mirage 2000","Units":"","OrbatUnits":"","Id":"48a6f21d-908d-4622-9d62-6c6001657962","icon":"/api/icons/0051CA/False/template/10.png"},"source":"geoconfirmed","source_name":"GeoConfirmed","source_url":"https://geoconfirmed.org/map/ukraine","id":"48a6f21d-908d-4622-9d62-6c6001657962","date":"2026-08-22","link":"https://geoconfirmed.org/map/ukraine/48a6f21d-908d-4622-9d62-6c6001657962","category":"Shelling by artillery or aerial bombings - Location of the shelling, colour of who is shelling; Brown = UXO","side":"Ukraine","color":"#0051CA","description":"Ukrainian Airstrike","orbat":[],"geolocation":["https://x.com/Kukulkan415/status/2091464956466073945","https://x.com/Volodimyrovich_/status/2091533622985609526"],"sources":["https://x.com/PuenteUribarri/status/2091232043162108274","https://t.me/soniah_hub/17823","https://x.com/Volodimyrovich_/status/2091533794528333869"]}},{"type":"Feature","geometry":{"type":"Point","coordinates":[49.959669,53.103129]},"properties":{"original":{"Date":"2026-08-22","Name":"22 AUG 2026","Faction":"Ukraine","Origin":"PIC","Latitude":"53.103129","Longitude":"49.959669","PlusCode":"9H5F4X35+7V Novokuybyshevsk, Samara Oblast, Russia","Description":"Point of view looking in west direction - Huge plumes of smoke coming from the direction of  the Novokuybyshevsk Oil Refinery following a reported Ukrainian drone attack.","Source":"https://x.com/Grimm_Intel/status/2090971496726352370, https://t.me/exilenova_plus/29351, , More information, https://unn.ua/en/news/in-russias-samara-region-the-novokuybyshevsk-oil-refinery-caught-fire-following-a-uav-attack","Geolocation":"https://x.com/Grimm_Intel/status/2090971843180003760","Equipment":"","EquipmentItems":"","Units":"","OrbatUnits":"","Id":"e7a2f56e-35b2-400a-be7e-82b9dc75b411","icon":"/api/icons/0051CA/False/template/20.png"},"source":"geoconfirmed","source_name":"GeoConfirmed","source_url":"https://geoconfirmed.org/map/ukraine","id":"e7a2f56e-35b2-400a-be7e-82b9dc75b411","date":"2026-08-22","link":"https://geoconfirmed.org/map/ukraine/e7a2f56e-35b2-400a-be7e-82b9dc75b411","category":"Picture - Always Point of View in description - - In the colour of who is doing the attack or is responsable for the incident in the picture.","side":"Ukraine","color":"#0051CA","description":"Point of view looking in west direction - Huge plumes of smoke coming from the direction of  the Novokuybyshevsk Oil Refinery following a reported Ukrainian drone attack.","orbat":[],"geolocation":["https://x.com/Grimm_Intel/status/2090971843180003760"],"sources":["https://x.com/Grimm_Intel/status/2090971496726352370","https://t.me/exilenova_plus/29351","https://unn.ua/en/news/in-russias-samara-region-the-novokuybyshevsk-oil-refinery-caught-fire-following-a-uav-attack"]}},{"type":"Feature","geometry":{"type":"Point","coordinates":[37.102418,48.489868]},"properties":{"original":{"Date":"2026-08-22","Name":"22 AUG 2026","Faction":"Russia","Origin":"UAV","Latitude":"48.489868","Longitude":"37.102418","PlusCode":"8GWVF4Q2+WX Hannivka, Donetsk Oblast, Ukraine","Description":"Russian shelling of a claimed Ukrainian position","Source":"https://x.com/Zeldamices/status/2091767136519590030, https://t.me/zola_of_renovation/19481","Geolocation":"https://x.com/ne_kotletka/status/2091554311461298534","Equipment":"","EquipmentItems":"Artillery","Units":"","OrbatUnits":"51st Guards Combined Arms Army ","Id":"d2be6ba9-918c-49e4-bb35-833f139fbb0e","icon":"/api/icons/E00000/False/template/10.png"},"source":"geoconfirmed","source_name":"GeoConfirmed","source_url":"https://geoconfirmed.org/map/ukraine","id":"d2be6ba9-918c-49e4-bb35-833f139fbb0e","date":"2026-08-22","link":"https://geoconfirmed.org/map/ukraine/d2be6ba9-918c-49e4-bb35-833f139fbb0e","category":"Shelling by artillery or aerial bombings - Location of the shelling, colour of who is shelling; Brown = UXO","side":"Russia","color":"#E00000","description":"Russian shelling of a claimed Ukrainian position","orbat":["51st Guards Combined Arms Army"],"geolocation":["https://x.com/ne_kotletka/status/2091554311461298534"],"sources":["https://x.com/Zeldamices/status/2091767136519590030","https://t.me/zola_of_renovation/19481"]}},{"type":"Feature","geometry":{"type":"Point","coordinates":[49.744832,52.960171]},"properties":{"original":{"Date":"2026-08-22","Name":"22 AUG 2026","Faction":"Neutral","Origin":"VID","Latitude":"52.960171","Longitude":"49.744832","PlusCode":"9H4FXP6V+3W Chapayevsk, Samara Oblast, Russia","Description":"A Ukrainian drone hit the Ozon logistics hub in Chapayevsk. Huge smoke plumes and fire are visible after multiple reported drone strikes. Damage is visible on satellite imagery.","Source":"Vid, https://x.com/Exilenova_plus/status/2090985198842474755, https://t.me/exilenova_plus/29383, Pic, https://x.com/Grimm_Intel/status/2090996478554611908, https://t.me/exilenova_plus/29389, SAT, https://x.com/kromark/status/2091793575251964318, , More information, https://www.pravda.com.ua/eng/news/2026/08/22/8049776/, , ","Geolocation":"https://x.com/GeoConfirmed/status/2092268546415857874, Vid, https://x.com/GeoCrow_/status/2090997825848922470, Pic, https://x.com/Grimm_Intel/status/2090996478554611908, ","Equipment":"","EquipmentItems":"Fixed Wing OWAD (One Way Attack Drone)","Units":"","OrbatUnits":"","Id":"83f393b8-0b6e-45f5-ae8a-8b2da6fbada3","icon":"/api/icons/AC7339/False/template/192.png"},"source":"geoconfirmed","source_name":"GeoConfirmed","source_url":"https://geoconfirmed.org/map/ukraine","id":"83f393b8-0b6e-45f5-ae8a-8b2da6fbada3","date":"2026-08-22","link":"https://geoconfirmed.org/map/ukraine/83f393b8-0b6e-45f5-ae8a-8b2da6fbada3","category":"Recently destroyed/Damaged[Visible in footage] or still burning infrastucture","side":"Neutral","color":"#AC7339","description":"A Ukrainian drone hit the Ozon logistics hub in Chapayevsk. Huge smoke plumes and fire are visible after multiple reported drone strikes. Damage is visible on satellite imagery.","orbat":[],"geolocation":["https://x.com/GeoConfirmed/status/2092268546415857874","https://x.com/GeoCrow_/status/2090997825848922470","https://x.com/Grimm_Intel/status/2090996478554611908"],"sources":["https://x.com/Exilenova_plus/status/2090985198842474755","https://t.me/exilenova_plus/29383","https://x.com/Grimm_Intel/status/2090996478554611908","https://t.me/exilenova_plus/29389","https://x.com/kromark/status/2091793575251964318","https://www.pravda.com.ua/eng/news/2026/08/22/8049776/"]}},{"type":"Feature","geometry":{"type":"Point","coordinates":[34.309005,51.858635]},"properties":{"original":{"Date":"2026-08-22","Name":"22 AUG 2026","Faction":"Ukraine","Origin":"UAV","Latitude":"51.858635","Longitude":"34.309005","PlusCode":"9G3PV855+FJ Bachivs'k, Sumy Oblast, Ukraine","Description":"Ukrainian shelling (area grid)","Source":"https://x.com/jimmhelloman555/status/2091536644310471017, https://t.me/shadow_strike_27/1368","Geolocation":"https://x.com/jimmhelloman555/status/2091536526723121623","Equipment":"","EquipmentItems":"Artillery","Units":"Likely","OrbatUnits":"27th Border Detachment","Id":"d7db69db-9ac9-4dd6-aeea-a263bd108992","icon":"/api/icons/0051CA/False/template/10.png"},"source":"geoconfirmed","source_name":"GeoConfirmed","source_url":"https://geoconfirmed.org/map/ukraine","id":"d7db69db-9ac9-4dd6-aeea-a263bd108992","date":"2026-08-22","link":"https://geoconfirmed.org/map/ukraine/d7db69db-9ac9-4dd6-aeea-a263bd108992","category":"Shelling by artillery or aerial bombings - Location of the shelling, colour of who is shelling; Brown = UXO","side":"Ukraine","color":"#0051CA","description":"Ukrainian shelling (area grid)","orbat":["27th Border Detachment"],"geolocation":["https://x.com/jimmhelloman555/status/2091536526723121623"],"sources":["https://x.com/jimmhelloman555/status/2091536644310471017","https://t.me/shadow_strike_27/1368"]}},{"type":"Feature","geometry":{"type":"Point","coordinates":[38.26398,46.719588]},"properties":{"original":{"Date":"2026-08-22","Name":"22 AUG 2026","Faction":"Ukraine","Origin":"PIC","Latitude":"46.719588","Longitude":"38.26398","PlusCode":"8GRWP797+RH Yeysk, Krasnodar Krai, Russia","Description":"Point of view looking in northeast direction - Black smoke kolom coming from the direction of Yeysk oil terminal which was hit following a reported Ukrainian attack.","Source":"https://x.com/Exilenova_plus/status/2091040211216327059, , More information, https://newsukraine.rbc.ua/news/ukraine-strikes-yeysk-oil-loading-complex-1787400929.html","Geolocation":"https://x.com/zarGEOINT/status/2091057111656440145","Equipment":"","EquipmentItems":"","Units":"","OrbatUnits":"","Id":"b299a4ce-9048-4a2e-8ae0-a626b426678b","icon":"/api/icons/0051CA/False/template/20.png"},"source":"geoconfirmed","source_name":"GeoConfirmed","source_url":"https://geoconfirmed.org/map/ukraine","id":"b299a4ce-9048-4a2e-8ae0-a626b426678b","date":"2026-08-22","link":"https://geoconfirmed.org/map/ukraine/b299a4ce-9048-4a2e-8ae0-a626b426678b","category":"Picture - Always Point of View in description - - In the colour of who is doing the attack or is responsable for the incident in the picture.","side":"Ukraine","color":"#0051CA","description":"Point of view looking in northeast direction - Black smoke kolom coming from the direction of Yeysk oil terminal which was hit following a reported Ukrainian attack.","orbat":[],"geolocation":["https://x.com/zarGEOINT/status/2091057111656440145"],"sources":["https://x.com/Exilenova_plus/status/2091040211216327059","https://newsukraine.rbc.ua/news/ukraine-strikes-yeysk-oil-loading-complex-1787400929.html"]}},{"type":"Feature","geometry":{"type":"Point","coordinates":[32.61663,46.67247]},"properties":{"original":{"Date":"2026-08-22","Name":"22 AUG 2026","Faction":"Neutral","Origin":"VID","Latitude":"46.67247","Longitude":"32.61663","PlusCode":"8GRJMJC8+XM Kherson, Kherson Oblast, Ukraine","Description":"Destroyed building, 'Tavriia-V Shopping mall', in Kherson, following reported Russian strikes.","Source":"Vid1, https://x.com/99Dominik_/status/2091072260434010197, https://t.me/yaroslavshanko/6255, , Vid2, (Shorter), https://x.com/Maks_NAFO_FELLA/status/2091066523926311040, , , More information, https://biz.liga.net/en/fmcg/news/russian-forces-destroy-oscar-shopping-mall-in-kherson-photos-video","Geolocation":"https://x.com/99Dominik_/status/2091072101528584578, https://x.com/zarGEOINT/status/2091075949315895611","Equipment":"","EquipmentItems":"","Units":"","OrbatUnits":"","Id":"28a41e1f-d025-4dc4-8d37-aec104d59240","icon":"/api/icons/AC7339/False/template/192.png"},"source":"geoconfirmed","source_name":"GeoConfirmed","source_url":"https://geoconfirmed.org/map/ukraine","id":"28a41e1f-d025-4dc4-8d37-aec104d59240","date":"2026-08-22","link":"https://geoconfirmed.org/map/ukraine/28a41e1f-d025-4dc4-8d37-aec104d59240","category":"Recently destroyed/Damaged[Visible in footage] or still burning infrastucture","side":"Neutral","color":"#AC7339","description":"Destroyed building, 'Tavriia-V Shopping mall', in Kherson, following reported Russian strikes.","orbat":[],"geolocation":["https://x.com/99Dominik_/status/2091072101528584578","https://x.com/zarGEOINT/status/2091075949315895611"],"sources":["https://x.com/99Dominik_/status/2091072260434010197","https://t.me/yaroslavshanko/6255","https://x.com/Maks_NAFO_FELLA/status/2091066523926311040","https://biz.liga.net/en/fmcg/news/russian-forces-destroy-oscar-shopping-mall-in-kherson-photos-video"]}}]}