{"type":"FeatureCollection","features":[{"type":"Feature","geometry":{"type":"Polygon","coordinates":[[[37.8017,48.55638],[37.79941,48.5583],[37.79835,48.55864],[37.79707,48.56405],[37.80105,48.56448],[37.80288,48.56643],[37.80838,48.56788],[37.81199,48.56964],[37.81362,48.56875],[37.81529,48.56854],[37.81365,48.56742],[37.81399,48.56631],[37.81165,48.56356],[37.81284,48.55431],[37.80953,48.55218],[37.80573,48.55066],[37.8017,48.55638]]]},"properties":{"source":"ukrdaily","source_name":"UkrDailyUpdate","source_url":"https://map.ukrdailyupdate.com/","category":"gained_contested","category_label":"Newly contested","period":"1d","compared_with":"2026-08-01","snapshot_time":"2026-08-02","area_km2_approx":1.6}}]}