{"type":"FeatureCollection","features":[{"type":"Feature","geometry":{"type":"Point","coordinates":[34.783256,50.890239]},"properties":{"source":"geoconfirmed","source_name":"GeoConfirmed","source_url":"https://geoconfirmed.org/map/ukraine","id":"a40c8a67-29fd-4182-b837-02b7797774cd","date":"2026-09-23","link":"https://geoconfirmed.org/map/ukraine/a40c8a67-29fd-4182-b837-02b7797774cd","category":"Recently destroyed/Damaged[Visible in footage] or still burning infrastucture","side":"Neutral","color":"#AC7339","description":"0:24 - A Russian airstrike badly damaged the garage of a mechanic shop.","orbat":[],"geolocation":["https://bsky.app/profile/scaratlas.bsky.social/post/3mw7gl7cm6k23"],"sources":["https://bsky.app/profile/scaratlas.bsky.social/post/3mw7gldew4223","https://t.me/suspilnesumy/48082","https://youtu.be/P570BMgwdF0?si=y2zf9D4S8d8zj1AK&t=67"]}},{"type":"Feature","geometry":{"type":"Point","coordinates":[37.573843,48.74034]},"properties":{"source":"geoconfirmed","source_name":"GeoConfirmed","source_url":"https://geoconfirmed.org/map/ukraine","id":"1213b851-22e7-472a-9eeb-0b5372675956","date":"2026-09-23","link":"https://geoconfirmed.org/map/ukraine/1213b851-22e7-472a-9eeb-0b5372675956","category":"Killed or wounded civilian. Potential Warcrime. In the colour of who is assessed as doing the attack/killing.","side":"Russia","color":"#E00000","description":"A Russian FPV drone attacked a couple, injuring them.","orbat":[],"geolocation":["https://x.com/99Dominik_/status/2102861880880464007"],"sources":["https://x.com/99Dominik_/status/2102861566320492961","https://t.me/patrolpolice_ua/14249"]}},{"type":"Feature","geometry":{"type":"Point","coordinates":[68.437485,58.237963]},"properties":{"source":"geoconfirmed","source_name":"GeoConfirmed","source_url":"https://geoconfirmed.org/map/ukraine","id":"c3668afe-79eb-4c4e-89dc-6f60c145113e","date":"2026-09-23","link":"https://geoconfirmed.org/map/ukraine/c3668afe-79eb-4c4e-89dc-6f60c145113e","category":"Recently destroyed/Damaged[Visible in footage] or still burning infrastucture","side":"Neutral","color":"#AC7339","description":"Demolition/ Repairs at Central Gas Fractionation Unit No. 1 (CGFU-1) at the Tobolsk-Neftekhim / SIBUR petrochemical complex, results of Aug 10 Ukrainian drone attack. The unit/complex production is reportedly offline.","orbat":[],"geolocation":["https://x.com/neonhandrail/status/2102785550675828968"],"sources":["https://x.com/Exilenova_plus/status/2102770612556972160"]}},{"type":"Feature","geometry":{"type":"Point","coordinates":[30.64085,50.42512]},"properties":{"source":"geoconfirmed","source_name":"GeoConfirmed","source_url":"https://geoconfirmed.org/map/ukraine","id":"c4eede93-b917-4b79-bbbf-701d4a4d00e8","date":"2026-09-23","link":"https://geoconfirmed.org/map/ukraine/c4eede93-b917-4b79-bbbf-701d4a4d00e8","category":"Recently destroyed/Damaged[Visible in footage] or still burning infrastucture","side":"Neutral","color":"#AC7339","description":"Destroyed petrol station 'UPG' following a reported Russian strike.","orbat":[],"geolocation":["https://x.com/zarGEOINT/status/2102641221495841277"],"sources":["https://x.com/zarGEOINT/status/2102630182112612728","https://t.me/kievinfo_kyiv/99359"]}},{"type":"Feature","geometry":{"type":"Point","coordinates":[37.679103,48.526274]},"properties":{"source":"geoconfirmed","source_name":"GeoConfirmed","source_url":"https://geoconfirmed.org/map/ukraine","id":"0e902adb-9cfe-484e-84b3-78f6290ceeae","date":"2026-09-23","link":"https://geoconfirmed.org/map/ukraine/0e902adb-9cfe-484e-84b3-78f6290ceeae","category":"Multipurpose Bomber Drone, Flying OR Dropping OR bombing a target without knowing the outcome: if something is damaged --> icon of the damaged equipment.","side":"Ukraine","color":"#0051CA","description":"0:21-0:46 - UAV Unit \"Fenix Team\", 17th Special Purpose Center hits a Russian position in Kostyantynivka with Heavy Bomber Drone Drops","orbat":["UAV Unit \"Fenix Team\""],"geolocation":["https://x.com/AudaxonX/status/2102731317074870440"],"sources":["https://x.com/AudaxonX/status/2102731308891848941","https://www.instagram.com/fenix.team.17csp/reel/DdjHbMXKlWj/"]}},{"type":"Feature","geometry":{"type":"Point","coordinates":[30.474071,50.429865]},"properties":{"source":"geoconfirmed","source_name":"GeoConfirmed","source_url":"https://geoconfirmed.org/map/ukraine","id":"013aba2b-12f1-42b2-8cff-79dfeb59e743","date":"2026-09-23","link":"https://geoconfirmed.org/map/ukraine/013aba2b-12f1-42b2-8cff-79dfeb59e743","category":"Recently destroyed/Damaged[Visible in footage] or still burning infrastucture","side":"Neutral","color":"#AC7339","description":"Reported Russian Geran-5 strike hit office building in Solom'yanka, Kyiv","orbat":[],"geolocation":["https://x.com/giK1893/status/2102693256932831425"],"sources":["https://x.com/giK1893/status/2102693254256902374","https://t.me/insiderUKR/134440","https://t.me/insiderUKR/134441","https://t.me/eRadarrua/116033"]}},{"type":"Feature","geometry":{"type":"Point","coordinates":[30.492048,50.435873]},"properties":{"source":"geoconfirmed","source_name":"GeoConfirmed","source_url":"https://geoconfirmed.org/map/ukraine","id":"f42510c3-867b-4c3b-8319-7a81de3a9380","date":"2026-09-23","link":"https://geoconfirmed.org/map/ukraine/f42510c3-867b-4c3b-8319-7a81de3a9380","category":"Recently destroyed/Damaged[Visible in footage] or still burning infrastucture","side":"Neutral","color":"#AC7339","description":"A Russian Geran-5 struck Shayba Market near the Kyiv-Pasazhyrskyi train station.","orbat":[],"geolocation":["https://x.com/giK1893/status/2102690746394661163","https://x.com/zarGEOINT/status/2102777758439059727","https://x.com/Pythafix_/status/2102708089853997382"],"sources":["https://x.com/Maks_NAFO_FELLA/status/2102681246421901393","https://x.com/giK1893/status/2102690746394661163","https://x.com/Maks_NAFO_FELLA/status/2102681246421901393","https://t.me/kievinfo_kyiv/99397","https://english.nv.ua/nation/drone-strikes-shaiba-railway-market-a-landmark-of-modernism-in-attack-on-kyiv-on-september-23-50643975.html","https://www.ukrinform.net/rubric-ato/4167199-russian-attacks-on-kyiv-kill-two-injure-at-least-36.html"]}},{"type":"Feature","geometry":{"type":"Point","coordinates":[37.682648,48.517896]},"properties":{"source":"geoconfirmed","source_name":"GeoConfirmed","source_url":"https://geoconfirmed.org/map/ukraine","id":"6b36c7af-5212-4f17-9b83-7fabffd44732","date":"2026-09-23","link":"https://geoconfirmed.org/map/ukraine/6b36c7af-5212-4f17-9b83-7fabffd44732","category":"Multipurpose Bomber Drone, Flying OR Dropping OR bombing a target without knowing the outcome: if something is damaged --> icon of the damaged equipment.","side":"Ukraine","color":"#0051CA","description":"0:45-0:59 - UAV Unit \"Fenix Team\", 17th Special Purpose Center hits a Russian position in Kostyantynivka with a Heavy Bomber Drone Drop","orbat":["UAV Unit \"Fenix Team\""],"geolocation":["https://x.com/AudaxonX/status/2102731326088675772"],"sources":["https://x.com/AudaxonX/status/2102731308891848941","https://www.instagram.com/fenix.team.17csp/reel/DdjHbMXKlWj/"]}},{"type":"Feature","geometry":{"type":"Point","coordinates":[36.331956,46.736243]},"properties":{"source":"geoconfirmed","source_name":"GeoConfirmed","source_url":"https://geoconfirmed.org/map/ukraine","id":"15e0098d-3f6d-4e3f-863c-89314c643fc2","date":"2026-09-23","link":"https://geoconfirmed.org/map/ukraine/15e0098d-3f6d-4e3f-863c-89314c643fc2","category":"Short Range (<50km) OWAD (One Way Attack Drone), mostly rotary wing, Flying OR Attacking a target without knowing the outcome: if something is damaged --> icon of the damaged equipment.","side":"Ukraine","color":"#0051CA","description":"0:11-0:12 - Ukrainian 3rd Regiment  SOF Hornet drone targeted a transport truck","orbat":["Special Operations Center \"East\""],"geolocation":["https://x.com/neonhandrail/status/2102755085612949515"],"sources":["https://x.com/NOELreports/status/2102002503843782770"]}},{"type":"Feature","geometry":{"type":"Point","coordinates":[35.512963,47.590501]},"properties":{"source":"geoconfirmed","source_name":"GeoConfirmed","source_url":"https://geoconfirmed.org/map/ukraine","id":"82c96928-4089-4120-968a-9234f344734e","date":"2026-09-23","link":"https://geoconfirmed.org/map/ukraine/82c96928-4089-4120-968a-9234f344734e","category":"Short Range (<50km) OWAD (One Way Attack Drone), mostly rotary wing, Flying OR Attacking a target without knowing the outcome: if something is damaged --> icon of the damaged equipment.","side":"Russia","color":"#E00000","description":"0:17-0:21 - Claimed Ukrainian position hit by a Russian FPV drone of the Spetznaz \"Reaper\" of the 58th Guards Combined Arms Army","orbat":["Spetznaz \"Reaper\""],"geolocation":["https://x.com/moklasen/status/2102849617054298316"],"sources":["https://x.com/moklasen/status/2102849621114442055","https://t.me/UVO58/2041"]}},{"type":"Feature","geometry":{"type":"Point","coordinates":[36.921067,48.712622]},"properties":{"source":"geoconfirmed","source_name":"GeoConfirmed","source_url":"https://geoconfirmed.org/map/ukraine","id":"ced5cbf6-4e6f-425f-9b0e-987dfe921506","date":"2026-09-23","link":"https://geoconfirmed.org/map/ukraine/ced5cbf6-4e6f-425f-9b0e-987dfe921506","category":"Killed or wounded civilian. Potential Warcrime. In the colour of who is assessed as doing the attack/killing.","side":"Russia","color":"#E00000","description":"A Russian airstrike killed five people and injured six more. Three humanitarian workers from the Proliska NGO have been rescued from under the rubble.","orbat":[],"geolocation":["https://bsky.app/profile/scaratlas.bsky.social/post/3mw6xgperss27"],"sources":["https://x.com/blyskavka_ua/status/2102749056736825795","https://t.me/suspilnedonbas/45372","https://suspilne.media/donbas/1410478-aviaudar-po-oleksandrivci-4-zagiblih-ta-4-poranenih-sered-nih-ditina-filaskin/"]}},{"type":"Feature","geometry":{"type":"Point","coordinates":[30.474172,50.429393]},"properties":{"source":"geoconfirmed","source_name":"GeoConfirmed","source_url":"https://geoconfirmed.org/map/ukraine","id":"8b0754de-3fd5-4d4a-92b8-a4e00db6c68d","date":"2026-09-23","link":"https://geoconfirmed.org/map/ukraine/8b0754de-3fd5-4d4a-92b8-a4e00db6c68d","category":"Killed or wounded civilian. Potential Warcrime. In the colour of who is assessed as doing the attack/killing.","side":"Russia","color":"#E00000","description":"A Russian Geran-5 strike drone killed a person.","orbat":[],"geolocation":["https://x.com/99Dominik_/status/2102726011662082247"],"sources":["https://x.com/99Dominik_/status/2102726131178787165","https://t.me/svoboda_radio/48877","https://www.ukrinform.net/rubric-ato/4167199-russian-attacks-on-kyiv-kill-two-injure-at-least-36.html"]}},{"type":"Feature","geometry":{"type":"Point","coordinates":[37.832908,48.484743]},"properties":{"source":"geoconfirmed","source_name":"GeoConfirmed","source_url":"https://geoconfirmed.org/map/ukraine","id":"ee526afe-7423-4381-b363-bb42c1e00772","date":"2026-09-23","link":"https://geoconfirmed.org/map/ukraine/ee526afe-7423-4381-b363-bb42c1e00772","category":"Short Range (<50km) OWAD (One Way Attack Drone), mostly rotary wing, Flying OR Attacking a target without knowing the outcome: if something is damaged --> icon of the damaged equipment.","side":"Ukraine","color":"#0051CA","description":"0:07-0:15 - Russian soldier targeted by a Ukrainian FPV drone of the 2nd Unmanned Systems Battalion 'Seraphim' (104th TDF Brigade)","orbat":["2nd Unmanned Systems Battalion \"Seraphim\""],"geolocation":["https://x.com/AudaxonX/status/2102730913691889930"],"sources":["https://x.com/AudaxonX/status/2102731033624056185","https://www.instagram.com/seraphinesbattalion/reel/Ddf-AQ0qi0c"]}},{"type":"Feature","geometry":{"type":"Point","coordinates":[37.598846,48.733293]},"properties":{"source":"geoconfirmed","source_name":"GeoConfirmed","source_url":"https://geoconfirmed.org/map/ukraine","id":"eb9f3b5f-b217-4d2e-aa04-c18dc0cd6d65","date":"2026-09-23","link":"https://geoconfirmed.org/map/ukraine/eb9f3b5f-b217-4d2e-aa04-c18dc0cd6d65","category":"Recently destroyed/Damaged[Visible in footage] or still burning infrastucture","side":"Neutral","color":"#AC7339","description":"0:06-0:11 - Damaged apartment building following a Russian strike","orbat":[],"geolocation":["https://x.com/Zeldamices/status/2102627643405259208"],"sources":["https://x.com/Zeldamices/status/2102627639827517614","https://t.me/slav_kramatorskDonbass/141453","https://ua.news/en/war-vs-rf/rosiiskii-udar-poshkodiv-khram-u-kramatorsku"]}},{"type":"Feature","geometry":{"type":"Point","coordinates":[30.54123,50.44921]},"properties":{"source":"geoconfirmed","source_name":"GeoConfirmed","source_url":"https://geoconfirmed.org/map/ukraine","id":"c5b21a5a-4c63-4fcb-97df-c38afc2df997","date":"2026-09-23","link":"https://geoconfirmed.org/map/ukraine/c5b21a5a-4c63-4fcb-97df-c38afc2df997","category":"Recently destroyed/Damaged[Visible in footage] or still burning infrastucture","side":"Neutral","color":"#AC7339","description":"Smoke rises from the \"Parkovyi\" Congress and Exhibition Center in Kyiv following a Russian strike.","orbat":[],"geolocation":["https://x.com/zarGEOINT/status/2102773704770179454"],"sources":["https://x.com/Maks_NAFO_FELLA/status/2102768015746236726","https://newsukraine.rbc.ua/news/exhibition-center-in-kyiv-damaged-after-russian-1790190577.html"]}},{"type":"Feature","geometry":{"type":"Point","coordinates":[34.784794,50.88984]},"properties":{"source":"geoconfirmed","source_name":"GeoConfirmed","source_url":"https://geoconfirmed.org/map/ukraine","id":"0d4efd75-29eb-47b9-acba-caeeed95aa5f","date":"2026-09-23","link":"https://geoconfirmed.org/map/ukraine/0d4efd75-29eb-47b9-acba-caeeed95aa5f","category":"Killed or wounded civilian. Potential Warcrime. In the colour of who is assessed as doing the attack/killing.","side":"Russia","color":"#E00000","description":"Injured man after a reported Russian attack.","orbat":[],"geolocation":["https://x.com/99Dominik_/status/2102768270189490558"],"sources":["https://x.com/99Dominik_/status/2102768593846821366","https://t.me/police_su_region/40677"]}},{"type":"Feature","geometry":{"type":"Point","coordinates":[30.55306,50.34093]},"properties":{"source":"geoconfirmed","source_name":"GeoConfirmed","source_url":"https://geoconfirmed.org/map/ukraine","id":"898a8d87-bf86-4b85-804e-efabbf7d5961","date":"2026-09-23","link":"https://geoconfirmed.org/map/ukraine/898a8d87-bf86-4b85-804e-efabbf7d5961","category":"Recently destroyed/Damaged[Visible in footage] or still burning infrastucture","side":"Neutral","color":"#AC7339","description":"Destroyed petrol station 'Ukrnafta' following a reported Russian strike.","orbat":[],"geolocation":["https://x.com/zarGEOINT/status/2102641221495841277","https://x.com/Zeldamices/status/2102645168943870149"],"sources":["https://x.com/zarGEOINT/status/2102630182112612728","https://t.me/kievinfo_kyiv/99354","https://x.com/Zeldamices/status/2102645168943870149","https://t.me/kievinfo_kyiv/99354"]}},{"type":"Feature","geometry":{"type":"Point","coordinates":[38.729401,48.44722]},"properties":{"source":"geoconfirmed","source_name":"GeoConfirmed","source_url":"https://geoconfirmed.org/map/ukraine","id":"2730f7b3-ab26-43da-8335-f051f3c5fbc1","date":"2026-09-23","link":"https://geoconfirmed.org/map/ukraine/2730f7b3-ab26-43da-8335-f051f3c5fbc1","category":"Longe Range (>50km) OWAD (One Way Attack Drone) or Loitering munition, mostly fixed wing, Flying OR Attacking a target without knowing the outcome: if something is damaged --> icon of the damaged equipment.","side":"Ukraine","color":"#0051CA","description":"0:06-0:26 - area grid - The 110 kV “Artemivska” Substation was struck by pilots of the 9th Battalion \"Kairos\". (Fire on the left) An additional fire is seen.","orbat":["9th Long-Range Strike Battalion \"Kairos\""],"geolocation":["https://x.com/aroslav24470/status/2102633854062231582"],"sources":["https://x.com/414magyarbirds/status/2102644574829044049","https://www.youtube.com/watch?v=sblRSKUAz9c","https://t.me/robert_magyar/2841"]}},{"type":"Feature","geometry":{"type":"Point","coordinates":[34.042,45.279528]},"properties":{"source":"geoconfirmed","source_name":"GeoConfirmed","source_url":"https://geoconfirmed.org/map/ukraine","id":"f1e9eaf3-ee8c-404f-9306-fcf66ef8f2ab","date":"2026-09-23","link":"https://geoconfirmed.org/map/ukraine/f1e9eaf3-ee8c-404f-9306-fcf66ef8f2ab","category":"Longe Range (>50km) OWAD (One Way Attack Drone) or Loitering munition, mostly fixed wing, Flying OR Attacking a target without knowing the outcome: if something is damaged --> icon of the damaged equipment.","side":"Ukraine","color":"#0051CA","description":"01:50-01:56 - area grid - The reported gas distribution station \"Kir-Baylar\"  was attacked by drone from pilots of the 9th battalion \"Kairos\" of the village of Kir-Baylar, AR Crimea (N°406)","orbat":["9th Long-Range Strike Battalion \"Kairos\""],"geolocation":["https://x.com/ne_kotletka/status/2102745828532117583"],"sources":["https://x.com/414magyarbirds/status/2102644574829044049","https://www.youtube.com/watch?v=sblRSKUAz9c","https://t.me/robert_magyar/2841"]}}]}