{"type":"FeatureCollection","features":[{"type":"Feature","geometry":{"type":"MultiPolygon","coordinates":[[[[37.18716,50.35891],[37.18641,50.35348],[37.17315,50.34762],[37.15985,50.34028],[37.1571,50.33524],[37.14466,50.33502],[37.14062,50.3428],[37.14011,50.34932],[37.13819,50.36108],[37.14882,50.356],[37.18315,50.36346],[37.18716,50.35891]]],[[[36.1058,47.59971],[36.10363,47.61264],[36.09999,47.6214],[36.09939,47.62754],[36.1027,47.63041],[36.10471,47.63185],[36.11857,47.63373],[36.12463,47.63665],[36.13854,47.63994],[36.14573,47.64219],[36.14922,47.6477],[36.15456,47.65097],[36.1631,47.64173],[36.13937,47.633],[36.13388,47.62742],[36.13317,47.62457],[36.12718,47.62071],[36.12757,47.61063],[36.12915,47.60336],[36.13108,47.59225],[36.10852,47.58919],[36.1058,47.59971]]],[[[36.06478,47.55255],[36.07375,47.55101],[36.07465,47.54971],[36.0649,47.52458],[36.05331,47.52589],[36.06478,47.55255]]]]},"properties":{"source":"ukrdaily","source_name":"UkrDailyUpdate","source_url":"https://map.ukrdailyupdate.com/","category":"gained","category_label":"Newly Russian-occupied","period":"1d","compared_with":"2026-08-31","snapshot_time":"2026-09-01","area_km2_approx":20.6}}]}