{"type":"FeatureCollection","features":[{"type":"Feature","geometry":{"type":"Point","coordinates":[37.922088,48.583616]},"properties":{"source":"warspotting","source_name":"WarSpotting","source_url":"https://ukr.warspotting.net/","id":47335,"date":"2026-09-27","link":"https://ukr.warspotting.net/view/47335/","category":"Infantry fighting vehicles","side":"Lost by Russia","color":"#E00000","description":"MT-LB(V) · Destroyed · near Ivanivske, Bakhmut raion · tags: Cope cage, Expanded cabin, Additional armour, Hedgehog","orbat":[]}},{"type":"Feature","geometry":{"type":"Point","coordinates":[37.922088,48.583616]},"properties":{"source":"warspotting","source_name":"WarSpotting","source_url":"https://ukr.warspotting.net/","id":47336,"date":"2026-09-27","link":"https://ukr.warspotting.net/view/47336/","category":"Infantry fighting vehicles","side":"Lost by Russia","color":"#E00000","description":"BMP-1 or -2 · Destroyed · near Ivanivske, Bakhmut raion · tags: Cope cage, Jammer, Additional armour","orbat":[]}}]}