{"type":"FeatureCollection","features":[{"type":"Feature","geometry":{"type":"Polygon","coordinates":[[[37.17003,48.37965],[37.17409,48.38983],[37.18527,48.39236],[37.18718,48.40053],[37.1955,48.40153],[37.19515,48.40479],[37.19962,48.40612],[37.20263,48.40506],[37.21839,48.40581],[37.213,48.39606],[37.18889,48.39327],[37.19134,48.38378],[37.18943,48.38104],[37.18933,48.3809],[37.18855,48.37978],[37.17653,48.37861],[37.17003,48.37965]]]},"properties":{"source":"ukrdaily","source_name":"UkrDailyUpdate","source_url":"https://map.ukrdailyupdate.com/","category":"gained","category_label":"Newly Russian-occupied","period":"1d","compared_with":"2026-09-16","snapshot_time":"2026-09-17","area_km2_approx":4.1}}]}