{"type":"FeatureCollection","features":[{"type":"Feature","geometry":{"type":"MultiPolygon","coordinates":[[[[37.91637,48.81015],[37.91443,48.81359],[37.90959,48.83394],[37.91092,48.83561],[37.92071,48.84021],[37.92885,48.84052],[37.93253,48.81976],[37.93017,48.81688],[37.9312,48.81295],[37.93153,48.81126],[37.91637,48.81015]]],[[[37.82523,48.75642],[37.81845,48.76191],[37.83591,48.77845],[37.83682,48.77825],[37.83574,48.77661],[37.84282,48.76968],[37.84716,48.76724],[37.84636,48.76167],[37.8419,48.76326],[37.83769,48.76383],[37.83335,48.76157],[37.83141,48.76001],[37.83448,48.75188],[37.82523,48.75642]]],[[[37.80346,48.56432],[37.80315,48.56586],[37.80281,48.56976],[37.80319,48.57236],[37.80772,48.57297],[37.81141,48.5729],[37.81942,48.57537],[37.82127,48.57304],[37.81667,48.57154],[37.81456,48.56953],[37.81277,48.56732],[37.81094,48.5646],[37.80346,48.56432]]],[[[37.78567,48.6562],[37.78344,48.66596],[37.78224,48.67338],[37.785,48.67492],[37.79571,48.67999],[37.79708,48.67849],[37.80854,48.68064],[37.81091,48.66559],[37.79862,48.66385],[37.79672,48.66126],[37.79492,48.66044],[37.79414,48.65911],[37.79178,48.6581],[37.78719,48.655],[37.78567,48.6562]]],[[[37.605,50.25353],[37.61307,50.25561],[37.62612,50.25575],[37.6264,50.23882],[37.60908,50.24051],[37.59706,50.24594],[37.5914,50.25094],[37.605,50.25353]]],[[[37.24547,48.4597],[37.26452,48.46448],[37.27512,48.46974],[37.28096,48.4723],[37.2934,48.4758],[37.29984,48.47643],[37.30203,48.47609],[37.30237,48.47674],[37.30383,48.47734],[37.30636,48.47586],[37.31194,48.47424],[37.31782,48.47454],[37.30967,48.46928],[37.2947,48.4683],[37.27673,48.46738],[37.27126,48.46059],[37.26369,48.45749],[37.24924,48.45606],[37.24924,48.45604],[37.24425,48.45557],[37.24547,48.4597]]],[[[37.17003,48.37965],[37.17409,48.38983],[37.18527,48.39236],[37.18718,48.40053],[37.1955,48.40153],[37.19515,48.40479],[37.18845,48.41024],[37.18998,48.41406],[37.22282,48.41698],[37.22361,48.41961],[37.22516,48.41979],[37.23339,48.41903],[37.23559,48.41166],[37.24174,48.41143],[37.2432,48.39972],[37.22928,48.39794],[37.18889,48.39327],[37.19134,48.38378],[37.18943,48.38104],[37.18933,48.3809],[37.18855,48.37978],[37.17653,48.37861],[37.17003,48.37965]]],[[[36.20784,50.34212],[36.19805,50.33431],[36.19365,50.33327],[36.19003,50.33538],[36.18984,50.33902],[36.19411,50.34519],[36.20732,50.35729],[36.22126,50.36785],[36.21933,50.36412],[36.22237,50.35963],[36.22748,50.3572],[36.20784,50.34212]]]]},"properties":{"source":"ukrdaily","source_name":"UkrDailyUpdate","source_url":"https://map.ukrdailyupdate.com/","category":"gained","category_label":"Newly Russian-occupied","period":"7d","compared_with":"2026-09-10","snapshot_time":"2026-09-17","area_km2_approx":31.9}},{"type":"Feature","geometry":{"type":"Polygon","coordinates":[[[37.61968,49.81595],[37.62118,49.82055],[37.62735,49.82058],[37.63014,49.82266],[37.63242,49.82342],[37.63415,49.82264],[37.62939,49.81656],[37.62461,49.81492],[37.61968,49.81595]]]},"properties":{"source":"ukrdaily","source_name":"UkrDailyUpdate","source_url":"https://map.ukrdailyupdate.com/","category":"lost","category_label":"No longer Russian-occupied","period":"7d","compared_with":"2026-09-10","snapshot_time":"2026-09-17","area_km2_approx":0.5}}]}