{"type":"FeatureCollection","features":[{"type":"Feature","geometry":{"type":"MultiPolygon","coordinates":[[[[37.54578,50.22673],[37.52772,50.22076],[37.52236,50.22905],[37.52845,50.2362],[37.52743,50.24315],[37.54237,50.24416],[37.56886,50.23713],[37.56882,50.23687],[37.53979,50.23788],[37.53875,50.23587],[37.54458,50.23409],[37.56879,50.22991],[37.56878,50.22975],[37.54578,50.22673]]],[[[37.14511,50.33534],[37.14336,50.34586],[37.16296,50.35194],[37.18034,50.36317],[37.18828,50.35397],[37.16136,50.34378],[37.15765,50.33507],[37.14511,50.33534]]],[[[36.10581,47.60224],[36.09738,47.62622],[36.10508,47.63136],[36.14208,47.64064],[36.15418,47.65087],[36.1589,47.64249],[36.14036,47.63325],[36.12809,47.62141],[36.12399,47.61129],[36.12959,47.60294],[36.12392,47.59188],[36.10852,47.58992],[36.1085,47.58709],[36.10814,47.58706],[36.10581,47.60224]]],[[[36.05615,47.53356],[36.06382,47.55287],[36.07253,47.55055],[36.06525,47.52684],[36.03239,47.52614],[36.03235,47.52633],[36.05615,47.53356]]]]},"properties":{"source":"deepstate","source_name":"DeepStateMap","source_url":"https://deepstatemap.live/en","category":"gained","category_label":"Newly Russian-occupied","period":"1d","compared_with":"2026-08-31","snapshot_time":"2026-09-01","area_km2_approx":21.5}}]}