{"type":"FeatureCollection","features":[{"type":"Feature","geometry":{"type":"Point","coordinates":[32.90755,47.37142]},"properties":{"source":"lost_warinua","source_name":"lost_warinua (Telegram)","source_url":"https://t.me/s/lost_warinua","id":141162,"date":"2026-09-14","date_note":null,"posted_utc":"2026-09-29T20:13:32+00:00","link":"https://t.me/lost_warinua/141162","category":"Telegram post","side":"Claimed loss: Ukraine (ВСУ)","color":"#0051CA","description":"Уничтоженная РЛС СТ-68У ВСУ рядом с н.п. Калуга Николаевской области.","orbat":[],"sources":[],"original_html":"<div class=\"tgme_widget_message_text js-message_text\" dir=\"auto\">14.09.2026<br/>Уничтоженная РЛС СТ-68У ВСУ рядом с н.п. Калуга Николаевской области.<br/>(<code>47.37142, 32.90755</code>)"}}]}