{"type":"FeatureCollection","features":[{"type":"Feature","geometry":{"type":"Point","coordinates":[40.02302,44.67329]},"properties":{"source":"lost_warinua","source_name":"lost_warinua (Telegram)","source_url":"https://t.me/s/lost_warinua","id":141251,"date":"2026-10-04","date_note":null,"posted_utc":"2026-10-07T14:55:30+00:00","link":"https://t.me/lost_warinua/141251","category":"Telegram post","side":"Claimed loss: Russia","color":"#E00000","description":"Уничтоженный российский самолет предположительно Су-35С на аэродроме Ханская Республика Адыгея.","orbat":[],"sources":["https://t.me/DniproOfficial/8226","https://t.me/avivector/3631"],"original_html":"<div class=\"tgme_widget_message_text js-message_text\" dir=\"auto\">04.10.2026<br/>Уничтоженный российский самолет предположительно Су-35С на аэродроме Ханская Республика Адыгея.<br/><code>44.67329, 40.02302</code><br/><a href=\"https://t.me/DniproOfficial/8226\" target=\"_blank\" rel=\"noopener\">https://t.me/DniproOfficial/8226</a><br/><a href=\"https://t.me/avivector/3631\" target=\"_blank\" rel=\"noopener\">https://t.me/avivector/3631</a>"}},{"type":"Feature","geometry":{"type":"Point","coordinates":[40.02602,44.67492]},"properties":{"source":"lost_warinua","source_name":"lost_warinua (Telegram)","source_url":"https://t.me/s/lost_warinua","id":141253,"date":"2026-10-04","date_note":null,"posted_utc":"2026-10-07T14:56:06+00:00","link":"https://t.me/lost_warinua/141253","category":"Telegram post","side":"Claimed loss: Russia","color":"#E00000","description":"Уничтоженный российский самолет предположительно Су-34 на аэродроме Ханская Республика Адыгея.","orbat":[],"sources":["https://t.me/DniproOfficial/8226","https://t.me/avivector/3631"],"original_html":"<div class=\"tgme_widget_message_text js-message_text\" dir=\"auto\">04.10.2026<br/>Уничтоженный российский самолет предположительно Су-34 на аэродроме Ханская Республика Адыгея.<br/><code>44.67492, 40.02602</code><br/><a href=\"https://t.me/DniproOfficial/8226\" target=\"_blank\" rel=\"noopener\">https://t.me/DniproOfficial/8226</a><br/><a href=\"https://t.me/avivector/3631\" target=\"_blank\" rel=\"noopener\">https://t.me/avivector/3631</a>"}}]}