{"type":"FeatureCollection","features":[{"type":"Feature","geometry":{"type":"Point","coordinates":[32.65233,46.108453]},"properties":{"original":{"id":47039,"type":"Transport","model":"Ural-4320","status":"Destroyed","lost_by":"Russia","date":"2026-09-13","nearest_location":"Volodymyrivka, Skadovsk raion","geo":"46.108453,32.652330","unit":null,"tags":"∆, ▲"},"source":"warspotting","source_name":"WarSpotting","source_url":"https://ukr.warspotting.net/","id":47039,"date":"2026-09-13","link":"https://ukr.warspotting.net/view/47039/","category":"Transport","side":"Lost by Russia","color":"#E00000","description":"Ural-4320 · Destroyed · near Volodymyrivka, Skadovsk raion · tags: ∆, ▲","orbat":[]}}]}