{"type":"FeatureCollection","features":[{"type":"Feature","geometry":{"type":"MultiPolygon","coordinates":[[[[37.84716,48.76724],[37.84282,48.76968],[37.83574,48.77661],[37.83682,48.77825],[37.84235,48.77777],[37.84849,48.77511],[37.87119,48.77641],[37.87226,48.78197],[37.88029,48.76967],[37.87951,48.76552],[37.8631,48.76199],[37.84636,48.76167],[37.84716,48.76724]]],[[[37.80803,48.72447],[37.81155,48.72872],[37.811,48.7304],[37.81122,48.73253],[37.81292,48.73448],[37.81723,48.7374],[37.81167,48.73939],[37.81407,48.74233],[37.8216,48.73972],[37.82079,48.73882],[37.8216,48.73797],[37.83302,48.73301],[37.83352,48.73234],[37.8333,48.73113],[37.83231,48.7296],[37.8313,48.72806],[37.83092,48.72376],[37.83495,48.7224],[37.83602,48.7198],[37.83911,48.71658],[37.83615,48.71432],[37.82007,48.72146],[37.8176,48.72025],[37.7982,48.72266],[37.7982,48.72283],[37.80803,48.72447]]],[[[37.78899,48.54633],[37.79606,48.55042],[37.7964,48.56012],[37.79581,48.56412],[37.81094,48.5646],[37.81277,48.56732],[37.81456,48.56953],[37.81667,48.57154],[37.82127,48.57304],[37.81766,48.5776],[37.81858,48.57935],[37.81967,48.5813],[37.81909,48.58255],[37.81653,48.58402],[37.81529,48.58656],[37.81405,48.5878],[37.81422,48.58878],[37.81633,48.58934],[37.81836,48.58857],[37.8209,48.58882],[37.82415,48.58817],[37.82556,48.58688],[37.8242,48.58526],[37.82962,48.58073],[37.83024,48.57605],[37.83181,48.572],[37.82779,48.56931],[37.82398,48.56729],[37.8226,48.5659],[37.82342,48.56475],[37.82466,48.56347],[37.82612,48.56232],[37.83114,48.55801],[37.82868,48.55315],[37.82321,48.54749],[37.82306,48.54577],[37.81262,48.54259],[37.80534,48.54019],[37.79816,48.538],[37.7916,48.53926],[37.7744,48.54263],[37.77006,48.54363],[37.77006,48.54368],[37.78899,48.54633]]],[[[37.71737,48.48653],[37.72036,48.48911],[37.72334,48.49086],[37.72557,48.49241],[37.72626,48.4936],[37.72854,48.49523],[37.72921,48.49572],[37.73187,48.4963],[37.73342,48.49557],[37.73709,48.49439],[37.73815,48.49628],[37.73987,48.49665],[37.74188,48.49392],[37.74292,48.4909],[37.74758,48.4867],[37.75264,48.4848],[37.75704,48.48564],[37.75922,48.4837],[37.76197,48.48336],[37.76086,48.48208],[37.75456,48.47979],[37.74795,48.47871],[37.74269,48.4809],[37.72705,48.47954],[37.71795,48.48402],[37.71454,48.48502],[37.71737,48.48653]]],[[[37.10671,48.37868],[37.10946,48.38139],[37.11126,48.38219],[37.1201,48.37737],[37.12237,48.37013],[37.12852,48.3653],[37.15944,48.36613],[37.167,48.3657],[37.1664,48.37224],[37.16769,48.37379],[37.17005,48.37965],[37.17653,48.37861],[37.17739,48.37411],[37.18344,48.37228],[37.18341,48.36136],[37.17118,48.36079],[37.16221,48.36384],[37.14651,48.3643],[37.10449,48.35968],[37.10325,48.36532],[37.10671,48.37868]]],[[[37.06614,48.28155],[37.06078,48.31323],[37.06308,48.31791],[37.06523,48.31666],[37.09644,48.30781],[37.10531,48.30203],[37.10901,48.29955],[37.113,48.29675],[37.11412,48.28725],[37.10579,48.28586],[37.06734,48.28167],[37.06614,48.28155]]],[[[36.16635,47.72946],[36.16446,47.73506],[36.16352,47.74528],[36.16601,47.74678],[36.17364,47.74718],[36.17347,47.7537],[36.17875,47.75699],[36.19525,47.76077],[36.19609,47.75206],[36.20139,47.74941],[36.20358,47.7381],[36.20263,47.73784],[36.20519,47.7238],[36.20069,47.72321],[36.20069,47.72323],[36.19447,47.72244],[36.19426,47.72238],[36.19426,47.72238],[36.18284,47.71889],[36.18046,47.72139],[36.17008,47.71917],[36.16368,47.72763],[36.16635,47.72946]]],[[[36.08036,47.58535],[36.08061,47.58787],[36.06871,47.58904],[36.06962,47.59367],[36.07289,47.59458],[36.08916,47.59011],[36.10852,47.58919],[36.10627,47.58431],[36.10235,47.58397],[36.09403,47.58553],[36.093,47.58428],[36.08036,47.58535]]],[[[35.53682,47.54717],[35.54291,47.55209],[35.56016,47.55336],[35.57802,47.55562],[35.58561,47.55287],[35.58763,47.53929],[35.59038,47.52578],[35.59312,47.51669],[35.60753,47.49912],[35.59161,47.5018],[35.5814,47.50309],[35.57176,47.5103],[35.5688,47.52168],[35.56808,47.52554],[35.56615,47.53507],[35.56451,47.54203],[35.546,47.53784],[35.53303,47.53369],[35.52655,47.53295],[35.52208,47.53465],[35.52041,47.54001],[35.53682,47.54717]]],[[[35.38522,50.69207],[35.38521,50.69202],[35.38306,50.6925],[35.37966,50.69234],[35.37695,50.69267],[35.37685,50.69356],[35.37726,50.69441],[35.3798,50.69569],[35.38018,50.69738],[35.37885,50.69932],[35.38154,50.69999],[35.38466,50.70063],[35.38511,50.70205],[35.38737,50.70157],[35.38783,50.69811],[35.38348,50.69665],[35.3811,50.69482],[35.38522,50.69207]]]]},"properties":{"source":"ukrdaily","source_name":"UkrDailyUpdate","source_url":"https://map.ukrdailyupdate.com/","category":"gained","category_label":"Russian advance: became occupied","period":"7d","compared_with":"2026-09-01","snapshot_time":"2026-09-08","area_km2_approx":63.4}},{"type":"Feature","geometry":{"type":"MultiPolygon","coordinates":[[[[37.68216,49.63187],[37.67986,49.63101],[37.67722,49.63022],[37.67716,49.63142],[37.67848,49.63256],[37.68252,49.63708],[37.68822,49.64142],[37.68681,49.636],[37.68603,49.63411],[37.68389,49.63308],[37.68216,49.63187]]],[[[37.64637,49.83221],[37.64868,49.83032],[37.6563,49.82413],[37.66036,49.82506],[37.6634,49.82456],[37.66418,49.82151],[37.66243,49.82058],[37.66259,49.81802],[37.65781,49.81571],[37.64526,49.82048],[37.64148,49.82481],[37.63753,49.82559],[37.62938,49.82691],[37.64637,49.83221]]],[[[37.64552,49.84855],[37.64513,49.85082],[37.6444,49.85503],[37.63442,49.85758],[37.63857,49.86348],[37.64485,49.86019],[37.65373,49.85862],[37.66178,49.85443],[37.66182,49.85184],[37.66051,49.85096],[37.65127,49.84241],[37.64552,49.84855]]]]},"properties":{"source":"ukrdaily","source_name":"UkrDailyUpdate","source_url":"https://map.ukrdailyupdate.com/","category":"lost","category_label":"Ukrainian advance: became Ukrainian-held","period":"7d","compared_with":"2026-09-01","snapshot_time":"2026-09-08","area_km2_approx":4.1}},{"type":"Feature","geometry":{"type":"MultiPolygon","coordinates":[[[[37.93288,49.1948],[37.93403,49.19576],[37.9352,49.19214],[37.9352,49.19214],[37.93288,49.1948]]],[[[37.74981,49.06637],[37.74425,49.0638],[37.73601,49.06511],[37.73125,49.06568],[37.72838,49.06544],[37.7193,49.0669],[37.71239,49.06623],[37.71123,49.07354],[37.71237,49.07796],[37.71691,49.0801],[37.71923,49.08439],[37.71046,49.08443],[37.70323,49.08628],[37.70342,49.09011],[37.7076,49.09678],[37.70836,49.10134],[37.70089,49.10569],[37.69313,49.10605],[37.6844,49.10526],[37.67729,49.10689],[37.67798,49.11086],[37.68618,49.12618],[37.68994,49.12864],[37.70065,49.13082],[37.71544,49.12902],[37.71522,49.12527],[37.71844,49.12208],[37.72228,49.12023],[37.7308,49.11784],[37.73686,49.11576],[37.74148,49.11574],[37.74492,49.11753],[37.74822,49.12064],[37.75444,49.12554],[37.75383,49.13674],[37.74971,49.14068],[37.74607,49.14234],[37.74552,49.14435],[37.7466,49.14516],[37.75007,49.14592],[37.75417,49.15006],[37.76063,49.14721],[37.76302,49.1445],[37.76469,49.14383],[37.773,49.14306],[37.79703,49.14963],[37.80134,49.15194],[37.8195,49.15063],[37.83378,49.14479],[37.84244,49.14535],[37.84385,49.14544],[37.86357,49.1438],[37.87842,49.14445],[37.88366,49.1456],[37.89836,49.15394],[37.90307,49.1546],[37.90614,49.16165],[37.90614,49.16732],[37.91463,49.17366],[37.9185,49.17815],[37.92416,49.18068],[37.92545,49.17662],[37.92102,49.165],[37.9261,49.16107],[37.92796,49.15674],[37.92571,49.14342],[37.92569,49.13642],[37.91899,49.12108],[37.91779,49.11734],[37.91562,49.11405],[37.90941,49.11059],[37.89565,49.10675],[37.8994,49.10251],[37.89454,49.09228],[37.88976,49.09296],[37.88293,49.09133],[37.86653,49.08643],[37.8628,49.07863],[37.84028,49.07851],[37.83014,49.07502],[37.82933,49.0744],[37.82932,49.07441],[37.82369,49.07021],[37.82189,49.06986],[37.81956,49.07006],[37.81776,49.07108],[37.81712,49.07242],[37.81497,49.07243],[37.80392,49.07022],[37.80334,49.07035],[37.80334,49.07036],[37.78817,49.07412],[37.78817,49.0741],[37.78727,49.07434],[37.78019,49.07024],[37.77431,49.07209],[37.76646,49.06804],[37.75826,49.06858],[37.74981,49.06637]],[[37.82045,49.12425],[37.82063,49.12425],[37.82063,49.12427],[37.82009,49.12427],[37.82009,49.12425],[37.82045,49.12425]]],[[[37.63753,49.82559],[37.64148,49.82481],[37.64526,49.82048],[37.65781,49.81571],[37.66259,49.81802],[37.66243,49.82058],[37.66418,49.82151],[37.6634,49.82456],[37.66036,49.82506],[37.6563,49.82413],[37.64868,49.83032],[37.66402,49.83751],[37.66632,49.83519],[37.66749,49.83383],[37.66907,49.82881],[37.66868,49.82063],[37.67049,49.81897],[37.67318,49.81567],[37.67041,49.81255],[37.66588,49.80877],[37.66143,49.80857],[37.65777,49.81318],[37.64751,49.81515],[37.63898,49.8179],[37.63633,49.81994],[37.63536,49.82168],[37.63415,49.82264],[37.63242,49.82342],[37.63753,49.82559]]],[[[37.66051,49.85096],[37.66182,49.85184],[37.66178,49.85443],[37.65373,49.85862],[37.64488,49.86018],[37.64962,49.86325],[37.65298,49.86327],[37.65442,49.86047],[37.65965,49.86018],[37.65879,49.85728],[37.66634,49.85523],[37.67095,49.85392],[37.66884,49.84904],[37.6645,49.84708],[37.66051,49.85096]]]]},"properties":{"source":"ukrdaily","source_name":"UkrDailyUpdate","source_url":"https://map.ukrdailyupdate.com/","category":"occupied_to_contested","category_label":"Occupied became contested","period":"7d","compared_with":"2026-09-01","snapshot_time":"2026-09-08","area_km2_approx":122.9}},{"type":"Feature","geometry":{"type":"MultiPolygon","coordinates":[[[[37.84863,48.77512],[37.8485,48.77519],[37.84712,48.7757],[37.84235,48.77777],[37.84006,48.77797],[37.83545,48.7787],[37.82403,48.77803],[37.81888,48.77996],[37.81707,48.78075],[37.82013,48.78241],[37.83113,48.79069],[37.84658,48.78352],[37.85552,48.78453],[37.86467,48.78298],[37.8657,48.77984],[37.8607,48.77581],[37.84863,48.77512]]],[[[37.83673,48.85674],[37.84381,48.86225],[37.85768,48.85579],[37.86511,48.85504],[37.86374,48.84913],[37.8595,48.84498],[37.84473,48.8451],[37.83658,48.85024],[37.8276,48.85417],[37.83673,48.85674]]],[[[37.69379,48.59211],[37.69731,48.59648],[37.70782,48.5979],[37.71241,48.59555],[37.7188,48.5878],[37.71374,48.5861],[37.71421,48.58321],[37.7173,48.58068],[37.71442,48.57977],[37.71075,48.57932],[37.69835,48.5798],[37.68946,48.57662],[37.69379,48.59211]]],[[[37.60103,49.70029],[37.60206,49.70099],[37.603,49.70031],[37.60236,49.69998],[37.60217,49.70006],[37.60103,49.70029]]],[[[37.59873,49.69842],[37.5977,49.69908],[37.59871,49.6999],[37.59978,49.69919],[37.59873,49.69842]]],[[[37.38745,48.54236],[37.39459,48.54921],[37.3989,48.55225],[37.40204,48.55556],[37.40893,48.55426],[37.41107,48.54557],[37.41307,48.53808],[37.4227,48.52935],[37.42903,48.5126],[37.42917,48.49971],[37.42369,48.50306],[37.42284,48.50677],[37.41547,48.51208],[37.39558,48.51556],[37.39107,48.5188],[37.37859,48.51704],[37.38745,48.54236]]],[[[37.14977,48.37431],[37.1517,48.37371],[37.15412,48.37701],[37.15579,48.37951],[37.15835,48.37904],[37.15921,48.38098],[37.15792,48.38143],[37.16273,48.38812],[37.16367,48.38927],[37.16727,48.39131],[37.17286,48.39367],[37.17104,48.39058],[37.1716,48.38582],[37.16376,48.37333],[37.15005,48.37153],[37.14123,48.37297],[37.13205,48.37559],[37.12518,48.37895],[37.12329,48.38368],[37.14977,48.37431]]],[[[36.277,50.31538],[36.27876,50.31272],[36.27876,50.31272],[36.27997,50.31193],[36.28173,50.3099],[36.28456,50.30623],[36.28537,50.30416],[36.28563,50.29993],[36.28251,50.29779],[36.28569,50.29112],[36.27664,50.29354],[36.27378,50.29596],[36.26943,50.30852],[36.26986,50.31354],[36.2684,50.31927],[36.26728,50.33091],[36.2736,50.32402],[36.28036,50.32308],[36.27918,50.32113],[36.27795,50.31898],[36.27705,50.31806],[36.27664,50.31766],[36.27598,50.31757],[36.27666,50.31588],[36.27701,50.31539],[36.277,50.31538]]],[[[36.13512,47.82996],[36.13591,47.83142],[36.13608,47.83267],[36.14211,47.83293],[36.14274,47.8317],[36.14675,47.83045],[36.14674,47.83034],[36.13727,47.83006],[36.13512,47.82996]]],[[[36.07289,47.59458],[36.06962,47.59367],[36.06643,47.59468],[36.06443,47.59569],[36.06269,47.597],[36.06988,47.60311],[36.07556,47.60647],[36.08224,47.6104],[36.08447,47.61041],[36.08691,47.59976],[36.08916,47.59011],[36.07289,47.59458]]],[[[35.90429,47.53364],[35.90521,47.53527],[35.90716,47.53693],[35.91461,47.53507],[35.91184,47.5322],[35.90429,47.53364]]],[[[35.78801,47.49092],[35.78976,47.49119],[35.79163,47.49444],[35.79622,47.49579],[35.79815,47.49594],[35.80115,47.49614],[35.80162,47.50022],[35.80277,47.50241],[35.8051,47.50749],[35.80661,47.51122],[35.80757,47.52532],[35.80277,47.54687],[35.80787,47.55212],[35.80552,47.55267],[35.80163,47.55503],[35.79756,47.56051],[35.80008,47.56333],[35.81495,47.55571],[35.82491,47.54967],[35.83006,47.54421],[35.8362,47.51885],[35.83595,47.50929],[35.83418,47.50424],[35.83404,47.5011],[35.84574,47.49713],[35.85362,47.49676],[35.86493,47.49597],[35.86494,47.49589],[35.85347,47.49266],[35.85189,47.49266],[35.85189,47.49268],[35.85155,47.49268],[35.85155,47.49266],[35.84267,47.49275],[35.83515,47.49234],[35.83429,47.49188],[35.83428,47.49189],[35.82582,47.48751],[35.82239,47.48931],[35.81234,47.48589],[35.81129,47.48482],[35.80535,47.48325],[35.80216,47.48171],[35.80049,47.48038],[35.79937,47.48031],[35.7939,47.47995],[35.79176,47.48398],[35.78129,47.48425],[35.78424,47.49074],[35.78801,47.49092]]],[[[35.50456,47.56055],[35.50455,47.56331],[35.50282,47.5664],[35.50298,47.57133],[35.50558,47.5803],[35.47778,47.5788],[35.47036,47.58027],[35.47288,47.5832],[35.47643,47.58473],[35.49835,47.59277],[35.51333,47.59332],[35.52334,47.597],[35.55948,47.59735],[35.56207,47.59398],[35.57247,47.59395],[35.57871,47.58754],[35.59542,47.58333],[35.60325,47.55177],[35.60422,47.548],[35.60059,47.55113],[35.59134,47.55324],[35.58561,47.55287],[35.57802,47.55562],[35.5604,47.55339],[35.55778,47.55562],[35.54359,47.55412],[35.5339,47.55268],[35.50597,47.54778],[35.50574,47.54932],[35.50576,47.54932],[35.50462,47.55768],[35.50458,47.56055],[35.50456,47.56055]]],[[[35.38171,50.6874],[35.38169,50.68736],[35.37554,50.68896],[35.37294,50.69066],[35.3724,50.69474],[35.37705,50.70042],[35.37649,50.69577],[35.37722,50.69066],[35.38171,50.6874]]]]},"properties":{"source":"ukrdaily","source_name":"UkrDailyUpdate","source_url":"https://map.ukrdailyupdate.com/","category":"ukrainian_to_contested","category_label":"Ukrainian-held became contested","period":"7d","compared_with":"2026-09-01","snapshot_time":"2026-09-08","area_km2_approx":82.8}}]}