{"type":"FeatureCollection","features":[{"type":"Feature","geometry":{"type":"MultiPolygon","coordinates":[[[[37.83141,48.76001],[37.83335,48.76157],[37.83769,48.76383],[37.8419,48.76326],[37.84636,48.76167],[37.84716,48.76724],[37.84282,48.76968],[37.83574,48.77661],[37.83682,48.77825],[37.84235,48.77777],[37.84849,48.77511],[37.87119,48.77641],[37.87226,48.78197],[37.88022,48.78213],[37.89375,48.77827],[37.90278,48.77065],[37.91985,48.78545],[37.92103,48.79504],[37.93437,48.7966],[37.9312,48.81295],[37.93764,48.81337],[37.94326,48.81046],[37.94893,48.81071],[37.94995,48.8097],[37.95139,48.80674],[37.95213,48.80078],[37.95703,48.79734],[37.9551,48.78803],[37.95033,48.78099],[37.94604,48.7798],[37.93257,48.77446],[37.92556,48.7681],[37.91895,48.76952],[37.91639,48.76956],[37.91236,48.77066],[37.90957,48.77123],[37.90781,48.7697],[37.90508,48.76664],[37.90338,48.76475],[37.90352,48.76349],[37.90116,48.76153],[37.89073,48.76077],[37.88007,48.75821],[37.86478,48.75559],[37.85972,48.75548],[37.85675,48.75549],[37.8533,48.75515],[37.84905,48.75436],[37.84687,48.75501],[37.84094,48.75349],[37.83817,48.75306],[37.83453,48.75175],[37.83141,48.76001]]],[[[37.9097,48.86419],[37.90975,48.86279],[37.90576,48.86282],[37.90486,48.86351],[37.90072,48.86328],[37.8982,48.86265],[37.89587,48.86241],[37.89363,48.86307],[37.89271,48.86406],[37.89271,48.86478],[37.89599,48.86485],[37.90602,48.86697],[37.9064,48.87025],[37.90561,48.87089],[37.90411,48.87179],[37.90318,48.87254],[37.90129,48.87409],[37.89936,48.87583],[37.89915,48.87754],[37.90114,48.87827],[37.90335,48.87745],[37.90475,48.87731],[37.90574,48.87742],[37.90685,48.87782],[37.90896,48.87836],[37.90966,48.87939],[37.91164,48.87958],[37.91391,48.87899],[37.91629,48.87933],[37.91635,48.87912],[37.91467,48.87841],[37.91385,48.87405],[37.91524,48.87244],[37.91205,48.87018],[37.91002,48.86786],[37.90967,48.86518],[37.90972,48.86419],[37.9097,48.86419]]],[[[37.84543,48.73312],[37.84532,48.73521],[37.85272,48.7394],[37.8565,48.73926],[37.85828,48.73998],[37.8607,48.73981],[37.86638,48.74252],[37.8707,48.74289],[37.87432,48.74291],[37.87786,48.74148],[37.88164,48.74172],[37.88313,48.73868],[37.88197,48.73251],[37.87549,48.72806],[37.87003,48.72565],[37.86375,48.7293],[37.86006,48.72697],[37.85051,48.7276],[37.84397,48.72922],[37.84418,48.73075],[37.84543,48.73312]]],[[[37.85564,48.83199],[37.84569,48.83199],[37.84011,48.83312],[37.84037,48.83718],[37.84886,48.83679],[37.86054,48.8391],[37.87092,48.83868],[37.87144,48.83631],[37.87054,48.83221],[37.86745,48.828],[37.85788,48.82817],[37.85564,48.83199]]],[[[37.80958,48.71169],[37.8075,48.71578],[37.79959,48.72027],[37.79761,48.72273],[37.80803,48.72447],[37.81155,48.72872],[37.811,48.7304],[37.81122,48.73253],[37.81292,48.73448],[37.81723,48.7374],[37.81167,48.73939],[37.81407,48.74233],[37.8216,48.73972],[37.82079,48.73882],[37.8216,48.73797],[37.83302,48.73301],[37.83352,48.73234],[37.8333,48.73113],[37.83231,48.7296],[37.8313,48.72806],[37.83092,48.72376],[37.83495,48.7224],[37.83602,48.7198],[37.83911,48.71658],[37.84383,48.71431],[37.85568,48.70972],[37.86328,48.70667],[37.86376,48.70311],[37.84944,48.69362],[37.84781,48.69406],[37.84781,48.69408],[37.84091,48.69606],[37.83681,48.69676],[37.8368,48.69674],[37.83416,48.69721],[37.83167,48.69911],[37.83227,48.70285],[37.8138,48.70991],[37.82005,48.7196],[37.8176,48.72025],[37.81137,48.71084],[37.80958,48.71169]]],[[[37.78899,48.54633],[37.79606,48.55042],[37.7964,48.56012],[37.79581,48.56412],[37.81094,48.5646],[37.81277,48.56732],[37.81456,48.56953],[37.81667,48.57154],[37.82127,48.57304],[37.81766,48.5776],[37.81858,48.57935],[37.81967,48.5813],[37.81909,48.58255],[37.81653,48.58402],[37.81529,48.58656],[37.81405,48.5878],[37.81422,48.58878],[37.81633,48.58934],[37.81836,48.58857],[37.8209,48.58882],[37.82415,48.58817],[37.82556,48.58688],[37.8242,48.58526],[37.82962,48.58073],[37.83024,48.57605],[37.83181,48.572],[37.82779,48.56931],[37.82398,48.56729],[37.8226,48.5659],[37.82342,48.56475],[37.82466,48.56347],[37.82612,48.56232],[37.83114,48.55801],[37.82868,48.55315],[37.82321,48.54749],[37.82306,48.54577],[37.81262,48.54259],[37.80534,48.54019],[37.79816,48.538],[37.7916,48.53926],[37.7744,48.54263],[37.77006,48.54363],[37.77006,48.54368],[37.78899,48.54633]]],[[[37.79396,48.63926],[37.79191,48.64128],[37.7902,48.64363],[37.78642,48.65157],[37.78706,48.65284],[37.78719,48.655],[37.79178,48.6581],[37.79414,48.65911],[37.79492,48.66044],[37.79672,48.66126],[37.79862,48.66385],[37.81091,48.66559],[37.80966,48.66044],[37.80591,48.65892],[37.80347,48.65712],[37.80293,48.65333],[37.80535,48.64424],[37.79858,48.64018],[37.79396,48.63926]]],[[[37.74829,49.65505],[37.73405,49.654],[37.72727,49.65199],[37.725,49.64233],[37.72118,49.64222],[37.71256,49.64208],[37.71325,49.65045],[37.71676,49.65316],[37.71786,49.65642],[37.7157,49.65666],[37.71569,49.65746],[37.71548,49.65813],[37.7129,49.65875],[37.71277,49.66559],[37.71681,49.66587],[37.72715,49.66833],[37.72933,49.67004],[37.73997,49.67027],[37.76728,49.66729],[37.7641,49.6629],[37.76457,49.65984],[37.76801,49.65476],[37.74829,49.65505]]],[[[37.71737,48.48653],[37.72036,48.48911],[37.72334,48.49086],[37.72557,48.49241],[37.72626,48.4936],[37.72854,48.49523],[37.72921,48.49572],[37.73187,48.4963],[37.73342,48.49557],[37.73709,48.49439],[37.73815,48.49628],[37.73987,48.49665],[37.74188,48.49392],[37.74292,48.4909],[37.74758,48.4867],[37.75264,48.4848],[37.75704,48.48564],[37.75922,48.4837],[37.76197,48.48336],[37.76086,48.48208],[37.75456,48.47979],[37.74795,48.47871],[37.74269,48.4809],[37.72705,48.47954],[37.71795,48.48402],[37.71454,48.48502],[37.71737,48.48653]]],[[[37.63355,48.47776],[37.62677,48.48177],[37.6217,48.48626],[37.61681,48.48763],[37.61132,48.49258],[37.61261,48.49474],[37.6302,48.49639],[37.62837,48.5067],[37.64252,48.50776],[37.64368,48.50287],[37.66187,48.50463],[37.6652,48.50351],[37.66417,48.50201],[37.66416,48.50202],[37.66045,48.4967],[37.66047,48.49669],[37.65932,48.49507],[37.66122,48.49008],[37.65918,48.49021],[37.65597,48.48976],[37.6547,48.48976],[37.65233,48.48754],[37.65252,48.48535],[37.65257,48.48435],[37.65255,48.48435],[37.65257,48.48392],[37.65257,48.4833],[37.65259,48.4833],[37.65259,48.47548],[37.64775,48.4682],[37.64745,48.45796],[37.63944,48.45776],[37.63834,48.45761],[37.63355,48.47776]]],[[[37.38061,48.49678],[37.3853,48.49682],[37.41055,48.49405],[37.41564,48.49342],[37.43616,48.48918],[37.43892,48.48991],[37.44118,48.48711],[37.44628,48.48516],[37.45686,48.48241],[37.45961,48.47792],[37.46313,48.47115],[37.46422,48.46642],[37.47141,48.4659],[37.47385,48.4651],[37.47226,48.46227],[37.47247,48.4609],[37.46972,48.46286],[37.46552,48.46386],[37.46343,48.46406],[37.45777,48.46432],[37.45729,48.46497],[37.45667,48.4653],[37.45644,48.46706],[37.45599,48.46759],[37.45459,48.46811],[37.45431,48.46854],[37.45369,48.46871],[37.45281,48.46864],[37.45191,48.46908],[37.45039,48.47038],[37.44977,48.47367],[37.44965,48.47429],[37.44494,48.48087],[37.40746,48.48626],[37.39133,48.48781],[37.38876,48.49133],[37.38386,48.49179],[37.38047,48.4929],[37.37942,48.49403],[37.37764,48.49464],[37.38061,48.49678]]],[[[37.22361,48.41961],[37.21987,48.42936],[37.21987,48.4323],[37.2294,48.43742],[37.22824,48.44317],[37.24064,48.44428],[37.23949,48.45261],[37.24425,48.45557],[37.26299,48.45735],[37.26303,48.45719],[37.25255,48.45288],[37.24953,48.45282],[37.24914,48.45077],[37.2504,48.44246],[37.24719,48.43794],[37.24422,48.4376],[37.24222,48.43335],[37.24271,48.43018],[37.2444,48.42661],[37.23019,48.42587],[37.22363,48.4255],[37.22516,48.41979],[37.22361,48.41961]]],[[[37.18889,48.39327],[37.22928,48.39794],[37.22765,48.39403],[37.2146,48.39289],[37.21123,48.39278],[37.20804,48.387],[37.19134,48.38378],[37.18889,48.39327]]],[[[37.0674,48.35154],[37.0713,48.35219],[37.0753,48.35342],[37.07697,48.35467],[37.07972,48.35593],[37.08263,48.35681],[37.08525,48.35735],[37.08492,48.36281],[37.10325,48.36532],[37.10671,48.37868],[37.10946,48.38139],[37.11126,48.38219],[37.1201,48.37737],[37.12237,48.37013],[37.12852,48.3653],[37.15944,48.36613],[37.167,48.3657],[37.1664,48.37224],[37.16769,48.37379],[37.17005,48.37965],[37.17653,48.37861],[37.18855,48.37978],[37.18422,48.37343],[37.19012,48.36986],[37.19488,48.36505],[37.19342,48.36166],[37.19432,48.35746],[37.19702,48.35483],[37.19904,48.35344],[37.20103,48.35364],[37.202,48.34958],[37.20109,48.3494],[37.19974,48.34905],[37.19871,48.34878],[37.19755,48.34789],[37.18552,48.34683],[37.18421,48.353],[37.16073,48.35098],[37.16181,48.34474],[37.14242,48.34302],[37.13182,48.34696],[37.12539,48.34773],[37.12131,48.34775],[37.11882,48.34869],[37.10526,48.34724],[37.10602,48.34003],[37.10287,48.34137],[37.09758,48.34322],[37.09216,48.34465],[37.0884,48.34552],[37.08195,48.34606],[37.07706,48.34699],[37.07415,48.35067],[37.07093,48.35038],[37.0705,48.34913],[37.07089,48.34626],[37.06701,48.34573],[37.0674,48.35154]]],[[[37.14466,50.33502],[37.14062,50.3428],[37.14011,50.34932],[37.13819,50.36108],[37.14882,50.356],[37.18315,50.36346],[37.18716,50.35891],[37.18641,50.35348],[37.17315,50.34762],[37.15985,50.34028],[37.1571,50.33524],[37.14466,50.33502]]],[[[37.06614,48.28155],[37.06078,48.31323],[37.06308,48.31791],[37.06523,48.31666],[37.09644,48.30781],[37.10531,48.30203],[37.10901,48.29955],[37.113,48.29675],[37.11412,48.28725],[37.10579,48.28586],[37.06734,48.28167],[37.06614,48.28155]]],[[[36.61618,47.92344],[36.61,47.92557],[36.60972,47.92683],[36.62063,47.9256],[36.62271,47.92414],[36.61618,47.92344]]],[[[36.50456,47.84647],[36.50285,47.85211],[36.50199,47.86],[36.51177,47.85873],[36.51978,47.85438],[36.51759,47.8527],[36.50716,47.84491],[36.50456,47.84647]]],[[[36.1619,47.65173],[36.17016,47.65393],[36.16381,47.66399],[36.16037,47.67053],[36.16654,47.67268],[36.16741,47.67884],[36.17226,47.68081],[36.1681,47.68922],[36.16409,47.69024],[36.16102,47.69316],[36.15355,47.69759],[36.14287,47.70086],[36.14021,47.70401],[36.13911,47.70646],[36.13604,47.71358],[36.14507,47.71828],[36.14703,47.72315],[36.14873,47.72364],[36.16368,47.72763],[36.16635,47.72946],[36.16446,47.73506],[36.16352,47.74528],[36.16601,47.74678],[36.17364,47.74718],[36.17347,47.7537],[36.17875,47.75699],[36.19525,47.76077],[36.19609,47.75206],[36.20139,47.74941],[36.20358,47.7381],[36.20263,47.73784],[36.20519,47.7238],[36.20069,47.72321],[36.20069,47.72323],[36.19447,47.72244],[36.19421,47.72236],[36.19421,47.72236],[36.17171,47.71237],[36.17403,47.70832],[36.18176,47.7104],[36.1906,47.7033],[36.20156,47.69347],[36.20602,47.68782],[36.20038,47.68566],[36.2,47.68438],[36.20256,47.6801],[36.19704,47.67801],[36.17064,47.67076],[36.17755,47.66147],[36.18568,47.66349],[36.1898,47.6562],[36.19616,47.65663],[36.19829,47.65293],[36.19986,47.64463],[36.19812,47.64364],[36.19784,47.64056],[36.19587,47.63743],[36.18471,47.63477],[36.17598,47.64499],[36.17265,47.64516],[36.1619,47.65173]]],[[[36.08036,47.58535],[36.08061,47.58787],[36.06871,47.58904],[36.06962,47.59367],[36.07289,47.59458],[36.08916,47.59011],[36.10852,47.58919],[36.10627,47.58431],[36.10235,47.58397],[36.09403,47.58553],[36.093,47.58428],[36.08036,47.58535]]],[[[36.10852,47.58919],[36.1058,47.59971],[36.10363,47.61264],[36.09999,47.6214],[36.09939,47.62754],[36.1027,47.63041],[36.10471,47.63185],[36.11857,47.63373],[36.12463,47.63665],[36.13047,47.63809],[36.13854,47.63994],[36.14573,47.64219],[36.14922,47.6477],[36.15456,47.65097],[36.1631,47.64173],[36.13937,47.633],[36.13388,47.62742],[36.13317,47.62457],[36.12718,47.62071],[36.12757,47.61063],[36.12915,47.60336],[36.13108,47.59225],[36.10852,47.58919]]],[[[36.06478,47.55255],[36.07375,47.55101],[36.07465,47.54971],[36.07332,47.54635],[36.0649,47.52458],[36.05331,47.52589],[36.06478,47.55255]]],[[[35.53682,47.54717],[35.54291,47.55209],[35.56016,47.55336],[35.57802,47.55562],[35.58561,47.55287],[35.58763,47.53929],[35.59038,47.52578],[35.59312,47.51669],[35.60753,47.49912],[35.59161,47.5018],[35.5814,47.50309],[35.57176,47.5103],[35.5688,47.52168],[35.56808,47.52554],[35.56615,47.53507],[35.56451,47.54203],[35.546,47.53784],[35.53303,47.53369],[35.52655,47.53295],[35.52208,47.53465],[35.52041,47.54001],[35.53682,47.54717]]],[[[35.39767,50.74164],[35.39363,50.75245],[35.39137,50.75494],[35.39148,50.7568],[35.39328,50.76695],[35.39453,50.78303],[35.40474,50.77767],[35.4135,50.76882],[35.41952,50.75918],[35.41935,50.75057],[35.42094,50.74071],[35.41142,50.74071],[35.40893,50.73897],[35.40464,50.7381],[35.39767,50.74164]]],[[[35.38522,50.69207],[35.38521,50.69202],[35.38306,50.6925],[35.37966,50.69234],[35.37695,50.69267],[35.37685,50.69356],[35.37726,50.69441],[35.3798,50.69569],[35.38018,50.69738],[35.37885,50.69932],[35.38154,50.69999],[35.38466,50.70063],[35.38511,50.70205],[35.38737,50.70157],[35.38783,50.69811],[35.38348,50.69665],[35.3811,50.69482],[35.38522,50.69207]]]]},"properties":{"source":"ukrdaily","source_name":"UkrDailyUpdate","source_url":"https://map.ukrdailyupdate.com/","category":"gained","category_label":"Russian advance: became occupied","period":"30d","compared_with":"2026-08-09","snapshot_time":"2026-09-08","area_km2_approx":192.4}},{"type":"Feature","geometry":{"type":"MultiPolygon","coordinates":[[[[37.90396,48.8992],[37.88615,48.90383],[37.87763,48.90426],[37.86798,48.90676],[37.86047,48.91033],[37.8601,48.91226],[37.85374,48.91559],[37.84885,48.92089],[37.84245,48.92449],[37.85094,48.93086],[37.85387,48.92976],[37.85659,48.92973],[37.85948,48.93052],[37.86264,48.93046],[37.86833,48.93294],[37.87353,48.93412],[37.8841,48.92794],[37.88201,48.9266],[37.88435,48.92489],[37.88687,48.92365],[37.88856,48.9219],[37.88854,48.91827],[37.88667,48.907],[37.89824,48.9044],[37.90062,48.90251],[37.90551,48.90162],[37.91577,48.89814],[37.91571,48.89787],[37.90396,48.8992]]],[[[37.69813,49.05858],[37.69176,49.06047],[37.67753,49.06615],[37.67427,49.07107],[37.69171,49.08149],[37.70345,49.07935],[37.70697,49.07794],[37.70495,49.07367],[37.7019,49.07041],[37.70079,49.06588],[37.69907,49.0594],[37.69813,49.05858]]],[[[37.61095,49.8289],[37.61212,49.82921],[37.61463,49.83085],[37.61756,49.83149],[37.62101,49.83266],[37.62321,49.83421],[37.62641,49.83749],[37.62271,49.84213],[37.62562,49.8444],[37.62858,49.84472],[37.62965,49.84929],[37.63316,49.85578],[37.63857,49.86348],[37.64485,49.86019],[37.65373,49.85862],[37.66178,49.85443],[37.66182,49.85184],[37.66051,49.85096],[37.65127,49.84241],[37.65153,49.84108],[37.64637,49.83221],[37.64868,49.83032],[37.6563,49.82413],[37.66036,49.82506],[37.6634,49.82456],[37.66418,49.82151],[37.66243,49.82058],[37.66259,49.81802],[37.65781,49.81571],[37.64526,49.82048],[37.64148,49.82481],[37.63753,49.82559],[37.62938,49.82691],[37.62428,49.82704],[37.61601,49.82774],[37.61095,49.8289]]],[[[37.59194,49.81222],[37.60707,49.81203],[37.61012,49.81045],[37.61445,49.8066],[37.61106,49.80364],[37.60948,49.79965],[37.59512,49.7973],[37.59286,49.80423],[37.59194,49.81222]]],[[[36.73951,48.11032],[36.73799,48.11268],[36.73894,48.11855],[36.74067,48.12118],[36.74092,48.12268],[36.73938,48.1298],[36.74779,48.13479],[36.75508,48.13691],[36.76129,48.13703],[36.77715,48.13795],[36.78358,48.13881],[36.80204,48.13253],[36.82616,48.13798],[36.83295,48.1037],[36.85057,48.09594],[36.85057,48.09593],[36.82224,48.09641],[36.80978,48.09563],[36.79556,48.09421],[36.79568,48.08999],[36.79224,48.08983],[36.78908,48.09368],[36.7679,48.09276],[36.76569,48.09463],[36.76047,48.09604],[36.74214,48.09592],[36.73951,48.11032]]],[[[36.24488,47.80003],[36.25325,47.80936],[36.26516,47.80924],[36.27799,47.81051],[36.28652,47.81581],[36.2816,47.83783],[36.28276,47.84854],[36.27457,47.85108],[36.2485,47.85234],[36.23462,47.85522],[36.22616,47.86674],[36.22298,47.87221],[36.22539,47.87514],[36.22504,47.87802],[36.22779,47.88061],[36.2332,47.88107],[36.23989,47.88057],[36.24626,47.88076],[36.25097,47.88058],[36.25294,47.8819],[36.25448,47.8838],[36.25766,47.88413],[36.2602,47.88199],[36.25941,47.88055],[36.25959,47.87881],[36.26289,47.87725],[36.26378,47.8774],[36.26558,47.8789],[36.26802,47.87942],[36.27029,47.87801],[36.27377,47.87745],[36.27694,47.87596],[36.29355,47.87755],[36.2984,47.87634],[36.30879,47.87504],[36.34544,47.85882],[36.3677,47.86463],[36.37195,47.87798],[36.37826,47.87917],[36.38598,47.87825],[36.39164,47.87923],[36.4004,47.87906],[36.4056,47.85911],[36.4147,47.85928],[36.4183,47.84753],[36.44008,47.83999],[36.45373,47.83852],[36.47782,47.84079],[36.47426,47.85075],[36.47153,47.86454],[36.46355,47.86905],[36.45299,47.87109],[36.45329,47.87604],[36.46662,47.87506],[36.46534,47.89566],[36.46238,47.90909],[36.46474,47.91608],[36.49298,47.91713],[36.49697,47.91732],[36.51216,47.91799],[36.514,47.90559],[36.51443,47.9031],[36.52409,47.9041],[36.52191,47.91735],[36.51902,47.9205],[36.51216,47.92536],[36.5098,47.9316],[36.51422,47.93347],[36.51886,47.9334],[36.52714,47.93348],[36.53104,47.93352],[36.52971,47.93735],[36.52993,47.94626],[36.52349,47.94747],[36.5238,47.95091],[36.52783,47.95264],[36.53029,47.95403],[36.53091,47.956],[36.53099,47.95777],[36.53047,47.95926],[36.53075,47.96099],[36.53033,47.96369],[36.53199,47.96406],[36.53265,47.96768],[36.53555,47.97244],[36.53995,47.97014],[36.56027,47.97015],[36.56229,47.97185],[36.56577,47.97359],[36.56596,47.97452],[36.56742,47.97518],[36.5686,47.97543],[36.5692,47.97705],[36.57229,47.97806],[36.57369,47.97796],[36.5742,47.97628],[36.57848,47.97327],[36.58292,47.96857],[36.58355,47.96634],[36.58427,47.96441],[36.60124,47.96652],[36.60356,47.9662],[36.60579,47.96631],[36.60726,47.96698],[36.60541,47.96873],[36.6,47.97077],[36.59576,47.97192],[36.59515,47.97537],[36.59116,47.97793],[36.59026,47.9814],[36.58967,47.98477],[36.58724,47.99846],[36.6126,48.00113],[36.61857,48.00518],[36.61324,48.02545],[36.61582,48.02631],[36.61556,48.0276],[36.62295,48.02842],[36.62107,48.03478],[36.61304,48.05107],[36.5996,48.04933],[36.59486,48.04674],[36.5913,48.04906],[36.5873,48.05018],[36.58971,48.05279],[36.59101,48.05553],[36.59423,48.05832],[36.59599,48.0645],[36.60543,48.06819],[36.61928,48.07625],[36.63331,48.08236],[36.63359,48.08596],[36.63764,48.08762],[36.64383,48.08659],[36.6516,48.08763],[36.66553,48.08696],[36.67044,48.0903],[36.67341,48.08954],[36.67672,48.08946],[36.6842,48.08471],[36.69317,48.08638],[36.6963,48.08565],[36.69849,48.08434],[36.70019,48.08312],[36.70066,48.08261],[36.70193,48.0823],[36.70516,48.08227],[36.70621,48.08222],[36.70702,48.08179],[36.70768,48.081],[36.70876,48.0802],[36.70974,48.07987],[36.71042,48.07988],[36.71185,48.07991],[36.71302,48.07997],[36.71341,48.08008],[36.71696,48.07302],[36.71622,48.06572],[36.74124,48.05373],[36.74207,48.05294],[36.74384,48.05221],[36.74424,48.05094],[36.74601,48.05045],[36.75184,48.04941],[36.75665,48.04999],[36.75751,48.04558],[36.75695,48.0421],[36.75119,48.03989],[36.75019,48.03625],[36.74857,48.02603],[36.74321,48.02634],[36.74142,48.01509],[36.74878,48.00481],[36.7434,48.00231],[36.73425,48.00417],[36.72558,48.00361],[36.71837,47.99447],[36.71721,47.98549],[36.71292,47.97975],[36.69747,47.97538],[36.67631,47.96356],[36.6684,47.9597],[36.67143,47.94813],[36.65436,47.94607],[36.60711,47.94078],[36.60548,47.9462],[36.59773,47.94552],[36.58804,47.94515],[36.58285,47.9457],[36.58085,47.94263],[36.58733,47.93809],[36.59167,47.92979],[36.59067,47.92311],[36.59245,47.91086],[36.58151,47.90931],[36.5807,47.90909],[36.57594,47.90883],[36.5759,47.90905],[36.57179,47.9088],[36.5642,47.9081],[36.56679,47.89827],[36.57007,47.88551],[36.57754,47.88026],[36.58183,47.85803],[36.53522,47.84703],[36.52908,47.84857],[36.52139,47.85954],[36.5121,47.86176],[36.50162,47.86304],[36.49459,47.86148],[36.49721,47.84974],[36.5063,47.84469],[36.50665,47.84433],[36.50574,47.83901],[36.49948,47.83885],[36.46005,47.83491],[36.45475,47.83107],[36.43908,47.83076],[36.43281,47.82764],[36.42439,47.81991],[36.41938,47.81767],[36.39042,47.81377],[36.38951,47.80607],[36.38405,47.80537],[36.38489,47.80222],[36.37942,47.80134],[36.37847,47.79984],[36.36726,47.79845],[36.36004,47.8036],[36.34868,47.80334],[36.27841,47.79683],[36.27684,47.80085],[36.24343,47.79825],[36.227,47.79844],[36.22699,47.79893],[36.24488,47.80003]],[[36.65561,48.07644],[36.6556,48.07643],[36.65612,48.07283],[36.65709,48.06956],[36.6571,48.06957],[36.65561,48.07644]],[[36.52634,47.90435],[36.52634,47.90433],[36.56125,47.90781],[36.56125,47.90783],[36.54149,47.90599],[36.52634,47.90435]],[[36.32347,47.83651],[36.32447,47.8351],[36.32729,47.8336],[36.32442,47.83521],[36.32347,47.83651]]],[[[35.35828,50.90028],[35.34883,50.90618],[35.34303,50.91342],[35.35547,50.9111],[35.36109,50.90978],[35.3653,50.90534],[35.36766,50.90123],[35.36676,50.89979],[35.36328,50.89931],[35.36248,50.89633],[35.35828,50.90028]]],[[[35.32809,50.91484],[35.3211,50.91262],[35.32054,50.91665],[35.31745,50.92152],[35.3189,50.92895],[35.3249,50.9169],[35.33061,50.9158],[35.32809,50.91484]]],[[[35.29954,50.93035],[35.29024,50.93167],[35.29479,50.93951],[35.29803,50.93598],[35.30357,50.93379],[35.30851,50.93235],[35.29954,50.93035]]]]},"properties":{"source":"ukrdaily","source_name":"UkrDailyUpdate","source_url":"https://map.ukrdailyupdate.com/","category":"lost","category_label":"Ukrainian advance: became Ukrainian-held","period":"30d","compared_with":"2026-08-09","snapshot_time":"2026-09-08","area_km2_approx":373.6}},{"type":"Feature","geometry":{"type":"MultiPolygon","coordinates":[[[[37.74981,49.06637],[37.74425,49.0638],[37.73601,49.06511],[37.73125,49.06568],[37.72838,49.06544],[37.7193,49.0669],[37.71239,49.06623],[37.71123,49.07354],[37.71237,49.07796],[37.71691,49.0801],[37.71923,49.08439],[37.71046,49.08443],[37.70323,49.08628],[37.70342,49.09011],[37.7076,49.09678],[37.70836,49.10134],[37.70089,49.10569],[37.69313,49.10605],[37.6844,49.10526],[37.67729,49.10689],[37.67798,49.11086],[37.68618,49.12618],[37.68994,49.12864],[37.70065,49.13082],[37.71544,49.12902],[37.71522,49.12527],[37.71844,49.12208],[37.72228,49.12023],[37.7308,49.11784],[37.73686,49.11576],[37.74148,49.11574],[37.74492,49.11753],[37.74822,49.12064],[37.75444,49.12554],[37.75383,49.13674],[37.74971,49.14068],[37.74607,49.14234],[37.74552,49.14435],[37.7466,49.14516],[37.75007,49.14592],[37.75417,49.15006],[37.76063,49.14721],[37.76302,49.1445],[37.76469,49.14383],[37.773,49.14306],[37.79703,49.14963],[37.78468,49.16014],[37.78096,49.16536],[37.77337,49.16861],[37.76547,49.17268],[37.76448,49.1742],[37.75993,49.17667],[37.76023,49.17961],[37.76161,49.18006],[37.76397,49.17986],[37.77036,49.18073],[37.78264,49.17779],[37.79625,49.17504],[37.81036,49.17218],[37.81546,49.17156],[37.81774,49.17808],[37.82234,49.1718],[37.83297,49.17659],[37.83502,49.17494],[37.84684,49.17321],[37.84948,49.1727],[37.84989,49.17108],[37.84925,49.16836],[37.85194,49.16688],[37.85619,49.16566],[37.86114,49.16695],[37.86212,49.16918],[37.8589,49.17531],[37.85836,49.17657],[37.8562,49.17817],[37.85545,49.18091],[37.85345,49.18115],[37.85128,49.18053],[37.85041,49.18113],[37.84535,49.18247],[37.84451,49.18485],[37.85186,49.18554],[37.8583,49.18476],[37.86264,49.18401],[37.86549,49.18679],[37.86863,49.18804],[37.8709,49.19171],[37.8809,49.19204],[37.88428,49.19355],[37.88614,49.19862],[37.88523,49.20072],[37.88647,49.20394],[37.88934,49.20345],[37.89056,49.20753],[37.88994,49.21043],[37.88931,49.2135],[37.88944,49.22479],[37.88779,49.22494],[37.88498,49.23045],[37.88678,49.23084],[37.88908,49.22688],[37.89469,49.22585],[37.898,49.22399],[37.91699,49.22607],[37.92179,49.22658],[37.92235,49.22547],[37.92476,49.22328],[37.92713,49.22217],[37.9282,49.21948],[37.93454,49.21167],[37.93532,49.20074],[37.93403,49.19576],[37.9352,49.19214],[37.93034,49.19083],[37.92476,49.18646],[37.92416,49.18068],[37.92545,49.17662],[37.92102,49.165],[37.9261,49.16107],[37.92796,49.15674],[37.92571,49.14342],[37.92569,49.13642],[37.91899,49.12108],[37.91779,49.11734],[37.91562,49.11405],[37.90941,49.11059],[37.89565,49.10675],[37.8994,49.10251],[37.89454,49.09228],[37.89935,49.08773],[37.90701,49.08425],[37.90289,49.08313],[37.89961,49.08315],[37.89478,49.08132],[37.88738,49.07868],[37.87762,49.07665],[37.8708,49.07296],[37.86989,49.0717],[37.8662,49.07277],[37.86538,49.07173],[37.86377,49.07166],[37.8628,49.07863],[37.84028,49.07851],[37.83014,49.07502],[37.82933,49.0744],[37.82932,49.07441],[37.82369,49.07021],[37.82189,49.06986],[37.81956,49.07006],[37.81776,49.07108],[37.81712,49.07242],[37.81497,49.07243],[37.80392,49.07022],[37.80334,49.07035],[37.80334,49.07036],[37.78817,49.07412],[37.78817,49.0741],[37.78727,49.07434],[37.78019,49.07024],[37.77431,49.07209],[37.76646,49.06804],[37.75826,49.06858],[37.74981,49.06637]],[[37.82045,49.12425],[37.82063,49.12425],[37.82063,49.12427],[37.82009,49.12427],[37.82009,49.12425],[37.82045,49.12425]]],[[[37.79155,48.6332],[37.78949,48.63836],[37.79397,48.63926],[37.79981,48.63737],[37.80045,48.63065],[37.7924,48.62163],[37.79155,48.6332]]],[[[37.62119,49.80987],[37.61719,49.81083],[37.60707,49.81203],[37.60827,49.81538],[37.60892,49.81893],[37.6103,49.82162],[37.61208,49.82567],[37.62237,49.82441],[37.62444,49.82558],[37.62422,49.82705],[37.62938,49.82691],[37.63753,49.82559],[37.64148,49.82481],[37.64526,49.82048],[37.65781,49.81571],[37.66259,49.81802],[37.66243,49.82058],[37.66418,49.82151],[37.6634,49.82456],[37.66036,49.82506],[37.6563,49.82413],[37.64868,49.83032],[37.64637,49.83221],[37.65153,49.84108],[37.65127,49.84241],[37.66051,49.85096],[37.66182,49.85184],[37.66178,49.85443],[37.65373,49.85862],[37.64488,49.86018],[37.64962,49.86325],[37.65298,49.86327],[37.65442,49.86047],[37.65965,49.86018],[37.65879,49.85728],[37.66634,49.85523],[37.67095,49.85392],[37.66884,49.84904],[37.6645,49.84708],[37.66751,49.84196],[37.66911,49.83989],[37.66402,49.8375],[37.66632,49.83519],[37.66749,49.83383],[37.66907,49.82881],[37.66868,49.82063],[37.67049,49.81897],[37.67318,49.81567],[37.67041,49.81255],[37.66588,49.80877],[37.66143,49.80857],[37.65777,49.81318],[37.64751,49.81515],[37.63898,49.8179],[37.63633,49.81994],[37.63536,49.82168],[37.63415,49.82264],[37.63242,49.82342],[37.63014,49.82266],[37.62735,49.82058],[37.62118,49.82055],[37.61968,49.81595],[37.62461,49.81492],[37.62119,49.80987]]],[[[36.76475,48.00625],[36.75702,48.01108],[36.74185,48.01783],[36.74321,48.02634],[36.74857,48.02603],[36.75019,48.03625],[36.75119,48.03989],[36.75695,48.0421],[36.75751,48.04558],[36.76112,48.04554],[36.76305,48.04516],[36.76428,48.04959],[36.76615,48.05601],[36.76267,48.05652],[36.76039,48.05571],[36.75632,48.05271],[36.7452,48.05256],[36.74374,48.05329],[36.74267,48.05422],[36.74385,48.0564],[36.74372,48.05772],[36.74732,48.05944],[36.75036,48.0622],[36.74745,48.06487],[36.74136,48.06894],[36.74582,48.07864],[36.76717,48.07477],[36.77815,48.06725],[36.77528,48.06566],[36.77861,48.06022],[36.78692,48.0522],[36.79404,48.05007],[36.78204,48.03647],[36.77932,48.03355],[36.77271,48.02818],[36.76998,48.01095],[36.7691,48.00208],[36.76475,48.00625]],[[36.767,48.05514],[36.76698,48.05512],[36.76973,48.05218],[36.77048,48.0515],[36.77049,48.05151],[36.767,48.05514]]],[[[36.69808,47.97555],[36.71292,47.97975],[36.71721,47.98549],[36.71837,47.99447],[36.72558,48.00361],[36.73425,48.00417],[36.74605,47.99954],[36.75025,47.99138],[36.74562,47.99269],[36.73974,47.99381],[36.73744,47.99432],[36.73534,47.98958],[36.73686,47.97607],[36.72694,47.97377],[36.70141,47.97055],[36.69808,47.97555]]],[[[36.60264,47.92762],[36.59427,47.93093],[36.59116,47.93153],[36.59071,47.93162],[36.58733,47.93809],[36.58253,47.94146],[36.58902,47.94123],[36.59831,47.94342],[36.59798,47.94554],[36.60548,47.9462],[36.60711,47.94078],[36.65436,47.94607],[36.67143,47.94813],[36.6684,47.9597],[36.67631,47.96356],[36.69355,47.9656],[36.68971,47.95097],[36.6719,47.93957],[36.6556,47.94067],[36.63589,47.93881],[36.60779,47.93534],[36.60972,47.92683],[36.60264,47.92762]]],[[[36.52162,47.8558],[36.52442,47.85521],[36.52908,47.84857],[36.53522,47.84703],[36.58183,47.85803],[36.57754,47.88026],[36.57007,47.88551],[36.56679,47.89827],[36.5642,47.9081],[36.57179,47.9088],[36.5759,47.90905],[36.57594,47.90883],[36.5807,47.90909],[36.58151,47.90931],[36.59245,47.91086],[36.59162,47.91657],[36.59216,47.91637],[36.60587,47.91325],[36.60507,47.91986],[36.61734,47.91774],[36.6351,47.92006],[36.63463,47.92543],[36.63781,47.92577],[36.64217,47.92514],[36.64832,47.91039],[36.64977,47.90289],[36.64282,47.89829],[36.61011,47.90272],[36.5866,47.90347],[36.58239,47.89475],[36.58299,47.89017],[36.58332,47.88903],[36.58485,47.88168],[36.58922,47.87374],[36.59067,47.8685],[36.58808,47.86098],[36.58106,47.84841],[36.53896,47.83933],[36.52626,47.84652],[36.52121,47.85361],[36.51978,47.85438],[36.52162,47.8558]]],[[[36.34595,47.79563],[36.3487,47.80334],[36.36004,47.8036],[36.36726,47.79845],[36.37847,47.79984],[36.37942,47.80134],[36.38489,47.80222],[36.38405,47.80537],[36.38951,47.80607],[36.39042,47.81377],[36.41938,47.81767],[36.4235,47.8147],[36.42659,47.81311],[36.4282,47.81144],[36.43436,47.8096],[36.43825,47.80917],[36.44183,47.80893],[36.45079,47.80806],[36.46249,47.81614],[36.47073,47.81683],[36.4812,47.81593],[36.49689,47.81799],[36.49893,47.82689],[36.50275,47.82744],[36.49948,47.83885],[36.50574,47.83901],[36.5067,47.84456],[36.50716,47.84491],[36.52068,47.83684],[36.52047,47.83384],[36.51561,47.82769],[36.50612,47.82315],[36.50424,47.823],[36.50609,47.81454],[36.47039,47.81163],[36.46372,47.81121],[36.4605,47.80824],[36.4514,47.80372],[36.44294,47.80279],[36.43427,47.80187],[36.43312,47.80712],[36.41955,47.80576],[36.41852,47.80888],[36.41698,47.80891],[36.40737,47.80853],[36.39569,47.8072],[36.3975,47.79619],[36.39209,47.79256],[36.38461,47.79099],[36.3805,47.79377],[36.37455,47.79549],[36.37189,47.7947],[36.34498,47.79147],[36.34595,47.79563]]],[[[35.49988,47.54306],[35.51942,47.54499],[35.52041,47.54001],[35.49826,47.5382],[35.48005,47.53788],[35.46975,47.54036],[35.46976,47.54048],[35.49988,47.54306]]]]},"properties":{"source":"ukrdaily","source_name":"UkrDailyUpdate","source_url":"https://map.ukrdailyupdate.com/","category":"occupied_to_contested","category_label":"Occupied became contested","period":"30d","compared_with":"2026-08-09","snapshot_time":"2026-09-08","area_km2_approx":242.3}},{"type":"Feature","geometry":{"type":"MultiPolygon","coordinates":[[[[37.84349,48.888],[37.84784,48.8869],[37.85234,48.88605],[37.85823,48.88553],[37.86067,48.88681],[37.86263,48.8865],[37.86389,48.88544],[37.8637,48.88399],[37.86111,48.88246],[37.86046,48.88141],[37.86422,48.87994],[37.86586,48.87986],[37.86725,48.87885],[37.86899,48.87811],[37.87151,48.8772],[37.87405,48.87679],[37.87779,48.8772],[37.88164,48.87783],[37.88168,48.87769],[37.88026,48.87697],[37.87855,48.86848],[37.86252,48.87224],[37.85087,48.87969],[37.84471,48.88315],[37.84279,48.88568],[37.841,48.88634],[37.84349,48.888]]],[[[37.84849,48.77511],[37.84235,48.77777],[37.83682,48.77825],[37.83574,48.77661],[37.84282,48.76968],[37.84716,48.76724],[37.84704,48.76642],[37.82991,48.76594],[37.82599,48.76352],[37.81924,48.76073],[37.81014,48.75736],[37.80617,48.75976],[37.81381,48.76887],[37.8118,48.7728],[37.81888,48.77996],[37.81707,48.78075],[37.82013,48.78241],[37.83113,48.79069],[37.84658,48.78352],[37.85552,48.78453],[37.86467,48.78298],[37.8657,48.77984],[37.8607,48.77581],[37.84849,48.77511]]],[[[37.78908,48.82922],[37.79165,48.83487],[37.79886,48.83521],[37.81484,48.83662],[37.81424,48.84108],[37.81328,48.84523],[37.80826,48.85127],[37.80628,48.85695],[37.81004,48.85811],[37.8162,48.85904],[37.8276,48.85417],[37.82116,48.85332],[37.82271,48.83869],[37.82365,48.83259],[37.81765,48.8292],[37.81628,48.8279],[37.82183,48.82456],[37.82282,48.82169],[37.82287,48.81731],[37.78908,48.82922]]],[[[37.8276,48.85417],[37.83673,48.85674],[37.84381,48.86225],[37.85768,48.85579],[37.86511,48.85504],[37.86374,48.84913],[37.8595,48.84498],[37.84473,48.8451],[37.83658,48.85024],[37.8276,48.85417]]],[[[37.81456,48.56953],[37.81391,48.56872],[37.81362,48.56875],[37.81199,48.56964],[37.80838,48.56788],[37.80288,48.56643],[37.80105,48.56448],[37.7986,48.56421],[37.79581,48.56412],[37.7964,48.56012],[37.79606,48.55042],[37.78899,48.54633],[37.78344,48.54556],[37.77616,48.54645],[37.76688,48.55583],[37.77102,48.56378],[37.78065,48.56922],[37.78632,48.57155],[37.7902,48.57739],[37.79462,48.57802],[37.79767,48.57966],[37.81238,48.57826],[37.81262,48.57626],[37.81508,48.57367],[37.81625,48.57114],[37.81456,48.56953]]],[[[37.78276,48.72342],[37.77906,48.73289],[37.79966,48.73479],[37.80462,48.73428],[37.81009,48.73199],[37.81149,48.72865],[37.80803,48.72447],[37.80345,48.7237],[37.79735,48.72333],[37.79335,48.72319],[37.78276,48.72342]]],[[[37.79343,48.75261],[37.79453,48.75772],[37.79237,48.76306],[37.79344,48.76685],[37.80384,48.77307],[37.79913,48.77864],[37.7872,48.7822],[37.7745,48.78322],[37.76282,48.77875],[37.75724,48.77621],[37.749,48.77423],[37.746,48.7779],[37.75767,48.78294],[37.76402,48.78367],[37.77038,48.78667],[37.77699,48.79029],[37.78428,48.79057],[37.78814,48.78984],[37.78909,48.78814],[37.79407,48.78757],[37.79741,48.78678],[37.80145,48.78203],[37.80725,48.77707],[37.80605,48.77617],[37.80781,48.77308],[37.80752,48.77213],[37.80684,48.77123],[37.79644,48.7647],[37.7959,48.76399],[37.79598,48.76318],[37.79689,48.76224],[37.80479,48.75513],[37.80458,48.75308],[37.80205,48.7468],[37.79343,48.75261]]],[[[37.78373,48.71008],[37.7733,48.70949],[37.76308,48.70796],[37.74686,48.70886],[37.7236,48.70864],[37.72085,48.71498],[37.72369,48.71962],[37.73871,48.72047],[37.75056,48.72236],[37.76747,48.72277],[37.76502,48.71671],[37.73918,48.7133],[37.73929,48.71097],[37.75053,48.71166],[37.76971,48.71258],[37.78336,48.71377],[37.7894,48.71331],[37.7928,48.70999],[37.78373,48.71008]]],[[[37.7829,48.6333],[37.77503,48.63285],[37.76721,48.64313],[37.75789,48.65274],[37.75435,48.66131],[37.77546,48.66409],[37.78344,48.66596],[37.78541,48.67733],[37.79087,48.6778],[37.79178,48.6581],[37.78624,48.6579],[37.7792,48.65722],[37.77551,48.65605],[37.77053,48.65478],[37.77062,48.65146],[37.77581,48.64684],[37.77981,48.64472],[37.7829,48.6333]]],[[[37.75927,49.63229],[37.74522,49.63675],[37.73557,49.63719],[37.72682,49.63677],[37.72687,49.64225],[37.73043,49.64351],[37.73606,49.64423],[37.74708,49.64155],[37.75683,49.64092],[37.75927,49.63229]]],[[[37.73663,49.46789],[37.74045,49.47143],[37.74345,49.47199],[37.74309,49.47292],[37.74795,49.47125],[37.74917,49.47041],[37.74194,49.46583],[37.74074,49.46622],[37.73985,49.46489],[37.73691,49.46298],[37.73661,49.46225],[37.73893,49.46159],[37.74193,49.46016],[37.74269,49.45939],[37.74117,49.45829],[37.73969,49.45786],[37.73309,49.46191],[37.73663,49.46789]]],[[[37.69379,48.59211],[37.69731,48.59648],[37.70782,48.5979],[37.71241,48.59555],[37.7188,48.5878],[37.72558,48.58343],[37.72084,48.58175],[37.71442,48.57977],[37.71075,48.57932],[37.69835,48.5798],[37.68946,48.57662],[37.69379,48.59211]]],[[[37.70168,49.62251],[37.69288,49.62054],[37.68996,49.62215],[37.68657,49.62377],[37.68365,49.6251],[37.68524,49.62716],[37.68582,49.62924],[37.68389,49.63308],[37.68603,49.63411],[37.68681,49.636],[37.68822,49.64142],[37.69196,49.64152],[37.6923,49.64314],[37.69221,49.64428],[37.68937,49.64622],[37.68827,49.64746],[37.68889,49.64947],[37.68862,49.65105],[37.67338,49.65459],[37.66929,49.65597],[37.66639,49.65749],[37.66983,49.65789],[37.67256,49.65864],[37.67705,49.65751],[37.68125,49.65848],[37.68815,49.65897],[37.69338,49.65988],[37.69834,49.65648],[37.71349,49.65262],[37.70838,49.64837],[37.70465,49.64234],[37.70328,49.63962],[37.7007,49.63692],[37.69907,49.63459],[37.69937,49.63108],[37.70273,49.62845],[37.70559,49.62439],[37.70168,49.62251]],[[37.68752,49.62562],[37.68627,49.62525],[37.68648,49.62488],[37.68798,49.62525],[37.68784,49.62545],[37.68752,49.62562]]],[[[37.65384,48.54461],[37.65757,48.54768],[37.6654,48.54416],[37.66445,48.54299],[37.66638,48.54274],[37.66688,48.5436],[37.67114,48.54256],[37.67429,48.54118],[37.68733,48.53507],[37.6908,48.53399],[37.69391,48.53248],[37.70294,48.52853],[37.70243,48.52805],[37.70222,48.52781],[37.70241,48.52731],[37.70338,48.52692],[37.70469,48.52777],[37.70666,48.52691],[37.71047,48.52475],[37.70463,48.52323],[37.70305,48.5232],[37.69826,48.52229],[37.69489,48.52093],[37.69349,48.51996],[37.69192,48.5206],[37.69114,48.52191],[37.69184,48.52212],[37.69119,48.52296],[37.69148,48.52307],[37.69117,48.52348],[37.69058,48.52371],[37.69009,48.52451],[37.69019,48.52677],[37.68906,48.52817],[37.68846,48.53016],[37.68762,48.53092],[37.68665,48.53157],[37.68612,48.53279],[37.68553,48.53324],[37.68446,48.53345],[37.68349,48.53317],[37.68265,48.53225],[37.68252,48.53148],[37.68283,48.53099],[37.67861,48.52888],[37.6793,48.52771],[37.67885,48.52638],[37.67891,48.52606],[37.67816,48.52597],[37.67828,48.5257],[37.6776,48.52555],[37.67587,48.5281],[37.67569,48.52804],[37.67513,48.52883],[37.67492,48.52925],[37.67513,48.52948],[37.67525,48.52993],[37.6744,48.53035],[37.67292,48.53194],[37.67133,48.53409],[37.66941,48.5362],[37.66938,48.53694],[37.6694,48.53724],[37.6686,48.53733],[37.66585,48.54057],[37.66327,48.54054],[37.66086,48.54044],[37.65771,48.54115],[37.65453,48.54113],[37.65288,48.54226],[37.65384,48.54461]]],[[[37.65802,49.65884],[37.65605,49.66046],[37.65772,49.66268],[37.6656,49.66436],[37.66311,49.65931],[37.66405,49.65818],[37.65802,49.65884]]],[[[37.59136,48.46785],[37.59429,48.47357],[37.58129,48.47265],[37.57675,48.49312],[37.58055,48.4947],[37.58332,48.49756],[37.58664,48.49807],[37.58802,48.49925],[37.58943,48.50048],[37.59231,48.5013],[37.59501,48.5023],[37.59488,48.50486],[37.60604,48.50649],[37.60552,48.51101],[37.61032,48.51476],[37.61358,48.52306],[37.61642,48.52682],[37.63951,48.53389],[37.64033,48.52897],[37.64029,48.522],[37.62544,48.51534],[37.6199,48.50672],[37.61475,48.50571],[37.61083,48.50554],[37.60966,48.50393],[37.60928,48.50263],[37.61008,48.50182],[37.61082,48.50161],[37.61153,48.50106],[37.61108,48.49961],[37.61074,48.49656],[37.60842,48.49359],[37.60775,48.49266],[37.60718,48.49232],[37.6067,48.49158],[37.60643,48.49072],[37.60715,48.49049],[37.60755,48.49025],[37.6077,48.48825],[37.60826,48.48663],[37.60855,48.48451],[37.60771,48.48245],[37.60601,48.48277],[37.60414,48.4842],[37.60125,48.4824],[37.59824,48.47647],[37.59834,48.47493],[37.60532,48.4678],[37.60513,48.46545],[37.60351,48.4635],[37.60376,48.46153],[37.60001,48.46104],[37.58813,48.46184],[37.58311,48.46147],[37.58208,48.4652],[37.59136,48.46785]],[[37.59408,48.49973],[37.59349,48.49968],[37.59357,48.49927],[37.59419,48.49932],[37.59408,48.49973]]],[[[37.61374,48.47482],[37.61372,48.47516],[37.61567,48.47541],[37.61327,48.48722],[37.61175,48.49008],[37.61238,48.49026],[37.61573,48.4886],[37.61681,48.48763],[37.61885,48.48706],[37.62328,48.48486],[37.6266,48.48192],[37.62893,48.47179],[37.62485,48.46845],[37.62169,48.46801],[37.61602,48.46781],[37.61582,48.46831],[37.61544,48.47025],[37.61436,48.47225],[37.61428,48.47351],[37.6155,48.47411],[37.6154,48.47475],[37.61374,48.47482]]],[[[37.5901,49.72039],[37.59038,49.72128],[37.59085,49.72165],[37.59103,49.72208],[37.59134,49.72271],[37.59218,49.72313],[37.59305,49.72306],[37.59381,49.72341],[37.59469,49.723],[37.59524,49.72344],[37.59625,49.72448],[37.59815,49.72525],[37.60016,49.72598],[37.59933,49.72687],[37.598,49.72782],[37.59696,49.72925],[37.60236,49.73094],[37.60535,49.73158],[37.60638,49.73172],[37.60809,49.73159],[37.61073,49.7322],[37.61396,49.7319],[37.61461,49.73067],[37.61727,49.72996],[37.62134,49.7286],[37.62199,49.72765],[37.62125,49.72655],[37.61644,49.72511],[37.60987,49.72659],[37.60773,49.72735],[37.60294,49.72614],[37.59639,49.72324],[37.59635,49.72178],[37.59514,49.72047],[37.59257,49.72152],[37.59077,49.71995],[37.5901,49.72039]]],[[[37.6026,49.71642],[37.6082,49.71755],[37.60921,49.71813],[37.60949,49.71915],[37.61194,49.71958],[37.61525,49.71401],[37.61207,49.71344],[37.61266,49.71145],[37.61248,49.71062],[37.61264,49.7097],[37.61097,49.70957],[37.60955,49.70938],[37.60874,49.71076],[37.60887,49.71128],[37.60807,49.71259],[37.60697,49.71282],[37.60606,49.71403],[37.60344,49.7145],[37.60293,49.71523],[37.60302,49.71583],[37.6026,49.71642]]],[[[37.60103,49.70029],[37.60206,49.70099],[37.603,49.70031],[37.60236,49.69998],[37.60217,49.70006],[37.60103,49.70029]]],[[[37.59873,49.69842],[37.5977,49.69908],[37.59871,49.6999],[37.59978,49.69919],[37.59873,49.69842]]],[[[37.3853,48.49682],[37.3891,48.50501],[37.39558,48.51556],[37.39107,48.5188],[37.37859,48.51704],[37.38745,48.54236],[37.39459,48.54921],[37.3989,48.55225],[37.40204,48.55556],[37.40893,48.55426],[37.41107,48.54557],[37.41307,48.53808],[37.4227,48.52935],[37.42903,48.5126],[37.42917,48.49971],[37.42329,48.49948],[37.41827,48.5013],[37.41492,48.50145],[37.41055,48.49405],[37.3853,48.49682]]],[[[37.26391,48.4907],[37.26453,48.49876],[37.27079,48.50217],[37.27673,48.50965],[37.27586,48.51362],[37.28093,48.5143],[37.28565,48.50911],[37.28702,48.50166],[37.2935,48.49944],[37.29637,48.49495],[37.29796,48.48703],[37.29165,48.48638],[37.28228,48.47796],[37.26728,48.47632],[37.26391,48.4907]]],[[[37.1799,48.46477],[37.16028,48.46944],[37.12703,48.47847],[37.11192,48.48296],[37.09639,48.4843],[37.0954,48.48875],[37.09725,48.49184],[37.10964,48.49545],[37.1264,48.49544],[37.15458,48.49157],[37.17176,48.49248],[37.17898,48.49589],[37.1773,48.50538],[37.17801,48.51441],[37.20857,48.51566],[37.20925,48.51313],[37.21867,48.49919],[37.22106,48.48835],[37.22156,48.47456],[37.21709,48.46848],[37.22018,48.45567],[37.20828,48.4546],[37.19622,48.45026],[37.18921,48.4528],[37.1799,48.46477]]],[[[37.14977,48.37431],[37.1517,48.37371],[37.15412,48.37701],[37.15579,48.37951],[37.15835,48.37904],[37.15921,48.38098],[37.15792,48.38143],[37.16273,48.38812],[37.16367,48.38927],[37.16727,48.39131],[37.17286,48.39367],[37.17486,48.39443],[37.17645,48.40055],[37.17495,48.4034],[37.18422,48.40443],[37.18445,48.40606],[37.18448,48.40606],[37.18559,48.40159],[37.19132,48.40213],[37.19221,48.39779],[37.18819,48.3971],[37.18889,48.39327],[37.17104,48.39058],[37.1716,48.38582],[37.16376,48.37333],[37.15005,48.37153],[37.14123,48.37297],[37.13205,48.37559],[37.12518,48.37895],[37.12329,48.38368],[37.14977,48.37431]]],[[[37.18481,48.41699],[37.18614,48.41187],[37.18592,48.40928],[37.18523,48.40891],[37.18434,48.40962],[37.18409,48.4107],[37.17426,48.41067],[37.171,48.41087],[37.16997,48.4164],[37.18481,48.41699]]],[[[37.11126,48.38219],[37.10946,48.38139],[37.10671,48.37868],[37.10325,48.36532],[37.08979,48.36348],[37.08971,48.3638],[37.07409,48.36154],[37.07197,48.36859],[37.06128,48.36691],[37.0527,48.36626],[37.04991,48.3768],[37.04609,48.37635],[37.04746,48.37002],[37.02287,48.36777],[37.01206,48.36845],[37.00935,48.36372],[37.00648,48.38471],[37.00371,48.40012],[37.03638,48.40391],[37.03409,48.41965],[37.02947,48.42002],[37.02253,48.42265],[37.02349,48.42449],[37.03314,48.42477],[37.05795,48.42455],[37.07194,48.42147],[37.07296,48.41421],[37.07621,48.40928],[37.0823,48.40669],[37.09552,48.40327],[37.10595,48.39467],[37.11288,48.38769],[37.1119,48.38425],[37.11838,48.38059],[37.1177,48.37867],[37.11126,48.38219]]],[[[36.99397,50.2851],[36.99964,50.27676],[37.00376,50.27325],[36.99277,50.26233],[36.97175,50.2688],[36.96691,50.26939],[36.96196,50.26972],[36.96806,50.27307],[36.97172,50.27687],[36.98383,50.27928],[36.98377,50.28612],[36.99239,50.29234],[36.99397,50.2851]]],[[[36.88968,48.17326],[36.90714,48.18039],[36.90713,48.18358],[36.90958,48.18421],[36.91503,48.18536],[36.91606,48.18218],[36.91404,48.18151],[36.91026,48.17976],[36.89465,48.17276],[36.88361,48.16787],[36.88352,48.16802],[36.88968,48.17326]]],[[[36.277,50.31538],[36.27876,50.31272],[36.27876,50.31272],[36.27997,50.31193],[36.28173,50.3099],[36.28456,50.30623],[36.28537,50.30416],[36.28563,50.29993],[36.28251,50.29779],[36.28569,50.29112],[36.27664,50.29354],[36.27378,50.29596],[36.26943,50.30852],[36.26986,50.31354],[36.2684,50.31927],[36.26728,50.33091],[36.2736,50.32402],[36.28036,50.32308],[36.27918,50.32113],[36.27795,50.31898],[36.27705,50.31806],[36.27664,50.31766],[36.27598,50.31757],[36.27666,50.31588],[36.27701,50.31539],[36.277,50.31538]]],[[[36.12038,47.69596],[36.11785,47.70117],[36.11699,47.70446],[36.123,47.72421],[36.12203,47.72533],[36.11527,47.73105],[36.10158,47.73024],[36.0773,47.72914],[36.07558,47.73223],[36.07768,47.74092],[36.09222,47.74248],[36.09381,47.73372],[36.10135,47.73434],[36.10435,47.73494],[36.11409,47.73593],[36.11807,47.73625],[36.11876,47.74978],[36.13678,47.75104],[36.13747,47.73509],[36.14026,47.73407],[36.16313,47.73515],[36.16313,47.73191],[36.15888,47.73084],[36.15662,47.7287],[36.14701,47.72608],[36.14873,47.72364],[36.14703,47.72315],[36.14507,47.71828],[36.13604,47.71358],[36.13898,47.70676],[36.12881,47.70465],[36.12984,47.69939],[36.12218,47.69583],[36.12038,47.69596]]],[[[36.11332,47.66778],[36.11002,47.68232],[36.10274,47.68942],[36.12145,47.68951],[36.13388,47.69123],[36.13765,47.68852],[36.14626,47.67113],[36.14815,47.66671],[36.14002,47.66604],[36.13416,47.67064],[36.1327,47.67368],[36.12682,47.67255],[36.11332,47.66778]]],[[[36.13512,47.82996],[36.13591,47.83142],[36.13608,47.83267],[36.14211,47.83293],[36.14274,47.8317],[36.14675,47.83045],[36.14674,47.83034],[36.13727,47.83006],[36.13512,47.82996]]],[[[36.11271,47.64386],[36.11895,47.63378],[36.10471,47.63185],[36.1027,47.63041],[36.09939,47.62754],[36.09999,47.6214],[36.10098,47.61902],[36.10079,47.61775],[36.08814,47.61382],[36.08541,47.62737],[36.09323,47.63391],[36.10413,47.64261],[36.11271,47.64386]]],[[[36.07289,47.59458],[36.06962,47.59367],[36.06643,47.59468],[36.06443,47.59569],[36.06269,47.597],[36.06988,47.60311],[36.07556,47.60647],[36.08224,47.6104],[36.08447,47.61041],[36.08691,47.59976],[36.08916,47.59011],[36.07289,47.59458]]],[[[35.90034,47.52643],[35.89639,47.52835],[35.89536,47.53249],[35.89802,47.53484],[35.90429,47.53364],[35.90521,47.53527],[35.90716,47.53693],[35.91461,47.53507],[35.90956,47.52984],[35.9081,47.52459],[35.90034,47.52643]]],[[[35.78801,47.49092],[35.78976,47.49119],[35.79163,47.49444],[35.79622,47.49579],[35.79815,47.49594],[35.80115,47.49614],[35.80162,47.50022],[35.80277,47.50241],[35.8051,47.50749],[35.80661,47.51122],[35.80757,47.52532],[35.80277,47.54687],[35.80787,47.55212],[35.80552,47.55267],[35.80163,47.55503],[35.79756,47.56051],[35.80008,47.56333],[35.81495,47.55571],[35.82491,47.54967],[35.83006,47.54421],[35.8362,47.51885],[35.83595,47.50929],[35.83418,47.50424],[35.83404,47.5011],[35.84574,47.49713],[35.85362,47.49676],[35.86519,47.49596],[35.85952,47.48375],[35.85531,47.47979],[35.85087,47.47991],[35.84845,47.48247],[35.84518,47.48345],[35.844,47.48371],[35.84332,47.48615],[35.83874,47.48594],[35.83899,47.48478],[35.8384,47.48441],[35.83,47.48347],[35.82934,47.48571],[35.82585,47.48752],[35.82867,47.48882],[35.83429,47.49188],[35.83428,47.49189],[35.82584,47.48752],[35.82239,47.48931],[35.81234,47.48589],[35.81129,47.48482],[35.80535,47.48325],[35.80216,47.48171],[35.80049,47.48038],[35.79937,47.48031],[35.7939,47.47995],[35.79176,47.48398],[35.78129,47.48425],[35.78424,47.49074],[35.78801,47.49092]],[[35.85155,47.49268],[35.85155,47.49266],[35.85181,47.49266],[35.85189,47.49266],[35.85189,47.49268],[35.85155,47.49268]]],[[[35.50456,47.56055],[35.50455,47.56331],[35.50282,47.5664],[35.50298,47.57133],[35.50558,47.5803],[35.47778,47.5788],[35.47036,47.58027],[35.47288,47.5832],[35.47643,47.58473],[35.49835,47.59277],[35.51333,47.59332],[35.52334,47.597],[35.55948,47.59735],[35.56207,47.59398],[35.57247,47.59395],[35.57871,47.58754],[35.59542,47.58333],[35.60325,47.55177],[35.60422,47.548],[35.60059,47.55113],[35.59134,47.55324],[35.58561,47.55287],[35.57802,47.55562],[35.5604,47.55339],[35.55778,47.55562],[35.54359,47.55412],[35.5339,47.55268],[35.50597,47.54778],[35.50574,47.54932],[35.50576,47.54932],[35.50462,47.55768],[35.50458,47.56055],[35.50456,47.56055]]],[[[35.38171,50.6874],[35.38169,50.68736],[35.37554,50.68896],[35.37294,50.69066],[35.3724,50.69474],[35.37705,50.70042],[35.37649,50.69577],[35.37722,50.69066],[35.38171,50.6874]]],[[[34.78704,51.12239],[34.78129,51.12566],[34.77199,51.1209],[34.76871,51.12309],[34.76302,51.12307],[34.75954,51.12341],[34.74972,51.14487],[34.74729,51.14935],[34.75279,51.15066],[34.75313,51.14878],[34.76615,51.14947],[34.7722,51.14852],[34.76813,51.14713],[34.76708,51.14502],[34.7711,51.14308],[34.77112,51.14103],[34.77374,51.14026],[34.77552,51.13988],[34.77752,51.13972],[34.78231,51.13936],[34.7832,51.13541],[34.79182,51.13207],[34.79889,51.1225],[34.78704,51.12239]]],[[[34.3012,51.51213],[34.29841,51.51237],[34.29601,51.51205],[34.29343,51.51093],[34.29212,51.50922],[34.29017,51.50907],[34.29824,51.49288],[34.29077,51.48676],[34.2912,51.48059],[34.28158,51.47359],[34.27927,51.4749],[34.27403,51.47583],[34.27363,51.49236],[34.2724,51.50378],[34.26773,51.51659],[34.25953,51.53342],[34.28455,51.53489],[34.28515,51.53305],[34.29553,51.53278],[34.29566,51.52396],[34.30545,51.5214],[34.30742,51.51966],[34.30785,51.51566],[34.30721,51.51411],[34.30596,51.51309],[34.30403,51.5124],[34.3012,51.51213]]]]},"properties":{"source":"ukrdaily","source_name":"UkrDailyUpdate","source_url":"https://map.ukrdailyupdate.com/","category":"ukrainian_to_contested","category_label":"Ukrainian-held became contested","period":"30d","compared_with":"2026-08-09","snapshot_time":"2026-09-08","area_km2_approx":273.8}}]}