{"type":"FeatureCollection","features":[{"type":"Feature","geometry":{"type":"MultiPolygon","coordinates":[[[[37.90042,48.77406],[37.91345,48.78343],[37.92267,48.78527],[37.92045,48.79492],[37.9205,48.79494],[37.92485,48.78843],[37.92276,48.78134],[37.93022,48.77464],[37.92135,48.76929],[37.89956,48.77134],[37.89171,48.77778],[37.89183,48.77796],[37.90042,48.77406]]],[[[37.85104,48.76079],[37.86489,48.76165],[37.88436,48.76645],[37.88728,48.76974],[37.88083,48.77925],[37.89466,48.77177],[37.89041,48.76137],[37.87998,48.75773],[37.86912,48.7594],[37.86359,48.75909],[37.85854,48.75655],[37.85156,48.75819],[37.84093,48.76383],[37.84107,48.76416],[37.85104,48.76079]]],[[[37.81839,48.55827],[37.81391,48.56694],[37.81937,48.57173],[37.81583,48.5755],[37.81963,48.58246],[37.81441,48.58816],[37.81814,48.59059],[37.82111,48.58816],[37.82066,48.58473],[37.82467,48.58157],[37.82868,48.57718],[37.83037,48.57154],[37.82237,48.56485],[37.82884,48.56166],[37.83615,48.55242],[37.82243,48.54611],[37.81839,48.55827]]],[[[37.63337,48.47508],[37.62216,48.48564],[37.61511,48.49355],[37.62035,48.49756],[37.62842,48.50675],[37.64252,48.50773],[37.64657,48.5002],[37.66469,48.50368],[37.65949,48.49519],[37.64685,48.49968],[37.64685,48.49968],[37.64348,48.50088],[37.63768,48.49591],[37.62744,48.49466],[37.63188,48.48384],[37.64696,48.48354],[37.65056,48.47572],[37.64721,48.47034],[37.64808,48.45764],[37.63852,48.45482],[37.63849,48.45193],[37.63821,48.4519],[37.63337,48.47508]]],[[[37.6269,50.2405],[37.60019,50.24053],[37.5886,50.2456],[37.59496,50.25079],[37.61076,50.2558],[37.62681,50.25479],[37.6256,50.24552],[37.6269,50.2405]]],[[[37.38679,48.49337],[37.39242,48.49678],[37.41674,48.4949],[37.43708,48.48813],[37.44617,48.49068],[37.44463,48.48472],[37.41897,48.48329],[37.39569,48.48586],[37.38833,48.49133],[37.38145,48.49317],[37.38147,48.49339],[37.38679,48.49337]]],[[[37.22514,48.41616],[37.21902,48.42985],[37.23085,48.43943],[37.23722,48.44842],[37.24071,48.44833],[37.24187,48.4423],[37.23584,48.43105],[37.2245,48.42468],[37.22632,48.42091],[37.23672,48.41941],[37.23265,48.41675],[37.22514,48.41616]]],[[[37.18051,48.3542],[37.18734,48.362],[37.1922,48.36253],[37.19363,48.36734],[37.19377,48.36732],[37.19391,48.36059],[37.20187,48.35596],[37.20219,48.35379],[37.18283,48.35341],[37.17142,48.35235],[37.17135,48.35286],[37.18051,48.3542]]],[[[36.16457,47.65167],[36.17061,47.65487],[36.16026,47.66886],[36.16607,47.67461],[36.17193,47.66943],[36.17988,47.65799],[36.19555,47.65776],[36.20232,47.64835],[36.20386,47.64355],[36.19482,47.63712],[36.18279,47.63314],[36.17729,47.64322],[36.17195,47.64508],[36.15978,47.65279],[36.15984,47.65292],[36.16457,47.65167]]]]},"properties":{"source":"deepstate","source_name":"DeepStateMap","source_url":"https://deepstatemap.live/en","category":"gained","category_label":"Newly Russian-occupied","period":"7d","compared_with":"2026-08-21","snapshot_time":"2026-08-28","area_km2_approx":32.8}},{"type":"Feature","geometry":{"type":"Polygon","coordinates":[[[37.61571,49.82345],[37.61708,49.82479],[37.62823,49.82806],[37.62943,49.83053],[37.63339,49.84098],[37.63229,49.85088],[37.63414,49.85167],[37.64791,49.85135],[37.64791,49.85795],[37.65203,49.85312],[37.66298,49.84968],[37.66628,49.84612],[37.66687,49.83877],[37.63424,49.82411],[37.61965,49.82324],[37.61038,49.81634],[37.61024,49.81648],[37.61571,49.82345]]]},"properties":{"source":"deepstate","source_name":"DeepStateMap","source_url":"https://deepstatemap.live/en","category":"lost","category_label":"No longer Russian-occupied","period":"7d","compared_with":"2026-08-21","snapshot_time":"2026-08-28","area_km2_approx":6.3}}]}