{"type":"FeatureCollection","features":[{"type":"Feature","geometry":{"type":"Point","coordinates":[35.038338,48.466112]},"properties":{"source":"geoconfirmed","source_name":"GeoConfirmed","source_url":"https://geoconfirmed.org/map/ukraine","id":"3c69b600-b933-4791-b3ac-11853fc9bf5f","date":"2026-09-28","link":"https://geoconfirmed.org/map/ukraine/3c69b600-b933-4791-b3ac-11853fc9bf5f","category":"Recently destroyed/Damaged[Visible in footage] or still burning infrastucture","side":"Neutral","color":"#AC7339","description":"Damage to 'Business center (Dnipro)' after a reported Russian attack.","orbat":[],"geolocation":["https://x.com/99Dominik_/status/2104492075169538186"],"sources":["https://x.com/99Dominik_/status/2104492449926435020","https://t.me/timofii_kucher/62683","https://x.com/99Dominik_/status/2104492894166122627","https://t.me/dnipropetrovskaODA/32222","https://newsukraine.rbc.ua/news/russia-strikes-office-center-in-downtown-1790588469.html"]}},{"type":"Feature","geometry":{"type":"Point","coordinates":[38.976411,45.038294]},"properties":{"source":"geoconfirmed","source_name":"GeoConfirmed","source_url":"https://geoconfirmed.org/map/ukraine","id":"7f2b702c-892b-4d19-99ea-1bdd18d7dadc","date":"2026-09-28","link":"https://geoconfirmed.org/map/ukraine/7f2b702c-892b-4d19-99ea-1bdd18d7dadc","category":"Video - Always Point of View in description - In the colour of who is doing the attack or is responsable for the incident in the video.","side":"Ukraine","color":"#0051CA","description":"Point of view from Krasnodar in north direction - Explosion in a distance krainian forces hit Novotitarovskaya","orbat":[],"geolocation":["https://x.com/Magyargeo56/status/2104515104259924410"],"sources":["https://x.com/Zeldamices/status/2104522036479401990","https://t.me/supernova_plus/60677","https://newsukraine.rbc.ua/news/russian-oil-depot-in-krasnodar-region-catches-1790586420.html"]}}]}