{"type":"FeatureCollection","features":[{"type":"Feature","geometry":{"type":"Point","coordinates":[37.50587,48.63199]},"properties":{"source":"lost_warinua","source_name":"lost_warinua (Telegram)","source_url":"https://t.me/s/lost_warinua","id":141262,"date":"2026-09-22","date_note":null,"posted_utc":"2026-10-07T15:01:29+00:00","link":"https://t.me/lost_warinua/141262","category":"Telegram post","side":"Claimed loss: Ukraine (ВСУ)","color":"#0051CA","description":"Уничтоженный танк Т-80УЕ-1 ВСУ с мангалом возле г. Дружковка Донецкой области.\nРанее принадлежал ВС РФ.","orbat":[],"sources":["https://t.me/arx_spn/31206"],"original_html":"<div class=\"tgme_widget_message_text js-message_text\" dir=\"auto\">22.09.2026<br/>Уничтоженный танк Т-80УЕ-1 ВСУ с мангалом возле г. Дружковка Донецкой области.<br/>Ранее принадлежал ВС РФ.<code><br/>(48.63199, 37.50587</code>)<br/><a href=\"https://t.me/arx_spn/31206\" target=\"_blank\" rel=\"noopener\">https://t.me/arx_spn/31206</a>"}}]}