{"type":"FeatureCollection","features":[{"type":"Feature","geometry":{"type":"MultiPolygon","coordinates":[[[[37.04344,48.35657],[37.04183,48.36051],[37.042,48.36178],[37.04668,48.36681],[37.05046,48.36756],[37.09272,48.37249],[37.08847,48.38529],[37.10126,48.38803],[37.09705,48.39393],[37.10044,48.39732],[37.10615,48.39493],[37.10568,48.39111],[37.12375,48.38358],[37.13581,48.37471],[37.14826,48.37206],[37.15289,48.37759],[37.15697,48.38149],[37.16345,48.3807],[37.1677,48.38606],[37.17317,48.39413],[37.17244,48.4003],[37.19403,48.40271],[37.19515,48.40479],[37.1955,48.40153],[37.18718,48.40053],[37.18527,48.39236],[37.17409,48.38983],[37.17045,48.38067],[37.17043,48.38067],[37.16979,48.37905],[37.1698,48.37904],[37.16769,48.37379],[37.1664,48.37224],[37.167,48.3657],[37.15944,48.36613],[37.12852,48.3653],[37.12237,48.37013],[37.1201,48.37737],[37.11126,48.38219],[37.10946,48.38139],[37.10671,48.37868],[37.10325,48.36532],[37.08492,48.36281],[37.07392,48.36154],[37.04757,48.35723],[37.04037,48.35082],[37.0403,48.35087],[37.04344,48.35657]]],[[[36.15366,47.657],[36.15233,47.65801],[36.1491,47.6627],[36.13954,47.68412],[36.13825,47.69062],[36.13907,47.69255],[36.1416,47.69388],[36.14287,47.70086],[36.15355,47.69759],[36.16102,47.69316],[36.16409,47.69024],[36.1681,47.68922],[36.17226,47.68081],[36.16741,47.67884],[36.16654,47.67268],[36.16037,47.67053],[36.16381,47.66399],[36.17016,47.65393],[36.16192,47.65173],[36.1586,47.65375],[36.15366,47.657]]],[[[36.13133,47.71985],[36.13056,47.72779],[36.14347,47.72857],[36.15343,47.73007],[36.16446,47.73506],[36.16635,47.72946],[36.16368,47.72763],[36.14873,47.72364],[36.14703,47.72315],[36.14507,47.71828],[36.13604,47.71358],[36.13133,47.71985]]]]},"properties":{"source":"ukrdaily","source_name":"UkrDailyUpdate","source_url":"https://map.ukrdailyupdate.com/","category":"gained","category_label":"Russian advance: became occupied","period":"7d","compared_with":"2026-09-27","snapshot_time":"2026-10-04","area_km2_approx":24.4}},{"type":"Feature","geometry":{"type":"MultiPolygon","coordinates":[[[[37.8734,49.00457],[37.87429,48.9923],[37.86312,48.99182],[37.86245,48.99824],[37.85732,48.99798],[37.85634,49.00492],[37.85197,49.00727],[37.85192,49.01042],[37.83845,49.0102],[37.83768,49.02016],[37.83683,49.02011],[37.83893,49.02338],[37.84193,49.0235],[37.85015,49.02216],[37.85811,49.02071],[37.86019,49.01727],[37.86607,49.01701],[37.86795,49.02095],[37.88349,49.02216],[37.8839,49.01673],[37.87934,49.01427],[37.87735,49.00612],[37.8734,49.00457]]],[[[37.38965,50.41918],[37.37223,50.4165],[37.37691,50.42114],[37.38129,50.42354],[37.38905,50.42494],[37.39562,50.4207],[37.38965,50.41918]]],[[[37.05302,50.32578],[37.05626,50.3247],[37.05772,50.32292],[37.05613,50.31701],[37.05382,50.31411],[37.0486,50.31872],[37.04362,50.31825],[37.04256,50.31834],[37.04199,50.31875],[37.04126,50.31977],[37.03963,50.32079],[37.03815,50.32109],[37.03676,50.32046],[37.03481,50.32043],[37.03481,50.32193],[37.03976,50.32671],[37.04293,50.3278],[37.04701,50.32987],[37.05302,50.32578]]],[[[35.86344,47.53768],[35.86546,47.54573],[35.88181,47.5488],[35.89499,47.54498],[35.91317,47.54162],[35.90523,47.5394],[35.90047,47.53539],[35.89639,47.52835],[35.86344,47.53768]]]]},"properties":{"source":"ukrdaily","source_name":"UkrDailyUpdate","source_url":"https://map.ukrdailyupdate.com/","category":"lost","category_label":"Ukrainian advance: became Ukrainian-held","period":"7d","compared_with":"2026-09-27","snapshot_time":"2026-10-04","area_km2_approx":13.1}},{"type":"Feature","geometry":{"type":"MultiPolygon","coordinates":[[[[37.03662,50.33146],[37.0395,50.33136],[37.04058,50.32907],[37.04293,50.3278],[37.03976,50.32671],[37.03481,50.32193],[37.03481,50.32043],[37.03676,50.32046],[37.03815,50.32109],[37.03963,50.32079],[37.04126,50.31977],[37.04199,50.31875],[37.04256,50.31834],[37.03692,50.31736],[37.03297,50.3176],[37.02872,50.3175],[37.02793,50.32212],[37.03033,50.32635],[37.03276,50.33113],[37.03153,50.33238],[37.03662,50.33146]]],[[[36.64977,47.90289],[36.64832,47.91039],[36.64217,47.92514],[36.67435,47.92774],[36.67663,47.91895],[36.67734,47.90984],[36.67655,47.90472],[36.67344,47.89812],[36.67272,47.89609],[36.66821,47.89399],[36.66459,47.89424],[36.64282,47.89829],[36.64977,47.90289]]]]},"properties":{"source":"ukrdaily","source_name":"UkrDailyUpdate","source_url":"https://map.ukrdailyupdate.com/","category":"occupied_to_contested","category_label":"Occupied became contested","period":"7d","compared_with":"2026-09-27","snapshot_time":"2026-10-04","area_km2_approx":8.6}},{"type":"Feature","geometry":{"type":"MultiPolygon","coordinates":[[[[37.83797,48.86314],[37.82929,48.86306],[37.82632,48.86127],[37.82396,48.86101],[37.82275,48.86942],[37.82374,48.87786],[37.83252,48.88378],[37.83251,48.87998],[37.83582,48.87794],[37.83651,48.87348],[37.83951,48.86857],[37.84381,48.86225],[37.84131,48.8603],[37.83797,48.86314]]],[[[37.80861,48.83607],[37.80614,48.84427],[37.80459,48.84636],[37.8015,48.85379],[37.80236,48.85608],[37.80628,48.85695],[37.80826,48.85127],[37.81328,48.84523],[37.81424,48.84108],[37.81484,48.83662],[37.80861,48.83607]]],[[[37.60259,48.52844],[37.60844,48.53965],[37.61745,48.54959],[37.61524,48.55821],[37.62627,48.56435],[37.63047,48.56117],[37.63318,48.56227],[37.64154,48.55855],[37.64227,48.5571],[37.64077,48.55227],[37.63622,48.55531],[37.62982,48.55512],[37.62394,48.5529],[37.62394,48.5496],[37.62167,48.54614],[37.62047,48.54253],[37.61854,48.53742],[37.61789,48.53361],[37.61583,48.53008],[37.61358,48.52306],[37.61032,48.51476],[37.60552,48.51101],[37.60259,48.52844]]],[[[37.56409,50.19089],[37.53397,50.18548],[37.51362,50.17691],[37.46768,50.17606],[37.48176,50.18562],[37.49171,50.20903],[37.52368,50.22497],[37.53363,50.22436],[37.54745,50.22162],[37.56213,50.22299],[37.56693,50.21777],[37.56736,50.21349],[37.58496,50.20959],[37.56409,50.19089]]],[[[36.1671,50.313],[36.16229,50.32045],[36.16385,50.32428],[36.17473,50.31843],[36.17945,50.31695],[36.17782,50.31202],[36.1671,50.313]]],[[[36.07597,47.74542],[36.08163,47.75726],[36.10077,47.7536],[36.11274,47.75316],[36.0978,47.74167],[36.09592,47.74194],[36.09591,47.74192],[36.09222,47.74248],[36.07768,47.74092],[36.07597,47.74542]]],[[[35.94087,47.62176],[35.94375,47.62578],[35.9591,47.62302],[35.95751,47.61657],[35.94087,47.62176]]]]},"properties":{"source":"ukrdaily","source_name":"UkrDailyUpdate","source_url":"https://map.ukrdailyupdate.com/","category":"ukrainian_to_contested","category_label":"Ukrainian-held became contested","period":"7d","compared_with":"2026-09-27","snapshot_time":"2026-10-04","area_km2_approx":38.5}}]}