{"type":"FeatureCollection","features":[{"type":"Feature","geometry":{"type":"Point","coordinates":[37.688173,48.513351]},"properties":{"original":{"Date":"2026-07-25","Name":"25 JUL 2026","Faction":"Russia","Origin":"UAV","Latitude":"48.513351","Longitude":"37.688173","PlusCode":"8GWVGM7Q+87 Kostyantynivka, Donetsk Oblast, Ukraine","Description":"0:40-0:45 - Russian strike on alleged ukrainian position ","Source":"https://x.com/AudaxonX/status/2082488936346083509, https://t.me/Legion_W_Bat1/1127","Geolocation":"https://x.com/AudaxonX/status/2082488952162857100","Equipment":"","EquipmentItems":"","Units":"","OrbatUnits":"1st Motorized Rifle Battalion \"Legion W\"","Id":"6385d00f-f38f-4e7d-953f-0ca7b783a0ff","icon":"/api/icons/E00000/False/template/111.png"},"source":"geoconfirmed","source_name":"GeoConfirmed","source_url":"https://geoconfirmed.org/map/ukraine","id":"6385d00f-f38f-4e7d-953f-0ca7b783a0ff","date":"2026-07-25","link":"https://geoconfirmed.org/map/ukraine/6385d00f-f38f-4e7d-953f-0ca7b783a0ff","category":"Short Range (<50km) OWAD (One Way Attack Drone), mostly rotary wing, Flying OR Attacking a target without knowing the outcome: if something is damaged --> icon of the damaged equipment.","side":"Russia","color":"#E00000","description":"0:40-0:45 - Russian strike on alleged ukrainian position","orbat":["1st Motorized Rifle Battalion \"Legion W\""],"geolocation":["https://x.com/AudaxonX/status/2082488952162857100"],"sources":["https://x.com/AudaxonX/status/2082488936346083509","https://t.me/Legion_W_Bat1/1127"]}},{"type":"Feature","geometry":{"type":"Point","coordinates":[37.68906,48.508976]},"properties":{"original":{"Date":"2026-07-25","Name":"25 JUL 2026","Faction":"Russia","Origin":"UAV","Latitude":"48.508976","Longitude":"37.68906","PlusCode":"8GWVGM5Q+HJ Kostyantynivka, Donetsk Oblast, Ukraine","Description":"0:53-1:00 - Russian strike on alleged ukrainian position ","Source":"https://x.com/AudaxonX/status/2082488936346083509, https://t.me/Legion_W_Bat1/1127","Geolocation":"https://x.com/AudaxonX/status/2082488964905111946","Equipment":"","EquipmentItems":"","Units":"","OrbatUnits":"1st Motorized Rifle Battalion \"Legion W\"","Id":"ee4ae869-d9bc-4d14-8e69-195a58eec061","icon":"/api/icons/E00000/False/template/111.png"},"source":"geoconfirmed","source_name":"GeoConfirmed","source_url":"https://geoconfirmed.org/map/ukraine","id":"ee4ae869-d9bc-4d14-8e69-195a58eec061","date":"2026-07-25","link":"https://geoconfirmed.org/map/ukraine/ee4ae869-d9bc-4d14-8e69-195a58eec061","category":"Short Range (<50km) OWAD (One Way Attack Drone), mostly rotary wing, Flying OR Attacking a target without knowing the outcome: if something is damaged --> icon of the damaged equipment.","side":"Russia","color":"#E00000","description":"0:53-1:00 - Russian strike on alleged ukrainian position","orbat":["1st Motorized Rifle Battalion \"Legion W\""],"geolocation":["https://x.com/AudaxonX/status/2082488964905111946"],"sources":["https://x.com/AudaxonX/status/2082488936346083509","https://t.me/Legion_W_Bat1/1127"]}},{"type":"Feature","geometry":{"type":"Point","coordinates":[37.667074,48.503596]},"properties":{"original":{"Date":"2026-07-25","Name":"25 JUL 2026","Faction":"Ukraine","Origin":"UAV","Latitude":"48.503596","Longitude":"37.667074","PlusCode":"8GWVGM38+CR Illinivka, Donetsk Oblast, Ukraine","Description":"0:00-0:09 - Ukrainian Fiber FPV drone of the 156th Mechanized Brigade hits a Russian soldier near Illinivka","Source":"https://x.com/AudaxonX/status/2081021464363282846, https://www.instagram.com/156_ombr/reel/DbKXaZcIG53/","Geolocation":"https://x.com/AudaxonX/status/2081021460831727791","Equipment":"","EquipmentItems":"Fiber Optic (FO) FPV (First Person View) OWAD (One Way Attack Drone)","Units":"","OrbatUnits":"156th Mechanized Brigade","Id":"db6ccdad-2a68-4cb9-a647-1a7809a3bf9b","icon":"/api/icons/0051CA/False/template/111.png"},"source":"geoconfirmed","source_name":"GeoConfirmed","source_url":"https://geoconfirmed.org/map/ukraine","id":"db6ccdad-2a68-4cb9-a647-1a7809a3bf9b","date":"2026-07-25","link":"https://geoconfirmed.org/map/ukraine/db6ccdad-2a68-4cb9-a647-1a7809a3bf9b","category":"Short Range (<50km) OWAD (One Way Attack Drone), mostly rotary wing, Flying OR Attacking a target without knowing the outcome: if something is damaged --> icon of the damaged equipment.","side":"Ukraine","color":"#0051CA","description":"0:00-0:09 - Ukrainian Fiber FPV drone of the 156th Mechanized Brigade hits a Russian soldier near Illinivka","orbat":["156th Mechanized Brigade"],"geolocation":["https://x.com/AudaxonX/status/2081021460831727791"],"sources":["https://x.com/AudaxonX/status/2081021464363282846","https://www.instagram.com/156_ombr/reel/DbKXaZcIG53/"]}},{"type":"Feature","geometry":{"type":"Point","coordinates":[31.97574,46.8504]},"properties":{"original":{"Date":"2026-07-25","Name":"25 JUL 2026","Faction":"Russia","Origin":"UAV","Latitude":"46.8504","Longitude":"31.97574","PlusCode":"8GRHVX2G+57 Mykolaiv, Mykolaiv Oblast, Ukraine","Description":"0:14-0:17 - Russian Geran-4 'seeker' targeted a cargo ship","Source":"https://x.com/franfran2424/status/2084676823036637353, https://t.me/zvezdanews/178316, ","Geolocation":"https://x.com/franfran2424/status/2084677492871196798","Equipment":"","EquipmentItems":"Geran-4 \"Seeker\"","Units":"","OrbatUnits":"","Id":"1aa6e6a3-ff74-422f-8062-2078d74cada7","icon":"/api/icons/E00000/False/template/181.png"},"source":"geoconfirmed","source_name":"GeoConfirmed","source_url":"https://geoconfirmed.org/map/ukraine","id":"1aa6e6a3-ff74-422f-8062-2078d74cada7","date":"2026-07-25","link":"https://geoconfirmed.org/map/ukraine/1aa6e6a3-ff74-422f-8062-2078d74cada7","category":"Longe Range (>50km) OWAD (One Way Attack Drone) or Loitering munition, mostly fixed wing, Flying OR Attacking a target without knowing the outcome: if something is damaged --> icon of the damaged equipment.","side":"Russia","color":"#E00000","description":"0:14-0:17 - Russian Geran-4 'seeker' targeted a cargo ship","orbat":[],"geolocation":["https://x.com/franfran2424/status/2084677492871196798"],"sources":["https://x.com/franfran2424/status/2084676823036637353","https://t.me/zvezdanews/178316"]}},{"type":"Feature","geometry":{"type":"Point","coordinates":[36.624898,47.830728]},"properties":{"original":{"Date":"2026-07-25","Name":"25 JUL 2026","Faction":"Ukraine","Origin":"UAV","Latitude":"47.830728","Longitude":"36.624898","PlusCode":"8GVRRJJF+7X Zelene Pole, Donetsk Oblast, Ukraine","Description":"0:24-0:29 - Something, possibly a vehicle, is burned by FPV strike.","Source":"https://x.com/Danspiun/status/2087993445713346663, https://t.me/Wormbusters/718","Geolocation":"https://x.com/klinger66/status/2088743526628511859","Equipment":"","EquipmentItems":"FPV (First Person View) OWAD (One Way Attack Drone) | Truck","Units":"","OrbatUnits":"2nd Unmanned Systems Battalion \"Wormbusters\"","Id":"98fcd1ec-b5f5-41ad-943c-317aabafde35","icon":"/api/icons/0051CA/False/template/70.png"},"source":"geoconfirmed","source_name":"GeoConfirmed","source_url":"https://geoconfirmed.org/map/ukraine","id":"98fcd1ec-b5f5-41ad-943c-317aabafde35","date":"2026-07-25","link":"https://geoconfirmed.org/map/ukraine/98fcd1ec-b5f5-41ad-943c-317aabafde35","category":"Controlled Demolition OR explosion of unknown origin OR fire of unknown origin where no other icon fits","side":"Ukraine","color":"#0051CA","description":"0:24-0:29 - Something, possibly a vehicle, is burned by FPV strike.","orbat":["2nd Unmanned Systems Battalion \"Wormbusters\""],"geolocation":["https://x.com/klinger66/status/2088743526628511859"],"sources":["https://x.com/Danspiun/status/2087993445713346663","https://t.me/Wormbusters/718"]}},{"type":"Feature","geometry":{"type":"Point","coordinates":[35.391542,46.39206]},"properties":{"original":{"Date":"2026-07-25","Name":"25 JUL 2026","Faction":"Neutral","Origin":"VID","Latitude":"46.39206","Longitude":"35.391542","PlusCode":"8GRQ99RR+RJ Kyrylivka, Zaporizhia Oblast, Ukraine","Description":"Area grid - Recreation centers on fire after a reported Ukrainian drone attack. Reportedly 12 were killed, of which Mikhail Vladimirovich Ivanov, an employee of Roskomnadzor, and 19 injured","Source":"https://x.com/99Dominik_/status/2080985000564887567, https://t.me/rogozin_do/8817, , Additional info, https://x.com/99Dominik_/status/2080986100319887598, https://x.com/99Dominik_/status/2080986698943463797, https://x.com/99Dominik_/status/2081692314133524915","Geolocation":"https://x.com/99Dominik_/status/2080984831920382293","Equipment":"","EquipmentItems":"","Units":"","OrbatUnits":"","Id":"08ef31de-499e-460e-8835-32cf34531f28","icon":"/api/icons/AC7339/False/template/192.png"},"source":"geoconfirmed","source_name":"GeoConfirmed","source_url":"https://geoconfirmed.org/map/ukraine","id":"08ef31de-499e-460e-8835-32cf34531f28","date":"2026-07-25","link":"https://geoconfirmed.org/map/ukraine/08ef31de-499e-460e-8835-32cf34531f28","category":"Recently destroyed/Damaged[Visible in footage] or still burning infrastucture","side":"Neutral","color":"#AC7339","description":"Area grid - Recreation centers on fire after a reported Ukrainian drone attack. Reportedly 12 were killed, of which Mikhail Vladimirovich Ivanov, an employee of Roskomnadzor, and 19 injured","orbat":[],"geolocation":["https://x.com/99Dominik_/status/2080984831920382293"],"sources":["https://x.com/99Dominik_/status/2080985000564887567","https://t.me/rogozin_do/8817","https://x.com/99Dominik_/status/2080986100319887598","https://x.com/99Dominik_/status/2080986698943463797","https://x.com/99Dominik_/status/2081692314133524915"]}},{"type":"Feature","geometry":{"type":"Point","coordinates":[37.687822,48.50899]},"properties":{"original":{"Date":"2026-07-25","Name":"25 JUL 2026","Faction":"Russia","Origin":"UAV","Latitude":"48.50899","Longitude":"37.687822","PlusCode":"8GWVGM5Q+H4 Kostyantynivka, Donetsk Oblast, Ukraine","Description":"0:35-0:40 - Russian strike on alleged ukrainian position ","Source":"https://x.com/AudaxonX/status/2082488936346083509, https://t.me/Legion_W_Bat1/1127","Geolocation":"https://x.com/AudaxonX/status/2082488945464529075","Equipment":"","EquipmentItems":"","Units":"","OrbatUnits":"1st Motorized Rifle Battalion \"Legion W\"","Id":"9499e91d-0d0b-4eba-8123-372afe0a32db","icon":"/api/icons/E00000/False/template/111.png"},"source":"geoconfirmed","source_name":"GeoConfirmed","source_url":"https://geoconfirmed.org/map/ukraine","id":"9499e91d-0d0b-4eba-8123-372afe0a32db","date":"2026-07-25","link":"https://geoconfirmed.org/map/ukraine/9499e91d-0d0b-4eba-8123-372afe0a32db","category":"Short Range (<50km) OWAD (One Way Attack Drone), mostly rotary wing, Flying OR Attacking a target without knowing the outcome: if something is damaged --> icon of the damaged equipment.","side":"Russia","color":"#E00000","description":"0:35-0:40 - Russian strike on alleged ukrainian position","orbat":["1st Motorized Rifle Battalion \"Legion W\""],"geolocation":["https://x.com/AudaxonX/status/2082488945464529075"],"sources":["https://x.com/AudaxonX/status/2082488936346083509","https://t.me/Legion_W_Bat1/1127"]}},{"type":"Feature","geometry":{"type":"Point","coordinates":[37.676589,48.512673]},"properties":{"original":{"Date":"2026-07-25","Name":"25 JUL 2026","Faction":"Russia","Origin":"UAV","Latitude":"48.512673","Longitude":"37.676589","PlusCode":"8GWVGM7G+3J Kostyantynivka, Donetsk Oblast, Ukraine","Description":"0:15-0:22 - 19th Special Purpose Center kils a Russian soldier in Kostyantynivka","Source":"https://x.com/Bielitzling/status/2080999335160918226, https://t.me/UA_Military_Police/2413, https://x.com/AudaxonX/status/2081038249754083543, https://www.instagram.com/ua.military.police/reel/DbNVggcgSVF/","Geolocation":"https://x.com/AudaxonX/status/2081038256385282502","Equipment":"","EquipmentItems":"(Multi-Purpose) Bomber UAV","Units":"","OrbatUnits":"19th Special Purpose Center","Id":"f479c262-c646-4487-8453-37862981b785","icon":"/api/icons/E00000/False/template/92.png"},"source":"geoconfirmed","source_name":"GeoConfirmed","source_url":"https://geoconfirmed.org/map/ukraine","id":"f479c262-c646-4487-8453-37862981b785","date":"2026-07-25","link":"https://geoconfirmed.org/map/ukraine/f479c262-c646-4487-8453-37862981b785","category":"WIA/KIA Soldier/Militant","side":"Russia","color":"#E00000","description":"0:15-0:22 - 19th Special Purpose Center kils a Russian soldier in Kostyantynivka","orbat":["19th Special Purpose Center"],"geolocation":["https://x.com/AudaxonX/status/2081038256385282502"],"sources":["https://x.com/Bielitzling/status/2080999335160918226","https://t.me/UA_Military_Police/2413","https://x.com/AudaxonX/status/2081038249754083543","https://www.instagram.com/ua.military.police/reel/DbNVggcgSVF/"]}},{"type":"Feature","geometry":{"type":"Point","coordinates":[37.613764,48.493044]},"properties":{"original":{"Date":"2026-07-25","Name":"25 JUL 2026","Faction":"Ukraine","Origin":"UAV","Latitude":"48.493044","Longitude":"37.613764","PlusCode":"8GWVFJV7+6G Dovha Balka, Donetsk Oblast, Ukraine","Description":"0:09-0:18&0:26-0:48&0:53-0:59 - 109th Territorial Defense Brigadehits a Russian position in Dovha Balka with Nemisis Drone Drops","Source":"https://x.com/AudaxonX/status/2081056108542591387, https://www.facebook.com/watch/?v=28659966566926478","Geolocation":"https://x.com/AudaxonX/status/2081056105417916618","Equipment":"","EquipmentItems":"(Multi-Purpose) Bomber UAV","Units":"","OrbatUnits":"109th Territorial Defense Brigade","Id":"0c62b088-e266-4403-b48c-417b7cbbab20","icon":"/api/icons/0051CA/False/template/110.png"},"source":"geoconfirmed","source_name":"GeoConfirmed","source_url":"https://geoconfirmed.org/map/ukraine","id":"0c62b088-e266-4403-b48c-417b7cbbab20","date":"2026-07-25","link":"https://geoconfirmed.org/map/ukraine/0c62b088-e266-4403-b48c-417b7cbbab20","category":"Multipurpose Bomber Drone, Flying OR Dropping OR bombing a target without knowing the outcome: if something is damaged --> icon of the damaged equipment.","side":"Ukraine","color":"#0051CA","description":"0:09-0:18&0:26-0:48&0:53-0:59 - 109th Territorial Defense Brigadehits a Russian position in Dovha Balka with Nemisis Drone Drops","orbat":["109th Territorial Defense Brigade"],"geolocation":["https://x.com/AudaxonX/status/2081056105417916618"],"sources":["https://x.com/AudaxonX/status/2081056108542591387","https://www.facebook.com/watch/?v=28659966566926478"]}},{"type":"Feature","geometry":{"type":"Point","coordinates":[65.732545,57.105347]},"properties":{"original":{"Date":"2026-07-25","Name":"25 JUL 2026","Faction":"Ukraine","Origin":"UAV","Latitude":"57.105347","Longitude":"65.732545","PlusCode":"9J974P4M+42 Tyumen, Tyumen Oblast, Russia","Description":"Ukrainian drone dives into Antipinsky Oil Refinery","Source":"https://x.com/Exilenova_plus/status/2081237814122061880, https://x.com/neonhandrail/status/2081245307481043137, https://t.me/exilenova_plus/27168","Geolocation":"https://x.com/neonhandrail/status/2081243979870511359","Equipment":"","EquipmentItems":"Fixed Wing OWAD (One Way Attack Drone)","Units":"","OrbatUnits":"","Id":"79976cda-2187-4a79-9525-4dcbcd2c38a8","icon":"/api/icons/0051CA/False/template/30.png"},"source":"geoconfirmed","source_name":"GeoConfirmed","source_url":"https://geoconfirmed.org/map/ukraine","id":"79976cda-2187-4a79-9525-4dcbcd2c38a8","date":"2026-07-25","link":"https://geoconfirmed.org/map/ukraine/79976cda-2187-4a79-9525-4dcbcd2c38a8","category":"Video - Always Point of View in description - In the colour of who is doing the attack or is responsable for the incident in the video.","side":"Ukraine","color":"#0051CA","description":"Ukrainian drone dives into Antipinsky Oil Refinery","orbat":[],"geolocation":["https://x.com/neonhandrail/status/2081243979870511359"],"sources":["https://x.com/Exilenova_plus/status/2081237814122061880","https://x.com/neonhandrail/status/2081245307481043137","https://t.me/exilenova_plus/27168"]}},{"type":"Feature","geometry":{"type":"Point","coordinates":[36.860716,50.209044]},"properties":{"original":{"Date":"2026-07-25","Name":"25 JUL 2026","Faction":"Ukraine","Origin":"UAV","Latitude":"50.209044","Longitude":"36.860716","PlusCode":"9G2R6V56+J7 Hrafske, Kharkiv Oblast, Ukraine","Description":"6th SOF Rangers Regiment UA cleared the house of Russian troops in Hrafske, Kharkiv region, Ukraine (d","Source":"https://x.com/Maks_NAFO_FELLA/status/2080973863001756153, https://t.me/ukr_sof/3117","Geolocation":"https://x.com/auditor_ya/status/2081126220154970425","Equipment":"","EquipmentItems":"","Units":"6th SOF Rangers Regiment ","OrbatUnits":"Ranger Corps","Id":"8e6328ba-1dd5-443a-a12b-4f5c2e393210","icon":"/api/icons/0051CA/False/template/100.png"},"source":"geoconfirmed","source_name":"GeoConfirmed","source_url":"https://geoconfirmed.org/map/ukraine","id":"8e6328ba-1dd5-443a-a12b-4f5c2e393210","date":"2026-07-25","link":"https://geoconfirmed.org/map/ukraine/8e6328ba-1dd5-443a-a12b-4f5c2e393210","category":"Civilian or Soldier or Militant (Depending on the colour)","side":"Ukraine","color":"#0051CA","description":"6th SOF Rangers Regiment UA cleared the house of Russian troops in Hrafske, Kharkiv region, Ukraine (d","orbat":["Ranger Corps"],"geolocation":["https://x.com/auditor_ya/status/2081126220154970425"],"sources":["https://x.com/Maks_NAFO_FELLA/status/2080973863001756153","https://t.me/ukr_sof/3117"]}},{"type":"Feature","geometry":{"type":"Point","coordinates":[37.68776,48.509046]},"properties":{"original":{"Date":"2026-07-25","Name":"25 JUL 2026","Faction":"Russia","Origin":"UAV","Latitude":"48.509046","Longitude":"37.68776","PlusCode":"8GWVGM5Q+J4 Kostyantynivka, Donetsk Oblast, Ukraine","Description":"1:39-1:44 - Russian strike on alleged ukrainian position ","Source":"https://x.com/AudaxonX/status/2082488936346083509, https://t.me/Legion_W_Bat1/1127","Geolocation":"https://x.com/AudaxonX/status/2082489006151885048","Equipment":"","EquipmentItems":"","Units":"","OrbatUnits":"1st Motorized Rifle Battalion \"Legion W\"","Id":"839c9bc4-48b0-43f8-b7e6-57638b89660d","icon":"/api/icons/E00000/False/template/111.png"},"source":"geoconfirmed","source_name":"GeoConfirmed","source_url":"https://geoconfirmed.org/map/ukraine","id":"839c9bc4-48b0-43f8-b7e6-57638b89660d","date":"2026-07-25","link":"https://geoconfirmed.org/map/ukraine/839c9bc4-48b0-43f8-b7e6-57638b89660d","category":"Short Range (<50km) OWAD (One Way Attack Drone), mostly rotary wing, Flying OR Attacking a target without knowing the outcome: if something is damaged --> icon of the damaged equipment.","side":"Russia","color":"#E00000","description":"1:39-1:44 - Russian strike on alleged ukrainian position","orbat":["1st Motorized Rifle Battalion \"Legion W\""],"geolocation":["https://x.com/AudaxonX/status/2082489006151885048"],"sources":["https://x.com/AudaxonX/status/2082488936346083509","https://t.me/Legion_W_Bat1/1127"]}},{"type":"Feature","geometry":{"type":"Point","coordinates":[35.3762,47.849]},"properties":{"original":{"Date":"2026-07-25","Name":"25 JUL 2026","Faction":"Ukraine","Origin":"UAV","Latitude":"47.849","Longitude":"35.3762","PlusCode":"8GVQR9XG+HF Ivano-Hannivka, Zaporizhia Oblast, Ukraine","Description":"0:30-0:36 - “Posipaky” UAV unit of 39th Anti-Aircraft Missile Regiment attacks a Russian drone flying over Ivano-Hannivka and towards Zaporizhia International Airport.","Source":"https://x.com/giubbi_prex/status/2083565209478729951, https://t.me/posipaki2025/349","Geolocation":"https://x.com/giubbi_prex/status/2083565209478729951","Equipment":"","EquipmentItems":" BM-35 \"ITALMAS\" | FPV (First Person View) OWAD (One Way Attack Drone)","Units":"","OrbatUnits":"UAV Interceptor Unit \"Posipaki\" / \"Minions\"","Id":"b3bed711-ebbe-40f9-9c1e-5aaef3b88a45","icon":"/api/icons/0051CA/False/template/82c8f84f-3212-4d5f-8a7f-9fafdcb97265.png"},"source":"geoconfirmed","source_name":"GeoConfirmed","source_url":"https://geoconfirmed.org/map/ukraine","id":"b3bed711-ebbe-40f9-9c1e-5aaef3b88a45","date":"2026-07-25","link":"https://geoconfirmed.org/map/ukraine/b3bed711-ebbe-40f9-9c1e-5aaef3b88a45","category":"Interception of a UAV - Colour of the force intercepting - If UAV destroyed --> Destroyed UAV icon instead.","side":"Ukraine","color":"#0051CA","description":"0:30-0:36 - “Posipaky” UAV unit of 39th Anti-Aircraft Missile Regiment attacks a Russian drone flying over Ivano-Hannivka and towards Zaporizhia International Airport.","orbat":["UAV Interceptor Unit \"Posipaki\" / \"Minions\""],"geolocation":["https://x.com/giubbi_prex/status/2083565209478729951"],"sources":["https://x.com/giubbi_prex/status/2083565209478729951","https://t.me/posipaki2025/349"]}},{"type":"Feature","geometry":{"type":"Point","coordinates":[36.667319,47.793366]},"properties":{"original":{"Date":"2026-07-25","Name":"25 JUL 2026","Faction":"Russia","Origin":"UAV","Latitude":"47.793366","Longitude":"36.667319","PlusCode":"8GVRQMV8+8W Rivnopil', Donetsk Oblast, Ukraine","Description":"0:01-0:08 - Wreck of a Russian Zil-131 visible (purple)","Source":"https://x.com/Danspiun/status/2087993445713346663, https://t.me/Wormbusters/718","Geolocation":"https://x.com/Danspiun/status/2087996395584118999, https://ukr.warspotting.net/view/46211/301024/","Equipment":"Zil-131","EquipmentItems":"","Units":"","OrbatUnits":"","Id":"045590be-eff8-4f97-87b7-6b8adf5e1c5c","icon":"/api/icons/E00000/False/template/63.png"},"source":"geoconfirmed","source_name":"GeoConfirmed","source_url":"https://geoconfirmed.org/map/ukraine","id":"045590be-eff8-4f97-87b7-6b8adf5e1c5c","date":"2026-07-25","link":"https://geoconfirmed.org/map/ukraine/045590be-eff8-4f97-87b7-6b8adf5e1c5c","category":"Older Destroyed/Damaged Logistical Trucks (Soft skin OR armoured)","side":"Russia","color":"#E00000","description":"0:01-0:08 - Wreck of a Russian Zil-131 visible (purple)","orbat":[],"geolocation":["https://x.com/Danspiun/status/2087996395584118999","https://ukr.warspotting.net/view/46211/301024/"],"sources":["https://x.com/Danspiun/status/2087993445713346663","https://t.me/Wormbusters/718"]}},{"type":"Feature","geometry":{"type":"Point","coordinates":[37.631901,55.628389]},"properties":{"original":{"Date":"2026-07-25","Name":"25 JUL 2026","Faction":"Russia Civilian","Origin":"UAV","Latitude":"55.628389","Longitude":"37.631901","PlusCode":"9G7VJJHJ+9Q Tsaritsyno District, Moscow, Russia","Description":"Video of retailers removing their goods in haste from a Wildberries Warehouses.","Source":"https://x.com/markito0171/status/2081354937846411458","Geolocation":"https://x.com/Mitch_Ulrich/status/2081412828456530369, https://x.com/klinger66/status/2081414817194086497, based on: https://x.com/GeoCrow_/status/2081388417829499297","Equipment":"","EquipmentItems":"","Units":"","OrbatUnits":"","Id":"e68d38c7-33f6-454b-9ee1-708bee9a4501","icon":"/api/icons/FF6666/False/template/100.png"},"source":"geoconfirmed","source_name":"GeoConfirmed","source_url":"https://geoconfirmed.org/map/ukraine","id":"e68d38c7-33f6-454b-9ee1-708bee9a4501","date":"2026-07-25","link":"https://geoconfirmed.org/map/ukraine/e68d38c7-33f6-454b-9ee1-708bee9a4501","category":"Civilian or Soldier or Militant (Depending on the colour)","side":"Russia Civilian","color":"#FF6666","description":"Video of retailers removing their goods in haste from a Wildberries Warehouses.","orbat":[],"geolocation":["https://x.com/Mitch_Ulrich/status/2081412828456530369","https://x.com/klinger66/status/2081414817194086497","https://x.com/GeoCrow_/status/2081388417829499297"],"sources":["https://x.com/markito0171/status/2081354937846411458"]}},{"type":"Feature","geometry":{"type":"Point","coordinates":[37.663242,48.504883]},"properties":{"original":{"Date":"2026-07-25","Name":"25 JUL 2026","Faction":"Ukraine","Origin":"UAV","Latitude":"48.504883","Longitude":"37.663242","PlusCode":"8GWVGM37+X7 Kostyantynivka, Donetsk Oblast, Ukraine","Description":"0:10-0:26 - Ukrainian nightvision Fiber FPV drone of the 156th Mechanized Brigade hits a Russian soldier near Illinivka","Source":"https://x.com/AudaxonX/status/2081021464363282846, https://www.instagram.com/156_ombr/reel/DbKXaZcIG53/","Geolocation":"https://x.com/AudaxonX/status/2081021460831727791","Equipment":"","EquipmentItems":"Fiber Optic (FO) FPV (First Person View) OWAD (One Way Attack Drone)","Units":"","OrbatUnits":"156th Mechanized Brigade","Id":"8e308a07-5c5a-454f-a7bf-7101119d08d2","icon":"/api/icons/0051CA/False/template/111.png"},"source":"geoconfirmed","source_name":"GeoConfirmed","source_url":"https://geoconfirmed.org/map/ukraine","id":"8e308a07-5c5a-454f-a7bf-7101119d08d2","date":"2026-07-25","link":"https://geoconfirmed.org/map/ukraine/8e308a07-5c5a-454f-a7bf-7101119d08d2","category":"Short Range (<50km) OWAD (One Way Attack Drone), mostly rotary wing, Flying OR Attacking a target without knowing the outcome: if something is damaged --> icon of the damaged equipment.","side":"Ukraine","color":"#0051CA","description":"0:10-0:26 - Ukrainian nightvision Fiber FPV drone of the 156th Mechanized Brigade hits a Russian soldier near Illinivka","orbat":["156th Mechanized Brigade"],"geolocation":["https://x.com/AudaxonX/status/2081021460831727791"],"sources":["https://x.com/AudaxonX/status/2081021464363282846","https://www.instagram.com/156_ombr/reel/DbKXaZcIG53/"]}},{"type":"Feature","geometry":{"type":"Point","coordinates":[36.66827,47.793067]},"properties":{"original":{"Date":"2026-07-25","Name":"25 JUL 2026","Faction":"Unknown","Origin":"UAV","Latitude":"47.793067","Longitude":"36.66827","PlusCode":"8GVRQMV9+68 Rivnopil', Donetsk Oblast, Ukraine","Description":"0:01-0:08 - Wreck visible (black))","Source":"https://x.com/Danspiun/status/2087993445713346663, https://t.me/Wormbusters/718","Geolocation":"https://x.com/Danspiun/status/2087996395584118999","Equipment":"","EquipmentItems":"","Units":"","OrbatUnits":"","Id":"bff62358-2122-428a-837d-7134cb42431d","icon":"/api/icons/666666/False/template/63.png"},"source":"geoconfirmed","source_name":"GeoConfirmed","source_url":"https://geoconfirmed.org/map/ukraine","id":"bff62358-2122-428a-837d-7134cb42431d","date":"2026-07-25","link":"https://geoconfirmed.org/map/ukraine/bff62358-2122-428a-837d-7134cb42431d","category":"Older Destroyed/Damaged Logistical Trucks (Soft skin OR armoured)","side":"Unknown","color":"#666666","description":"0:01-0:08 - Wreck visible (black))","orbat":[],"geolocation":["https://x.com/Danspiun/status/2087996395584118999"],"sources":["https://x.com/Danspiun/status/2087993445713346663","https://t.me/Wormbusters/718"]}},{"type":"Feature","geometry":{"type":"Point","coordinates":[37.461594,48.35005]},"properties":{"original":{"Date":"2026-07-25","Name":"25 JUL 2026","Faction":"Ukraine","Origin":"UAV","Latitude":"48.35005","Longitude":"37.461594","PlusCode":"8GWV9F26+2J Nova Poltavka, Donetsk Oblast, Ukraine","Description":"Ukrainian drone of the  1st Corps \"Azov\" observed large explosion in Nova Poltavka","Source":"https://x.com/azov_media/status/2080974057856491559","Geolocation":"https://x.com/99Dominik_/status/2080977685979734076","Equipment":"","EquipmentItems":"","Units":"","OrbatUnits":"1st Corps \"Azov\"","Id":"af2cf43f-bc16-4f74-8b90-7736319a9579","icon":"/api/icons/0051CA/False/template/70.png"},"source":"geoconfirmed","source_name":"GeoConfirmed","source_url":"https://geoconfirmed.org/map/ukraine","id":"af2cf43f-bc16-4f74-8b90-7736319a9579","date":"2026-07-25","link":"https://geoconfirmed.org/map/ukraine/af2cf43f-bc16-4f74-8b90-7736319a9579","category":"Controlled Demolition OR explosion of unknown origin OR fire of unknown origin where no other icon fits","side":"Ukraine","color":"#0051CA","description":"Ukrainian drone of the  1st Corps \"Azov\" observed large explosion in Nova Poltavka","orbat":["1st Corps \"Azov\""],"geolocation":["https://x.com/99Dominik_/status/2080977685979734076"],"sources":["https://x.com/azov_media/status/2080974057856491559"]}},{"type":"Feature","geometry":{"type":"Point","coordinates":[65.719564,57.105741]},"properties":{"original":{"Date":"2026-07-25","Name":"25 JUL 2026","Faction":"Ukraine","Origin":"PIC","Latitude":"57.105741","Longitude":"65.719564","PlusCode":"9J974P49+7R Tyumen, Tyumen Oblast, Russia","Description":"POV - Smoke after a strike on the oil refinery in Tyumen ","Source":"https://t.me/exilenova_plus/27103?single","Geolocation":"https://x.com/Vlad_23456/status/2081113881515110586","Equipment":"","EquipmentItems":"","Units":"","OrbatUnits":"","Id":"618b1348-b8da-4777-b3ad-7cf725bcf9ed","icon":"/api/icons/0051CA/False/template/20.png"},"source":"geoconfirmed","source_name":"GeoConfirmed","source_url":"https://geoconfirmed.org/map/ukraine","id":"618b1348-b8da-4777-b3ad-7cf725bcf9ed","date":"2026-07-25","link":"https://geoconfirmed.org/map/ukraine/618b1348-b8da-4777-b3ad-7cf725bcf9ed","category":"Picture - Always Point of View in description - - In the colour of who is doing the attack or is responsable for the incident in the picture.","side":"Ukraine","color":"#0051CA","description":"POV - Smoke after a strike on the oil refinery in Tyumen","orbat":[],"geolocation":["https://x.com/Vlad_23456/status/2081113881515110586"],"sources":["https://t.me/exilenova_plus/27103?single"]}},{"type":"Feature","geometry":{"type":"Point","coordinates":[36.647472,47.790028]},"properties":{"original":{"Date":"2026-07-25","Name":"25 JUL 2026","Faction":"Russia","Origin":"UAV","Latitude":"47.790028","Longitude":"36.647472","PlusCode":"8GVRQJRW+2X Novodarivka, Zaporizhia Oblast, Ukraine","Description":"0:38-end - 414th Brigade of Unmanned Strike Systems destroy a loaded truck","Source":"https://x.com/Danspiun/status/2087993445713346663, https://t.me/Wormbusters/718","Geolocation":"https://x.com/Danspiun/status/2088651448368116214","Equipment":"","EquipmentItems":"FPV (First Person View) OWAD (One Way Attack Drone) | Truck","Units":"","OrbatUnits":"2nd Unmanned Systems Battalion \"Wormbusters\"","Id":"15778b19-f074-45f1-8cd5-86121f5e6dc2","icon":"/api/icons/E00000/False/template/62.png"},"source":"geoconfirmed","source_name":"GeoConfirmed","source_url":"https://geoconfirmed.org/map/ukraine","id":"15778b19-f074-45f1-8cd5-86121f5e6dc2","date":"2026-07-25","link":"https://geoconfirmed.org/map/ukraine/15778b19-f074-45f1-8cd5-86121f5e6dc2","category":"Recently Destroyed/Damaged[Visible in footage] Logistical Trucks (Soft skin OR armoured)","side":"Russia","color":"#E00000","description":"0:38-end - 414th Brigade of Unmanned Strike Systems destroy a loaded truck","orbat":["2nd Unmanned Systems Battalion \"Wormbusters\""],"geolocation":["https://x.com/Danspiun/status/2088651448368116214"],"sources":["https://x.com/Danspiun/status/2087993445713346663","https://t.me/Wormbusters/718"]}},{"type":"Feature","geometry":{"type":"Point","coordinates":[37.681315,48.518295]},"properties":{"original":{"Date":"2026-07-25","Name":"25 JUL 2026","Faction":"Ukraine","Origin":"UAV","Latitude":"48.518295","Longitude":"37.681315","PlusCode":"8GWVGM9J+8G Kostyantynivka, Donetsk Oblast, Ukraine","Description":"0:30-0:58 - 1465th Motorized Rifle Regiment kills a Ukrainiain soldier in Kostyantynivka with FPV Drones","Source":"https://x.com/AudaxonX/status/2081048962467868967, https://t.me/MSP1465/903","Geolocation":"https://x.com/AudaxonX/status/2081048959263424715","Equipment":"","EquipmentItems":"FPV (First Person View) OWAD (One Way Attack Drone)","Units":"","OrbatUnits":"1465th Motorized Rifle Regiment","Id":"d2bf3305-7131-44e4-b6fa-8be7d1f9718e","icon":"/api/icons/0051CA/False/template/92.png"},"source":"geoconfirmed","source_name":"GeoConfirmed","source_url":"https://geoconfirmed.org/map/ukraine","id":"d2bf3305-7131-44e4-b6fa-8be7d1f9718e","date":"2026-07-25","link":"https://geoconfirmed.org/map/ukraine/d2bf3305-7131-44e4-b6fa-8be7d1f9718e","category":"WIA/KIA Soldier/Militant","side":"Ukraine","color":"#0051CA","description":"0:30-0:58 - 1465th Motorized Rifle Regiment kills a Ukrainiain soldier in Kostyantynivka with FPV Drones","orbat":["1465th Motorized Rifle Regiment"],"geolocation":["https://x.com/AudaxonX/status/2081048959263424715"],"sources":["https://x.com/AudaxonX/status/2081048962467868967","https://t.me/MSP1465/903"]}},{"type":"Feature","geometry":{"type":"Point","coordinates":[65.53976,57.115934]},"properties":{"original":{"Date":"2026-07-25","Name":"25 JUL 2026","Faction":"Ukraine","Origin":"PIC","Latitude":"57.115934","Longitude":"65.53976","PlusCode":"9J974G8Q+9W Tyumen, Tyumen Oblast, Russia","Description":"POV - Smoke after a strike on the oil refinery in Tyumen ","Source":"https://t.me/exilenova_plus/27125?single","Geolocation":"https://x.com/Vlad_23456/status/2081113881515110586","Equipment":"","EquipmentItems":"","Units":"","OrbatUnits":"","Id":"1c0e3fea-39d0-4bd0-bf0b-91dacdbf975b","icon":"/api/icons/0051CA/False/template/20.png"},"source":"geoconfirmed","source_name":"GeoConfirmed","source_url":"https://geoconfirmed.org/map/ukraine","id":"1c0e3fea-39d0-4bd0-bf0b-91dacdbf975b","date":"2026-07-25","link":"https://geoconfirmed.org/map/ukraine/1c0e3fea-39d0-4bd0-bf0b-91dacdbf975b","category":"Picture - Always Point of View in description - - In the colour of who is doing the attack or is responsable for the incident in the picture.","side":"Ukraine","color":"#0051CA","description":"POV - Smoke after a strike on the oil refinery in Tyumen","orbat":[],"geolocation":["https://x.com/Vlad_23456/status/2081113881515110586"],"sources":["https://t.me/exilenova_plus/27125?single"]}},{"type":"Feature","geometry":{"type":"Point","coordinates":[37.693065,48.507725]},"properties":{"original":{"Date":"2026-07-25","Name":"25 JUL 2026","Faction":"Russia","Origin":"UAV","Latitude":"48.507725","Longitude":"37.693065","PlusCode":"8GWVGM5V+36 Kostyantynivka, Donetsk Oblast, Ukraine","Description":"1:29-1:35 - Russian strike on alleged ukrainian position ","Source":"https://x.com/AudaxonX/status/2082488936346083509, https://t.me/Legion_W_Bat1/1127","Geolocation":"https://x.com/AudaxonX/status/2082488999189360771","Equipment":"","EquipmentItems":"","Units":"","OrbatUnits":"1st Motorized Rifle Battalion \"Legion W\"","Id":"c43c484c-cdf6-4157-b04c-9c74e3e376bb","icon":"/api/icons/E00000/False/template/111.png"},"source":"geoconfirmed","source_name":"GeoConfirmed","source_url":"https://geoconfirmed.org/map/ukraine","id":"c43c484c-cdf6-4157-b04c-9c74e3e376bb","date":"2026-07-25","link":"https://geoconfirmed.org/map/ukraine/c43c484c-cdf6-4157-b04c-9c74e3e376bb","category":"Short Range (<50km) OWAD (One Way Attack Drone), mostly rotary wing, Flying OR Attacking a target without knowing the outcome: if something is damaged --> icon of the damaged equipment.","side":"Russia","color":"#E00000","description":"1:29-1:35 - Russian strike on alleged ukrainian position","orbat":["1st Motorized Rifle Battalion \"Legion W\""],"geolocation":["https://x.com/AudaxonX/status/2082488999189360771"],"sources":["https://x.com/AudaxonX/status/2082488936346083509","https://t.me/Legion_W_Bat1/1127"]}},{"type":"Feature","geometry":{"type":"Point","coordinates":[60.580819,56.727503]},"properties":{"original":{"Date":"2026-07-25","Name":"25 JUL 2026","Faction":"Ukraine","Origin":"UAV","Latitude":"56.727503","Longitude":"60.580819","PlusCode":"9J82PHHJ+28 Yekaterinburg, Sverdlovsk Oblast, Russia","Description":"Aftermath of a failed drone strike on a Wildberries distribution center.","Source":"https://t.me/exilenova_plus/27155, more footage: https://x.com/Exilenova_plus/status/2080903979706581090","Geolocation":"https://x.com/ne_kotletka/status/2081392013824418180, related: https://x.com/Vlad_23456/status/2081005252103283069","Equipment":"","EquipmentItems":"Fixed Wing OWAD (One Way Attack Drone)","Units":"","OrbatUnits":"","Id":"42ee7347-096a-461e-8e36-9fd7535b0511","icon":"/api/icons/0051CA/False/template/70.png"},"source":"geoconfirmed","source_name":"GeoConfirmed","source_url":"https://geoconfirmed.org/map/ukraine","id":"42ee7347-096a-461e-8e36-9fd7535b0511","date":"2026-07-25","link":"https://geoconfirmed.org/map/ukraine/42ee7347-096a-461e-8e36-9fd7535b0511","category":"Controlled Demolition OR explosion of unknown origin OR fire of unknown origin where no other icon fits","side":"Ukraine","color":"#0051CA","description":"Aftermath of a failed drone strike on a Wildberries distribution center.","orbat":[],"geolocation":["https://x.com/ne_kotletka/status/2081392013824418180","https://x.com/Vlad_23456/status/2081005252103283069"],"sources":["https://t.me/exilenova_plus/27155","https://x.com/Exilenova_plus/status/2080903979706581090"]}},{"type":"Feature","geometry":{"type":"Point","coordinates":[65.754331,57.100469]},"properties":{"original":{"Date":"2026-07-25","Name":"25 JUL 2026","Faction":"Neutral","Origin":"SAT","Latitude":"57.100469","Longitude":"65.754331","PlusCode":"9J973QX3+RC Tyumen, Tyumen Oblast, Russia","Description":"A damaged tank was observed at the Tyumen Oil Refinery following a reported Ukrainian strike on 25 July 2026.","Source":"https://x.com/GarbuzYe/status/2086870351531610286, , More information, https://www.reuters.com/world/europe/ukrainian-drone-strike-sparks-fire-russias-tyumen-oil-refinery-2026-07-25/","Geolocation":"https://x.com/GarbuzYe/status/2086870351531610286","Equipment":"","EquipmentItems":"","Units":"","OrbatUnits":"","Id":"adbcd9e7-a999-437e-97e4-a0c1d6db928b","icon":"/api/icons/AC7339/False/template/192.png"},"source":"geoconfirmed","source_name":"GeoConfirmed","source_url":"https://geoconfirmed.org/map/ukraine","id":"adbcd9e7-a999-437e-97e4-a0c1d6db928b","date":"2026-07-25","link":"https://geoconfirmed.org/map/ukraine/adbcd9e7-a999-437e-97e4-a0c1d6db928b","category":"Recently destroyed/Damaged[Visible in footage] or still burning infrastucture","side":"Neutral","color":"#AC7339","description":"A damaged tank was observed at the Tyumen Oil Refinery following a reported Ukrainian strike on 25 July 2026.","orbat":[],"geolocation":["https://x.com/GarbuzYe/status/2086870351531610286"],"sources":["https://x.com/GarbuzYe/status/2086870351531610286","https://www.reuters.com/world/europe/ukrainian-drone-strike-sparks-fire-russias-tyumen-oil-refinery-2026-07-25/"]}},{"type":"Feature","geometry":{"type":"Point","coordinates":[31.9789,46.8653]},"properties":{"original":{"Date":"2026-07-25","Name":"25 JUL 2026","Faction":"Russia","Origin":"UAV","Latitude":"46.8653","Longitude":"31.9789","PlusCode":"8GRHVX8H+4H Mykolaiv, Mykolaiv Oblast, Ukraine","Description":"0:00-0:07 - Russian Geran-4 'seeker' targeted a cargo ship","Source":"https://x.com/franfran2424/status/2084676823036637353, https://t.me/zvezdanews/178316, ","Geolocation":"https://x.com/franfran2424/status/2084677492871196798","Equipment":"","EquipmentItems":"Geran-4 \"Seeker\"","Units":"","OrbatUnits":"","Id":"946f9760-b7fb-45dc-a4ba-a218c5170aa1","icon":"/api/icons/E00000/False/template/181.png"},"source":"geoconfirmed","source_name":"GeoConfirmed","source_url":"https://geoconfirmed.org/map/ukraine","id":"946f9760-b7fb-45dc-a4ba-a218c5170aa1","date":"2026-07-25","link":"https://geoconfirmed.org/map/ukraine/946f9760-b7fb-45dc-a4ba-a218c5170aa1","category":"Longe Range (>50km) OWAD (One Way Attack Drone) or Loitering munition, mostly fixed wing, Flying OR Attacking a target without knowing the outcome: if something is damaged --> icon of the damaged equipment.","side":"Russia","color":"#E00000","description":"0:00-0:07 - Russian Geran-4 'seeker' targeted a cargo ship","orbat":[],"geolocation":["https://x.com/franfran2424/status/2084677492871196798"],"sources":["https://x.com/franfran2424/status/2084676823036637353","https://t.me/zvezdanews/178316"]}},{"type":"Feature","geometry":{"type":"Point","coordinates":[37.687728,48.508968]},"properties":{"original":{"Date":"2026-07-25","Name":"25 JUL 2026","Faction":"Russia","Origin":"UAV","Latitude":"48.508968","Longitude":"37.687728","PlusCode":"8GWVGM5Q+H3 Kostyantynivka, Donetsk Oblast, Ukraine","Description":"1:44-2:00 - Two Russian FPV drones strikes on alleged ukrainian position ","Source":"https://x.com/AudaxonX/status/2082488936346083509, https://t.me/Legion_W_Bat1/1127","Geolocation":"https://x.com/AudaxonX/status/2082489013420654659","Equipment":"","EquipmentItems":"FPV (First Person View) OWAD (One Way Attack Drone)","Units":"","OrbatUnits":"1st Motorized Rifle Battalion \"Legion W\"","Id":"48dd4195-8b20-4c97-a963-a9ffc2e8ef53","icon":"/api/icons/E00000/False/template/111.png"},"source":"geoconfirmed","source_name":"GeoConfirmed","source_url":"https://geoconfirmed.org/map/ukraine","id":"48dd4195-8b20-4c97-a963-a9ffc2e8ef53","date":"2026-07-25","link":"https://geoconfirmed.org/map/ukraine/48dd4195-8b20-4c97-a963-a9ffc2e8ef53","category":"Short Range (<50km) OWAD (One Way Attack Drone), mostly rotary wing, Flying OR Attacking a target without knowing the outcome: if something is damaged --> icon of the damaged equipment.","side":"Russia","color":"#E00000","description":"1:44-2:00 - Two Russian FPV drones strikes on alleged ukrainian position","orbat":["1st Motorized Rifle Battalion \"Legion W\""],"geolocation":["https://x.com/AudaxonX/status/2082489013420654659"],"sources":["https://x.com/AudaxonX/status/2082488936346083509","https://t.me/Legion_W_Bat1/1127"]}},{"type":"Feature","geometry":{"type":"Point","coordinates":[37.68787,48.50899]},"properties":{"original":{"Date":"2026-07-25","Name":"25 JUL 2026","Faction":"Russia","Origin":"UAV","Latitude":"48.50899","Longitude":"37.68787","PlusCode":"8GWVGM5Q+H4 Kostyantynivka, Donetsk Oblast, Ukraine","Description":"0:45-0:53 - Russian drone drops a munition on alleged ukrainian position ","Source":"https://x.com/AudaxonX/status/2082488936346083509, https://t.me/Legion_W_Bat1/1127","Geolocation":"https://x.com/AudaxonX/status/2082488958311694742","Equipment":"","EquipmentItems":"","Units":"","OrbatUnits":"1st Motorized Rifle Battalion \"Legion W\"","Id":"aa8cc1e7-2cc5-4a5b-a4e2-b1ff197d64fd","icon":"/api/icons/E00000/False/template/110.png"},"source":"geoconfirmed","source_name":"GeoConfirmed","source_url":"https://geoconfirmed.org/map/ukraine","id":"aa8cc1e7-2cc5-4a5b-a4e2-b1ff197d64fd","date":"2026-07-25","link":"https://geoconfirmed.org/map/ukraine/aa8cc1e7-2cc5-4a5b-a4e2-b1ff197d64fd","category":"Multipurpose Bomber Drone, Flying OR Dropping OR bombing a target without knowing the outcome: if something is damaged --> icon of the damaged equipment.","side":"Russia","color":"#E00000","description":"0:45-0:53 - Russian drone drops a munition on alleged ukrainian position","orbat":["1st Motorized Rifle Battalion \"Legion W\""],"geolocation":["https://x.com/AudaxonX/status/2082488958311694742"],"sources":["https://x.com/AudaxonX/status/2082488936346083509","https://t.me/Legion_W_Bat1/1127"]}},{"type":"Feature","geometry":{"type":"Point","coordinates":[65.727172,57.105816]},"properties":{"original":{"Date":"2026-07-25","Name":"25 JUL 2026","Faction":"Ukraine","Origin":"VID","Latitude":"57.105816","Longitude":"65.727172","PlusCode":"9J974P4G+8V Tyumen, Tyumen Oblast, Russia","Description":"POV - Strike on the oil refinery in Tyumen ","Source":"https://t.me/exilenova_plus/27144, 0:08 https://x.com/Vlad_23456/status/2081114505069695203","Geolocation":"https://x.com/Vlad_23456/status/2081113881515110586","Equipment":"","EquipmentItems":"Fixed Wing OWAD (One Way Attack Drone)","Units":"","OrbatUnits":"","Id":"77675988-d23d-49c2-8834-b454adcb90e3","icon":"/api/icons/0051CA/False/template/20.png"},"source":"geoconfirmed","source_name":"GeoConfirmed","source_url":"https://geoconfirmed.org/map/ukraine","id":"77675988-d23d-49c2-8834-b454adcb90e3","date":"2026-07-25","link":"https://geoconfirmed.org/map/ukraine/77675988-d23d-49c2-8834-b454adcb90e3","category":"Picture - Always Point of View in description - - In the colour of who is doing the attack or is responsable for the incident in the picture.","side":"Ukraine","color":"#0051CA","description":"POV - Strike on the oil refinery in Tyumen","orbat":[],"geolocation":["https://x.com/Vlad_23456/status/2081113881515110586"],"sources":["https://t.me/exilenova_plus/27144","https://x.com/Vlad_23456/status/2081114505069695203"]}},{"type":"Feature","geometry":{"type":"Point","coordinates":[65.753505,57.099607]},"properties":{"original":{"Date":"2026-07-25","Name":"25 JUL 2026","Faction":"Neutral","Origin":"SAT","Latitude":"57.099607","Longitude":"65.753505","PlusCode":"9J973QX3+RC Tyumen, Tyumen Oblast, Russia","Description":"A damaged tank was observed at the Tyumen Oil Refinery following a reported Ukrainian strike on 25 July 2026.","Source":"https://x.com/GarbuzYe/status/2086870351531610286, , More information, https://www.reuters.com/world/europe/ukrainian-drone-strike-sparks-fire-russias-tyumen-oil-refinery-2026-07-25/","Geolocation":"https://x.com/GarbuzYe/status/2086870351531610286","Equipment":"","EquipmentItems":"","Units":"","OrbatUnits":"","Id":"3629c67a-a543-4721-98aa-b86d30a06e6f","icon":"/api/icons/AC7339/False/template/192.png"},"source":"geoconfirmed","source_name":"GeoConfirmed","source_url":"https://geoconfirmed.org/map/ukraine","id":"3629c67a-a543-4721-98aa-b86d30a06e6f","date":"2026-07-25","link":"https://geoconfirmed.org/map/ukraine/3629c67a-a543-4721-98aa-b86d30a06e6f","category":"Recently destroyed/Damaged[Visible in footage] or still burning infrastucture","side":"Neutral","color":"#AC7339","description":"A damaged tank was observed at the Tyumen Oil Refinery following a reported Ukrainian strike on 25 July 2026.","orbat":[],"geolocation":["https://x.com/GarbuzYe/status/2086870351531610286"],"sources":["https://x.com/GarbuzYe/status/2086870351531610286","https://www.reuters.com/world/europe/ukrainian-drone-strike-sparks-fire-russias-tyumen-oil-refinery-2026-07-25/"]}},{"type":"Feature","geometry":{"type":"Point","coordinates":[37.68926,48.508768]},"properties":{"original":{"Date":"2026-07-25","Name":"25 JUL 2026","Faction":"Russia","Origin":"UAV","Latitude":"48.508768","Longitude":"37.68926","PlusCode":"8GWVGM5Q+GP Kostyantynivka, Donetsk Oblast, Ukraine","Description":"1:17-1:23 - Russian strike on alleged ukrainian position ","Source":"https://x.com/AudaxonX/status/2082488936346083509, https://t.me/Legion_W_Bat1/1127","Geolocation":"https://x.com/AudaxonX/status/2082488985192972334","Equipment":"","EquipmentItems":"","Units":"","OrbatUnits":"1st Motorized Rifle Battalion \"Legion W\"","Id":"8c69bf10-2106-4159-a156-b8bf327d6b89","icon":"/api/icons/E00000/False/template/111.png"},"source":"geoconfirmed","source_name":"GeoConfirmed","source_url":"https://geoconfirmed.org/map/ukraine","id":"8c69bf10-2106-4159-a156-b8bf327d6b89","date":"2026-07-25","link":"https://geoconfirmed.org/map/ukraine/8c69bf10-2106-4159-a156-b8bf327d6b89","category":"Short Range (<50km) OWAD (One Way Attack Drone), mostly rotary wing, Flying OR Attacking a target without knowing the outcome: if something is damaged --> icon of the damaged equipment.","side":"Russia","color":"#E00000","description":"1:17-1:23 - Russian strike on alleged ukrainian position","orbat":["1st Motorized Rifle Battalion \"Legion W\""],"geolocation":["https://x.com/AudaxonX/status/2082488985192972334"],"sources":["https://x.com/AudaxonX/status/2082488936346083509","https://t.me/Legion_W_Bat1/1127"]}},{"type":"Feature","geometry":{"type":"Point","coordinates":[37.692055,48.507962]},"properties":{"original":{"Date":"2026-07-25","Name":"25 JUL 2026","Faction":"Russia","Origin":"UAV","Latitude":"48.507962","Longitude":"37.692055","PlusCode":"8GWVGM5R+5R Kostyantynivka, Donetsk Oblast, Ukraine","Description":"1:23-1:29 - Russian strike on alleged ukrainian position ","Source":"https://x.com/AudaxonX/status/2082488936346083509, https://t.me/Legion_W_Bat1/1127","Geolocation":"https://x.com/AudaxonX/status/2082488992436494748","Equipment":"","EquipmentItems":"","Units":"","OrbatUnits":"1st Motorized Rifle Battalion \"Legion W\"","Id":"b79643d3-18ee-4f05-a7b5-cd746cc00031","icon":"/api/icons/E00000/False/template/111.png"},"source":"geoconfirmed","source_name":"GeoConfirmed","source_url":"https://geoconfirmed.org/map/ukraine","id":"b79643d3-18ee-4f05-a7b5-cd746cc00031","date":"2026-07-25","link":"https://geoconfirmed.org/map/ukraine/b79643d3-18ee-4f05-a7b5-cd746cc00031","category":"Short Range (<50km) OWAD (One Way Attack Drone), mostly rotary wing, Flying OR Attacking a target without knowing the outcome: if something is damaged --> icon of the damaged equipment.","side":"Russia","color":"#E00000","description":"1:23-1:29 - Russian strike on alleged ukrainian position","orbat":["1st Motorized Rifle Battalion \"Legion W\""],"geolocation":["https://x.com/AudaxonX/status/2082488992436494748"],"sources":["https://x.com/AudaxonX/status/2082488936346083509","https://t.me/Legion_W_Bat1/1127"]}},{"type":"Feature","geometry":{"type":"Point","coordinates":[36.667506,47.793146]},"properties":{"original":{"Date":"2026-07-25","Name":"25 JUL 2026","Faction":"Russia","Origin":"UAV","Latitude":"47.793146","Longitude":"36.667506","PlusCode":"8GVRQMV9+72 Rivnopil', Donetsk Oblast, Ukraine","Description":"0:01-0:08 -  Zil-131 destroyed by FPV strike (red)","Source":"https://x.com/Danspiun/status/2087993445713346663, https://t.me/Wormbusters/718","Geolocation":"https://x.com/Danspiun/status/2087996395584118999, https://ukr.warspotting.net/view/46104/301024/","Equipment":"Zil-131","EquipmentItems":"FPV (First Person View) OWAD (One Way Attack Drone)","Units":"","OrbatUnits":"414th Separate Unmanned Systems Brigade \"Birds of the Magyar\"","Id":"24ae4584-4511-4729-a219-d6eb58ffa200","icon":"/api/icons/E00000/False/template/62.png"},"source":"geoconfirmed","source_name":"GeoConfirmed","source_url":"https://geoconfirmed.org/map/ukraine","id":"24ae4584-4511-4729-a219-d6eb58ffa200","date":"2026-07-25","link":"https://geoconfirmed.org/map/ukraine/24ae4584-4511-4729-a219-d6eb58ffa200","category":"Recently Destroyed/Damaged[Visible in footage] Logistical Trucks (Soft skin OR armoured)","side":"Russia","color":"#E00000","description":"0:01-0:08 -  Zil-131 destroyed by FPV strike (red)","orbat":["414th Separate Unmanned Systems Brigade \"Birds of the Magyar\""],"geolocation":["https://x.com/Danspiun/status/2087996395584118999","https://ukr.warspotting.net/view/46104/301024/"],"sources":["https://x.com/Danspiun/status/2087993445713346663","https://t.me/Wormbusters/718"]}},{"type":"Feature","geometry":{"type":"Point","coordinates":[37.644369,48.535849]},"properties":{"original":{"Date":"2026-07-25","Name":"25 JUL 2026","Faction":"Ukraine","Origin":"UAV","Latitude":"48.535849","Longitude":"37.644369","PlusCode":"8GWVGJPV+8P Kostyantynivka, Donetsk Oblast, Ukraine","Description":"0:10 - Drone of the 19th Special Purpose Center drops explosive into a house in Kostiantynivka, Donetsk Oblast","Source":"https://x.com/Bielitzling/status/2080999335160918226, https://t.me/UA_Military_Police/2413, https://x.com/AudaxonX/status/2081038249754083543, https://www.instagram.com/ua.military.police/reel/DbNVggcgSVF/","Geolocation":"https://x.com/Bielitzling/status/2080999329960022453, https://x.com/AudaxonX/status/2081038252916564032","Equipment":"","EquipmentItems":"(Multi-Purpose) Bomber UAV","Units":"","OrbatUnits":"19th Special Purpose Center","Id":"e9e3bb0b-cfad-4dba-b2f6-d928297b811c","icon":"/api/icons/0051CA/False/template/110.png"},"source":"geoconfirmed","source_name":"GeoConfirmed","source_url":"https://geoconfirmed.org/map/ukraine","id":"e9e3bb0b-cfad-4dba-b2f6-d928297b811c","date":"2026-07-25","link":"https://geoconfirmed.org/map/ukraine/e9e3bb0b-cfad-4dba-b2f6-d928297b811c","category":"Multipurpose Bomber Drone, Flying OR Dropping OR bombing a target without knowing the outcome: if something is damaged --> icon of the damaged equipment.","side":"Ukraine","color":"#0051CA","description":"0:10 - Drone of the 19th Special Purpose Center drops explosive into a house in Kostiantynivka, Donetsk Oblast","orbat":["19th Special Purpose Center"],"geolocation":["https://x.com/Bielitzling/status/2080999329960022453","https://x.com/AudaxonX/status/2081038252916564032"],"sources":["https://x.com/Bielitzling/status/2080999335160918226","https://t.me/UA_Military_Police/2413","https://x.com/AudaxonX/status/2081038249754083543","https://www.instagram.com/ua.military.police/reel/DbNVggcgSVF/"]}},{"type":"Feature","geometry":{"type":"Point","coordinates":[36.486249,47.821937]},"properties":{"original":{"Date":"2026-07-25","Name":"25 JUL 2026","Faction":"Russia","Origin":"UAV","Latitude":"47.821937","Longitude":"36.486249","PlusCode":"8GVRRFCP+QF Novoivanivka, Zaporizhia Oblast, Ukraine","Description":"0:09-0:23 - 414th Brigade of Unmanned Strike Systems targets two RuAF light vehicles hidden in woodland., At least one burns.","Source":"https://x.com/Danspiun/status/2087993445713346663, https://t.me/Wormbusters/718","Geolocation":"https://x.com/Danspiun/status/2088626212025381213","Equipment":"","EquipmentItems":"Light Vehicle | FPV (First Person View) OWAD (One Way Attack Drone)","Units":"","OrbatUnits":"414th Separate Unmanned Systems Brigade \"Birds of the Magyar\"","Id":"e6486cb8-1fef-4c4e-8581-dd3d5a2bc630","icon":"/api/icons/E00000/False/template/a8c55b37-7710-40ef-8f00-2a17e58b6f69.png"},"source":"geoconfirmed","source_name":"GeoConfirmed","source_url":"https://geoconfirmed.org/map/ukraine","id":"e6486cb8-1fef-4c4e-8581-dd3d5a2bc630","date":"2026-07-25","link":"https://geoconfirmed.org/map/ukraine/e6486cb8-1fef-4c4e-8581-dd3d5a2bc630","category":"Recently Destroyed/Damaged[Visible in footage] Car OR PickUp (Soft Skin Vehicle)","side":"Russia","color":"#E00000","description":"0:09-0:23 - 414th Brigade of Unmanned Strike Systems targets two RuAF light vehicles hidden in woodland., At least one burns.","orbat":["414th Separate Unmanned Systems Brigade \"Birds of the Magyar\""],"geolocation":["https://x.com/Danspiun/status/2088626212025381213"],"sources":["https://x.com/Danspiun/status/2087993445713346663","https://t.me/Wormbusters/718"]}},{"type":"Feature","geometry":{"type":"Point","coordinates":[36.166334,50.32958]},"properties":{"original":{"Date":"2026-07-25","Name":"25 JUL 2026","Faction":"Unknown","Origin":"UAV","Latitude":"50.32958","Longitude":"36.166334","PlusCode":"9G2R85H8+RG Kozacha Lopan', Kharkiv Oblast, Ukraine","Description":"Car is destroyed in SW Kozacha Lopan, ","Source":"https://x.com/jimmhelloman555/status/2081872034246562023, https://t.me/warriorofnorth/20655, , longer: https://t.me/akhmat_spn_bat_vaha/1680","Geolocation":"https://x.com/jimmhelloman555/status/2081872034246562023","Equipment":"Car","EquipmentItems":"Fixed Wing OWAD (One Way Attack Drone)","Units":"","OrbatUnits":"","Id":"f7207c86-1199-488d-8a61-df234000e917","icon":"/api/icons/666666/False/template/a8c55b37-7710-40ef-8f00-2a17e58b6f69.png"},"source":"geoconfirmed","source_name":"GeoConfirmed","source_url":"https://geoconfirmed.org/map/ukraine","id":"f7207c86-1199-488d-8a61-df234000e917","date":"2026-07-25","link":"https://geoconfirmed.org/map/ukraine/f7207c86-1199-488d-8a61-df234000e917","category":"Recently Destroyed/Damaged[Visible in footage] Car OR PickUp (Soft Skin Vehicle)","side":"Unknown","color":"#666666","description":"Car is destroyed in SW Kozacha Lopan,","orbat":[],"geolocation":["https://x.com/jimmhelloman555/status/2081872034246562023"],"sources":["https://x.com/jimmhelloman555/status/2081872034246562023","https://t.me/warriorofnorth/20655","https://t.me/akhmat_spn_bat_vaha/1680"]}},{"type":"Feature","geometry":{"type":"Point","coordinates":[37.689777,48.507861]},"properties":{"original":{"Date":"2026-07-25","Name":"25 JUL 2026","Faction":"Russia","Origin":"UAV","Latitude":"48.507861","Longitude":"37.689777","PlusCode":"8GWVGM5Q+4W Kostyantynivka, Donetsk Oblast, Ukraine","Description":"1:00-1:04 - Russian strike on alleged ukrainian position ","Source":"https://x.com/AudaxonX/status/2082488936346083509, https://t.me/Legion_W_Bat1/1127","Geolocation":"https://x.com/AudaxonX/status/2082488971834048968","Equipment":"","EquipmentItems":"","Units":"","OrbatUnits":"1st Motorized Rifle Battalion \"Legion W\"","Id":"7873f110-423b-4dbb-a182-e34286c81b73","icon":"/api/icons/E00000/False/template/111.png"},"source":"geoconfirmed","source_name":"GeoConfirmed","source_url":"https://geoconfirmed.org/map/ukraine","id":"7873f110-423b-4dbb-a182-e34286c81b73","date":"2026-07-25","link":"https://geoconfirmed.org/map/ukraine/7873f110-423b-4dbb-a182-e34286c81b73","category":"Short Range (<50km) OWAD (One Way Attack Drone), mostly rotary wing, Flying OR Attacking a target without knowing the outcome: if something is damaged --> icon of the damaged equipment.","side":"Russia","color":"#E00000","description":"1:00-1:04 - Russian strike on alleged ukrainian position","orbat":["1st Motorized Rifle Battalion \"Legion W\""],"geolocation":["https://x.com/AudaxonX/status/2082488971834048968"],"sources":["https://x.com/AudaxonX/status/2082488936346083509","https://t.me/Legion_W_Bat1/1127"]}},{"type":"Feature","geometry":{"type":"Point","coordinates":[37.541928,48.608061]},"properties":{"original":{"Date":"2026-07-25","Name":"25 JUL 2026","Faction":"Russia","Origin":"UAV","Latitude":"48.608061","Longitude":"37.541928","PlusCode":"8GWVJG5R+6Q Druzhkivka, Donetsk Oblast, Ukraine","Description":"A woman was killed, reportedly by Russian FPV drone.","Source":"https://x.com/99Dominik_/status/2081053106335359038, https://www.facebook.com/watch/?v=1831809714651223","Geolocation":"https://x.com/99Dominik_/status/2081052204916490709","Equipment":"","EquipmentItems":"","Units":"","OrbatUnits":"","Id":"d9726f98-472d-4468-8a99-e706ba483535","icon":"/api/icons/E00000/False/template/50.png"},"source":"geoconfirmed","source_name":"GeoConfirmed","source_url":"https://geoconfirmed.org/map/ukraine","id":"d9726f98-472d-4468-8a99-e706ba483535","date":"2026-07-25","link":"https://geoconfirmed.org/map/ukraine/d9726f98-472d-4468-8a99-e706ba483535","category":"Killed or wounded civilian. Potential Warcrime. In the colour of who is assessed as doing the attack/killing.","side":"Russia","color":"#E00000","description":"A woman was killed, reportedly by Russian FPV drone.","orbat":[],"geolocation":["https://x.com/99Dominik_/status/2081052204916490709"],"sources":["https://x.com/99Dominik_/status/2081053106335359038","https://www.facebook.com/watch/?v=1831809714651223"]}},{"type":"Feature","geometry":{"type":"Point","coordinates":[37.68592,48.513718]},"properties":{"original":{"Date":"2026-07-25","Name":"25 JUL 2026","Faction":"Russia","Origin":"UAV","Latitude":"48.513718","Longitude":"37.68592","PlusCode":"8GWVGM7P+F9 Kostyantynivka, Donetsk Oblast, Ukraine","Description":"1:10-1:17 - Russian strike on alleged ukrainian position ","Source":"https://x.com/AudaxonX/status/2082488936346083509, https://t.me/Legion_W_Bat1/1127","Geolocation":"https://x.com/AudaxonX/status/2082488978217828611","Equipment":"","EquipmentItems":"","Units":"","OrbatUnits":"1st Motorized Rifle Battalion \"Legion W\"","Id":"7573710b-f967-4394-96d6-f52d64b30705","icon":"/api/icons/E00000/False/template/111.png"},"source":"geoconfirmed","source_name":"GeoConfirmed","source_url":"https://geoconfirmed.org/map/ukraine","id":"7573710b-f967-4394-96d6-f52d64b30705","date":"2026-07-25","link":"https://geoconfirmed.org/map/ukraine/7573710b-f967-4394-96d6-f52d64b30705","category":"Short Range (<50km) OWAD (One Way Attack Drone), mostly rotary wing, Flying OR Attacking a target without knowing the outcome: if something is damaged --> icon of the damaged equipment.","side":"Russia","color":"#E00000","description":"1:10-1:17 - Russian strike on alleged ukrainian position","orbat":["1st Motorized Rifle Battalion \"Legion W\""],"geolocation":["https://x.com/AudaxonX/status/2082488978217828611"],"sources":["https://x.com/AudaxonX/status/2082488936346083509","https://t.me/Legion_W_Bat1/1127"]}},{"type":"Feature","geometry":{"type":"Point","coordinates":[31.9578,46.9377]},"properties":{"original":{"Date":"2026-07-25","Name":"25 JUL 2026","Faction":"Russia","Origin":"UAV","Latitude":"46.9377","Longitude":"31.9578","PlusCode":"8GRHVX2G+57 Mykolaiv, Mykolaiv Oblast, Ukraine","Description":"0:28-end - Russian Geran-4 'seeker' targeted a cargo ship","Source":"https://x.com/franfran2424/status/2084676823036637353, https://t.me/zvezdanews/178316, ","Geolocation":"https://x.com/franfran2424/status/2084677492871196798","Equipment":"","EquipmentItems":"Geran-4 \"Seeker\"","Units":"","OrbatUnits":"","Id":"26945db5-9b0c-468f-8f92-f54f55cbe2b1","icon":"/api/icons/E00000/False/template/181.png"},"source":"geoconfirmed","source_name":"GeoConfirmed","source_url":"https://geoconfirmed.org/map/ukraine","id":"26945db5-9b0c-468f-8f92-f54f55cbe2b1","date":"2026-07-25","link":"https://geoconfirmed.org/map/ukraine/26945db5-9b0c-468f-8f92-f54f55cbe2b1","category":"Longe Range (>50km) OWAD (One Way Attack Drone) or Loitering munition, mostly fixed wing, Flying OR Attacking a target without knowing the outcome: if something is damaged --> icon of the damaged equipment.","side":"Russia","color":"#E00000","description":"0:28-end - Russian Geran-4 'seeker' targeted a cargo ship","orbat":[],"geolocation":["https://x.com/franfran2424/status/2084677492871196798"],"sources":["https://x.com/franfran2424/status/2084676823036637353","https://t.me/zvezdanews/178316"]}},{"type":"Feature","geometry":{"type":"Point","coordinates":[60.517329,56.784812]},"properties":{"original":{"Date":"2026-07-25","Name":"25 JUL 2026","Faction":"Ukraine","Origin":"PIC","Latitude":"56.784812","Longitude":"60.517329","PlusCode":"9J82QGM8+WW Yekaterinburg, Sverdlovsk Oblast, Russia","Description":"Rough POV - Smoke from a failed drone strike on a Wildberries distribution center.","Source":"https://t.me/exilenova_plus/27077?single, 0:00 https://x.com/Vlad_23456/status/2081005447775989975","Geolocation":"https://x.com/Vlad_23456/status/2081005252103283069","Equipment":"","EquipmentItems":"Fixed Wing OWAD (One Way Attack Drone)","Units":"","OrbatUnits":"","Id":"6dddbf6f-a8c0-4882-b5aa-f8288fb30789","icon":"/api/icons/0051CA/False/template/20.png"},"source":"geoconfirmed","source_name":"GeoConfirmed","source_url":"https://geoconfirmed.org/map/ukraine","id":"6dddbf6f-a8c0-4882-b5aa-f8288fb30789","date":"2026-07-25","link":"https://geoconfirmed.org/map/ukraine/6dddbf6f-a8c0-4882-b5aa-f8288fb30789","category":"Picture - Always Point of View in description - - In the colour of who is doing the attack or is responsable for the incident in the picture.","side":"Ukraine","color":"#0051CA","description":"Rough POV - Smoke from a failed drone strike on a Wildberries distribution center.","orbat":[],"geolocation":["https://x.com/Vlad_23456/status/2081005252103283069"],"sources":["https://t.me/exilenova_plus/27077?single","https://x.com/Vlad_23456/status/2081005447775989975"]}}]}