{"type":"FeatureCollection","features":[{"type":"Feature","geometry":{"type":"Point","coordinates":[37.817094,49.830822]},"properties":{"original":{"id":46494,"type":"Self-propelled artillery","model":"152mm 2S19(M1) 'Msta-S'","status":"Destroyed","lost_by":"Russia","date":"2026-08-12","nearest_location":"Tavilzhanka, Kupiansk raion","geo":"49.830822,37.817094","unit":null,"tags":"Cope cage, Additional armour"},"source":"warspotting","source_name":"WarSpotting","source_url":"https://ukr.warspotting.net/","id":46494,"date":"2026-08-12","link":"https://ukr.warspotting.net/view/46494/","category":"Self-propelled artillery","side":"Lost by Russia","color":"#E00000","description":"152mm 2S19(M1) 'Msta-S' · Destroyed · near Tavilzhanka, Kupiansk raion · tags: Cope cage, Additional armour","orbat":[]}},{"type":"Feature","geometry":{"type":"Point","coordinates":[36.797255,47.964581]},"properties":{"original":{"id":46686,"type":"Tanks","model":"Unknown tank","status":"Destroyed","lost_by":"Russia","date":"2026-08-12","nearest_location":"Komar, Volnovakha raion","geo":"47.964581,36.797255","unit":null,"tags":"Cope cage"},"source":"warspotting","source_name":"WarSpotting","source_url":"https://ukr.warspotting.net/","id":46686,"date":"2026-08-12","link":"https://ukr.warspotting.net/view/46686/","category":"Tanks","side":"Lost by Russia","color":"#E00000","description":"Unknown tank · Destroyed · near Komar, Volnovakha raion · tags: Cope cage","orbat":[]}}]}