{"type":"FeatureCollection","features":[{"type":"Feature","geometry":{"type":"Point","coordinates":[34.811713,51.247253]},"properties":{"original":{"id":47455,"type":"Infantry mobility vehicles","model":"AMN-590951 'VPK-Ural'","status":"Destroyed","lost_by":"Russia","date":"2026-10-06","nearest_location":"Kulbaki, Glushkovo raion","geo":"51.247253,34.811713","unit":"83rd Separate Guards Air Assault Brigade","tags":"Jammer, Additional armour"},"source":"warspotting","source_name":"WarSpotting","source_url":"https://ukr.warspotting.net/","id":47455,"date":"2026-10-06","link":"https://ukr.warspotting.net/view/47455/","category":"Infantry mobility vehicles","side":"Lost by Russia","color":"#E00000","description":"AMN-590951 'VPK-Ural' · Destroyed · near Kulbaki, Glushkovo raion · tags: Jammer, Additional armour","orbat":["83rd Separate Guards Air Assault Brigade"]}}]}