{"type":"FeatureCollection","features":[{"type":"Feature","geometry":{"type":"MultiPolygon","coordinates":[[[[37.23584,48.43105],[37.24187,48.4423],[37.23956,48.45435],[37.26369,48.45654],[37.26375,48.45607],[37.24883,48.45344],[37.25002,48.44264],[37.24657,48.43822],[37.24397,48.43759],[37.24442,48.43392],[37.24207,48.43376],[37.2427,48.42682],[37.23579,48.42621],[37.2246,48.42469],[37.22459,48.42473],[37.23584,48.43105]]],[[[37.12301,48.3565],[37.14406,48.35768],[37.14682,48.35304],[37.15352,48.3497],[37.15336,48.34931],[37.1433,48.35293],[37.12363,48.34884],[37.1158,48.34908],[37.09572,48.35622],[37.09573,48.3563],[37.12301,48.3565]]]]},"properties":{"source":"deepstate","source_name":"DeepStateMap","source_url":"https://deepstatemap.live/en","category":"gained","category_label":"Newly Russian-occupied","period":"1d","compared_with":"2026-08-16","snapshot_time":"2026-08-17","area_km2_approx":4.3}}]}