{"type":"FeatureCollection","features":[{"type":"Feature","geometry":{"type":"MultiPolygon","coordinates":[[[[37.21609,48.43253],[37.21668,48.4445],[37.22417,48.44745],[37.23002,48.44856],[37.23399,48.45321],[37.2396,48.4541],[37.24049,48.44834],[37.23722,48.44842],[37.23085,48.43943],[37.21902,48.42985],[37.21609,48.43253]]],[[[37.17966,48.41236],[37.17779,48.41703],[37.1712,48.41931],[37.17168,48.4213],[37.19097,48.42241],[37.19285,48.41556],[37.18932,48.41589],[37.18939,48.40997],[37.17966,48.41236]]],[[[37.03227,48.2754],[37.04407,48.28015],[37.05438,48.28069],[37.05694,48.2701],[37.04603,48.27117],[37.04507,48.2688],[37.03216,48.26785],[37.03227,48.2754]]],[[[36.9909,48.26865],[36.99904,48.26908],[37.012,48.26787],[37.02993,48.26736],[37.03147,48.2593],[37.01252,48.25993],[37.01045,48.25978],[37.00882,48.26105],[37.00307,48.26091],[36.99545,48.2634],[36.98834,48.26291],[36.9909,48.26865]]],[[[36.14878,47.66127],[36.14606,47.66863],[36.13929,47.69001],[36.14226,47.70203],[36.1671,47.69232],[36.17244,47.68045],[36.16607,47.67461],[36.16026,47.66886],[36.17061,47.65487],[36.16457,47.65167],[36.15938,47.65304],[36.14878,47.66127]]],[[[36.13365,47.71954],[36.13012,47.72098],[36.13437,47.72395],[36.1298,47.72497],[36.13175,47.72738],[36.14947,47.72803],[36.15895,47.7318],[36.1634,47.74575],[36.16347,47.74574],[36.16435,47.72631],[36.14772,47.72357],[36.1352,47.71367],[36.13365,47.71954]]]]},"properties":{"source":"deepstate","source_name":"DeepStateMap","source_url":"https://deepstatemap.live/en","category":"gained","category_label":"Russian advance: became occupied","period":"7d","compared_with":"2026-09-30","snapshot_time":"2026-10-07","area_km2_approx":18.1}},{"type":"Feature","geometry":{"type":"Polygon","coordinates":[[[36.08711,47.72077],[36.0898,47.71692],[36.07471,47.71354],[36.07466,47.71369],[36.08711,47.72077]]]},"properties":{"source":"deepstate","source_name":"DeepStateMap","source_url":"https://deepstatemap.live/en","category":"lost","category_label":"Ukrainian advance: became Ukrainian-held","period":"7d","compared_with":"2026-09-30","snapshot_time":"2026-10-07","area_km2_approx":0.3}},{"type":"Feature","geometry":{"type":"MultiPolygon","coordinates":[[[[37.60823,48.53887],[37.62138,48.5512],[37.61836,48.5391],[37.60645,48.51663],[37.60823,48.53887]]],[[[37.62138,48.5512],[37.61563,48.55671],[37.62777,48.56311],[37.64094,48.55736],[37.62567,48.55733],[37.62138,48.5512]]],[[[37.1489,48.43493],[37.14438,48.45466],[37.15542,48.45436],[37.16234,48.44883],[37.17424,48.44433],[37.19009,48.46351],[37.20016,48.46976],[37.21714,48.47217],[37.21704,48.46813],[37.20531,48.4668],[37.18854,48.43891],[37.16406,48.44655],[37.16309,48.44521],[37.16607,48.42855],[37.15531,48.42698],[37.1489,48.43493]]],[[[37.02341,48.32252],[37.02924,48.32868],[37.04625,48.32035],[37.04335,48.31631],[37.04285,48.30792],[37.02923,48.29843],[37.02631,48.2989],[37.02341,48.32252]]],[[[36.08056,47.73013],[36.09108,47.74303],[36.09774,47.74312],[36.0997,47.72794],[36.08711,47.72077],[36.08056,47.73013]]],[[[36.06275,47.71087],[36.07367,47.71331],[36.07373,47.71316],[36.06323,47.70719],[36.06275,47.71087]]]]},"properties":{"source":"deepstate","source_name":"DeepStateMap","source_url":"https://deepstatemap.live/en","category":"ukrainian_to_contested","category_label":"Ukrainian-held became contested","period":"7d","compared_with":"2026-09-30","snapshot_time":"2026-10-07","area_km2_approx":15.5}}]}