{"type":"FeatureCollection","features":[{"type":"Feature","geometry":{"type":"Polygon","coordinates":[[[37.18422,48.37343],[37.19134,48.38378],[37.20804,48.387],[37.21123,48.39278],[37.2146,48.39289],[37.22765,48.39403],[37.22928,48.39794],[37.2432,48.39972],[37.24174,48.41143],[37.23559,48.41166],[37.2334,48.41898],[37.2402,48.41832],[37.24651,48.41626],[37.25082,48.41546],[37.25127,48.41434],[37.25525,48.41392],[37.25701,48.41346],[37.25764,48.4102],[37.25007,48.40828],[37.25177,48.39788],[37.24796,48.39289],[37.24409,48.39255],[37.24285,48.38861],[37.23684,48.38559],[37.23659,48.38209],[37.23192,48.38147],[37.20495,48.38062],[37.20038,48.37213],[37.19304,48.37409],[37.19061,48.37121],[37.19012,48.36986],[37.18422,48.37343]]]},"properties":{"source":"ukrdaily","source_name":"UkrDailyUpdate","source_url":"https://map.ukrdailyupdate.com/","category":"gained","category_label":"Newly Russian-occupied","period":"1d","compared_with":"2026-08-08","snapshot_time":"2026-08-09","area_km2_approx":7.8}}]}