{"type":"FeatureCollection","features":[{"type":"Feature","geometry":{"type":"Polygon","coordinates":[[[37.19376,48.36777],[37.1894,48.36903],[37.18947,48.37186],[37.1921,48.37424],[37.20003,48.37198],[37.20288,48.37779],[37.21594,48.37573],[37.21652,48.38052],[37.22819,48.38171],[37.22973,48.38724],[37.23609,48.39807],[37.2423,48.39904],[37.2397,48.41129],[37.24531,48.41145],[37.25655,48.41334],[37.25694,48.41013],[37.24999,48.40807],[37.2502,48.39979],[37.23661,48.3963],[37.23222,48.38833],[37.23137,48.37567],[37.22107,48.3755],[37.21954,48.36809],[37.2088,48.36393],[37.20226,48.36799],[37.19957,48.36837],[37.19541,48.36503],[37.19399,48.36082],[37.1939,48.36083],[37.19376,48.36777]]]},"properties":{"source":"deepstate","source_name":"DeepStateMap","source_url":"https://deepstatemap.live/en","category":"gained","category_label":"Russian advance: became occupied","period":"1d","compared_with":"2026-07-31","snapshot_time":"2026-08-01","area_km2_approx":4.4}},{"type":"Feature","geometry":{"type":"Polygon","coordinates":[[[37.18977,48.37864],[37.18869,48.39194],[37.18887,48.39198],[37.19492,48.37596],[37.17731,48.3789],[37.17736,48.37934],[37.18977,48.37864]]]},"properties":{"source":"deepstate","source_name":"DeepStateMap","source_url":"https://deepstatemap.live/en","category":"ukrainian_to_contested","category_label":"Ukrainian-held became contested","period":"1d","compared_with":"2026-07-31","snapshot_time":"2026-08-01","area_km2_approx":0.4}}]}