{"type":"FeatureCollection","features":[{"type":"Feature","geometry":{"type":"MultiPolygon","coordinates":[[[[37.85622,48.8197],[37.85779,48.82852],[37.8675,48.82773],[37.87055,48.83812],[37.87978,48.83903],[37.88402,48.83456],[37.89685,48.83507],[37.8892,48.8301],[37.85914,48.82128],[37.8598,48.81982],[37.85622,48.8197]]],[[[37.8504,48.70151],[37.85047,48.70162],[37.85225,48.70082],[37.8589,48.7056],[37.85176,48.71104],[37.8518,48.71111],[37.86671,48.70645],[37.86294,48.70153],[37.85389,48.69834],[37.8504,48.70151]]],[[[37.79663,48.67942],[37.78659,48.69076],[37.80335,48.69272],[37.80467,48.70104],[37.81037,48.70897],[37.82184,48.70245],[37.81493,48.68977],[37.81091,48.68958],[37.80745,48.68668],[37.80546,48.68008],[37.79663,48.67942]]],[[[37.75681,48.51932],[37.74513,48.52361],[37.74238,48.52994],[37.74463,48.53194],[37.74127,48.54089],[37.76617,48.54322],[37.76623,48.54289],[37.75209,48.53896],[37.74737,48.53467],[37.7465,48.53244],[37.7599,48.53342],[37.77088,48.52236],[37.75681,48.51932]]],[[[37.58662,50.23036],[37.59439,50.23387],[37.586,50.23913],[37.5886,50.2456],[37.60019,50.24053],[37.6269,50.2405],[37.61484,50.22237],[37.59884,50.22137],[37.58662,50.23036]]],[[[37.19376,48.36777],[37.1894,48.36903],[37.18947,48.37186],[37.1921,48.37424],[37.20003,48.37198],[37.20288,48.37779],[37.21594,48.37573],[37.21652,48.38052],[37.22819,48.38171],[37.22973,48.38724],[37.23609,48.39807],[37.2423,48.39904],[37.2397,48.41129],[37.24531,48.41145],[37.25655,48.41334],[37.25694,48.41013],[37.24999,48.40807],[37.2502,48.39979],[37.23661,48.3963],[37.23222,48.38833],[37.23137,48.37567],[37.22107,48.3755],[37.21954,48.36809],[37.2088,48.36393],[37.20226,48.36799],[37.19957,48.36837],[37.19541,48.36503],[37.19399,48.36082],[37.1939,48.36083],[37.19376,48.36777]]],[[[37.16139,48.35141],[37.18283,48.35341],[37.20219,48.35379],[37.20094,48.34873],[37.16164,48.34428],[37.1568,48.34807],[37.16139,48.35141]]],[[[36.1589,47.64249],[36.15418,47.65087],[36.15938,47.65304],[36.17195,47.64508],[36.17729,47.64322],[36.18279,47.63314],[36.16259,47.64138],[36.144,47.63458],[36.14383,47.63498],[36.1589,47.64249]]]]},"properties":{"source":"deepstate","source_name":"DeepStateMap","source_url":"https://deepstatemap.live/en","category":"gained","category_label":"Newly Russian-occupied","period":"7d","compared_with":"2026-07-25","snapshot_time":"2026-08-01","area_km2_approx":22.6}}]}