{"type":"FeatureCollection","features":[{"type":"Feature","geometry":{"type":"Point","coordinates":[38.183149,48.967999]},"properties":{"original":{"id":46688,"type":"Rocket and missile artillery","model":"220mm 9P140 BM-27 (for 9K57 'Uragan')","status":"Destroyed","lost_by":"Russia","date":"2026-08-26","nearest_location":"Serebrianka reserve, Siverskodonetsk raion","geo":"48.967999,38.183149","unit":null,"tags":"Cope cage, Loitering, Jammer"},"source":"warspotting","source_name":"WarSpotting","source_url":"https://ukr.warspotting.net/","id":46688,"date":"2026-08-26","link":"https://ukr.warspotting.net/view/46688/","category":"Rocket and missile artillery","side":"Lost by Russia","color":"#E00000","description":"220mm 9P140 BM-27 (for 9K57 'Uragan') · Destroyed · near Serebrianka reserve, Siverskodonetsk raion · tags: Cope cage, Loitering, Jammer","orbat":[]}},{"type":"Feature","geometry":{"type":"Point","coordinates":[37.978997,47.104034]},"properties":{"original":{"id":46919,"type":"Transport","model":"KamAZ 6x6 fuel tanker","status":"Destroyed","lost_by":"Russia","date":"2026-08-26","nearest_location":"Samsonove, Kalmiuske raion","geo":"47.104034,37.978997","unit":null,"tags":"Cope cage, Loitering"},"source":"warspotting","source_name":"WarSpotting","source_url":"https://ukr.warspotting.net/","id":46919,"date":"2026-08-26","link":"https://ukr.warspotting.net/view/46919/","category":"Transport","side":"Lost by Russia","color":"#E00000","description":"KamAZ 6x6 fuel tanker · Destroyed · near Samsonove, Kalmiuske raion · tags: Cope cage, Loitering","orbat":[]}}]}