{"type":"FeatureCollection","features":[{"type":"Feature","geometry":null,"properties":{"source":"ru_mod","source_name":"Ministry of Defence of Russia","group":"official_ru","id":67257,"posted_utc":"2026-09-12T18:49:36+00:00","link":"https://t.me/mod_russia/67257","text":"Наши танкисты шли напролом\n💥 Экипаж танка Т-90М совершил настоящий «Прорыв». Парни 15 километров гнали машину вперед под шквалом снарядов и дронов, пропахивая минные поля.\n▫️ Останавливаться было нельзя − сзади шла пехота на штурм.\n▫️ Парни приняли весь удар на себя, проложив маршрут для основных сил.\n🤝 За проявленные отвагу и героизм каждый из членов экипажа удостоен ордена Мужества.\nТак держать, Мужики! ▫️\n💥 Канал Минобороны России в MAКС – источник мощных новостей","links":["https://max.ru/morf"],"original_html":"<b>Наши танкисты шли напролом</b><br/><br/><tg-emoji emoji-id=\"5447408202356389121\"><i class=\"emoji\" style=\"background-image:url('//telegram.org/img/emoji/40/F09F92A5.png')\"><b>💥</b></i></tg-emoji> Экипаж танка Т-90М совершил настоящий «Прорыв». <b>Парни 15 километров гнали машину вперед под шквалом снарядов и дронов</b>, пропахивая минные поля.<br/><br/><tg-emoji emoji-id=\"5352866390099390792\"><i class=\"emoji\" style=\"background-image:url('//telegram.org/img/emoji/40/E296AB.png')\"><b>▫️</b></i></tg-emoji> <b>Останавливаться было нельзя − сзади шла пехота на штурм. </b><br/><br/><tg-emoji emoji-id=\"5352532894478793783\"><i class=\"emoji\" style=\"background-image:url('//telegram.org/img/emoji/40/E296AB.png')\"><b>▫️</b></i></tg-emoji> <b>Парни приняли весь удар на себя</b>, проложив маршрут для основных сил.<br/><br/><tg-emoji emoji-id=\"5447324252925620983\"><i class=\"emoji\" style=\"background-image:url('//telegram.org/img/emoji/40/F09FA49D.png')\"><b>🤝</b></i></tg-emoji> За проявленные отвагу и героизм <b>каждый из членов экипажа удостоен ордена Мужества.</b><br/><br/><b>Так держать, Мужики&#33; </b><b><tg-emoji emoji-id=\"5447420966999193906\"><i class=\"emoji\" style=\"background-image:url('//telegram.org/img/emoji/40/E296AB.png')\"><b>▫️</b></i></tg-emoji></b><br/><br/><tg-emoji emoji-id=\"5449682610877918293\"><i class=\"emoji\" style=\"background-image:url('//telegram.org/img/emoji/40/F09F92A5.png')\"><b>💥</b></i></tg-emoji> <a href=\"https://max.ru/morf\" target=\"_blank\" rel=\"noopener\" onclick=\"return confirm('Open this link?\\n\\n'+this.href);\">Канал Минобороны России в MAКС – источник мощных новостей</a>"}},{"type":"Feature","geometry":null,"properties":{"source":"ru_mod","source_name":"Ministry of Defence of Russia","group":"official_ru","id":67258,"posted_utc":"2026-09-12T19:10:08+00:00","link":"https://t.me/mod_russia/67258","text":"▫️ Оборона противника трещит по швам!\n#СобытиеДня\n🔹 MAКС – территория СВОих","links":["https://max.ru/morf"],"original_html":"<tg-emoji emoji-id=\"5352532894478793783\"><i class=\"emoji\" style=\"background-image:url('//telegram.org/img/emoji/40/E296AB.png')\"><b>▫️</b></i></tg-emoji> Оборона противника трещит по швам&#33;<br/><br/><a href=\"?q=%23%D0%A1%D0%BE%D0%B1%D1%8B%D1%82%D0%B8%D0%B5%D0%94%D0%BD%D1%8F\">#СобытиеДня</a><br/><tg-emoji emoji-id=\"5269510734265483362\"><i class=\"emoji\" style=\"background-image:url('//telegram.org/img/emoji/40/F09F94B9.png')\"><b>🔹</b></i></tg-emoji> <a href=\"https://max.ru/morf\" target=\"_blank\" rel=\"noopener\" onclick=\"return confirm('Open this link?\\n\\n'+this.href);\">MAКС – территория СВОих</a>"}},{"type":"Feature","geometry":null,"properties":{"source":"ru_mod","source_name":"Ministry of Defence of Russia","group":"official_ru","id":67259,"posted_utc":"2026-09-12T19:20:31+00:00","link":"https://t.me/mod_russia/67259","text":"📆 Главное за день\n🚩 Наступаем непрерывно: подразделения группировки «Центр» освободили населенный пункт Веселое в Донецкой Народной Республике.\n🔥 Устроили фаер-шоу: «Герани» отработали по месту хранения военного имущества ВСУ, логистическому центру и складу с военным грузом.\n💥 Громим тылы врага: нанесен массированный удар по предприятиям промышленности и объектам портовой инфраструктуры Украины, задействованным в интересах ВСУ.\n🤝 Чуткий подход и личный контроль: замминистра обороны РФ генерал армии Виктор Горемыкин проверил работу военкомата и пункта отбора на военную службу в Челябинской области, а также вручил награды участникам спецоперации и медперсоналу в военном госпитале.\n💬 Откровенный разговор: студент, проходящий службу в войсках БПС, пообщался с родным техникумом в формате телемоста.\n⚡️ Её стихия – перехват: в рамках проекта «ОружиеZ» рассказали о боевых возможностях дрона-перехватчика «Ёлка».\nКаждый день ведет нас к победе!\n#ИтогиДня\n🔹 Канал Минобороны России в MAКС – только для своих!","links":["https://t.me/mod_russia/67246","https://t.me/mod_russia/67247","https://t.me/mod_russia/67251","https://t.me/mod_russia/67245","https://t.me/mod_russia/67253","https://t.me/mod_russia/67254","https://t.me/mod_russia/67255","https://t.me/mod_russia/67250","https://max.ru/morf"],"original_html":"<b><tg-emoji emoji-id=\"5472282252048104170\"><i class=\"emoji\" style=\"background-image:url('//telegram.org/img/emoji/40/F09F9386.png')\"><b>📆</b></i></tg-emoji></b><b> Главное за день</b><br/>&nbsp;<b><br/></b><b><tg-emoji emoji-id=\"5447466081335670917\"><i class=\"emoji\" style=\"background-image:url('//telegram.org/img/emoji/40/F09F9AA9.png')\"><b>🚩</b></i></tg-emoji></b><b> Наступаем непрерывно:</b> подразделения группировки «Центр» <a href=\"https://t.me/mod_russia/67246\" target=\"_blank\" rel=\"noopener\" onclick=\"return confirm('Open this link?\\n\\n'+this.href);\"><b>освободили</b></a><b> населенный пункт Веселое </b>в Донецкой Народной Республике.<br/><b><br/></b><b><tg-emoji emoji-id=\"5449590921916082144\"><i class=\"emoji\" style=\"background-image:url('//telegram.org/img/emoji/40/F09F94A5.png')\"><b>🔥</b></i></tg-emoji></b><b> Устроили фаер-шоу:</b> «Герани» <b>отработали по </b><a href=\"https://t.me/mod_russia/67247\" target=\"_blank\" rel=\"noopener\" onclick=\"return confirm('Open this link?\\n\\n'+this.href);\"><b>месту хранения </b></a>военного имущества ВСУ, <b>логистическому центру </b>и <a href=\"https://t.me/mod_russia/67251\" target=\"_blank\" rel=\"noopener\" onclick=\"return confirm('Open this link?\\n\\n'+this.href);\"><b>складу</b></a><b> </b>с военным грузом.<br/><b><br/></b><b><tg-emoji emoji-id=\"5449682610877918293\"><i class=\"emoji\" style=\"background-image:url('//telegram.org/img/emoji/40/F09F92A5.png')\"><b>💥</b></i></tg-emoji></b><b> Громим тылы врага: </b><a href=\"https://t.me/mod_russia/67245\" target=\"_blank\" rel=\"noopener\" onclick=\"return confirm('Open this link?\\n\\n'+this.href);\"><b>нанесен</b></a><b> массированный удар </b>по предприятиям промышленности и объектам портовой инфраструктуры Украины, задействованным в интересах ВСУ.<br/><b><br/></b><b><tg-emoji emoji-id=\"5447324252925620983\"><i class=\"emoji\" style=\"background-image:url('//telegram.org/img/emoji/40/F09FA49D.png')\"><b>🤝</b></i></tg-emoji></b><b> Чуткий подход и личный контроль: </b>замминистра обороны РФ генерал армии Виктор Горемыкин <a href=\"https://t.me/mod_russia/67253\" target=\"_blank\" rel=\"noopener\" onclick=\"return confirm('Open this link?\\n\\n'+this.href);\"><b>проверил</b></a><b> работу военкомата и пункта отбора на военную службу</b> в Челябинской области, а также <a href=\"https://t.me/mod_russia/67254\" target=\"_blank\" rel=\"noopener\" onclick=\"return confirm('Open this link?\\n\\n'+this.href);\"><b>вручил</b></a><b> награды</b> участникам спецоперации и медперсоналу в военном госпитале.<br/><b><br/></b><b><tg-emoji emoji-id=\"5447486370761176298\"><i class=\"emoji\" style=\"background-image:url('//telegram.org/img/emoji/40/F09F92AC.png')\"><b>💬</b></i></tg-emoji></b><b> Откровенный разговор: </b>студент, проходящий службу в войсках БПС, <a href=\"https://t.me/mod_russia/67255\" target=\"_blank\" rel=\"noopener\" onclick=\"return confirm('Open this link?\\n\\n'+this.href);\"><b>пообщался</b></a><b> с родным техникумом в формате телемоста.</b><br/><b><br/></b><b><tg-emoji emoji-id=\"5449911936361724483\"><i class=\"emoji\" style=\"background-image:url('//telegram.org/img/emoji/40/E29AA1.png')\"><b>⚡️</b></i></tg-emoji></b><b> Её стихия – перехват:</b> в рамках проекта «ОружиеZ» <a href=\"https://t.me/mod_russia/67250\" target=\"_blank\" rel=\"noopener\" onclick=\"return confirm('Open this link?\\n\\n'+this.href);\"><b>рассказали</b></a><b> о боевых возможностях дрона-перехватчика «Ёлка».</b><br/><b><br/>Каждый день ведет нас к победе&#33;</b><br/><br/><a href=\"?q=%23%D0%98%D1%82%D0%BE%D0%B3%D0%B8%D0%94%D0%BD%D1%8F\">#ИтогиДня</a><br/><tg-emoji emoji-id=\"5269510734265483362\"><i class=\"emoji\" style=\"background-image:url('//telegram.org/img/emoji/40/F09F94B9.png')\"><b>🔹</b></i></tg-emoji> <a href=\"https://max.ru/morf\" target=\"_blank\" rel=\"noopener\" onclick=\"return confirm('Open this link?\\n\\n'+this.href);\">Канал Минобороны России в MAКС – только для своих&#33;</a>"}},{"type":"Feature","geometry":null,"properties":{"source":"ru_mod","source_name":"Ministry of Defence of Russia","group":"official_ru","id":67260,"posted_utc":"2026-09-12T19:35:07+00:00","link":"https://t.me/mod_russia/67260","text":"Разведка не знает усталости, а небо никогда не спит.\nЗа работу, взлетаем!\n🔹 Минобороны России","links":["https://max.ru/morf"],"original_html":"<b>Разведка не знает усталости, а небо никогда не спит. </b><br/><br/>За работу, взлетаем&#33;<br/><br/><tg-emoji emoji-id=\"5269510734265483362\"><i class=\"emoji\" style=\"background-image:url('//telegram.org/img/emoji/40/F09F94B9.png')\"><b>🔹</b></i></tg-emoji> <a href=\"https://max.ru/morf\" target=\"_blank\" rel=\"noopener\" onclick=\"return confirm('Open this link?\\n\\n'+this.href);\">Минобороны России</a>"}},{"type":"Feature","geometry":null,"properties":{"source":"ru_mod","source_name":"Ministry of Defence of Russia","group":"official_ru","id":67261,"posted_utc":"2026-09-12T21:00:49+00:00","link":"https://t.me/mod_russia/67261","text":"Здоровья крепкого, как танковая броня, и выдержки железной!\nАндрей Белоусов поздравил военнослужащих, ветеранов и работников предприятий с Днем танкиста.\n«Воины-танкисты вписали много героических страниц в нашу ратную историю, всегда демонстрировали беспримерное мужество, стойкость и взаимовыручку. Эти качества, наряду с профессионализмом и чувством ответственности за судьбу России, позволяют успешно действовать в ходе специальной военной операции», – отметил Министр обороны.\n🏭 Андрей Белоусов подчеркнул, что надёжно выполнять боевые задачи танкистам помогают учёные, конструкторы, инженеры, работники танкостроительных заводов, создающие грозные боевые машины. Благодаря им танки и сегодня остаются эффективным оружием на поле боя и в запас не уходят.\n▫️ Министр обороны пожелал современным танкистам преумножать славные традиции своих предшественников, совершенствовать ратное мастерство, стоять на страже суверенитета России.\n🤝 Спасибо Вам за мужество, верную и героическую службу!\n🔹 Канал Минобороны России в MAКС – только для своих!","links":["https://max.ru/morf"],"original_html":"<b>Здоровья крепкого, как танковая броня, и выдержки железной&#33; </b><br/><i><br/>Андрей Белоусов поздравил военнослужащих, ветеранов и работников предприятий с Днем танкиста. </i><br/><br/><blockquote>«Воины-танкисты вписали <b>много героических страниц в нашу ратную историю, всегда демонстрировали беспримерное мужество, стойкость и взаимовыручку</b>. Эти качества, наряду с профессионализмом и чувством ответственности за судьбу России, позволяют успешно действовать в ходе специальной военной операции», – отметил Министр обороны. </blockquote><br/><br/><tg-emoji emoji-id=\"5471965635648971911\"><i class=\"emoji\" style=\"background-image:url('//telegram.org/img/emoji/40/F09F8FAD.png')\"><b>🏭</b></i></tg-emoji> Андрей Белоусов подчеркнул, что<b> надёжно выполнять боевые задачи танкистам помогают учёные, конструкторы, инженеры, работники танкостроительных заводов</b>, создающие грозные боевые машины. Благодаря им <b>танки и сегодня остаются эффективным оружием на поле боя и в запас не уходят</b>.<br/><br/><tg-emoji emoji-id=\"5447420966999193906\"><i class=\"emoji\" style=\"background-image:url('//telegram.org/img/emoji/40/E296AB.png')\"><b>▫️</b></i></tg-emoji> Министр обороны пожелал современным танкистам<b> преумножать славные традиции своих предшественников</b>, совершенствовать ратное мастерство, стоять на страже суверенитета России.<br/><br/><b><tg-emoji emoji-id=\"5447324252925620983\"><i class=\"emoji\" style=\"background-image:url('//telegram.org/img/emoji/40/F09FA49D.png')\"><b>🤝</b></i></tg-emoji></b><b> Спасибо Вам за мужество, верную и героическую службу&#33;</b><br/><a href=\"https://max.ru/morf\" target=\"_blank\" rel=\"noopener\" onclick=\"return confirm('Open this link?\\n\\n'+this.href);\"><u><br/></u></a><tg-emoji emoji-id=\"5269510734265483362\"><i class=\"emoji\" style=\"background-image:url('//telegram.org/img/emoji/40/F09F94B9.png')\"><b>🔹</b></i></tg-emoji> <a href=\"https://max.ru/morf\" target=\"_blank\" rel=\"noopener\" onclick=\"return confirm('Open this link?\\n\\n'+this.href);\">Канал Минобороны России в MAКС – только для своих&#33;</a>"}},{"type":"Feature","geometry":null,"properties":{"source":"ru_mod","source_name":"Ministry of Defence of Russia","group":"official_ru","id":67239,"posted_utc":"2026-09-12T02:19:01+00:00","link":"https://t.me/mod_russia/67239","text":"«И воинство небесное, и сам Господь на нашей стороне!»\n☦️  Военнослужащие группировки «Запад» встретили ковчег с мощами благоверного великого князя Дмитрия Донского в зоне спецоперации. Бойцы прикоснулись к святыне и освятили личные иконы с образом покровителя.\n🔹 MAКС – территория СВОих","links":["https://max.ru/morf"],"original_html":"<b>«И воинство небесное, и сам Господь на нашей стороне&#33;»</b><br/><br/><i class=\"emoji\" style=\"background-image:url('//telegram.org/img/emoji/40/E298A6.png')\"><b>☦️</b></i>  Военнослужащие группировки «Запад» <b>встретили ковчег с мощами благоверного великого князя Дмитрия Донского</b> в зоне спецоперации. Бойцы прикоснулись к святыне и освятили личные иконы с образом покровителя.<br/><br/><tg-emoji emoji-id=\"5269510734265483362\"><i class=\"emoji\" style=\"background-image:url('//telegram.org/img/emoji/40/F09F94B9.png')\"><b>🔹</b></i></tg-emoji> <a href=\"https://max.ru/morf\" target=\"_blank\" rel=\"noopener\" onclick=\"return confirm('Open this link?\\n\\n'+this.href);\">MAКС – территория СВОих</a>"}},{"type":"Feature","geometry":null,"properties":{"source":"ru_mod","source_name":"Ministry of Defence of Russia","group":"official_ru","id":67240,"posted_utc":"2026-09-12T04:04:01+00:00","link":"https://t.me/mod_russia/67240","text":"🎮 Сели на хвост: группы воздушного прикрытия группировки «Восток» приземлили более 30 вражеских «птиц» в Запорожской области.\nЧистая работа, чистое небо.\n#ВойскаБПС\n🔹 Курс на MAКС!","links":["https://max.ru/morf"],"original_html":"<b><tg-emoji emoji-id=\"5449767024165154360\"><i class=\"emoji\" style=\"background-image:url('//telegram.org/img/emoji/40/F09F8EAE.png')\"><b>🎮</b></i></tg-emoji></b><b> Сели на хвост:</b> группы воздушного прикрытия группировки «Восток» <b>приземлили более 30 вражеских «птиц»</b> в Запорожской области.<br/><br/>Чистая работа, чистое небо.<br/><br/><a href=\"?q=%23%D0%92%D0%BE%D0%B9%D1%81%D0%BA%D0%B0%D0%91%D0%9F%D0%A1\">#ВойскаБПС</a><br/><tg-emoji emoji-id=\"5269510734265483362\"><i class=\"emoji\" style=\"background-image:url('//telegram.org/img/emoji/40/F09F94B9.png')\"><b>🔹</b></i></tg-emoji> <a href=\"https://max.ru/morf\" target=\"_blank\" rel=\"noopener\" onclick=\"return confirm('Open this link?\\n\\n'+this.href);\">Курс на MAКС&#33;</a>"}},{"type":"Feature","geometry":null,"properties":{"source":"ru_mod","source_name":"Ministry of Defence of Russia","group":"official_ru","id":67241,"posted_utc":"2026-09-12T05:24:49+00:00","link":"https://t.me/mod_russia/67241","text":"❗️ Сегодня ночью Вооруженными Силами Российской Федерации нанесен массированный удар высокоточным оружием воздушного, наземного и морского базирования, ударными беспилотными летательными аппаратами, в результате которого поражены:\n▫️ предприятия украинской металлургической промышленности, обеспечивающие производство продукции военного назначения, в городах Запорожье, Днепропетровск и Кривой Рог,\n▫️ объекты портовой инфраструктуры и стратегически важный объект транспортной инфраструктуры в Одесской области, обеспечивавшие разгрузку и хранение грузов военного назначения и значительную часть зарубежного трафика оружия и боеприпасов на Украину.\n🔹 Минобороны России","links":["https://max.ru/morf"],"original_html":"<tg-emoji emoji-id=\"5447116342148753425\"><i class=\"emoji\" style=\"background-image:url('//telegram.org/img/emoji/40/E29D97.png')\"><b>❗️</b></i></tg-emoji> Сегодня ночью <b>Вооруженными Силами Российской Федерации нанесен массированный удар</b> высокоточным оружием воздушного, наземного и морского базирования, ударными беспилотными летательными аппаратами, <b>в результате которого поражены:</b><br/><br/><b><tg-emoji emoji-id=\"5469903849483431273\"><i class=\"emoji\" style=\"background-image:url('//telegram.org/img/emoji/40/E296AB.png')\"><b>▫️</b></i></tg-emoji></b><b> предприятия украинской металлургической промышленности, </b>обеспечивающие производство продукции военного назначения, в городах Запорожье, Днепропетровск и Кривой Рог, <br/><br/><b><tg-emoji emoji-id=\"5469903849483431273\"><i class=\"emoji\" style=\"background-image:url('//telegram.org/img/emoji/40/E296AB.png')\"><b>▫️</b></i></tg-emoji></b><b> объекты портовой инфраструктуры и стратегически важный объект транспортной инфраструктуры в Одесской области,</b> обеспечивавшие разгрузку и хранение грузов военного назначения и значительную часть зарубежного трафика оружия и боеприпасов на Украину.<br/><br/><tg-emoji emoji-id=\"5269510734265483362\"><i class=\"emoji\" style=\"background-image:url('//telegram.org/img/emoji/40/F09F94B9.png')\"><b>🔹</b></i></tg-emoji> <a href=\"https://max.ru/morf\" target=\"_blank\" rel=\"noopener\" onclick=\"return confirm('Open this link?\\n\\n'+this.href);\">Минобороны России</a>"}},{"type":"Feature","geometry":null,"properties":{"source":"ru_mod","source_name":"Ministry of Defence of Russia","group":"official_ru","id":67242,"posted_utc":"2026-09-12T05:45:40+00:00","link":"https://t.me/mod_russia/67242","text":"⚡️ В период с 20.00 мск 11 сентября до 8.00 мск 12 сентября дежурными силами ПВО перехвачены и уничтожены 230 украинских беспилотных летательных аппаратов самолетного типа над территориями Астраханской, Белгородской, Брянской, Волгоградской, Воронежской, Курской, Липецкой, Орловской, Пензенской, Ростовской, Самарской, Саратовской областей, Республики Крым и над акваториями Азовского и Черного морей.\n🔹 Канал Минобороны России в MAКС – боевая работа 24/7","links":["https://max.ru/morf"],"original_html":"<i class=\"emoji\" style=\"background-image:url('//telegram.org/img/emoji/40/E29AA1.png')\"><b>⚡️</b></i> В период с 20.00 мск 11 сентября до 8.00 мск 12 сентября дежурными силами ПВО <b>перехвачены и уничтожены 230 украинских беспилотных летательных аппаратов самолетного типа</b> над территориями Астраханской, Белгородской, Брянской, Волгоградской, Воронежской, Курской, Липецкой, Орловской, Пензенской, Ростовской, Самарской, Саратовской областей, Республики Крым и над акваториями Азовского и Черного морей.<br/><br/><tg-emoji emoji-id=\"5269510734265483362\"><i class=\"emoji\" style=\"background-image:url('//telegram.org/img/emoji/40/F09F94B9.png')\"><b>🔹</b></i></tg-emoji> <a href=\"https://max.ru/morf\" target=\"_blank\" rel=\"noopener\" onclick=\"return confirm('Open this link?\\n\\n'+this.href);\">Канал Минобороны России в MAКС – боевая работа 24/7</a>"}},{"type":"Feature","geometry":null,"properties":{"source":"ru_mod","source_name":"Ministry of Defence of Russia","group":"official_ru","id":67243,"posted_utc":"2026-09-12T06:02:11+00:00","link":"https://t.me/mod_russia/67243","text":"«Герани» устроили фаер-шоу\n🔥 Расчеты ударных беспилотников сожгли склад с грузами военного назначения для ВСУ.\n📍 Гостомель, Киевская область\n#ВойскаБПС\n🎮 Курс на MAКС!","links":["https://max.ru/morf"],"original_html":"<b>«Герани» устроили фаер-шоу</b><br/><br/><tg-emoji emoji-id=\"5449590921916082144\"><i class=\"emoji\" style=\"background-image:url('//telegram.org/img/emoji/40/F09F94A5.png')\"><b>🔥</b></i></tg-emoji> Расчеты ударных беспилотников сожгли склад с грузами военного назначения для ВСУ.<br/><br/><i><tg-emoji emoji-id=\"5449396879588614682\"><i class=\"emoji\" style=\"background-image:url('//telegram.org/img/emoji/40/F09F938D.png')\"><b>📍</b></i></tg-emoji></i><i> Гостомель, Киевская область</i><br/><br/><a href=\"?q=%23%D0%92%D0%BE%D0%B9%D1%81%D0%BA%D0%B0%D0%91%D0%9F%D0%A1\">#ВойскаБПС</a><br/><tg-emoji emoji-id=\"5449767024165154360\"><i class=\"emoji\" style=\"background-image:url('//telegram.org/img/emoji/40/F09F8EAE.png')\"><b>🎮</b></i></tg-emoji> <a href=\"https://max.ru/morf\" target=\"_blank\" rel=\"noopener\" onclick=\"return confirm('Open this link?\\n\\n'+this.href);\">Курс на MAКС&#33;</a>"}},{"type":"Feature","geometry":null,"properties":{"source":"ru_mod","source_name":"Ministry of Defence of Russia","group":"official_ru","id":67244,"posted_utc":"2026-09-12T07:13:24+00:00","link":"https://t.me/mod_russia/67244","text":"«Герани» продолжают турне\n💥 Ударом БПЛА поражен логистический центр, где хранились материальные средства для ВСУ.\n📍 Днепропетровск\n#ВойскаБПС\n▫️ Канал Минобороны России в MAКС – источник мощных новостей","links":["https://t.me/mod_russia/67243","https://max.ru/morf"],"original_html":"<b>«Герани» </b><a href=\"https://t.me/mod_russia/67243\" target=\"_blank\" rel=\"noopener\" onclick=\"return confirm('Open this link?\\n\\n'+this.href);\"><b>продолжают</b></a><b> турне</b><br/><br/><tg-emoji emoji-id=\"5449682610877918293\"><i class=\"emoji\" style=\"background-image:url('//telegram.org/img/emoji/40/F09F92A5.png')\"><b>💥</b></i></tg-emoji> Ударом БПЛА <b>поражен логистический центр</b>, где хранились материальные средства для ВСУ.<br/><br/><i><tg-emoji emoji-id=\"5449396879588614682\"><i class=\"emoji\" style=\"background-image:url('//telegram.org/img/emoji/40/F09F938D.png')\"><b>📍</b></i></tg-emoji></i><i> Днепропетровск</i><br/><br/><a href=\"?q=%23%D0%92%D0%BE%D0%B9%D1%81%D0%BA%D0%B0%D0%91%D0%9F%D0%A1\">#ВойскаБПС</a><br/><tg-emoji emoji-id=\"5352532894478793783\"><i class=\"emoji\" style=\"background-image:url('//telegram.org/img/emoji/40/E296AB.png')\"><b>▫️</b></i></tg-emoji> <a href=\"https://max.ru/morf\" target=\"_blank\" rel=\"noopener\" onclick=\"return confirm('Open this link?\\n\\n'+this.href);\">Канал Минобороны России в MAКС – источник мощных новостей</a>"}},{"type":"Feature","geometry":null,"properties":{"source":"ru_mod","source_name":"Ministry of Defence of Russia","group":"official_ru","id":67245,"posted_utc":"2026-09-12T07:16:36+00:00","link":"https://t.me/mod_russia/67245","text":"❗️ В течение ночи Вооруженными Силами Российской Федерации нанесен массированный удар по предприятиям украинской металлургической промышленности, производящим продукцию военного назначения, в городах Запорожье, Днепропетровск и Кривой Рог, а также по объектам портовой инфраструктуры в Одесской области, через которые осуществляется доставка грузов для ВСУ, и морским судам, используемым в интересах ВСУ.\n💥 В результате ударов высокоточным оружием воздушного, наземного, морского базирования и ударными беспилотными летательными аппаратами поражены:\n📍 в Запорожской области:\n▪️ металлургический комбинат «Запорожсталь» (ПАО «Запорожсталь») в г. Запорожье, являющийся одним из основных поставщиков листового металлопроката для создания защитных конструкций и брони для военной техники, а также пластин для бронежилетов;\n📍 в Днепропетровской области:\n▪️ металлургический комбинат в г. Кривой Рог, выпускающий металлургическую продукцию для производства вооружения и военной техники;\n▪️ инновационный электроплавильный комплекс металлургического завода «Интерпайп Сталь» в г. Днепропетровск, являющийся крупнейшим на Украине производителем и поставщиком металлопроката для производства продукции военного назначения;\n▪️ Северный и Новокриворожский горно-обогатительные комбинаты в г. Кривой Рог, осуществляющие добычу, обогащение и агломерацию железной руды для выпуска металлургической продукции, используемой для военного производства;\n📍 в Одесской области в порту «Черноморск»:\n▪️ объекты портовой инфраструктуры, используемые для разгрузки и хранения имущества военного назначения, два морских судна типа «сухогруз», доставившие вооружение и военную технику для ВСУ, и морской буксир.\n🔹 Минобороны России","links":["https://max.ru/morf"],"original_html":"<b><tg-emoji emoji-id=\"5447116342148753425\"><i class=\"emoji\" style=\"background-image:url('//telegram.org/img/emoji/40/E29D97.png')\"><b>❗️</b></i></tg-emoji></b><b> В течение ночи Вооруженными Силами Российской Федерации нанесен массированный удар </b>по предприятиям украинской металлургической промышленности, производящим продукцию военного назначения, в городах Запорожье, Днепропетровск и Кривой Рог, а также по объектам портовой инфраструктуры в Одесской области, через которые осуществляется доставка грузов для ВСУ, и морским судам, используемым в интересах ВСУ.<br/><b><br/></b><b><tg-emoji emoji-id=\"5449682610877918293\"><i class=\"emoji\" style=\"background-image:url('//telegram.org/img/emoji/40/F09F92A5.png')\"><b>💥</b></i></tg-emoji></b><b> В результате ударов </b>высокоточным оружием воздушного, наземного, морского базирования и ударными беспилотными летательными аппаратами <b>поражены</b>:<br/><br/><tg-emoji emoji-id=\"5449396879588614682\"><i class=\"emoji\" style=\"background-image:url('//telegram.org/img/emoji/40/F09F938D.png')\"><b>📍</b></i></tg-emoji> в Запорожской области:<br/><b><br/><i class=\"emoji\" style=\"background-image:url('//telegram.org/img/emoji/40/E296AA.png')\"><b>▪️</b></i> металлургический комбинат «Запорожсталь» </b>(ПАО «Запорожсталь») в г. Запорожье, являющийся одним из основных поставщиков листового металлопроката для создания защитных конструкций и брони для военной техники, а также пластин для бронежилетов;<br/><br/><tg-emoji emoji-id=\"5449396879588614682\"><i class=\"emoji\" style=\"background-image:url('//telegram.org/img/emoji/40/F09F938D.png')\"><b>📍</b></i></tg-emoji> в Днепропетровской области:<br/><b><br/><i class=\"emoji\" style=\"background-image:url('//telegram.org/img/emoji/40/E296AA.png')\"><b>▪️</b></i> металлургический комбинат </b>в г. Кривой Рог, выпускающий металлургическую продукцию для производства вооружения и военной техники;<br/><b><br/><i class=\"emoji\" style=\"background-image:url('//telegram.org/img/emoji/40/E296AA.png')\"><b>▪️</b></i> инновационный электроплавильный комплекс</b> металлургического завода «Интерпайп Сталь» в г. Днепропетровск, являющийся крупнейшим на Украине производителем и поставщиком металлопроката для производства продукции военного назначения;<br/><b><br/><i class=\"emoji\" style=\"background-image:url('//telegram.org/img/emoji/40/E296AA.png')\"><b>▪️</b></i> Северный и Новокриворожский горно-обогатительные комбинаты </b>в г. Кривой Рог, осуществляющие добычу, обогащение и агломерацию железной руды для выпуска металлургической продукции, используемой для военного производства;<br/><br/><tg-emoji emoji-id=\"5449396879588614682\"><i class=\"emoji\" style=\"background-image:url('//telegram.org/img/emoji/40/F09F938D.png')\"><b>📍</b></i></tg-emoji> в Одесской области в порту «Черноморск»:<br/><b><br/><i class=\"emoji\" style=\"background-image:url('//telegram.org/img/emoji/40/E296AA.png')\"><b>▪️</b></i> объекты портовой инфраструктуры</b>, используемые для разгрузки и хранения имущества военного назначения, <b>два морских судна типа «сухогруз»</b>, доставившие вооружение и военную технику для ВСУ, <b>и морской буксир</b>.<br/><br/><tg-emoji emoji-id=\"5269510734265483362\"><i class=\"emoji\" style=\"background-image:url('//telegram.org/img/emoji/40/F09F94B9.png')\"><b>🔹</b></i></tg-emoji> <a href=\"https://max.ru/morf\" target=\"_blank\" rel=\"noopener\" onclick=\"return confirm('Open this link?\\n\\n'+this.href);\">Минобороны России</a>"}},{"type":"Feature","geometry":null,"properties":{"source":"ru_mod","source_name":"Ministry of Defence of Russia","group":"official_ru","id":67246,"posted_utc":"2026-09-12T08:17:08+00:00","link":"https://t.me/mod_russia/67246","text":"⚡️ Подразделения группировки войск «Центр» освободили населенный пункт Веселое Донецкой Народной Республики.\nПодробнее об успехах наших войск ➡️ в MAКС","links":["https://max.ru/morf/AaCUq4xRdI4"],"original_html":"<tg-emoji emoji-id=\"5449911936361724483\"><i class=\"emoji\" style=\"background-image:url('//telegram.org/img/emoji/40/E29AA1.png')\"><b>⚡️</b></i></tg-emoji> Подразделения группировки войск «Центр» <b>освободили населенный пункт Веселое</b> Донецкой Народной Республики.<br/><br/>Подробнее об успехах наших войск <tg-emoji emoji-id=\"5469902676957357453\"><i class=\"emoji\" style=\"background-image:url('//telegram.org/img/emoji/40/E29EA1.png')\"><b>➡️</b></i></tg-emoji> <a href=\"https://max.ru/morf/AaCUq4xRdI4\" target=\"_blank\" rel=\"noopener\" onclick=\"return confirm('Open this link?\\n\\n'+this.href);\">в MAКС</a>"}},{"type":"Feature","geometry":null,"properties":{"source":"ru_mod","source_name":"Ministry of Defence of Russia","group":"official_ru","id":67247,"posted_utc":"2026-09-12T08:57:13+00:00","link":"https://t.me/mod_russia/67247","text":"🔥 Точно по адресу: «Герани» отработали по центру обработки данных «ИнтерКарс» в Киеве, где хранились материальные средства военного назначения для ВСУ.\n#ВойскаБПС\n🎮 Канал Минобороны России в MAКС – боевая работа 24/7. Присоединяйся!","links":["https://max.ru/morf"],"original_html":"<tg-emoji emoji-id=\"5449590921916082144\"><i class=\"emoji\" style=\"background-image:url('//telegram.org/img/emoji/40/F09F94A5.png')\"><b>🔥</b></i></tg-emoji> Точно по адресу:<b> </b>«Герани»<b> отработали по центру обработки данных «ИнтерКарс» в Киеве</b>, где хранились материальные средства военного назначения для ВСУ. <br/><br/><a href=\"?q=%23%D0%92%D0%BE%D0%B9%D1%81%D0%BA%D0%B0%D0%91%D0%9F%D0%A1\">#ВойскаБПС</a><br/><tg-emoji emoji-id=\"5449767024165154360\"><i class=\"emoji\" style=\"background-image:url('//telegram.org/img/emoji/40/F09F8EAE.png')\"><b>🎮</b></i></tg-emoji> <a href=\"https://max.ru/morf\" target=\"_blank\" rel=\"noopener\" onclick=\"return confirm('Open this link?\\n\\n'+this.href);\">Канал Минобороны России в MAКС – боевая работа 24/7. Присоединяйся&#33;</a>"}},{"type":"Feature","geometry":null,"properties":{"source":"ru_mod","source_name":"Ministry of Defence of Russia","group":"official_ru","id":67248,"posted_utc":"2026-09-12T10:00:22+00:00","link":"https://t.me/mod_russia/67248","text":"«Всю дорогу молился». Так вспоминает свою первую боевую задачу, выполненную в составе штурмового подразделения, водитель взвода обеспечения с позывным «Кедр». Он ушел на СВО добровольцем, а до этого, на гражданке, работал таксистом.\nСпустя время на передовой у него похожие обязанности: возить на передок БК и провизию на квадроциклах и «буханках». «Кедр» придает этой работе должное значение: ведь если штурмовикам не подвозить гранаты, воду и тушенку, то и фронт встанет.\nДома бойца ждут двое детей. Старший сын вот-вот готовится пойти служить в Армию России.\nРассказываем об участниках СВО в 📲 MAX,  📱 ВКонтакте и в 📱 Дзен","links":["https://max.ru/heroesofZ","https://vk.com/heroes0fz","http://dzen.ru/heroesofz"],"original_html":"<i>«Всю дорогу молился».</i> Так вспоминает свою первую боевую задачу, выполненную в составе штурмового подразделения, водитель взвода обеспечения с позывным <b>«Кедр»</b>. Он ушел на СВО добровольцем, а до этого, на гражданке, работал таксистом. <br/><br/>Спустя время на передовой у него похожие обязанности: возить на передок БК и провизию на квадроциклах и «буханках». «Кедр» придает этой работе должное значение: ведь если штурмовикам не подвозить гранаты, воду и тушенку, то и фронт встанет.<br/><br/>Дома бойца ждут двое детей. Старший сын вот-вот готовится пойти служить в Армию России.<br/><br/><i>Рассказываем об участниках СВО в</i> <i><tg-emoji emoji-id=\"5449407131675558756\"><i class=\"emoji\" style=\"background-image:url('//telegram.org/img/emoji/40/F09F93B2.png')\"><b>📲</b></i></tg-emoji></i><i> </i><a href=\"https://max.ru/heroesofZ\" target=\"_blank\" rel=\"noopener\" onclick=\"return confirm('Open this link?\\n\\n'+this.href);\"><i>MAX</i></a>,<i>  </i><i><tg-emoji emoji-id=\"5334853932915114338\"><i class=\"emoji\" style=\"background-image:url('//telegram.org/img/emoji/40/F09F93B1.png')\"><b>📱</b></i></tg-emoji></i><i> </i><a href=\"https://vk.com/heroes0fz\" target=\"_blank\" rel=\"noopener\" onclick=\"return confirm('Open this link?\\n\\n'+this.href);\"><i>ВКонтакте</i></a> <i>и в </i><i><tg-emoji emoji-id=\"5321533581472842536\"><i class=\"emoji\" style=\"background-image:url('//telegram.org/img/emoji/40/F09F93B1.png')\"><b>📱</b></i></tg-emoji></i><i> </i><a href=\"http://dzen.ru/heroesofz\" target=\"_blank\" rel=\"noopener\" onclick=\"return confirm('Open this link?\\n\\n'+this.href);\"><i>Дзен</i></a>"}},{"type":"Feature","geometry":null,"properties":{"source":"ru_mod","source_name":"Ministry of Defence of Russia","group":"official_ru","id":67249,"posted_utc":"2026-09-12T12:41:35+00:00","link":"https://t.me/mod_russia/67249","text":"Формула победы\n▫️ Разные способы поражения требуют разной защиты. Наш опытный инструктор рассказывает, как работают главные угрозы на фронте – от осколочных снарядов до термобарического оружия. Показываем, когда эффективна броня, а когда жизнь зависит только от противоожоговых средств.\n❕ Защита – это не только экипировка. Железная дисциплина, бдительность и умение вовремя заметить угрозу спасают жизнь.\n▫️ Правильно подобранная защита – это залог выполненной боевой задачи и победы в бою!\n🔹MAКС – территория СВОих","links":["https://max.ru/morf"],"original_html":"<b>Формула победы</b><br/><br/><tg-emoji emoji-id=\"5264796878809099818\"><i class=\"emoji\" style=\"background-image:url('//telegram.org/img/emoji/40/E296AB.png')\"><b>▫️</b></i></tg-emoji> Разные способы поражения требуют разной защиты. Наш опытный <b>инструктор рассказывает, как работают главные угрозы на фронте </b>– от осколочных снарядов до термобарического оружия. Показываем, когда эффективна броня, а когда жизнь зависит только от противоожоговых средств. <br/><br/><i class=\"emoji\" style=\"background-image:url('//telegram.org/img/emoji/40/E29D95.png')\"><b>❕</b></i> Защита – это не только экипировка. <b>Железная дисциплина, бдительность и умение вовремя заметить угрозу спасают жизнь. </b><br/><b><br/></b><b><tg-emoji emoji-id=\"5352532894478793783\"><i class=\"emoji\" style=\"background-image:url('//telegram.org/img/emoji/40/E296AB.png')\"><b>▫️</b></i></tg-emoji></b><b> Правильно подобранная защита – это залог выполненной боевой задачи и победы в бою&#33;<br/></b><br/><tg-emoji emoji-id=\"5269510734265483362\"><i class=\"emoji\" style=\"background-image:url('//telegram.org/img/emoji/40/F09F94B9.png')\"><b>🔹</b></i></tg-emoji><a href=\"https://max.ru/morf\" target=\"_blank\" rel=\"noopener\" onclick=\"return confirm('Open this link?\\n\\n'+this.href);\">MAКС – территория СВОих</a>"}},{"type":"Feature","geometry":null,"properties":{"source":"ru_mod","source_name":"Ministry of Defence of Russia","group":"official_ru","id":67250,"posted_utc":"2026-09-12T13:55:30+00:00","link":"https://t.me/mod_russia/67250","text":"Стихия «Ёлки» – перехват\n🤖 На страже наших позиций – дрон-перехватчик «Ёлка». Этот автоматизированный комплекс находит, преследует и уничтожает вражеские БПЛА.\n⚡️ Молниеносный таран: при весе всего 1,3 килограмма аппарат разгоняется до 230 километров в час. Ликвидация цели происходит за счет кинетического удара: дрон на высокой скорости врезается в беспилотник противника и выводит его из строя.\n🧠 Цифровой интеллект: «Ёлка» оснащена искусственным интеллектом. Комплекс прямо в полете анализирует конструкцию цели и направляет удар в наиболее уязвимую точку.\n«Беспилотник хорошо себя зарекомендовал. Всё работает за счёт искусственного интеллекта – он сам определяет цель, рассчитывает расстояние и прокладывает маршрут перехвата», – отмечают бойцы.\n🙌 Простота в управлении: управлять комплексом несложно – для освоения системы бойцам достаточно короткого инструктажа.\n#ОружиеZ\n🔹 Минобороны России","links":["https://max.ru/morf"],"original_html":"<b>Стихия «Ёлки» – перехват</b><br/><b><br/><i class=\"emoji\" style=\"background-image:url('//telegram.org/img/emoji/40/F09FA496.png')\"><b>🤖</b></i> На страже наших позиций – дрон-перехватчик «Ёлка». </b>Этот автоматизированный комплекс находит, преследует и уничтожает вражеские БПЛА.<br/><b><br/><i class=\"emoji\" style=\"background-image:url('//telegram.org/img/emoji/40/E29AA1.png')\"><b>⚡️</b></i> Молниеносный таран:</b> при весе всего 1,3 килограмма аппарат разгоняется до 230 километров в час. Ликвидация цели происходит за счет кинетического удара: дрон на высокой скорости врезается в беспилотник противника и выводит его из строя.<br/><b><br/><i class=\"emoji\" style=\"background-image:url('//telegram.org/img/emoji/40/F09FA7A0.png')\"><b>🧠</b></i> Цифровой интеллект:</b> «Ёлка» оснащена искусственным интеллектом. Комплекс прямо в полете анализирует конструкцию цели и направляет удар в наиболее уязвимую точку.<br/><br/><blockquote>«Беспилотник хорошо себя зарекомендовал. Всё работает за счёт искусственного интеллекта – он сам определяет цель, рассчитывает расстояние и прокладывает маршрут перехвата», – отмечают бойцы.</blockquote><br/><b><br/><i class=\"emoji\" style=\"background-image:url('//telegram.org/img/emoji/40/F09F998C.png')\"><b>🙌</b></i> Простота в управлении:</b> управлять комплексом несложно – для освоения системы бойцам достаточно короткого инструктажа.<br/><br/><a href=\"?q=%23%D0%9E%D1%80%D1%83%D0%B6%D0%B8%D0%B5Z\">#ОружиеZ</a><br/><tg-emoji emoji-id=\"5269510734265483362\"><i class=\"emoji\" style=\"background-image:url('//telegram.org/img/emoji/40/F09F94B9.png')\"><b>🔹</b></i></tg-emoji> <a href=\"https://max.ru/morf\" target=\"_blank\" rel=\"noopener\" onclick=\"return confirm('Open this link?\\n\\n'+this.href);\">Минобороны России</a>"}},{"type":"Feature","geometry":null,"properties":{"source":"ru_mod","source_name":"Ministry of Defence of Russia","group":"official_ru","id":67251,"posted_utc":"2026-09-12T14:38:12+00:00","link":"https://t.me/mod_russia/67251","text":"💥 Точный прилёт и долгое эхо: в Дружковке рвётся замаскированный склад боеприпасов ВСУ.\nОтработали артиллеристы «Южной» группировки ▫️\n🔹 Канал Минобороны России в MAКС – источник мощных новостей","links":["https://max.ru/morf"],"original_html":"<b><tg-emoji emoji-id=\"5449682610877918293\"><i class=\"emoji\" style=\"background-image:url('//telegram.org/img/emoji/40/F09F92A5.png')\"><b>💥</b></i></tg-emoji></b><b> Точный прилёт и долгое эхо:</b> в Дружковке рвётся замаскированный склад боеприпасов ВСУ. <br/><br/>Отработали артиллеристы «Южной» группировки <tg-emoji emoji-id=\"5352532894478793783\"><i class=\"emoji\" style=\"background-image:url('//telegram.org/img/emoji/40/E296AB.png')\"><b>▫️</b></i></tg-emoji><br/><br/><tg-emoji emoji-id=\"5269510734265483362\"><i class=\"emoji\" style=\"background-image:url('//telegram.org/img/emoji/40/F09F94B9.png')\"><b>🔹</b></i></tg-emoji> <a href=\"https://max.ru/morf\" target=\"_blank\" rel=\"noopener\" onclick=\"return confirm('Open this link?\\n\\n'+this.href);\">Канал Минобороны России в MAКС – источник мощных новостей</a>"}},{"type":"Feature","geometry":null,"properties":{"source":"ru_mod","source_name":"Ministry of Defence of Russia","group":"official_ru","id":67252,"posted_utc":"2026-09-12T15:12:54+00:00","link":"https://t.me/mod_russia/67252","text":"❗️ Сегодня днем Вооруженными Силами Российской Федерации продолжено нанесение ударов по морским портам Украины и судам, задействованным в интересах ВСУ.\n💥 В результате ударов по порту «Одесса» поражено морское судно типа «сухогруз», доставившее грузы военного назначения для обеспечения ВСУ.\n🔹 Минобороны России","links":["https://max.ru/morf"],"original_html":"<tg-emoji emoji-id=\"5447116342148753425\"><i class=\"emoji\" style=\"background-image:url('//telegram.org/img/emoji/40/E29D97.png')\"><b>❗️</b></i></tg-emoji> Сегодня днем Вооруженными Силами Российской Федерации <b>продолжено нанесение ударов по морским портам Украины и судам</b>, задействованным в интересах ВСУ.<br/><br/><tg-emoji emoji-id=\"5449682610877918293\"><i class=\"emoji\" style=\"background-image:url('//telegram.org/img/emoji/40/F09F92A5.png')\"><b>💥</b></i></tg-emoji> В результате ударов по порту «Одесса» <b>поражено морское судно типа «сухогруз»,</b> доставившее грузы военного назначения для обеспечения ВСУ.<br/><br/><tg-emoji emoji-id=\"5269510734265483362\"><i class=\"emoji\" style=\"background-image:url('//telegram.org/img/emoji/40/F09F94B9.png')\"><b>🔹</b></i></tg-emoji> <a href=\"https://max.ru/morf\" target=\"_blank\" rel=\"noopener\" onclick=\"return confirm('Open this link?\\n\\n'+this.href);\">Минобороны России</a>"}},{"type":"Feature","geometry":null,"properties":{"source":"ru_mod","source_name":"Ministry of Defence of Russia","group":"official_ru","id":67253,"posted_utc":"2026-09-12T16:26:06+00:00","link":"https://t.me/mod_russia/67253","text":"Чуткий подход и личный контроль\nЗаместитель Министра обороны РФ – начальник Главного военно-политического управления ВС РФ генерал армии Виктор Горемыкин проверил работу военкомата и пункта отбора на военную службу по контракту в Челябинской области.\n💬 Военный комиссар полковник Андрей Максуров доложил, как в регионе реализуют социальные гарантии семьям участников СВО, включая выплаты, льготы, компенсации и услуги.\n❗️ Виктор Горемыкин обратил особое внимание должностных лиц на оперативную обработку поступающих заявлений и оптимизацию действий при решении проблемных вопросов.\n🎮 На пункте отбора заместителю Министра обороны доложили о привлечении кандидатов в войска беспилотных систем. Для этого проводятся телемосты с военнослужащими подразделений из числа студентов со своими вузами, а также индивидуальные беседы с потенциальными кандидатами.\n🤝 На пункте отбора организована профориентация кандидатов и оценка их первичных навыков по специальностям войск БПС.\n✈️ Курс на MAКС!","links":["https://max.ru/morf"],"original_html":"<b>Чуткий подход и личный контроль</b><br/><br/>Заместитель Министра обороны РФ – начальник Главного военно-политического управления ВС РФ генерал армии Виктор Горемыкин <b>проверил работу военкомата и пункта отбора на военную службу по контракту</b> в Челябинской области.<br/><br/><tg-emoji emoji-id=\"5447486370761176298\"><i class=\"emoji\" style=\"background-image:url('//telegram.org/img/emoji/40/F09F92AC.png')\"><b>💬</b></i></tg-emoji> Военный комиссар полковник Андрей Максуров <b>доложил, как в регионе реализуют социальные гарантии семьям участников СВО</b>, включая выплаты, льготы, компенсации и услуги. <br/><br/><tg-emoji emoji-id=\"5470085453585608671\"><i class=\"emoji\" style=\"background-image:url('//telegram.org/img/emoji/40/E29D97.png')\"><b>❗️</b></i></tg-emoji> Виктор Горемыкин обратил <b>особое внимание должностных лиц на оперативную обработку поступающих заявлений и оптимизацию действий </b>при решении проблемных вопросов.<br/><br/><tg-emoji emoji-id=\"5449767024165154360\"><i class=\"emoji\" style=\"background-image:url('//telegram.org/img/emoji/40/F09F8EAE.png')\"><b>🎮</b></i></tg-emoji> На пункте отбора заместителю Министра обороны <b>доложили о привлечении кандидатов в войска беспилотных систем.</b> Для этого <b>проводятся телемосты </b>с военнослужащими подразделений из числа студентов со своими вузами, а также <b>индивидуальные беседы </b>с потенциальными кандидатами. <br/><br/><tg-emoji emoji-id=\"5449641465091222201\"><i class=\"emoji\" style=\"background-image:url('//telegram.org/img/emoji/40/F09FA49D.png')\"><b>🤝</b></i></tg-emoji> На пункте отбора <b>организована профориентация кандидатов </b>и оценка их первичных навыков по специальностям войск БПС.<br/><br/><tg-emoji emoji-id=\"5449403034276751727\"><i class=\"emoji\" style=\"background-image:url('//telegram.org/img/emoji/40/E29C88.png')\"><b>✈️</b></i></tg-emoji> <a href=\"https://max.ru/morf\" target=\"_blank\" rel=\"noopener\" onclick=\"return confirm('Open this link?\\n\\n'+this.href);\">Курс на MAКС&#33;</a>"}},{"type":"Feature","geometry":null,"properties":{"source":"ru_mod","source_name":"Ministry of Defence of Russia","group":"official_ru","id":67254,"posted_utc":"2026-09-12T16:32:43+00:00","link":"https://t.me/mod_russia/67254","text":"Чуткий подход и личный контроль  Заместитель Министра обороны РФ – начальник Главного военно-политического управления ВС РФ генерал армии Виктор Горемыкин проверил работу военкомата и пункта отбора на военную службу по контракту в Челябинской области.  💬 Военный…","links":[],"original_html":"Чуткий подход и личный контроль  Заместитель Министра обороны РФ – начальник Главного военно-политического управления ВС РФ генерал армии Виктор Горемыкин проверил работу военкомата и пункта отбора на военную службу по контракту в Челябинской области.  <tg-emoji emoji-id=\"5447486370761176298\"><i class=\"emoji\" style=\"background-image:url('//telegram.org/img/emoji/40/F09F92AC.png')\"><b>💬</b></i></tg-emoji> Военный…"}},{"type":"Feature","geometry":null,"properties":{"source":"ru_mod","source_name":"Ministry of Defence of Russia","group":"official_ru","id":67255,"posted_utc":"2026-09-12T17:40:49+00:00","link":"https://t.me/mod_russia/67255","text":"Откровенный разговор: как мечта стала реальностью\n💬 Студент Новотроицкого сельхозтехникума с позывным «Ашот» служит в войсках БПС. Он созвонился с родным техникумом, чтобы ответить на все вопросы учащихся и рассказать о боевых буднях наших дроноводов.\n▫️ Расспрашивали обо всем: от тонкостей работы до простых бытовых условий. Разговор вышел интересным – многие ребята загорелись идеей стать операторами БПЛА.\n➡️ Приходи на службу по контракту в войска беспилотных систем! Тебя ждут профессиональная команда и высокое денежное довольствие. Подробности на сайте Беспилотныевойска.рф и по телефону 117 (доб.4).\n#ВойскаБПС\n🔹 MAКС – территория СВОих","links":["http://%D0%91%D0%B5%D1%81%D0%BF%D0%B8%D0%BB%D0%BE%D1%82%D0%BD%D1%8B%D0%B5%D0%B2%D0%BE%D0%B9%D1%81%D0%BA%D0%B0.%D1%80%D1%84/","https://max.ru/morf"],"original_html":"<b>Откровенный разговор: как мечта стала реальностью<br/></b><br/><tg-emoji emoji-id=\"5447486370761176298\"><i class=\"emoji\" style=\"background-image:url('//telegram.org/img/emoji/40/F09F92AC.png')\"><b>💬</b></i></tg-emoji> Студент Новотроицкого сельхозтехникума с позывным «Ашот» служит в войсках БПС. <b>Он созвонился с родным техникумом, чтобы ответить на все вопросы учащихся и рассказать о боевых буднях наших дроноводов.<br/></b><br/><tg-emoji emoji-id=\"5469903849483431273\"><i class=\"emoji\" style=\"background-image:url('//telegram.org/img/emoji/40/E296AB.png')\"><b>▫️</b></i></tg-emoji> Расспрашивали обо всем: от тонкостей работы до простых бытовых условий. Разговор вышел интересным – многие ребята загорелись идеей стать операторами БПЛА.<br/><i><br/></i><i><tg-emoji emoji-id=\"5469902676957357453\"><i class=\"emoji\" style=\"background-image:url('//telegram.org/img/emoji/40/E29EA1.png')\"><b>➡️</b></i></tg-emoji></i><i> Приходи на службу по контракту в войска беспилотных систем&#33; Тебя ждут профессиональная команда и высокое денежное довольствие. Подробности на сайте </i><a href=\"http://%D0%91%D0%B5%D1%81%D0%BF%D0%B8%D0%BB%D0%BE%D1%82%D0%BD%D1%8B%D0%B5%D0%B2%D0%BE%D0%B9%D1%81%D0%BA%D0%B0.%D1%80%D1%84/\" target=\"_blank\" rel=\"noopener\" onclick=\"return confirm('Open this link?\\n\\n'+this.href);\"><i>Беспилотныевойска.рф</i></a><i> и по телефону 117 (доб.4).<br/></i><br/><a href=\"?q=%23%D0%92%D0%BE%D0%B9%D1%81%D0%BA%D0%B0%D0%91%D0%9F%D0%A1\">#ВойскаБПС</a><br/><tg-emoji emoji-id=\"5269510734265483362\"><i class=\"emoji\" style=\"background-image:url('//telegram.org/img/emoji/40/F09F94B9.png')\"><b>🔹</b></i></tg-emoji> <a href=\"https://max.ru/morf\" target=\"_blank\" rel=\"noopener\" onclick=\"return confirm('Open this link?\\n\\n'+this.href);\">MAКС – территория СВОих</a>"}},{"type":"Feature","geometry":null,"properties":{"source":"ru_mod","source_name":"Ministry of Defence of Russia","group":"official_ru","id":67256,"posted_utc":"2026-09-12T17:51:09+00:00","link":"https://t.me/mod_russia/67256","text":"⚡️ В течение дня в период с 8.00 до 20.00 мск дежурными силами ПВО перехвачены и уничтожены 53 украинских беспилотных летательных аппарата самолетного типа над территориями Белгородской, Брянской, Калужской, Ростовской, Смоленской, Тульской областей, Краснодарского края, Республики Крым и над акваториями Азовского и Черного морей.\n🔹 Минобороны России","links":["https://max.ru/morf"],"original_html":"<tg-emoji emoji-id=\"5449911936361724483\"><i class=\"emoji\" style=\"background-image:url('//telegram.org/img/emoji/40/E29AA1.png')\"><b>⚡️</b></i></tg-emoji> В течение дня в период с 8.00 до 20.00 мск дежурными силами ПВО<b> перехвачены и уничтожены 53 украинских беспилотных летательных аппарата самолетного типа</b> над территориями Белгородской, Брянской, Калужской, Ростовской, Смоленской, Тульской областей, Краснодарского края, Республики Крым и над акваториями Азовского и Черного морей.<br/><br/><tg-emoji emoji-id=\"5269510734265483362\"><i class=\"emoji\" style=\"background-image:url('//telegram.org/img/emoji/40/F09F94B9.png')\"><b>🔹</b></i></tg-emoji> <a href=\"https://max.ru/morf\" target=\"_blank\" rel=\"noopener\" onclick=\"return confirm('Open this link?\\n\\n'+this.href);\">Минобороны России</a>"}}]}