{"type":"FeatureCollection","features":[{"type":"Feature","geometry":{"type":"MultiPolygon","coordinates":[[[[37.9236,48.78056],[37.92103,48.79504],[37.93437,48.7966],[37.9312,48.81295],[37.93764,48.81337],[37.94326,48.81046],[37.94893,48.81071],[37.94995,48.8097],[37.95139,48.80674],[37.95213,48.80078],[37.95703,48.79734],[37.9551,48.78803],[37.95033,48.78099],[37.94604,48.7798],[37.93257,48.77446],[37.9236,48.78056]]],[[[36.16409,47.69024],[36.16102,47.69316],[36.15355,47.69759],[36.14287,47.70086],[36.14021,47.70401],[36.13604,47.71358],[36.14507,47.71828],[36.14703,47.72315],[36.16368,47.72763],[36.17008,47.71917],[36.18046,47.72139],[36.18286,47.71887],[36.1684,47.71443],[36.15673,47.71155],[36.15647,47.70721],[36.15338,47.70329],[36.15484,47.70155],[36.15943,47.7021],[36.1681,47.68922],[36.16409,47.69024]]],[[[35.39767,50.74164],[35.39363,50.75245],[35.39137,50.75494],[35.39148,50.7568],[35.39328,50.76695],[35.39453,50.78303],[35.40474,50.77767],[35.4135,50.76882],[35.41952,50.75918],[35.41935,50.75057],[35.42094,50.74071],[35.41142,50.74071],[35.40893,50.73897],[35.40464,50.7381],[35.39767,50.74164]]]]},"properties":{"source":"ukrdaily","source_name":"UkrDailyUpdate","source_url":"https://map.ukrdailyupdate.com/","category":"gained","category_label":"Newly Russian-occupied","period":"1d","compared_with":"2026-08-18","snapshot_time":"2026-08-19","area_km2_approx":19.4}}]}