{"type":"FeatureCollection","features":[{"type":"Feature","geometry":{"type":"MultiPolygon","coordinates":[[[[37.90975,48.86279],[37.90576,48.86282],[37.90486,48.86351],[37.90072,48.86328],[37.8982,48.86265],[37.89587,48.86241],[37.89363,48.86307],[37.89271,48.86406],[37.89271,48.86478],[37.89599,48.86485],[37.90602,48.86697],[37.9064,48.87025],[37.90561,48.87089],[37.90411,48.87179],[37.90318,48.87254],[37.90129,48.87409],[37.89936,48.87583],[37.89915,48.87754],[37.90114,48.87827],[37.90335,48.87745],[37.90475,48.87731],[37.90574,48.87742],[37.90685,48.87782],[37.90896,48.87836],[37.90966,48.87939],[37.91164,48.87958],[37.91391,48.87899],[37.91629,48.87933],[37.91635,48.87912],[37.91467,48.87841],[37.91385,48.87405],[37.91524,48.87244],[37.91205,48.87018],[37.91002,48.86786],[37.90967,48.86518],[37.90975,48.86279]]],[[[37.725,49.64233],[37.72118,49.64222],[37.71256,49.64208],[37.71325,49.65045],[37.71676,49.65316],[37.71786,49.65642],[37.7157,49.65666],[37.71569,49.65746],[37.71548,49.65813],[37.7129,49.65875],[37.71277,49.66559],[37.71681,49.66587],[37.72715,49.66833],[37.72933,49.67004],[37.73997,49.67027],[37.73958,49.66782],[37.73267,49.66266],[37.73044,49.65788],[37.72452,49.65494],[37.72727,49.65199],[37.725,49.64233]]]]},"properties":{"source":"ukrdaily","source_name":"UkrDailyUpdate","source_url":"https://map.ukrdailyupdate.com/","category":"gained","category_label":"Russian advance: became occupied","period":"1d","compared_with":"2026-08-14","snapshot_time":"2026-08-15","area_km2_approx":4.6}},{"type":"Feature","geometry":{"type":"MultiPolygon","coordinates":[[[[37.84349,48.888],[37.84782,48.8869],[37.85234,48.88605],[37.85823,48.88553],[37.86067,48.88681],[37.86263,48.8865],[37.86389,48.88544],[37.8637,48.88399],[37.86111,48.88246],[37.86046,48.88141],[37.86422,48.87994],[37.86586,48.87986],[37.86725,48.87885],[37.86899,48.87811],[37.87151,48.8772],[37.87405,48.87679],[37.87779,48.8772],[37.88164,48.87783],[37.88168,48.87769],[37.88026,48.87697],[37.87855,48.86848],[37.86252,48.87224],[37.85087,48.87969],[37.84471,48.88315],[37.84279,48.88568],[37.841,48.88634],[37.84349,48.888]]],[[[37.75927,49.63229],[37.74522,49.63675],[37.73557,49.63719],[37.72682,49.63677],[37.72687,49.64225],[37.73043,49.64351],[37.73606,49.64423],[37.74708,49.64155],[37.75683,49.64092],[37.75927,49.63229]]],[[[37.691,49.63701],[37.6923,49.64314],[37.69221,49.64428],[37.68937,49.64622],[37.68827,49.64746],[37.68889,49.64947],[37.68862,49.65105],[37.68997,49.65352],[37.69021,49.65531],[37.68815,49.65897],[37.69338,49.65988],[37.69834,49.65648],[37.71349,49.65262],[37.70838,49.64837],[37.70465,49.64234],[37.70328,49.63962],[37.7007,49.63692],[37.69907,49.63459],[37.691,49.63701]]]]},"properties":{"source":"ukrdaily","source_name":"UkrDailyUpdate","source_url":"https://map.ukrdailyupdate.com/","category":"ukrainian_to_contested","category_label":"Ukrainian-held became contested","period":"1d","compared_with":"2026-08-14","snapshot_time":"2026-08-15","area_km2_approx":6.8}}]}