{"type":"FeatureCollection","features":[{"type":"Feature","geometry":{"type":"Point","coordinates":[37.452803,48.388757]},"properties":{"source":"warspotting","source_name":"WarSpotting","source_url":"https://ukr.warspotting.net/","id":47409,"date":"2026-10-01","link":"https://ukr.warspotting.net/view/47409/","category":"Transport","side":"Lost by Russia","color":"#E00000","description":"'Ulan' all-terrain vehicle · Destroyed · near Nova Poltavka, Kramatorsk raion · tags: Cope cage","orbat":[]}},{"type":"Feature","geometry":{"type":"Point","coordinates":[37.451526,48.395575]},"properties":{"source":"warspotting","source_name":"WarSpotting","source_url":"https://ukr.warspotting.net/","id":47410,"date":"2026-10-01","link":"https://ukr.warspotting.net/view/47410/","category":"Transport","side":"Lost by Russia","color":"#E00000","description":"'Ulan' all-terrain vehicle · Destroyed · near Nova Poltavka, Kramatorsk raion","orbat":[]}}]}