{"type":"FeatureCollection","features":[{"type":"Feature","geometry":{"type":"MultiPolygon","coordinates":[[[[37.90975,48.86279],[37.90576,48.86282],[37.90486,48.86351],[37.90072,48.86328],[37.8982,48.86265],[37.89587,48.86241],[37.89363,48.86307],[37.89271,48.86406],[37.89271,48.86478],[37.89599,48.86485],[37.90602,48.86697],[37.9064,48.87025],[37.90411,48.87179],[37.89936,48.87583],[37.89915,48.87754],[37.90114,48.87827],[37.90335,48.87745],[37.90475,48.87731],[37.90574,48.87742],[37.90896,48.87836],[37.90966,48.87939],[37.91164,48.87958],[37.91391,48.87899],[37.9163,48.87933],[37.91635,48.87913],[37.91467,48.87841],[37.91385,48.87405],[37.91524,48.87244],[37.91205,48.87018],[37.91002,48.86786],[37.90967,48.86518],[37.90974,48.86373],[37.90975,48.86279]]],[[[37.7902,48.64363],[37.78642,48.65157],[37.78706,48.65284],[37.78719,48.655],[37.79178,48.6581],[37.79414,48.65911],[37.79492,48.66044],[37.79672,48.66126],[37.79862,48.66385],[37.81091,48.66559],[37.80966,48.66044],[37.80591,48.65892],[37.80347,48.65712],[37.80293,48.65333],[37.80535,48.64424],[37.79858,48.64018],[37.78949,48.63836],[37.7902,48.64363]]],[[[37.725,49.64233],[37.71256,49.64208],[37.71325,49.65045],[37.71676,49.65316],[37.71786,49.65642],[37.7157,49.65666],[37.71569,49.65746],[37.71548,49.65813],[37.7129,49.65875],[37.71277,49.66559],[37.71681,49.66587],[37.72715,49.66833],[37.72933,49.67004],[37.73997,49.67027],[37.73958,49.66782],[37.73267,49.66266],[37.73044,49.65788],[37.72452,49.65494],[37.72727,49.65199],[37.725,49.64233]]],[[[37.23949,48.45261],[37.24425,48.45557],[37.26298,48.45735],[37.26301,48.45719],[37.25255,48.45288],[37.24953,48.45282],[37.24914,48.45077],[37.2504,48.44246],[37.24719,48.43794],[37.24422,48.4376],[37.24225,48.43341],[37.23949,48.45261]]],[[[37.18889,48.39327],[37.22928,48.39794],[37.22765,48.39403],[37.2146,48.39289],[37.21123,48.39278],[37.20804,48.387],[37.19134,48.38378],[37.18889,48.39327]]],[[[37.0674,48.35154],[37.0713,48.35219],[37.0753,48.35342],[37.07697,48.35467],[37.07972,48.35593],[37.08263,48.35681],[37.08525,48.35735],[37.09057,48.35681],[37.09272,48.35621],[37.09499,48.35604],[37.09568,48.35499],[37.09886,48.35519],[37.10431,48.35359],[37.14362,48.35733],[37.14479,48.3521],[37.16073,48.35098],[37.16181,48.34474],[37.14242,48.34302],[37.13182,48.34696],[37.12539,48.34773],[37.12131,48.34775],[37.11882,48.34869],[37.10526,48.34724],[37.10602,48.34003],[37.10287,48.34137],[37.09758,48.34322],[37.09216,48.34465],[37.0884,48.34552],[37.08195,48.34606],[37.07706,48.34699],[37.07415,48.35067],[37.07093,48.35038],[37.0705,48.34913],[37.07089,48.34626],[37.06701,48.34573],[37.0674,48.35154]]],[[[36.16654,47.67268],[36.16741,47.67884],[36.17226,47.68081],[36.1681,47.68922],[36.15943,47.7021],[36.15484,47.70155],[36.15338,47.70329],[36.15647,47.70721],[36.15673,47.71155],[36.1684,47.71443],[36.19084,47.72133],[36.19099,47.72093],[36.17171,47.71237],[36.17403,47.70832],[36.18176,47.7104],[36.1906,47.7033],[36.20156,47.69347],[36.20602,47.68782],[36.20038,47.68566],[36.2,47.68438],[36.20256,47.6801],[36.19704,47.67801],[36.17064,47.67076],[36.16654,47.67268]]]]},"properties":{"source":"ukrdaily","source_name":"UkrDailyUpdate","source_url":"https://map.ukrdailyupdate.com/","category":"gained","category_label":"Newly Russian-occupied","period":"7d","compared_with":"2026-08-11","snapshot_time":"2026-08-18","area_km2_approx":28.5}}]}