{"type":"FeatureCollection","features":[{"type":"Feature","geometry":null,"properties":{"source":"ru_mod","source_name":"Ministry of Defence of Russia","group":"official_ru","id":67445,"posted_utc":"2026-09-18T17:23:17+00:00","link":"https://t.me/mod_russia/67445","text":"⚡️ В течение дня, в период с 8.00 до 20.00 мск, дежурными силами ПВО перехвачены и уничтожены 328 украинских беспилотных летательных аппаратов самолетного типа над территориями Брянской, Курской, Белгородской, Орловской, Калужской, Тульской, Рязанской, Ростовской областей, Московского региона, Краснодарского края, республик Крым и Дагестан, а также акваториями Черного и Каспийского морей.\n🔹 Канал Минобороны России в MAКС – боевая работа 24/7","links":["https://max.ru/morf"],"original_html":"<i class=\"emoji\" style=\"background-image:url('//telegram.org/img/emoji/40/E29AA1.png')\"><b>⚡️</b></i> В течение дня, в период с 8.00 до 20.00 мск, дежурными силами ПВО <b>перехвачены и уничтожены 328 украинских беспилотных летательных аппаратов самолетного типа </b>над территориями Брянской, Курской, Белгородской, Орловской, Калужской, Тульской, Рязанской, Ростовской областей, Московского региона, Краснодарского края, республик Крым и Дагестан, а также акваториями Черного и Каспийского морей.<br/><br/><tg-emoji emoji-id=\"5269510734265483362\"><i class=\"emoji\" style=\"background-image:url('//telegram.org/img/emoji/40/F09F94B9.png')\"><b>🔹</b></i></tg-emoji> <a href=\"https://max.ru/morf\" target=\"_blank\" rel=\"noopener\" onclick=\"return confirm('Open this link?\\n\\n'+this.href);\">Канал Минобороны России в MAКС – боевая работа 24/7</a>"}},{"type":"Feature","geometry":null,"properties":{"source":"ru_mod","source_name":"Ministry of Defence of Russia","group":"official_ru","id":67446,"posted_utc":"2026-09-18T17:42:39+00:00","link":"https://t.me/mod_russia/67446","text":"Дроноводы отработали на славу\n🎮 Операторы ударных беспилотников группировки «Восток» отработали по опорникам и личному составу ВСУ в Запорожской области.\n#ВойскаБПС\n🔹 MAКС – территория СВОих","links":["https://max.ru/morf"],"original_html":"<b>Дроноводы отработали на славу</b><br/><br/><tg-emoji emoji-id=\"5449767024165154360\"><i class=\"emoji\" style=\"background-image:url('//telegram.org/img/emoji/40/F09F8EAE.png')\"><b>🎮</b></i></tg-emoji> Операторы ударных беспилотников группировки «Восток» <b>отработали по опорникам и личному составу ВСУ</b> в Запорожской области.<br/><br/><a href=\"?q=%23%D0%92%D0%BE%D0%B9%D1%81%D0%BA%D0%B0%D0%91%D0%9F%D0%A1\">#ВойскаБПС</a><br/><tg-emoji emoji-id=\"5269510734265483362\"><i class=\"emoji\" style=\"background-image:url('//telegram.org/img/emoji/40/F09F94B9.png')\"><b>🔹</b></i></tg-emoji> <a href=\"https://max.ru/morf\" target=\"_blank\" rel=\"noopener\" onclick=\"return confirm('Open this link?\\n\\n'+this.href);\">MAКС – территория СВОих</a>"}},{"type":"Feature","geometry":null,"properties":{"source":"ru_mod","source_name":"Ministry of Defence of Russia","group":"official_ru","id":67447,"posted_utc":"2026-09-18T18:19:17+00:00","link":"https://t.me/mod_russia/67447","text":"💪  Продвигаемся, давим!\n#Цифра\n🔹 Канал Минобороны России в MAКС – только для своих!","links":["https://max.ru/morf"],"original_html":"<i class=\"emoji\" style=\"background-image:url('//telegram.org/img/emoji/40/F09F92AA.png')\"><b>💪</b></i> <b> Продвигаемся, давим&#33; </b><br/><br/><a href=\"?q=%23%D0%A6%D0%B8%D1%84%D1%80%D0%B0\">#Цифра</a><br/><tg-emoji emoji-id=\"5269510734265483362\"><i class=\"emoji\" style=\"background-image:url('//telegram.org/img/emoji/40/F09F94B9.png')\"><b>🔹</b></i></tg-emoji> <a href=\"https://max.ru/morf\" target=\"_blank\" rel=\"noopener\" onclick=\"return confirm('Open this link?\\n\\n'+this.href);\">Канал Минобороны России в MAКС – только для своих&#33;</a>"}},{"type":"Feature","geometry":null,"properties":{"source":"ru_mod","source_name":"Ministry of Defence of Russia","group":"official_ru","id":67448,"posted_utc":"2026-09-18T18:52:18+00:00","link":"https://t.me/mod_russia/67448","text":"📆 Главное за день\n▫️ Кузнецы наших побед. Спасибо, оружейники! В преддверии праздника Владимир Путин наградил работников отечественного ОПК.\n🚩 Инициатива в наших руках: освободили Веролюбовку и Золотой Колодезь в Донецкой Народной Республике.\n🎯 Логистика врага ушла в отказ: ударили по портам Украины, судам и логистическим центрам, задействованным в интересах ВСУ.\n💥 Крышесносная работа: дроноводы отправили в утиль вражескую технику на Краснолиманском направлении, поразили опорники и личный состав ВСУ в Запорожской области.\n✈️ Можем мощно, а можем и в игольное ушко пролететь: летчики ВКС России отработали по позициям нацгвардии Украины в ДНР и Харьковской области.\n↗️ Курс на космос: проведен успешный пуск ракеты-носителя «Союз-2.1б» с космическим аппаратом в интересах Минобороны России.\n🤝 На одной волне: оператор БПЛА рассказал студентам родного колледжа о службе в войсках БПС.\n▫️ Прикоснуться к святыне русского воинства: в музейно-храмовый комплекс «Новый Херсонес» доставили ковчег с мощами великого князя Дмитрия Донского.\nПлечом к плечу! Дальше – больше!\n#ИтогиДня\n🔹 Канал Минобороны России в MAКС – только для своих!","links":["https://t.me/mod_russia/67444","https://t.me/mod_russia/67432","https://t.me/mod_russia/67433","https://t.me/mod_russia/67430","https://t.me/mod_russia/67439","https://t.me/mod_russia/67426","https://max.ru/morf/AaCz_TmwT84","https://t.me/mod_russia/67446","https://t.me/mod_russia/67443","https://t.me/mod_russia/67431","https://t.me/mod_russia/67436","https://t.me/mod_russia/67438","https://max.ru/morf"],"original_html":"<tg-emoji emoji-id=\"5472282252048104170\"><i class=\"emoji\" style=\"background-image:url('//telegram.org/img/emoji/40/F09F9386.png')\"><b>📆</b></i></tg-emoji> <b>Главное за день</b><br/><br/><tg-emoji emoji-id=\"5352532894478793783\"><i class=\"emoji\" style=\"background-image:url('//telegram.org/img/emoji/40/E296AB.png')\"><b>▫️</b></i></tg-emoji> Кузнецы наших побед. Спасибо, оружейники&#33; В преддверии праздника <b>Владимир Путин </b><a href=\"https://t.me/mod_russia/67444\" target=\"_blank\" rel=\"noopener\" onclick=\"return confirm('Open this link?\\n\\n'+this.href);\"><b>наградил</b></a><b> работников отечественного ОПК.</b><br/><br/><tg-emoji emoji-id=\"5447466081335670917\"><i class=\"emoji\" style=\"background-image:url('//telegram.org/img/emoji/40/F09F9AA9.png')\"><b>🚩</b></i></tg-emoji> Инициатива в наших руках: <b>освободили </b><a href=\"https://t.me/mod_russia/67432\" target=\"_blank\" rel=\"noopener\" onclick=\"return confirm('Open this link?\\n\\n'+this.href);\"><b>Веролюбовку</b></a><b> и </b><a href=\"https://t.me/mod_russia/67433\" target=\"_blank\" rel=\"noopener\" onclick=\"return confirm('Open this link?\\n\\n'+this.href);\"><b>Золотой Колодезь</b></a> в Донецкой Народной Республике.<br/><br/><tg-emoji emoji-id=\"5467558728620341717\"><i class=\"emoji\" style=\"background-image:url('//telegram.org/img/emoji/40/F09F8EAF.png')\"><b>🎯</b></i></tg-emoji> Логистика врага ушла в отказ:<b> ударили по </b><a href=\"https://t.me/mod_russia/67430\" target=\"_blank\" rel=\"noopener\" onclick=\"return confirm('Open this link?\\n\\n'+this.href);\"><b>портам</b></a><b> Украины, </b><a href=\"https://t.me/mod_russia/67439\" target=\"_blank\" rel=\"noopener\" onclick=\"return confirm('Open this link?\\n\\n'+this.href);\"><b>судам</b></a><b> и </b><a href=\"https://t.me/mod_russia/67426\" target=\"_blank\" rel=\"noopener\" onclick=\"return confirm('Open this link?\\n\\n'+this.href);\"><b>логистическим центрам</b></a><b>,</b> задействованным в интересах ВСУ.<br/><br/><tg-emoji emoji-id=\"5449682610877918293\"><i class=\"emoji\" style=\"background-image:url('//telegram.org/img/emoji/40/F09F92A5.png')\"><b>💥</b></i></tg-emoji> Крышесносная работа: дроноводы <a href=\"https://max.ru/morf/AaCz_TmwT84\" target=\"_blank\" rel=\"noopener\" onclick=\"return confirm('Open this link?\\n\\n'+this.href);\"><b>отправили</b></a><b> в утиль вражескую технику </b>на Краснолиманском направлении, <a href=\"https://t.me/mod_russia/67446\" target=\"_blank\" rel=\"noopener\" onclick=\"return confirm('Open this link?\\n\\n'+this.href);\"><b>поразили</b></a><b> опорники и личный состав ВСУ</b> в Запорожской области.<br/><br/><tg-emoji emoji-id=\"5449403034276751727\"><i class=\"emoji\" style=\"background-image:url('//telegram.org/img/emoji/40/E29C88.png')\"><b>✈️</b></i></tg-emoji> Можем мощно, а можем и в игольное ушко пролететь: летчики ВКС России <a href=\"https://t.me/mod_russia/67443\" target=\"_blank\" rel=\"noopener\" onclick=\"return confirm('Open this link?\\n\\n'+this.href);\"><b>отработали</b></a><b> по позициям нацгвардии Украины</b> в ДНР и Харьковской области.<br/><br/><tg-emoji emoji-id=\"5352838429862296415\"><i class=\"emoji\" style=\"background-image:url('//telegram.org/img/emoji/40/E28697.png')\"><b>↗️</b></i></tg-emoji> Курс на космос: <a href=\"https://t.me/mod_russia/67431\" target=\"_blank\" rel=\"noopener\" onclick=\"return confirm('Open this link?\\n\\n'+this.href);\"><b>проведен</b></a><b> успешный пуск ракеты-носителя «Союз-2.1б»</b> с космическим аппаратом в интересах Минобороны России.<br/><br/><tg-emoji emoji-id=\"5447324252925620983\"><i class=\"emoji\" style=\"background-image:url('//telegram.org/img/emoji/40/F09FA49D.png')\"><b>🤝</b></i></tg-emoji> На одной волне: оператор БПЛА <a href=\"https://t.me/mod_russia/67436\" target=\"_blank\" rel=\"noopener\" onclick=\"return confirm('Open this link?\\n\\n'+this.href);\"><b>рассказал</b></a><b> студентам родного колледжа о службе</b> в войсках БПС.<br/><br/><tg-emoji emoji-id=\"5469903849483431273\"><i class=\"emoji\" style=\"background-image:url('//telegram.org/img/emoji/40/E296AB.png')\"><b>▫️</b></i></tg-emoji> Прикоснуться к святыне русского воинства: в музейно-храмовый комплекс «Новый Херсонес» <a href=\"https://t.me/mod_russia/67438\" target=\"_blank\" rel=\"noopener\" onclick=\"return confirm('Open this link?\\n\\n'+this.href);\"><b>доставили</b></a><b> ковчег с мощами великого князя Дмитрия Донского.</b><br/><br/><b>Плечом к плечу&#33; Дальше – больше&#33;</b><br/><br/><a href=\"?q=%23%D0%98%D1%82%D0%BE%D0%B3%D0%B8%D0%94%D0%BD%D1%8F\">#ИтогиДня</a><br/><tg-emoji emoji-id=\"5269510734265483362\"><i class=\"emoji\" style=\"background-image:url('//telegram.org/img/emoji/40/F09F94B9.png')\"><b>🔹</b></i></tg-emoji> <a href=\"https://max.ru/morf\" target=\"_blank\" rel=\"noopener\" onclick=\"return confirm('Open this link?\\n\\n'+this.href);\">Канал Минобороны России в MAКС – только для своих&#33;</a>"}},{"type":"Feature","geometry":null,"properties":{"source":"ru_mod","source_name":"Ministry of Defence of Russia","group":"official_ru","id":67449,"posted_utc":"2026-09-18T19:28:04+00:00","link":"https://t.me/mod_russia/67449","text":"Нашим смелым парням\nИ беда не беда,\nПутеводная им\nПомогает звезда.\nНакидайте ❤️ нашим крутым летчикам.\n🔹 Минобороны России","links":["https://max.ru/morf"],"original_html":"<i>Нашим смелым парням<br/>И беда не беда,<br/>Путеводная им<br/>Помогает звезда.</i><br/><br/>Накидайте <i class=\"emoji\" style=\"background-image:url('//telegram.org/img/emoji/40/E29DA4.png')\"><b>❤️</b></i> нашим крутым летчикам.<br/><br/><tg-emoji emoji-id=\"5269510734265483362\"><i class=\"emoji\" style=\"background-image:url('//telegram.org/img/emoji/40/F09F94B9.png')\"><b>🔹</b></i></tg-emoji> <a href=\"https://max.ru/morf\" target=\"_blank\" rel=\"noopener\" onclick=\"return confirm('Open this link?\\n\\n'+this.href);\">Минобороны России</a>"}},{"type":"Feature","geometry":null,"properties":{"source":"ru_mod","source_name":"Ministry of Defence of Russia","group":"official_ru","id":67450,"posted_utc":"2026-09-18T22:08:01+00:00","link":"https://t.me/mod_russia/67450","text":"«Пытались остановить наше продвижение, но мы им не позволили этого сделать»\n▫️ На страницах газеты «Красный воин» вышла история о командире танка Т‐80БВ 12‐го гвардейского танкового полка группировки «Запад» с позывным «Сокол». Он прошел путь от механика‐водителя до командира боевой машины.\n➡️ За его плечами – десятки выполненных боевых задач. В один из таких выходов танк «Сокола» прикрывал штурмовиков. В какой-то момент обстановка изменилась, на направлении появился вражеский танк...\n💥 Экипаж «Сокола» быстро сориентировался, занял огневую позицию и прямой наводкой поразил машину врага.\n«Вражеский танк полыхал. Наши парни смогли продолжить наступление. В такие моменты решение нужно принимать без промедления», – поделился танкист.\nМужество и профессионализм молодого командира танка были высоко оценены командованием, «Сокол» отмечен двумя госнаградами – медалью «За отвагу» и знаком отличия ордена Святого Георгия – Георгиевским Крестом IV степени.\n#ИсторииСВОих\n🔹 Курс на MAКС!","links":["https://psv4.vkuserphoto.ru/s/v1/d2/CZ5TiBjSfZwPHDYfrnFznYjRUNWD1cEKfI30jvapNf_F5Ukc-aw1aJ2U9GMfK6XoVUeJMwdlKntRJRd-6mEgduMYOhPR3eIEwCzdtvggWYUD7HGDVQ3jYU4QHjCyZ5GUS3NuLF8/Krasny_voin.pdf","https://max.ru/krasny_voin","https://max.ru/morf"],"original_html":"<b>«Пытались остановить наше продвижение, но мы им не позволили этого сделать»</b><br/><br/><tg-emoji emoji-id=\"5469903849483431273\"><i class=\"emoji\" style=\"background-image:url('//telegram.org/img/emoji/40/E296AB.png')\"><b>▫️</b></i></tg-emoji> На <a href=\"https://psv4.vkuserphoto.ru/s/v1/d2/CZ5TiBjSfZwPHDYfrnFznYjRUNWD1cEKfI30jvapNf_F5Ukc-aw1aJ2U9GMfK6XoVUeJMwdlKntRJRd-6mEgduMYOhPR3eIEwCzdtvggWYUD7HGDVQ3jYU4QHjCyZ5GUS3NuLF8/Krasny_voin.pdf\" target=\"_blank\" rel=\"noopener\" onclick=\"return confirm('Open this link?\\n\\n'+this.href);\">страницах</a> газеты <a href=\"https://max.ru/krasny_voin\" target=\"_blank\" rel=\"noopener\" onclick=\"return confirm('Open this link?\\n\\n'+this.href);\">«Красный воин»</a> вышла история о <b>командире танка Т‐80БВ 12‐го гвардейского танкового полка группировки «Запад» с позывным «Сокол»</b>. Он прошел путь от механика‐водителя до командира боевой машины. <br/><br/><tg-emoji emoji-id=\"5469902676957357453\"><i class=\"emoji\" style=\"background-image:url('//telegram.org/img/emoji/40/E29EA1.png')\"><b>➡️</b></i></tg-emoji> За его плечами – десятки выполненных боевых задач. В один из таких выходов танк «Сокола» прикрывал штурмовиков. В какой-то момент обстановка изменилась, <b>на направлении появился вражеский танк...</b><br/><br/><tg-emoji emoji-id=\"5449682610877918293\"><i class=\"emoji\" style=\"background-image:url('//telegram.org/img/emoji/40/F09F92A5.png')\"><b>💥</b></i></tg-emoji> Экипаж «Сокола» быстро сориентировался, занял огневую позицию и <b>прямой наводкой поразил машину врага.</b><br/><br/><blockquote>«Вражеский танк полыхал. Наши парни смогли продолжить наступление. В такие моменты решение нужно принимать без промедления», – поделился танкист. </blockquote><br/><br/>Мужество и профессионализм молодого командира танка были высоко оценены командованием, «Сокол» отмечен двумя госнаградами – медалью «За отвагу» и знаком отличия ордена Святого Георгия – Георгиевским Крестом IV степени.<br/><br/><a href=\"?q=%23%D0%98%D1%81%D1%82%D0%BE%D1%80%D0%B8%D0%B8%D0%A1%D0%92%D0%9E%D0%B8%D1%85\">#ИсторииСВОих</a><br/><tg-emoji emoji-id=\"5269510734265483362\"><i class=\"emoji\" style=\"background-image:url('//telegram.org/img/emoji/40/F09F94B9.png')\"><b>🔹</b></i></tg-emoji> <a href=\"https://max.ru/morf\" target=\"_blank\" rel=\"noopener\" onclick=\"return confirm('Open this link?\\n\\n'+this.href);\">Курс на MAКС&#33;</a>"}},{"type":"Feature","geometry":null,"properties":{"source":"ru_mod","source_name":"Ministry of Defence of Russia","group":"official_ru","id":67424,"posted_utc":"2026-09-18T02:07:01+00:00","link":"https://t.me/mod_russia/67424","text":"В бой с огненным мечом Дмитрия Донского\nКовчег с мощами Святого благоверного князя Дмитрия Донского доставили в подразделения группировки «Восток».\nБогослужения проводились на пункте управления одного из подразделений группировки, в полевых храмах и полевом подземном госпитале. Все желающие смогли прикоснуться к святыне.\nВоеннослужащие были очень воодушевлены прибытием ковчега со святыми мощами. Как отмечают многие бойцы, для них это настоящий праздник.\n💬 Канал Минобороны России в MAКС – только для своих!","links":["https://max.ru/morf"],"original_html":"<b>В бой с огненным мечом Дмитрия Донского</b><br/><br/><i>Ковчег с мощами Святого благоверного князя Дмитрия Донского доставили в подразделения группировки «Восток».</i><br/><br/>Богослужения проводились на пункте управления одного из подразделений группировки, в полевых храмах и полевом подземном госпитале. Все желающие смогли прикоснуться к святыне.<br/><br/>Военнослужащие были очень воодушевлены прибытием ковчега со святыми мощами. <b>Как отмечают многие бойцы, для них это настоящий праздник</b>.<br/><br/><tg-emoji emoji-id=\"5447486370761176298\"><i class=\"emoji\" style=\"background-image:url('//telegram.org/img/emoji/40/F09F92AC.png')\"><b>💬</b></i></tg-emoji> <a href=\"https://max.ru/morf\" target=\"_blank\" rel=\"noopener\" onclick=\"return confirm('Open this link?\\n\\n'+this.href);\">Канал Минобороны России в MAКС – только для своих&#33;</a>"}},{"type":"Feature","geometry":null,"properties":{"source":"ru_mod","source_name":"Ministry of Defence of Russia","group":"official_ru","id":67425,"posted_utc":"2026-09-18T03:34:01+00:00","link":"https://t.me/mod_russia/67425","text":"Сквозь огонь с ребенком на руках\nВ освобожденных населенных пунктах бойцы группировки «Север» обнаружили мирных жителей, которые стали заложниками ВСУ. Украинские военные использовали людей как живой щит и жестко пресекали любые попытки уйти в сторону России.\n🔹 Местная жительница Ольга со слезами вспоминает, как они с семьей пытались вырваться на машине. Украинский FPV-дрон ударил прямо в их автомобиль. Муж Ольги погиб на месте, сама она получила тяжелые осколочные ранения, а на руках остался напуганный маленький ребенок. На помощь пришли российские штурмовики.\n▫️ Женщину и ее малыша бойцы выносили на руках под непрекращающимся огнем. В эти минуты, как признаются сами военные, страх полностью отступал – оставалось лишь чёткое понимание, что в их руках сейчас находится хрупкая детская жизнь, которую нужно сберечь любой ценой.\n▫️ Сейчас спасенные находятся в безопасности под наблюдением врачей.\n🔹 MAКС – территория СВОих","links":["https://max.ru/morf"],"original_html":"<b>Сквозь огонь с ребенком на руках</b><br/><br/>В освобожденных населенных пунктах бойцы группировки «Север» <b>обнаружили мирных жителей, которые стали заложниками ВСУ</b>. Украинские военные использовали людей как живой щит и жестко пресекали любые попытки уйти в сторону России.<br/><br/><tg-emoji emoji-id=\"5470000692406023380\"><i class=\"emoji\" style=\"background-image:url('//telegram.org/img/emoji/40/F09F94B9.png')\"><b>🔹</b></i></tg-emoji> Местная жительница Ольга со слезами вспоминает, как они с семьей пытались вырваться на машине. Украинский FPV-дрон ударил прямо в их автомобиль. Муж Ольги погиб на месте, сама она получила тяжелые осколочные ранения, а на руках остался напуганный маленький ребенок. <b>На помощь пришли российские штурмовики</b>. <br/><br/><tg-emoji emoji-id=\"5447420966999193906\"><i class=\"emoji\" style=\"background-image:url('//telegram.org/img/emoji/40/E296AB.png')\"><b>▫️</b></i></tg-emoji> <b>Женщину и ее малыша бойцы выносили на руках под непрекращающимся огнем.</b> В эти минуты, как признаются сами военные, страх полностью отступал – оставалось лишь чёткое понимание, что в их руках сейчас находится хрупкая детская жизнь, которую нужно сберечь любой ценой.<br/><br/><tg-emoji emoji-id=\"5264712598665850592\"><i class=\"emoji\" style=\"background-image:url('//telegram.org/img/emoji/40/E296AB.png')\"><b>▫️</b></i></tg-emoji> <b>Сейчас спасенные находятся в безопасности</b> под наблюдением врачей.<br/><br/><tg-emoji emoji-id=\"5269510734265483362\"><i class=\"emoji\" style=\"background-image:url('//telegram.org/img/emoji/40/F09F94B9.png')\"><b>🔹</b></i></tg-emoji> <a href=\"https://max.ru/morf\" target=\"_blank\" rel=\"noopener\" onclick=\"return confirm('Open this link?\\n\\n'+this.href);\">MAКС – территория СВОих</a>"}},{"type":"Feature","geometry":null,"properties":{"source":"ru_mod","source_name":"Ministry of Defence of Russia","group":"official_ru","id":67426,"posted_utc":"2026-09-18T05:05:06+00:00","link":"https://t.me/mod_russia/67426","text":"❗️ Сегодня ночью Вооруженными Силами Российской Федерации нанесены удары беспилотными летательными аппаратами по портам Украины и судам, а также логистическим центрам, задействованным в интересах ВСУ.\n💥 В результате удара поражены:\n📍 в Одесской области:\n▫️ в порту Черноморск морское судно типа «сухогруз», доставившее грузы военного назначения;\n▫️ логистический центр «Новая почта» (в 6 км сев-зап. Одессы), используемый для хранения и распределения военных грузов, поступающих на Украину из европейских стран.\n🔹 Минобороны России","links":["https://max.ru/morf"],"original_html":"<tg-emoji emoji-id=\"5447116342148753425\"><i class=\"emoji\" style=\"background-image:url('//telegram.org/img/emoji/40/E29D97.png')\"><b>❗️</b></i></tg-emoji> Сегодня ночью <b>Вооруженными Силами Российской Федерации нанесены удары</b> беспилотными летательными аппаратами по портам Украины и судам, а также логистическим центрам, задействованным в интересах ВСУ.<br/><br/><tg-emoji emoji-id=\"5449682610877918293\"><i class=\"emoji\" style=\"background-image:url('//telegram.org/img/emoji/40/F09F92A5.png')\"><b>💥</b></i></tg-emoji> В результате удара поражены:<br/><br/><tg-emoji emoji-id=\"5449396879588614682\"><i class=\"emoji\" style=\"background-image:url('//telegram.org/img/emoji/40/F09F938D.png')\"><b>📍</b></i></tg-emoji> <b>в Одесской области</b>:<br/><br/><tg-emoji emoji-id=\"5469903849483431273\"><i class=\"emoji\" style=\"background-image:url('//telegram.org/img/emoji/40/E296AB.png')\"><b>▫️</b></i></tg-emoji> в порту Черноморск <b>морское судно типа «сухогруз»</b>, доставившее грузы военного назначения;<br/><tg-emoji emoji-id=\"5469903849483431273\"><i class=\"emoji\" style=\"background-image:url('//telegram.org/img/emoji/40/E296AB.png')\"><b>▫️</b></i></tg-emoji> <b>логистический центр «Новая почта»</b> (в 6 км сев-зап. Одессы), используемый для хранения и распределения военных грузов, поступающих на Украину из европейских стран.<br/><br/><tg-emoji emoji-id=\"5269510734265483362\"><i class=\"emoji\" style=\"background-image:url('//telegram.org/img/emoji/40/F09F94B9.png')\"><b>🔹</b></i></tg-emoji> <a href=\"https://max.ru/morf\" target=\"_blank\" rel=\"noopener\" onclick=\"return confirm('Open this link?\\n\\n'+this.href);\">Минобороны России</a>"}},{"type":"Feature","geometry":null,"properties":{"source":"ru_mod","source_name":"Ministry of Defence of Russia","group":"official_ru","id":67427,"posted_utc":"2026-09-18T05:27:03+00:00","link":"https://t.me/mod_russia/67427","text":"⚡️ В течение прошедшей ночи, с 20.00 мск 17 сентября до 8.00 мск 18 сентября, дежурными силами ПВО перехвачены и уничтожены 629 украинских беспилотных летательных аппаратов самолетного типа над территориями Астраханской, Белгородской, Брянской, Владимирской, Калужской, Курской, Орловской, Ростовской, Рязанской, Смоленской, Тульской областей, Краснодарского края, Московского региона, Республики Адыгея, Республики Крым и над акваториями Азовского и Черного морей.\n💬 Канал Минобороны России в MAКС – только для своих!","links":["https://max.ru/morf"],"original_html":"<i class=\"emoji\" style=\"background-image:url('//telegram.org/img/emoji/40/E29AA1.png')\"><b>⚡️</b></i> В течение прошедшей ночи, с 20.00 мск 17 сентября до 8.00 мск 18 сентября, дежурными силами ПВО <b>перехвачены и уничтожены 629 украинских беспилотных летательных аппаратов самолетного типа</b> над территориями Астраханской, Белгородской, Брянской, Владимирской, Калужской, Курской, Орловской, Ростовской, Рязанской, Смоленской, Тульской областей, Краснодарского края, Московского региона, Республики Адыгея, Республики Крым и над акваториями Азовского и Черного морей.<br/><br/><tg-emoji emoji-id=\"5447486370761176298\"><i class=\"emoji\" style=\"background-image:url('//telegram.org/img/emoji/40/F09F92AC.png')\"><b>💬</b></i></tg-emoji> <a href=\"https://max.ru/morf\" target=\"_blank\" rel=\"noopener\" onclick=\"return confirm('Open this link?\\n\\n'+this.href);\">Канал Минобороны России в MAКС – только для своих&#33;</a>"}},{"type":"Feature","geometry":null,"properties":{"source":"ru_mod","source_name":"Ministry of Defence of Russia","group":"official_ru","id":67428,"posted_utc":"2026-09-18T06:00:45+00:00","link":"https://t.me/mod_russia/67428","text":"❗️ Сегодня ночью Вооруженными Силами Российской Федерации нанесены удары беспилотными летательными аппаратами по портам Украины и судам, а также логистическим центрам, задействованным в интересах ВСУ.  💥 В результате удара поражены:  📍 в Одесской области:…","links":[],"original_html":"<tg-emoji emoji-id=\"5447116342148753425\"><i class=\"emoji\" style=\"background-image:url('//telegram.org/img/emoji/40/E29D97.png')\"><b>❗️</b></i></tg-emoji> Сегодня ночью Вооруженными Силами Российской Федерации нанесены удары беспилотными летательными аппаратами по портам Украины и судам, а также логистическим центрам, задействованным в интересах ВСУ.  <tg-emoji emoji-id=\"5449682610877918293\"><i class=\"emoji\" style=\"background-image:url('//telegram.org/img/emoji/40/F09F92A5.png')\"><b>💥</b></i></tg-emoji> В результате удара поражены:  <tg-emoji emoji-id=\"5449396879588614682\"><i class=\"emoji\" style=\"background-image:url('//telegram.org/img/emoji/40/F09F938D.png')\"><b>📍</b></i></tg-emoji> в Одесской области:…"}},{"type":"Feature","geometry":null,"properties":{"source":"ru_mod","source_name":"Ministry of Defence of Russia","group":"official_ru","id":67430,"posted_utc":"2026-09-18T06:52:09+00:00","link":"https://t.me/mod_russia/67430","text":"💥 Реактивный кошмар для противника\n🎮 Расчеты реактивных БПЛА-К «Герань-4 сикер» поразили сухогрузы, использовавшиеся для перевозки грузов в интересах ВСУ, в районе Одессы и Измаила.\n#ВойскаБПС\n🔹 Канал Минобороны России в MAКС – боевая работа 24/7","links":["https://max.ru/morf"],"original_html":"<b><tg-emoji emoji-id=\"5449682610877918293\"><i class=\"emoji\" style=\"background-image:url('//telegram.org/img/emoji/40/F09F92A5.png')\"><b>💥</b></i></tg-emoji></b><b> Реактивный кошмар для противника</b><br/> <br/><tg-emoji emoji-id=\"5449767024165154360\"><i class=\"emoji\" style=\"background-image:url('//telegram.org/img/emoji/40/F09F8EAE.png')\"><b>🎮</b></i></tg-emoji> Расчеты реактивных БПЛА-К «Герань-4 сикер» <b>поразили сухогрузы, использовавшиеся для перевозки грузов в интересах ВСУ,</b> в районе Одессы и Измаила.<br/><br/><a href=\"?q=%23%D0%92%D0%BE%D0%B9%D1%81%D0%BA%D0%B0%D0%91%D0%9F%D0%A1\">#ВойскаБПС</a><br/><tg-emoji emoji-id=\"5269510734265483362\"><i class=\"emoji\" style=\"background-image:url('//telegram.org/img/emoji/40/F09F94B9.png')\"><b>🔹</b></i></tg-emoji> <a href=\"https://max.ru/morf\" target=\"_blank\" rel=\"noopener\" onclick=\"return confirm('Open this link?\\n\\n'+this.href);\">Канал Минобороны России в MAКС – боевая работа 24/7</a>"}},{"type":"Feature","geometry":null,"properties":{"source":"ru_mod","source_name":"Ministry of Defence of Russia","group":"official_ru","id":67431,"posted_utc":"2026-09-18T07:57:40+00:00","link":"https://t.me/mod_russia/67431","text":"🚀  Курс на космос: успешный пуск «Союза» с Плесецка\nКосмические войска провели успешный пуск ракеты-носителя «Союз-2.1б» с космическим аппаратом в интересах Минобороны России.\n✔️  В расчетное время космический аппарат выведен на целевую орбиту и принят на управление наземными средствами космических войск ВКС.\n📡  С космическим аппаратом установлена и поддерживается устойчивая телеметрическая связь, его бортовые системы функционируют в штатном режиме.\n🔹 MAКС – территория СВОих","links":["https://max.ru/morf"],"original_html":"<i class=\"emoji\" style=\"background-image:url('//telegram.org/img/emoji/40/F09F9A80.png')\"><b>🚀</b></i> <b> Курс на космос: успешный пуск «Союза» с Плесецка</b><br/><br/><i>Космические войска провели успешный пуск ракеты-носителя «Союз-2.1б» с космическим аппаратом в интересах Минобороны России.</i><br/><br/><i class=\"emoji\" style=\"background-image:url('//telegram.org/img/emoji/40/E29C94.png')\"><b>✔️</b></i>  В расчетное время<b> космический аппарат выведен на целевую орбиту</b> и принят на управление наземными средствами космических войск ВКС.<br/><br/><i class=\"emoji\" style=\"background-image:url('//telegram.org/img/emoji/40/F09F93A1.png')\"><b>📡</b></i>  С космическим аппаратом установлена и поддерживается устойчивая телеметрическая связь, его <b>бортовые системы функционируют в штатном режиме.<br/><br/></b><tg-emoji emoji-id=\"5269510734265483362\"><i class=\"emoji\" style=\"background-image:url('//telegram.org/img/emoji/40/F09F94B9.png')\"><b>🔹</b></i></tg-emoji> <a href=\"https://max.ru/morf\" target=\"_blank\" rel=\"noopener\" onclick=\"return confirm('Open this link?\\n\\n'+this.href);\">MAКС – территория СВОих</a>"}},{"type":"Feature","geometry":null,"properties":{"source":"ru_mod","source_name":"Ministry of Defence of Russia","group":"official_ru","id":67432,"posted_utc":"2026-09-18T08:38:37+00:00","link":"https://t.me/mod_russia/67432","text":"⚡️ Подразделения «Южной» группировки войск освободили населенный пункт Веролюбовка Донецкой Народной Республики.\n🔹 MAКС – территория СВОих","links":["https://max.ru/morf"],"original_html":"<i class=\"emoji\" style=\"background-image:url('//telegram.org/img/emoji/40/E29AA1.png')\"><b>⚡️</b></i> Подразделения «Южной» группировки войск <b>освободили населенный пункт Веролюбовка </b>Донецкой Народной Республики.<br/><br/><tg-emoji emoji-id=\"5269510734265483362\"><i class=\"emoji\" style=\"background-image:url('//telegram.org/img/emoji/40/F09F94B9.png')\"><b>🔹</b></i></tg-emoji> <a href=\"https://max.ru/morf\" target=\"_blank\" rel=\"noopener\" onclick=\"return confirm('Open this link?\\n\\n'+this.href);\">MAКС – территория СВОих</a>"}},{"type":"Feature","geometry":null,"properties":{"source":"ru_mod","source_name":"Ministry of Defence of Russia","group":"official_ru","id":67433,"posted_utc":"2026-09-18T08:39:32+00:00","link":"https://t.me/mod_russia/67433","text":"⚡️ Подразделения группировки войск «Центр» освободили населенный пункт Золотой Колодезь Донецкой Народной Республики.\nПодробнее об успехах наших войск ➡️ в MAКС","links":["https://max.ru/morf/AaCzsQB3HwQ"],"original_html":"<i class=\"emoji\" style=\"background-image:url('//telegram.org/img/emoji/40/E29AA1.png')\"><b>⚡️</b></i> Подразделения группировки войск «Центр» <b>освободили населенный пункт Золотой Колодезь </b>Донецкой Народной Республики.<br/><br/>Подробнее об успехах наших войск <tg-emoji emoji-id=\"5469902676957357453\"><i class=\"emoji\" style=\"background-image:url('//telegram.org/img/emoji/40/E29EA1.png')\"><b>➡️</b></i></tg-emoji> <a href=\"https://max.ru/morf/AaCzsQB3HwQ\" target=\"_blank\" rel=\"noopener\" onclick=\"return confirm('Open this link?\\n\\n'+this.href);\">в MAКС</a>"}},{"type":"Feature","geometry":null,"properties":{"source":"ru_mod","source_name":"Ministry of Defence of Russia","group":"official_ru","id":67434,"posted_utc":"2026-09-18T10:12:48+00:00","link":"https://t.me/mod_russia/67434","text":"Камня на камне не оставили\n💥 Расчёт разведывательных БПЛА 61-й гвардейской бригады морской пехоты группировки «Центр» скорректировал авиаудары ФАБ-500 по опорникам противника на Добропольском направлении.\n🔹 MAКС – территория СВОих","links":["https://max.ru/morf"],"original_html":"<b>Камня на камне не оставили</b><br/><br/><tg-emoji emoji-id=\"5449682610877918293\"><i class=\"emoji\" style=\"background-image:url('//telegram.org/img/emoji/40/F09F92A5.png')\"><b>💥</b></i></tg-emoji> Расчёт разведывательных БПЛА 61-й гвардейской бригады морской пехоты группировки «Центр» <b>скорректировал авиаудары ФАБ-500 по опорникам противника</b> на Добропольском направлении.<br/><br/><tg-emoji emoji-id=\"5269510734265483362\"><i class=\"emoji\" style=\"background-image:url('//telegram.org/img/emoji/40/F09F94B9.png')\"><b>🔹</b></i></tg-emoji> <a href=\"https://max.ru/morf\" target=\"_blank\" rel=\"noopener\" onclick=\"return confirm('Open this link?\\n\\n'+this.href);\">MAКС – территория СВОих</a>"}},{"type":"Feature","geometry":null,"properties":{"source":"ru_mod","source_name":"Ministry of Defence of Russia","group":"official_ru","id":67435,"posted_utc":"2026-09-18T10:55:58+00:00","link":"https://t.me/mod_russia/67435","text":"Интересную историю про своего прадеда-танкиста, участника Великой Отечественной, рассказал начальник расчета боевой машины РСЗО «Торнадо-С» с позывным «Ёж».\nУ него, что называется, не было вариантов не стать военным. Прадеды — ветераны войны, отец и дядя служили в Армии. Куда ещё пойти учиться? Окончив Михайловскую военную артиллерийскую академию, спустя всего несколько месяцев наш герой уже проверял теорию практикой в зоне СВО.\nЕго боевая машина поражала такие лакомые цели, как «Хаймарс» и «Три топора». И за эти боевые трофеи «Ёж» удостоен медали «За отвагу».\nРассказываем об участниках СВО в 📲 MAX,  📱 ВКонтакте и в 📱 Дзен","links":["https://max.ru/heroesofZ","https://vk.com/heroes0fz","http://dzen.ru/heroesofz"],"original_html":"Интересную историю про своего прадеда-танкиста, участника Великой Отечественной, рассказал начальник расчета боевой машины РСЗО «Торнадо-С» с <b>позывным «Ёж»</b>.<br/><br/>У него, что называется, не было вариантов не стать военным. Прадеды — ветераны войны, отец и дядя служили в Армии. Куда ещё пойти учиться? Окончив Михайловскую военную артиллерийскую академию, спустя всего несколько месяцев наш герой уже проверял теорию практикой в зоне СВО. <br/><br/>Его боевая машина поражала такие лакомые цели, как «Хаймарс» и «Три топора». И за эти боевые трофеи «Ёж» удостоен медали «За отвагу».<br/><br/><i>Рассказываем об участниках СВО в</i> <i><tg-emoji emoji-id=\"5449407131675558756\"><i class=\"emoji\" style=\"background-image:url('//telegram.org/img/emoji/40/F09F93B2.png')\"><b>📲</b></i></tg-emoji></i><i> </i><a href=\"https://max.ru/heroesofZ\" target=\"_blank\" rel=\"noopener\" onclick=\"return confirm('Open this link?\\n\\n'+this.href);\"><i>MAX</i></a>,<i>  </i><i><tg-emoji emoji-id=\"5334853932915114338\"><i class=\"emoji\" style=\"background-image:url('//telegram.org/img/emoji/40/F09F93B1.png')\"><b>📱</b></i></tg-emoji></i><i> </i><a href=\"https://vk.com/heroes0fz\" target=\"_blank\" rel=\"noopener\" onclick=\"return confirm('Open this link?\\n\\n'+this.href);\"><i>ВКонтакте</i></a> <i>и в </i><i><tg-emoji emoji-id=\"5321533581472842536\"><i class=\"emoji\" style=\"background-image:url('//telegram.org/img/emoji/40/F09F93B1.png')\"><b>📱</b></i></tg-emoji></i><i> </i><a href=\"http://dzen.ru/heroesofz\" target=\"_blank\" rel=\"noopener\" onclick=\"return confirm('Open this link?\\n\\n'+this.href);\"><i>Дзен</i></a>"}},{"type":"Feature","geometry":null,"properties":{"source":"ru_mod","source_name":"Ministry of Defence of Russia","group":"official_ru","id":67436,"posted_utc":"2026-09-18T12:13:35+00:00","link":"https://t.me/mod_russia/67436","text":"Ребята на одной волне: оператор БПЛА рассказал студентам родного колледжа о службе\n▫️ Студенты Краснодарского колледжа электронного приборостроения пообщались со своим товарищем Николаем Бондаренко, который взял академический отпуск, подписал контракт и отправился в составе подразделений БПС в зону спецоперации.\n💬 Николай ответил на вопросы о быте и службе, а также рассказал о подготовке операторов БПЛА. Он подчеркнул, что эта специальность востребована как на фронте, так и в мирной жизни.\n🔹 Ребята остались довольны встречей, а некоторые даже решили, что хотят подписать контракт.\n➡️ Служи по контракту в войсках беспилотных систем – управляй дронами. Подробности на сайте Беспилотныевойска.рф и по телефону 117(доб.4).\n#ВойскаБПС\n🔹 Канал Минобороны России в MAКС – только для своих!","links":["https://xn--80abdlarjifukdg1ajk8m.xn--p1ai/?utm_source=mil&utm_medium=social&utm_campaign=social","https://max.ru/morf"],"original_html":"<b>Ребята на одной волне: оператор БПЛА рассказал студентам родного колледжа о службе</b><br/><br/><tg-emoji emoji-id=\"5352532894478793783\"><i class=\"emoji\" style=\"background-image:url('//telegram.org/img/emoji/40/E296AB.png')\"><b>▫️</b></i></tg-emoji> Студенты Краснодарского колледжа электронного приборостроения <b>пообщались со своим товарищем Николаем Бондаренко</b>, который взял академический отпуск, подписал контракт и отправился в составе подразделений БПС в зону спецоперации.<br/><br/><b><tg-emoji emoji-id=\"5447486370761176298\"><i class=\"emoji\" style=\"background-image:url('//telegram.org/img/emoji/40/F09F92AC.png')\"><b>💬</b></i></tg-emoji></b><b> Николай ответил на вопросы о быте и службе, а также рассказал о подготовке операторов БПЛА.</b> Он подчеркнул, что эта специальность востребована как на фронте, так и в мирной жизни. <br/><br/><tg-emoji emoji-id=\"5470000692406023380\"><i class=\"emoji\" style=\"background-image:url('//telegram.org/img/emoji/40/F09F94B9.png')\"><b>🔹</b></i></tg-emoji> Ребята остались довольны встречей, а некоторые даже <b>решили, что хотят подписать контракт.</b><br/><br/><i><tg-emoji emoji-id=\"5469902676957357453\"><i class=\"emoji\" style=\"background-image:url('//telegram.org/img/emoji/40/E29EA1.png')\"><b>➡️</b></i></tg-emoji></i><i> Служи по контракту в войсках беспилотных систем – управляй дронами. Подробности на сайте </i><a href=\"https://xn--80abdlarjifukdg1ajk8m.xn--p1ai/?utm_source=mil&amp;amp;utm_medium=social&amp;amp;utm_campaign=social\" target=\"_blank\" rel=\"noopener\" onclick=\"return confirm('Open this link?\\n\\n'+this.href);\"><i><u>Беспилотныевойска.рф</u></i></a><i> и по телефону 117(доб.4).</i><br/><br/><a href=\"?q=%23%D0%92%D0%BE%D0%B9%D1%81%D0%BA%D0%B0%D0%91%D0%9F%D0%A1\">#ВойскаБПС</a><br/><tg-emoji emoji-id=\"5269510734265483362\"><i class=\"emoji\" style=\"background-image:url('//telegram.org/img/emoji/40/F09F94B9.png')\"><b>🔹</b></i></tg-emoji> <a href=\"https://max.ru/morf\" target=\"_blank\" rel=\"noopener\" onclick=\"return confirm('Open this link?\\n\\n'+this.href);\">Канал Минобороны России в MAКС – только для своих&#33;</a>"}},{"type":"Feature","geometry":null,"properties":{"source":"ru_mod","source_name":"Ministry of Defence of Russia","group":"official_ru","id":67437,"posted_utc":"2026-09-18T12:24:49+00:00","link":"https://t.me/mod_russia/67437","text":"Герани ослепляют ВСУ\nУдарами беспилотников уничтожены:\n▫️ радиолокационная станция П-19МА ВСУ и «купольная» станция радиоэлектронной борьбы в районе н.п. Широкое в Днепропетровской области;\n▫️ радиолокационная станция 79К6 «Пеликан» в районе н.п. Дальник в Одесской области.\n#ВойскаБПС\n🔹 MAКС – территория СВОих","links":["https://max.ru/morf"],"original_html":"<b>Герани ослепляют ВСУ</b><br/><br/>Ударами беспилотников уничтожены:<br/><br/><tg-emoji emoji-id=\"5469903849483431273\"><i class=\"emoji\" style=\"background-image:url('//telegram.org/img/emoji/40/E296AB.png')\"><b>▫️</b></i></tg-emoji> <b>радиолокационная станция</b> П-19МА ВСУ и «купольная» <b>станция радиоэлектронной борьбы</b> в районе н.п. Широкое в Днепропетровской области;<br/><br/><tg-emoji emoji-id=\"5469903849483431273\"><i class=\"emoji\" style=\"background-image:url('//telegram.org/img/emoji/40/E296AB.png')\"><b>▫️</b></i></tg-emoji> <b>радиолокационная станция</b> 79К6 «Пеликан» в районе н.п. Дальник в Одесской области.<br/><br/><a href=\"?q=%23%D0%92%D0%BE%D0%B9%D1%81%D0%BA%D0%B0%D0%91%D0%9F%D0%A1\">#ВойскаБПС</a><br/><tg-emoji emoji-id=\"5269510734265483362\"><i class=\"emoji\" style=\"background-image:url('//telegram.org/img/emoji/40/F09F94B9.png')\"><b>🔹</b></i></tg-emoji> <a href=\"https://max.ru/morf\" target=\"_blank\" rel=\"noopener\" onclick=\"return confirm('Open this link?\\n\\n'+this.href);\">MAКС – территория СВОих</a>"}},{"type":"Feature","geometry":null,"properties":{"source":"ru_mod","source_name":"Ministry of Defence of Russia","group":"official_ru","id":67438,"posted_utc":"2026-09-18T13:23:59+00:00","link":"https://t.me/mod_russia/67438","text":"Прикоснуться к святыне русского воинства\nВ музейно-храмовый комплекс «Новый Херсонес» доставили ковчег с мощами Святого благоверного великого князя Дмитрия Донского.\nСвятыня прибыла прямиком из зоны специальной военной операции. В соборе в честь этого исторического события прошел торжественный молебен. Все желающие уже могут прикоснуться к мощам Святого заступника русского воинства.\n📍 Свято-Владимирский Херсонесский мужской монастырь, Севастополь\n🔹 Канал Минобороны России в MAКС – только для своих!","links":["https://max.ru/morf"],"original_html":"<b>Прикоснуться к святыне русского воинства</b><br/><br/>В музейно-храмовый комплекс «Новый Херсонес» <b>доставили ковчег с мощами Святого благоверного великого князя Дмитрия Донского.</b><br/><br/>Святыня прибыла <b>прямиком из зоны специальной военной операции</b>. В соборе в честь этого исторического события прошел торжественный молебен. Все желающие уже могут прикоснуться к мощам Святого заступника русского воинства.<br/><br/><i><tg-emoji emoji-id=\"5449396879588614682\"><i class=\"emoji\" style=\"background-image:url('//telegram.org/img/emoji/40/F09F938D.png')\"><b>📍</b></i></tg-emoji></i><i> Свято-Владимирский Херсонесский мужской монастырь, Севастополь<br/><br/></i><tg-emoji emoji-id=\"5269510734265483362\"><i class=\"emoji\" style=\"background-image:url('//telegram.org/img/emoji/40/F09F94B9.png')\"><b>🔹</b></i></tg-emoji> <a href=\"https://max.ru/morf\" target=\"_blank\" rel=\"noopener\" onclick=\"return confirm('Open this link?\\n\\n'+this.href);\">Канал Минобороны России в MAКС – только для своих&#33;</a>"}},{"type":"Feature","geometry":null,"properties":{"source":"ru_mod","source_name":"Ministry of Defence of Russia","group":"official_ru","id":67439,"posted_utc":"2026-09-18T14:13:47+00:00","link":"https://t.me/mod_russia/67439","text":"🔥 Отгрузили сухогрузам\nРасчеты ударных «Гераней» поразили пять судов типа «сухогруз» в портах Южный, Черноморск, Одесса и в акватории Черного моря.\n#ВойскаБПС\n🔹 MAКС – территория СВОих","links":["https://max.ru/morf"],"original_html":"<tg-emoji emoji-id=\"5449590921916082144\"><i class=\"emoji\" style=\"background-image:url('//telegram.org/img/emoji/40/F09F94A5.png')\"><b>🔥</b></i></tg-emoji> <b>Отгрузили сухогрузам</b><br/><br/>Расчеты ударных «Гераней» <b>поразили пять судов типа «сухогруз» </b>в портах Южный, Черноморск, Одесса и в акватории Черного моря.<br/><br/><a href=\"?q=%23%D0%92%D0%BE%D0%B9%D1%81%D0%BA%D0%B0%D0%91%D0%9F%D0%A1\">#ВойскаБПС</a><br/><tg-emoji emoji-id=\"5269510734265483362\"><i class=\"emoji\" style=\"background-image:url('//telegram.org/img/emoji/40/F09F94B9.png')\"><b>🔹</b></i></tg-emoji> <a href=\"https://max.ru/morf\" target=\"_blank\" rel=\"noopener\" onclick=\"return confirm('Open this link?\\n\\n'+this.href);\">MAКС – территория СВОих</a>"}},{"type":"Feature","geometry":null,"properties":{"source":"ru_mod","source_name":"Ministry of Defence of Russia","group":"official_ru","id":67440,"posted_utc":"2026-09-18T15:21:17+00:00","link":"https://t.me/mod_russia/67440","text":"💥 Прорвали оборону и вскрыли «лисьи норы» врага\nВоеннослужащие 5-й отдельной танковой бригады поделились подробностями освобождения Розовки в Запорожской области.\n➡️ Продвижение осложнялось открытой местностью, плотным минированием и высокой активностью БПЛА противника.\n💬 Штурмовик с позывным «Тимоха» рассказал о зачистке вражеских укреплений и противодействии дронам, а боец с позывным «Фирс» – о подземных укрытиях боевиков.\n🔹 Канал Минобороны России в MAКС – только для своих!","links":["https://t.me/mod_russia/67407","https://max.ru/morf"],"original_html":"<b><tg-emoji emoji-id=\"5449682610877918293\"><i class=\"emoji\" style=\"background-image:url('//telegram.org/img/emoji/40/F09F92A5.png')\"><b>💥</b></i></tg-emoji></b><b> Прорвали оборону и вскрыли «лисьи норы» врага</b><br/><br/><i>Военнослужащие 5-й отдельной танковой бригады поделились подробностями освобождения </i><a href=\"https://t.me/mod_russia/67407\" target=\"_blank\" rel=\"noopener\" onclick=\"return confirm('Open this link?\\n\\n'+this.href);\"><i><u>Розовки</u></i></a><i> в Запорожской области.</i><br/><br/><tg-emoji emoji-id=\"5469902676957357453\"><i class=\"emoji\" style=\"background-image:url('//telegram.org/img/emoji/40/E29EA1.png')\"><b>➡️</b></i></tg-emoji> Продвижение осложнялось открытой местностью, плотным минированием и высокой активностью БПЛА противника.<br/><br/><tg-emoji emoji-id=\"5447486370761176298\"><i class=\"emoji\" style=\"background-image:url('//telegram.org/img/emoji/40/F09F92AC.png')\"><b>💬</b></i></tg-emoji> Штурмовик с позывным «Тимоха» рассказал <b>о зачистке вражеских укреплений и противодействии дронам</b>, а боец с позывным «Фирс» – <b>о подземных укрытиях боевиков</b>.<br/><br/><tg-emoji emoji-id=\"5269510734265483362\"><i class=\"emoji\" style=\"background-image:url('//telegram.org/img/emoji/40/F09F94B9.png')\"><b>🔹</b></i></tg-emoji> <a href=\"https://max.ru/morf\" target=\"_blank\" rel=\"noopener\" onclick=\"return confirm('Open this link?\\n\\n'+this.href);\">Канал Минобороны России в MAКС – только для своих&#33;</a>"}},{"type":"Feature","geometry":null,"properties":{"source":"ru_mod","source_name":"Ministry of Defence of Russia","group":"official_ru","id":67441,"posted_utc":"2026-09-18T15:40:28+00:00","link":"https://t.me/mod_russia/67441","text":"❗️ В течение дня Вооруженными Силами Российской Федерации продолжено нанесение ударов беспилотными летательными аппаратами по портам Украины и морским судам, используемым в интересах ВСУ.\n🔥 В результате ударов поражены:\n▫️ в порту Южный Одесской области − морское судно типа «сухогруз», доставившее грузы военного назначения;\n▫️ в порту Одесса − морское судно типа «танкер», доставившее горюче-смазочные материалы для украинской армии.\n💥 Кроме того, на переходе морем нанесено поражение морскому судну типа «сухогруз», перевозившему в порт Одесса грузы, предназначенные для обеспечения ВСУ.\n🔹 Минобороны России","links":["https://max.ru/morf"],"original_html":"<tg-emoji emoji-id=\"5447116342148753425\"><i class=\"emoji\" style=\"background-image:url('//telegram.org/img/emoji/40/E29D97.png')\"><b>❗️</b></i></tg-emoji> В течение дня Вооруженными Силами Российской Федерации <b>продолжено нанесение ударов беспилотными летательными аппаратами по портам Украины и морским судам,</b> используемым в интересах ВСУ.<br/><br/><tg-emoji emoji-id=\"5449590921916082144\"><i class=\"emoji\" style=\"background-image:url('//telegram.org/img/emoji/40/F09F94A5.png')\"><b>🔥</b></i></tg-emoji> В результате ударов <b>поражены</b>:<br/><br/><tg-emoji emoji-id=\"5469903849483431273\"><i class=\"emoji\" style=\"background-image:url('//telegram.org/img/emoji/40/E296AB.png')\"><b>▫️</b></i></tg-emoji> в порту Южный Одесской области − <b>морское судно типа «сухогруз»</b>, доставившее грузы военного назначения;<br/><br/><tg-emoji emoji-id=\"5469903849483431273\"><i class=\"emoji\" style=\"background-image:url('//telegram.org/img/emoji/40/E296AB.png')\"><b>▫️</b></i></tg-emoji> в порту Одесса − <b>морское судно типа «танкер»,</b> доставившее горюче-смазочные материалы для украинской армии.<br/><br/><tg-emoji emoji-id=\"5449682610877918293\"><i class=\"emoji\" style=\"background-image:url('//telegram.org/img/emoji/40/F09F92A5.png')\"><b>💥</b></i></tg-emoji> Кроме того, на переходе морем <b>нанесено поражение морскому судну типа «сухогруз», </b>перевозившему в порт Одесса грузы, предназначенные для обеспечения ВСУ.<br/><br/><tg-emoji emoji-id=\"5269510734265483362\"><i class=\"emoji\" style=\"background-image:url('//telegram.org/img/emoji/40/F09F94B9.png')\"><b>🔹</b></i></tg-emoji> <a href=\"https://max.ru/morf\" target=\"_blank\" rel=\"noopener\" onclick=\"return confirm('Open this link?\\n\\n'+this.href);\">Минобороны России</a>"}},{"type":"Feature","geometry":null,"properties":{"source":"ru_mod","source_name":"Ministry of Defence of Russia","group":"official_ru","id":67442,"posted_utc":"2026-09-18T16:19:50+00:00","link":"https://t.me/mod_russia/67442","text":"Дроноводы одобряют 👍\n🎮 Военнослужащие 11-го армейского корпуса группировки «Север» используют новый дрон «Мангас» для поражения укрытий и личного состава ВСУ, а также для доставки продовольствия и боеприпасов нашим парням на передний край.\n💥  В этот раз разведка обнаружила вражеский блиндаж. После выхода аппарата в район цели оператор с помощью тепловизионной камеры обнаружил противника и выполнил точный сброс боевой части.\n▶️  Инженер-техник расчета БПЛА с позывным «Бульбаш» рассказал о преимуществах нового дрона.\nСлужи по контракту в войсках беспилотных систем – управляй дронами. Подробности на сайте Беспилотныевойска.рф и по телефону 117(доб.4).\n#ВойскаБПС\n🔹 Канал Минобороны России в MAКС – боевая работа 24/7","links":["https://xn--80abdlarjifukdg1ajk8m.xn--p1ai/?utm_source=mil&utm_medium=social&utm_campaign=social","https://max.ru/morf"],"original_html":"<b>Дроноводы одобряют </b><i class=\"emoji\" style=\"background-image:url('//telegram.org/img/emoji/40/F09F918D.png')\"><b>👍</b></i><br/><br/><tg-emoji emoji-id=\"5449767024165154360\"><i class=\"emoji\" style=\"background-image:url('//telegram.org/img/emoji/40/F09F8EAE.png')\"><b>🎮</b></i></tg-emoji> Военнослужащие 11-го армейского корпуса группировки «Север» <b>используют новый дрон «Мангас» для поражения укрытий и личного состава ВСУ</b>, а также для доставки продовольствия и боеприпасов нашим парням на передний край.<br/><br/><tg-emoji emoji-id=\"5449682610877918293\"><i class=\"emoji\" style=\"background-image:url('//telegram.org/img/emoji/40/F09F92A5.png')\"><b>💥</b></i></tg-emoji>  В этот раз разведка обнаружила вражеский блиндаж. После выхода аппарата в район цели оператор с помощью тепловизионной камеры <b>обнаружил противника и выполнил точный сброс боевой части</b>.<br/><br/><tg-emoji emoji-id=\"5469788413647416310\"><i class=\"emoji\" style=\"background-image:url('//telegram.org/img/emoji/40/E296B6.png')\"><b>▶️</b></i></tg-emoji>  Инженер-техник расчета БПЛА с позывным «Бульбаш»<b> рассказал о преимуществах нового дрона.</b><br/><br/><i>Служи по контракту в войсках беспилотных систем – управляй дронами. Подробности на сайте </i><a href=\"https://xn--80abdlarjifukdg1ajk8m.xn--p1ai/?utm_source=mil&amp;amp;utm_medium=social&amp;amp;utm_campaign=social\" target=\"_blank\" rel=\"noopener\" onclick=\"return confirm('Open this link?\\n\\n'+this.href);\"><i><u>Беспилотныевойска.рф</u></i></a><i> и по телефону 117(доб.4).</i><br/><br/><a href=\"?q=%23%D0%92%D0%BE%D0%B9%D1%81%D0%BA%D0%B0%D0%91%D0%9F%D0%A1\">#ВойскаБПС</a><br/><tg-emoji emoji-id=\"5269510734265483362\"><i class=\"emoji\" style=\"background-image:url('//telegram.org/img/emoji/40/F09F94B9.png')\"><b>🔹</b></i></tg-emoji> <a href=\"https://max.ru/morf\" target=\"_blank\" rel=\"noopener\" onclick=\"return confirm('Open this link?\\n\\n'+this.href);\">Канал Минобороны России в MAКС – боевая работа 24/7</a>"}},{"type":"Feature","geometry":null,"properties":{"source":"ru_mod","source_name":"Ministry of Defence of Russia","group":"official_ru","id":67443,"posted_utc":"2026-09-18T16:49:46+00:00","link":"https://t.me/mod_russia/67443","text":"Можем мощно, а можем и в игольное ушко пролететь\n🔥 Авиабомбами ФАБ-500 уничтожен пункт временной дислокации 15-й отдельной бригады нацгвардии Украины в Боковом Донецкой Народной Республики.\n💥 Легкими управляемыми ракетами Х-39 ликвидирован пункт управления БПЛА 13-й отдельной бригады нацгвардии Украины в Липцах Харьковской области.\n✈️ Курс на MAКС!","links":["https://max.ru/morf"],"original_html":"<b>Можем мощно, а можем и в игольное ушко пролететь</b><br/><br/><tg-emoji emoji-id=\"5449590921916082144\"><i class=\"emoji\" style=\"background-image:url('//telegram.org/img/emoji/40/F09F94A5.png')\"><b>🔥</b></i></tg-emoji> Авиабомбами ФАБ-500 <b>уничтожен пункт временной дислокации</b> 15-й отдельной бригады нацгвардии Украины в Боковом Донецкой Народной Республики.<br/><br/><tg-emoji emoji-id=\"5449682610877918293\"><i class=\"emoji\" style=\"background-image:url('//telegram.org/img/emoji/40/F09F92A5.png')\"><b>💥</b></i></tg-emoji> Легкими управляемыми ракетами Х-39 <b>ликвидирован пункт управления БПЛА</b> 13-й отдельной бригады нацгвардии Украины в Липцах Харьковской области.<br/><br/><tg-emoji emoji-id=\"5449403034276751727\"><i class=\"emoji\" style=\"background-image:url('//telegram.org/img/emoji/40/E29C88.png')\"><b>✈️</b></i></tg-emoji> <a href=\"https://max.ru/morf\" target=\"_blank\" rel=\"noopener\" onclick=\"return confirm('Open this link?\\n\\n'+this.href);\">Курс на MAКС&#33;</a>"}},{"type":"Feature","geometry":null,"properties":{"source":"ru_mod","source_name":"Ministry of Defence of Russia","group":"official_ru","id":67444,"posted_utc":"2026-09-18T17:17:27+00:00","link":"https://t.me/mod_russia/67444","text":"В преддверии Дня оружейника Владимир Путин вручил государственные награды работникам отечественного оборонно-промышленного комплекса и поздравил их с профессиональным праздником\nХочу поблагодарить российских оружейников за инициативу и новаторство, за серьёзный, напряжённый, а подчас просто героический труд, без всякого преувеличения. Вы грамотно и оперативно решаете сложные, нестандартные задачи, активно модернизируете производство, трудитесь в несколько смен, сверхурочно, регулярно выезжаете на передовую и изучаете применение своей продукции в боевых условиях, чтобы совершенствовать её характеристики.\nПодробнее – на сайте Кремля.","links":["http://kremlin.ru/events/president/news/80789"],"original_html":"<b>В преддверии Дня оружейника Владимир Путин вручил государственные награды работникам отечественного оборонно-промышленного комплекса и поздравил их с профессиональным праздником</b><br/>&nbsp;<br/><blockquote><i>Хочу поблагодарить российских оружейников за инициативу и новаторство, за серьёзный, напряжённый, а подчас просто героический труд, без всякого преувеличения. Вы грамотно и оперативно решаете сложные, нестандартные задачи, активно модернизируете производство, трудитесь в несколько смен, сверхурочно, регулярно выезжаете на передовую и изучаете применение своей продукции в боевых условиях, чтобы совершенствовать её характеристики.</i></blockquote><br/><br/>Подробнее – на <a href=\"http://kremlin.ru/events/president/news/80789\" target=\"_blank\" rel=\"noopener\" onclick=\"return confirm('Open this link?\\n\\n'+this.href);\">сайте Кремля</a>."}}]}