{"type":"FeatureCollection","features":[{"type":"Feature","geometry":null,"properties":{"source":"ru_mod","source_name":"Ministry of Defence of Russia","group":"official_ru","id":67466,"posted_utc":"2026-09-19T10:32:33+00:00","link":"https://t.me/mod_russia/67466","text":"Ротация отменяется🫸\nРасчеты ударных дронов Новороссийских десантников сорвали ротацию и подвоз провизии противника в Запорожской области.\n#ВойскаБПС\n💬 Канал Минобороны России в MAКС – только для своих!","links":["https://max.ru/morf"],"original_html":"<b>Ротация отменяется</b><i class=\"emoji\" style=\"background-image:url('//telegram.org/img/emoji/40/F09FABB8.png')\"><b>🫸</b></i> <br/><br/>Расчеты ударных дронов Новороссийских десантников <b>сорвали ротацию и подвоз провизии противника</b> в Запорожской области.<br/><br/><a href=\"?q=%23%D0%92%D0%BE%D0%B9%D1%81%D0%BA%D0%B0%D0%91%D0%9F%D0%A1\">#ВойскаБПС</a><br/><tg-emoji emoji-id=\"5447486370761176298\"><i class=\"emoji\" style=\"background-image:url('//telegram.org/img/emoji/40/F09F92AC.png')\"><b>💬</b></i></tg-emoji> <a href=\"https://max.ru/morf\" target=\"_blank\" rel=\"noopener\" onclick=\"return confirm('Open this link?\\n\\n'+this.href);\">Канал Минобороны России в MAКС – только для своих&#33;</a>"}},{"type":"Feature","geometry":null,"properties":{"source":"ru_mod","source_name":"Ministry of Defence of Russia","group":"official_ru","id":67467,"posted_utc":"2026-09-19T12:22:23+00:00","link":"https://t.me/mod_russia/67467","text":"Министр обороны РФ Андрей Белоусов принял участие в голосовании на выборах в Государственную Думу Российской Федерации.\n🔹 Минобороны России","links":["https://max.ru/morf"],"original_html":"Министр обороны РФ Андрей Белоусов принял участие в голосовании на выборах в Государственную Думу Российской Федерации.<br/><br/><tg-emoji emoji-id=\"5269510734265483362\"><i class=\"emoji\" style=\"background-image:url('//telegram.org/img/emoji/40/F09F94B9.png')\"><b>🔹</b></i></tg-emoji> <a href=\"https://max.ru/morf\" target=\"_blank\" rel=\"noopener\" onclick=\"return confirm('Open this link?\\n\\n'+this.href);\">Минобороны России</a>"}},{"type":"Feature","geometry":null,"properties":{"source":"ru_mod","source_name":"Ministry of Defence of Russia","group":"official_ru","id":67468,"posted_utc":"2026-09-19T13:23:54+00:00","link":"https://t.me/mod_russia/67468","text":"💥 Герани продолжают свой набег\nНа этот раз от «Гераней» не спрятались две радиолокационные станции 35Д6 и П-18 в Харьковской области, а в Николаевской области – стартовый командный пункт противника на аэродроме Вознесенск.\n#ВойскаБПС\n🔹 Канал Минобороны России в MAКС – боевая работа 24/7","links":["https://t.me/mod_russia/67459","https://max.ru/morf"],"original_html":"<tg-emoji emoji-id=\"5449682610877918293\"><i class=\"emoji\" style=\"background-image:url('//telegram.org/img/emoji/40/F09F92A5.png')\"><b>💥</b></i></tg-emoji> <b>Герани </b><a href=\"https://t.me/mod_russia/67459\" target=\"_blank\" rel=\"noopener\" onclick=\"return confirm('Open this link?\\n\\n'+this.href);\"><b>продолжают</b></a><b> свой набег</b><br/><br/>На этот раз от «Гераней» не спрятались две радиолокационные станции 35Д6 и П-18 в Харьковской области, а в Николаевской области – стартовый командный пункт противника на аэродроме Вознесенск.<br/><br/><a href=\"?q=%23%D0%92%D0%BE%D0%B9%D1%81%D0%BA%D0%B0%D0%91%D0%9F%D0%A1\">#ВойскаБПС</a><br/><tg-emoji emoji-id=\"5269510734265483362\"><i class=\"emoji\" style=\"background-image:url('//telegram.org/img/emoji/40/F09F94B9.png')\"><b>🔹</b></i></tg-emoji> <a href=\"https://max.ru/morf\" target=\"_blank\" rel=\"noopener\" onclick=\"return confirm('Open this link?\\n\\n'+this.href);\">Канал Минобороны России в MAКС – боевая работа 24/7</a>"}},{"type":"Feature","geometry":null,"properties":{"source":"ru_mod","source_name":"Ministry of Defence of Russia","group":"official_ru","id":67469,"posted_utc":"2026-09-19T14:24:34+00:00","link":"https://t.me/mod_russia/67469","text":"«Порхай как бабочка. Жаль как пчела!»\nТвоя сила – интеллект. Твое оружие – джойстик. Твоя миссия – защита страны. Твоя команда – войска БПС.\nПолетели с нами! Вместе – победим. Подробности на сайте Беспилотныевойска.рф и по телефону 117(доб.4).\n🔹 MAКС – территория СВОих","links":["https://xn--80abdlarjifukdg1ajk8m.xn--p1ai/?utm_source=mil&utm_medium=social&utm_campaign=social","https://max.ru/morf"],"original_html":"«<b>Порхай как бабочка</b>. <b>Жаль как пчела&#33;»</b><br/><br/><b>Твоя сила – интеллект. Твое оружие – джойстик. Твоя миссия – защита страны. Твоя команда – войска БПС. </b><br/><br/>Полетели с нами&#33; Вместе – победим. Подробности на сайте <a href=\"https://xn--80abdlarjifukdg1ajk8m.xn--p1ai/?utm_source=mil&amp;amp;utm_medium=social&amp;amp;utm_campaign=social\" target=\"_blank\" rel=\"noopener\" onclick=\"return confirm('Open this link?\\n\\n'+this.href);\"><u>Беспилотныевойска.рф</u></a> и по телефону 117(доб.4).<br/><br/><tg-emoji emoji-id=\"5269510734265483362\"><i class=\"emoji\" style=\"background-image:url('//telegram.org/img/emoji/40/F09F94B9.png')\"><b>🔹</b></i></tg-emoji> <a href=\"https://max.ru/morf\" target=\"_blank\" rel=\"noopener\" onclick=\"return confirm('Open this link?\\n\\n'+this.href);\">MAКС – территория СВОих</a>"}},{"type":"Feature","geometry":null,"properties":{"source":"ru_mod","source_name":"Ministry of Defence of Russia","group":"official_ru","id":67475,"posted_utc":"2026-09-19T15:32:18+00:00","link":"https://t.me/mod_russia/67475","text":"❗️ В течение дня Вооруженными Силами Российской Федерации продолжено нанесение ударов беспилотными летательными аппаратами по портам Украины и морским судам, используемым в интересах ВСУ.\n💥  В результате ударов в порту Черноморск Одесской области поражено морское судно типа «танкер», доставившее горюче-смазочные материалы для ВСУ.\n🔹 Минобороны России","links":["https://max.ru/morf"],"original_html":"<tg-emoji emoji-id=\"5447116342148753425\"><i class=\"emoji\" style=\"background-image:url('//telegram.org/img/emoji/40/E29D97.png')\"><b>❗️</b></i></tg-emoji> <b>В течение дня Вооруженными Силами Российской Федерации продолжено нанесение ударов беспилотными летательными аппаратами по портам Украины и морским судам, используемым в интересах ВСУ.</b><br/><br/><tg-emoji emoji-id=\"5449682610877918293\"><i class=\"emoji\" style=\"background-image:url('//telegram.org/img/emoji/40/F09F92A5.png')\"><b>💥</b></i></tg-emoji>  В результате ударов в порту Черноморск Одесской области поражено морское судно типа «танкер», доставившее горюче-смазочные материалы для ВСУ.<br/><br/><tg-emoji emoji-id=\"5269510734265483362\"><i class=\"emoji\" style=\"background-image:url('//telegram.org/img/emoji/40/F09F94B9.png')\"><b>🔹</b></i></tg-emoji> <a href=\"https://max.ru/morf\" target=\"_blank\" rel=\"noopener\" onclick=\"return confirm('Open this link?\\n\\n'+this.href);\">Минобороны России</a>"}},{"type":"Feature","geometry":null,"properties":{"source":"ru_mod","source_name":"Ministry of Defence of Russia","group":"official_ru","id":67476,"posted_utc":"2026-09-19T15:45:55+00:00","link":"https://t.me/mod_russia/67476","text":"«Мы верим в нашу Победу! Создаём её своими руками».\nСамый большой и тёплый привет своим родным и близким передал лётчик многоцелевого сверхманёвренного истребителя Су-35С по имени Александр.\nКредо боевых лётчиков: действовать с холодным рассудком, без паники и спешки, и всегда добиваться поставленных целей, несмотря на любое сопротивление. «Самое важное — это понимание: ради кого и ради чего мы здесь», — говорит герой.\nРассказываем об участниках СВО в 📲 MAX,  📱 ВКонтакте и в 📱 Дзен","links":["https://max.ru/heroesofZ","https://vk.com/heroes0fz","http://dzen.ru/heroesofz"],"original_html":"<i>«Мы верим в нашу Победу&#33; Создаём её своими руками». </i><br/><br/>Самый большой и тёплый привет своим родным и близким передал лётчик многоцелевого сверхманёвренного истребителя Су-35С по имени <b>Александр</b>.<br/><br/>Кредо боевых лётчиков: действовать с холодным рассудком, без паники и спешки, и всегда добиваться поставленных целей, несмотря на любое сопротивление. <i>«Самое важное — это понимание: ради кого и ради чего мы здесь»</i>, — говорит герой. <br/><br/><i>Рассказываем об участниках СВО в</i> <i><tg-emoji emoji-id=\"5449407131675558756\"><i class=\"emoji\" style=\"background-image:url('//telegram.org/img/emoji/40/F09F93B2.png')\"><b>📲</b></i></tg-emoji></i><i> </i><a href=\"https://max.ru/heroesofZ\" target=\"_blank\" rel=\"noopener\" onclick=\"return confirm('Open this link?\\n\\n'+this.href);\"><i>MAX</i></a>,<i>  </i><i><tg-emoji emoji-id=\"5334853932915114338\"><i class=\"emoji\" style=\"background-image:url('//telegram.org/img/emoji/40/F09F93B1.png')\"><b>📱</b></i></tg-emoji></i><i> </i><a href=\"https://vk.com/heroes0fz\" target=\"_blank\" rel=\"noopener\" onclick=\"return confirm('Open this link?\\n\\n'+this.href);\"><i>ВКонтакте</i></a> <i>и в </i><i><tg-emoji emoji-id=\"5321533581472842536\"><i class=\"emoji\" style=\"background-image:url('//telegram.org/img/emoji/40/F09F93B1.png')\"><b>📱</b></i></tg-emoji></i><i> </i><a href=\"http://dzen.ru/heroesofz\" target=\"_blank\" rel=\"noopener\" onclick=\"return confirm('Open this link?\\n\\n'+this.href);\"><i>Дзен</i></a>"}},{"type":"Feature","geometry":null,"properties":{"source":"ru_mod","source_name":"Ministry of Defence of Russia","group":"official_ru","id":67477,"posted_utc":"2026-09-19T16:02:48+00:00","link":"https://t.me/mod_russia/67477","text":"«Герани» расцвели в тылу врага\nРасчеты БПЛА «Герань-4 сикер» ударили по трем логистическим центрам противника в населенных пунктах Дачное, Усатово в Одесской области и Коммунар в Харьковской области.\n#ВойскаБПС\n🔹 Канал Минобороны России в MAКС – боевая работа 24/7","links":["https://max.ru/morf"],"original_html":"<b>«Герани» расцвели в тылу врага</b><br/><br/>Расчеты БПЛА «Герань-4 сикер» ударили по трем логистическим центрам противника в населенных пунктах Дачное, Усатово в Одесской области и Коммунар в Харьковской области.<br/><br/><a href=\"?q=%23%D0%92%D0%BE%D0%B9%D1%81%D0%BA%D0%B0%D0%91%D0%9F%D0%A1\">#ВойскаБПС</a><br/><tg-emoji emoji-id=\"5269510734265483362\"><i class=\"emoji\" style=\"background-image:url('//telegram.org/img/emoji/40/F09F94B9.png')\"><b>🔹</b></i></tg-emoji> <a href=\"https://max.ru/morf\" target=\"_blank\" rel=\"noopener\" onclick=\"return confirm('Open this link?\\n\\n'+this.href);\">Канал Минобороны России в MAКС – боевая работа 24/7</a>"}},{"type":"Feature","geometry":null,"properties":{"source":"ru_mod","source_name":"Ministry of Defence of Russia","group":"official_ru","id":67478,"posted_utc":"2026-09-19T16:47:53+00:00","link":"https://t.me/mod_russia/67478","text":"«Ломовые» удары 152 калибра\n💥 Артиллеристы «Южной» группировки войск огнем из гаубицы «Мста-Б» разнесли укрытие с живой силой ВСУ.\n📍  Семёновка, Краматорский район\n🔹Курс на MAКС!","links":["https://max.ru/morf"],"original_html":"<b>«Ломовые» удары 152 калибра</b><br/><br/><tg-emoji emoji-id=\"5449682610877918293\"><i class=\"emoji\" style=\"background-image:url('//telegram.org/img/emoji/40/F09F92A5.png')\"><b>💥</b></i></tg-emoji> Артиллеристы «Южной» группировки войск огнем из гаубицы «Мста-Б» <b>разнесли укрытие с живой силой ВСУ.</b><br/><br/><tg-emoji emoji-id=\"5469680584198483528\"><i class=\"emoji\" style=\"background-image:url('//telegram.org/img/emoji/40/F09F938D.png')\"><b>📍</b></i></tg-emoji> <i> Семёновка, Краматорский район<br/><br/></i><i><tg-emoji emoji-id=\"5269510734265483362\"><i class=\"emoji\" style=\"background-image:url('//telegram.org/img/emoji/40/F09F94B9.png')\"><b>🔹</b></i></tg-emoji></i><a href=\"https://max.ru/morf\" target=\"_blank\" rel=\"noopener\" onclick=\"return confirm('Open this link?\\n\\n'+this.href);\">Курс на MAКС&#33;</a>"}},{"type":"Feature","geometry":null,"properties":{"source":"ru_mod","source_name":"Ministry of Defence of Russia","group":"official_ru","id":67479,"posted_utc":"2026-09-19T17:23:57+00:00","link":"https://t.me/mod_russia/67479","text":"⚡ В период с 8.00 мск до 20.00 мск дежурными силами ПВО перехвачены и уничтожены 288 украинских беспилотных летательных аппаратов самолетного типа над территориями Белгородской, Курской, Брянской, Калужской, Орловской, Тульской, Рязанской, Нижегородской, Владимирской областей, Московского региона, Краснодарского края, Республики Крым и над акваторией Черного моря.\n🔹 Минобороны России","links":["https://max.ru/morf"],"original_html":"<i class=\"emoji\" style=\"background-image:url('//telegram.org/img/emoji/40/E29AA1.png')\"><b>⚡</b></i> В период с 8.00 мск до 20.00 мск дежурными силами ПВО <b>перехвачены и уничтожены 288 украинских беспилотных летательных аппаратов самолетного типа</b> над территориями Белгородской, Курской, Брянской, Калужской, Орловской, Тульской, Рязанской, Нижегородской, Владимирской областей, Московского региона, Краснодарского края, Республики Крым и над акваторией Черного моря.<br/><br/><tg-emoji emoji-id=\"5269510734265483362\"><i class=\"emoji\" style=\"background-image:url('//telegram.org/img/emoji/40/F09F94B9.png')\"><b>🔹</b></i></tg-emoji> <a href=\"https://max.ru/morf\" target=\"_blank\" rel=\"noopener\" onclick=\"return confirm('Open this link?\\n\\n'+this.href);\">Минобороны России</a>"}},{"type":"Feature","geometry":null,"properties":{"source":"ru_mod","source_name":"Ministry of Defence of Russia","group":"official_ru","id":67480,"posted_utc":"2026-09-19T17:29:25+00:00","link":"https://t.me/mod_russia/67480","text":"💥  Идем на огненный таран\nОператоры БПЛА-перехватчиков группировки «Запад» очищают небо на Краснолиманском направлении.\n#ВойскаБПС\n▫️ Канал Минобороны России в MAКС – источник мощных новостей","links":["https://max.ru/morf"],"original_html":"<tg-emoji emoji-id=\"5449682610877918293\"><i class=\"emoji\" style=\"background-image:url('//telegram.org/img/emoji/40/F09F92A5.png')\"><b>💥</b></i></tg-emoji>  <b>Идем на огненный таран</b><br/><br/>Операторы БПЛА-перехватчиков группировки «Запад» <b>очищают небо </b>на Краснолиманском направлении.<br/><br/><a href=\"?q=%23%D0%92%D0%BE%D0%B9%D1%81%D0%BA%D0%B0%D0%91%D0%9F%D0%A1\">#ВойскаБПС</a><br/><tg-emoji emoji-id=\"5352532894478793783\"><i class=\"emoji\" style=\"background-image:url('//telegram.org/img/emoji/40/E296AB.png')\"><b>▫️</b></i></tg-emoji> <a href=\"https://max.ru/morf\" target=\"_blank\" rel=\"noopener\" onclick=\"return confirm('Open this link?\\n\\n'+this.href);\">Канал Минобороны России в MAКС – источник мощных новостей</a>"}},{"type":"Feature","geometry":null,"properties":{"source":"ru_mod","source_name":"Ministry of Defence of Russia","group":"official_ru","id":67481,"posted_utc":"2026-09-19T18:03:25+00:00","link":"https://t.me/mod_russia/67481","text":"▫️ Действуем решительно\n#СобытиеДня\n🔹 Курс на MAКС!","links":["https://max.ru/morf"],"original_html":"<tg-emoji emoji-id=\"5352532894478793783\"><i class=\"emoji\" style=\"background-image:url('//telegram.org/img/emoji/40/E296AB.png')\"><b>▫️</b></i></tg-emoji> <b>Действуем решительно</b><br/><br/><a href=\"?q=%23%D0%A1%D0%BE%D0%B1%D1%8B%D1%82%D0%B8%D0%B5%D0%94%D0%BD%D1%8F\">#СобытиеДня</a><br/><tg-emoji emoji-id=\"5269510734265483362\"><i class=\"emoji\" style=\"background-image:url('//telegram.org/img/emoji/40/F09F94B9.png')\"><b>🔹</b></i></tg-emoji> <a href=\"https://max.ru/morf\" target=\"_blank\" rel=\"noopener\" onclick=\"return confirm('Open this link?\\n\\n'+this.href);\">Курс на MAКС&#33;</a>"}},{"type":"Feature","geometry":null,"properties":{"source":"ru_mod","source_name":"Ministry of Defence of Russia","group":"official_ru","id":67482,"posted_utc":"2026-09-19T18:31:08+00:00","link":"https://t.me/mod_russia/67482","text":"📆 Главное за день\n✍️ Делай как я: Министр обороны РФ Андрей Белоусов принял участие в голосовании на выборах в Государственную Думу Российской Федерации.\n🚩 Сегодня +5: освободили населенные пункты Зеленая Диброва в Запорожской области, Марьевка и Гулево в Донецкой Народной Республике, взяли под контроль Лошаково и Комиссарово в Харьковской области.\n🚫 Доставка отменяется: нанесены удары по логистическим центрам и портам Украины, судам и объектам транспортной инфраструктуры, используемым для ВСУ.\n↗️ Наращиваем темпы наступления на всех направлениях: только в сентябре под российский контроль перешло более 670 квадратных километров и 27 населенных пунктов.\n🤝 Боевая задача − спасти людей: штурмовики группировки «Север» эвакуировали мирных жителей из освобожденных населенных пунктов.\n💥 Не даем расслабиться: расчеты дронов Новороссийских десантников сорвали ротацию и подвоз провизии противника.\nРаботаем 24/7\n#ИтогиДня\n🔹 Канал Минобороны России в MAКС – только для своих!","links":["https://t.me/mod_russia/67467","https://t.me/mod_russia/67464","https://t.me/mod_russia/67462","https://t.me/mod_russia/67463","https://t.me/mod_russia/67460","https://t.me/mod_russia/67453","https://t.me/mod_russia/67477","https://t.me/mod_russia/67459","https://t.me/mod_russia/67456","https://t.me/mod_russia/67451","https://t.me/mod_russia/67466","https://max.ru/morf"],"original_html":"<tg-emoji emoji-id=\"5472282252048104170\"><i class=\"emoji\" style=\"background-image:url('//telegram.org/img/emoji/40/F09F9386.png')\"><b>📆</b></i></tg-emoji> <b>Главное за день</b><br/><br/><i class=\"emoji\" style=\"background-image:url('//telegram.org/img/emoji/40/E29C8D.png')\"><b>✍️</b></i> <b>Делай как я:</b> Министр обороны РФ Андрей Белоусов <a href=\"https://t.me/mod_russia/67467\" target=\"_blank\" rel=\"noopener\" onclick=\"return confirm('Open this link?\\n\\n'+this.href);\">принял участие</a> в голосовании на выборах в Государственную Думу Российской Федерации.<br/><br/><tg-emoji emoji-id=\"5447466081335670917\"><i class=\"emoji\" style=\"background-image:url('//telegram.org/img/emoji/40/F09F9AA9.png')\"><b>🚩</b></i></tg-emoji> <b>Сегодня +5: </b>освободили населенные пункты <a href=\"https://t.me/mod_russia/67464\" target=\"_blank\" rel=\"noopener\" onclick=\"return confirm('Open this link?\\n\\n'+this.href);\">Зеленая Диброва</a> в Запорожской области, <a href=\"https://t.me/mod_russia/67462\" target=\"_blank\" rel=\"noopener\" onclick=\"return confirm('Open this link?\\n\\n'+this.href);\">Марьевка</a> и <a href=\"https://t.me/mod_russia/67463\" target=\"_blank\" rel=\"noopener\" onclick=\"return confirm('Open this link?\\n\\n'+this.href);\">Гулево</a> в Донецкой Народной Республике, взяли под контроль <a href=\"https://t.me/mod_russia/67460\" target=\"_blank\" rel=\"noopener\" onclick=\"return confirm('Open this link?\\n\\n'+this.href);\">Лошаково и Комиссарово</a> в Харьковской области. <br/><br/><i class=\"emoji\" style=\"background-image:url('//telegram.org/img/emoji/40/F09F9AAB.png')\"><b>🚫</b></i> <b>Доставка отменяется:</b> <a href=\"https://t.me/mod_russia/67453\" target=\"_blank\" rel=\"noopener\" onclick=\"return confirm('Open this link?\\n\\n'+this.href);\">нанесены удары</a> по <a href=\"https://t.me/mod_russia/67477\" target=\"_blank\" rel=\"noopener\" onclick=\"return confirm('Open this link?\\n\\n'+this.href);\">логистическим центрам</a> и портам Украины, <a href=\"https://t.me/mod_russia/67459\" target=\"_blank\" rel=\"noopener\" onclick=\"return confirm('Open this link?\\n\\n'+this.href);\">судам</a> и объектам транспортной инфраструктуры, используемым для ВСУ. <br/><br/><tg-emoji emoji-id=\"5352838429862296415\"><i class=\"emoji\" style=\"background-image:url('//telegram.org/img/emoji/40/E28697.png')\"><b>↗️</b></i></tg-emoji> <b>Наращиваем темпы наступления на всех направлениях:</b> только в сентябре под российский контроль <a href=\"https://t.me/mod_russia/67456\" target=\"_blank\" rel=\"noopener\" onclick=\"return confirm('Open this link?\\n\\n'+this.href);\">перешло</a> более 670 квадратных километров и 27 населенных пунктов.<br/><br/><tg-emoji emoji-id=\"5447324252925620983\"><i class=\"emoji\" style=\"background-image:url('//telegram.org/img/emoji/40/F09FA49D.png')\"><b>🤝</b></i></tg-emoji> <b>Боевая задача − спасти людей:</b> штурмовики группировки «Север» <a href=\"https://t.me/mod_russia/67451\" target=\"_blank\" rel=\"noopener\" onclick=\"return confirm('Open this link?\\n\\n'+this.href);\">эвакуировали</a> мирных жителей из освобожденных населенных пунктов.<br/><br/><tg-emoji emoji-id=\"5449682610877918293\"><i class=\"emoji\" style=\"background-image:url('//telegram.org/img/emoji/40/F09F92A5.png')\"><b>💥</b></i></tg-emoji> <b>Не даем расслабиться:</b> расчеты дронов Новороссийских десантников <a href=\"https://t.me/mod_russia/67466\" target=\"_blank\" rel=\"noopener\" onclick=\"return confirm('Open this link?\\n\\n'+this.href);\">сорвали</a> ротацию и подвоз провизии противника.<br/><br/><b>Работаем 24/7</b><br/><br/><a href=\"?q=%23%D0%98%D1%82%D0%BE%D0%B3%D0%B8%D0%94%D0%BD%D1%8F\">#ИтогиДня</a><br/><tg-emoji emoji-id=\"5269510734265483362\"><i class=\"emoji\" style=\"background-image:url('//telegram.org/img/emoji/40/F09F94B9.png')\"><b>🔹</b></i></tg-emoji> <a href=\"https://max.ru/morf\" target=\"_blank\" rel=\"noopener\" onclick=\"return confirm('Open this link?\\n\\n'+this.href);\">Канал Минобороны России в MAКС – только для своих&#33;</a>"}},{"type":"Feature","geometry":null,"properties":{"source":"ru_mod","source_name":"Ministry of Defence of Russia","group":"official_ru","id":67483,"posted_utc":"2026-09-19T19:01:38+00:00","link":"https://t.me/mod_russia/67483","text":"Здесь живем по законам доблести ▫️\nРаботаем, спокойной ночи и доброго утра ❤️\n🔹 MAКС – территория СВОих","links":["https://max.ru/morf"],"original_html":"<b>Здесь живем по законам доблести </b><tg-emoji emoji-id=\"5447420966999193906\"><i class=\"emoji\" style=\"background-image:url('//telegram.org/img/emoji/40/E296AB.png')\"><b>▫️</b></i></tg-emoji><br/><br/><i>Работаем, спокойной ночи и доброго утра </i><i class=\"emoji\" style=\"background-image:url('//telegram.org/img/emoji/40/E29DA4.png')\"><b>❤️</b></i> <br/><br/><tg-emoji emoji-id=\"5269510734265483362\"><i class=\"emoji\" style=\"background-image:url('//telegram.org/img/emoji/40/F09F94B9.png')\"><b>🔹</b></i></tg-emoji> <a href=\"https://max.ru/morf\" target=\"_blank\" rel=\"noopener\" onclick=\"return confirm('Open this link?\\n\\n'+this.href);\">MAКС – территория СВОих</a>"}},{"type":"Feature","geometry":null,"properties":{"source":"ru_mod","source_name":"Ministry of Defence of Russia","group":"official_ru","id":67451,"posted_utc":"2026-09-19T02:24:02+00:00","link":"https://t.me/mod_russia/67451","text":"Боевая задача − спасти людей\n📍 Харьковская область\n🤝 Штурмовики 11-го танкового и 79-го мотострелкового полков группировки «Север» эвакуируют мирных жителей из освобожденных населенных пунктов.\n➡️ Выводить людей из-под обстрелов приходится буквально под руку, пряча от вражеских беспилотников и продумывая каждый следующий шаг.\n▫️ Благодаря мужеству и хладнокровию бойцов опасный участок маршрута остался позади.\n✅ Задача выполнена. Люди в безопасности – их жизни ничего не угрожает.\n🔹 Канал Минобороны России в MAКС – только для своих!","links":["https://max.ru/morf"],"original_html":"<b>Боевая задача − спасти людей</b><br/><br/><tg-emoji emoji-id=\"5449396879588614682\"><i class=\"emoji\" style=\"background-image:url('//telegram.org/img/emoji/40/F09F938D.png')\"><b>📍</b></i></tg-emoji> <i>Харьковская область</i><br/><br/><tg-emoji emoji-id=\"5447324252925620983\"><i class=\"emoji\" style=\"background-image:url('//telegram.org/img/emoji/40/F09FA49D.png')\"><b>🤝</b></i></tg-emoji> Штурмовики 11-го танкового и 79-го мотострелкового полков группировки «Север» <b>эвакуируют мирных жителей из освобожденных населенных пунктов</b>.<br/><br/><tg-emoji emoji-id=\"5469902676957357453\"><i class=\"emoji\" style=\"background-image:url('//telegram.org/img/emoji/40/E29EA1.png')\"><b>➡️</b></i></tg-emoji> <b>Выводить людей из-под обстрелов приходится буквально под руку</b>, пряча от вражеских беспилотников и продумывая каждый следующий шаг.<br/><br/><tg-emoji emoji-id=\"5352532894478793783\"><i class=\"emoji\" style=\"background-image:url('//telegram.org/img/emoji/40/E296AB.png')\"><b>▫️</b></i></tg-emoji> Благодаря мужеству и хладнокровию бойцов <b>опасный участок маршрута остался позади</b>.<br/><br/><tg-emoji emoji-id=\"5469909785128234267\"><i class=\"emoji\" style=\"background-image:url('//telegram.org/img/emoji/40/E29C85.png')\"><b>✅</b></i></tg-emoji> Задача выполнена. <b>Люди в безопасности – их жизни ничего не угрожает.</b><br/><br/><tg-emoji emoji-id=\"5269510734265483362\"><i class=\"emoji\" style=\"background-image:url('//telegram.org/img/emoji/40/F09F94B9.png')\"><b>🔹</b></i></tg-emoji> <a href=\"https://max.ru/morf\" target=\"_blank\" rel=\"noopener\" onclick=\"return confirm('Open this link?\\n\\n'+this.href);\">Канал Минобороны России в MAКС – только для своих&#33;</a>"}},{"type":"Feature","geometry":null,"properties":{"source":"ru_mod","source_name":"Ministry of Defence of Russia","group":"official_ru","id":67452,"posted_utc":"2026-09-19T04:06:01+00:00","link":"https://t.me/mod_russia/67452","text":"«Скат» доводит дело до конца\n🎯 Расчеты разведывательных БПЛА «Скат-350М» навели артиллеристов на позиции противника на Краснолиманском направлении. Дроноводы корректировали огонь «Гиацинта» до полного уничтожения цели.\n#ВойскаБПС\n🔹 MAКС – территория СВОих","links":["https://max.ru/morf"],"original_html":"<b>«Скат» доводит дело до конца</b><br/><br/><tg-emoji emoji-id=\"5467558728620341717\"><i class=\"emoji\" style=\"background-image:url('//telegram.org/img/emoji/40/F09F8EAF.png')\"><b>🎯</b></i></tg-emoji> Расчеты разведывательных БПЛА «Скат-350М» <b>навели артиллеристов на позиции противника</b> на Краснолиманском направлении. Дроноводы корректировали огонь «Гиацинта» до полного уничтожения цели.<br/><br/><a href=\"?q=%23%D0%92%D0%BE%D0%B9%D1%81%D0%BA%D0%B0%D0%91%D0%9F%D0%A1\">#ВойскаБПС</a><br/><tg-emoji emoji-id=\"5269510734265483362\"><i class=\"emoji\" style=\"background-image:url('//telegram.org/img/emoji/40/F09F94B9.png')\"><b>🔹</b></i></tg-emoji> <a href=\"https://max.ru/morf\" target=\"_blank\" rel=\"noopener\" onclick=\"return confirm('Open this link?\\n\\n'+this.href);\">MAКС – территория СВОих</a>"}},{"type":"Feature","geometry":null,"properties":{"source":"ru_mod","source_name":"Ministry of Defence of Russia","group":"official_ru","id":67453,"posted_utc":"2026-09-19T05:57:51+00:00","link":"https://t.me/mod_russia/67453","text":"❗️ Сегодня ночью Вооруженными Силами Российской Федерации нанесены удары беспилотными летательными аппаратами по логистическим центрами и портам Украины, судам, задействованным в интересах ВСУ, а также объектам транспортной инфраструктуры.\nВ результате удара поражены:\n📍 в Киевской области:\n▫️ таможенно-логистический центр «Копылов Логистик Парк» в н.п. Копылов (41 км зап. Киева), используемый для хранения и распределения военных грузов, поступающих на Украину из европейских стран.\n📍 в Одесской области:\n▫️ понтонная переправа через р.Днестр, используемая для транзита военных грузов, доставляемых на Украину из Румынии и порта Измаил;\n▫️ в порту Черноморск − морское судно типа «сухогруз», доставившее грузы военного назначения.\n💥 Кроме того, на переходе морем поражены два морских судна типа «сухогруз», доставлявшие в порт Одесса грузы, предназначенные для обеспечения ВСУ.\n🔹 Минобороны России","links":["https://max.ru/morf"],"original_html":"<tg-emoji emoji-id=\"5447116342148753425\"><i class=\"emoji\" style=\"background-image:url('//telegram.org/img/emoji/40/E29D97.png')\"><b>❗️</b></i></tg-emoji> Сегодня ночью Вооруженными Силами Российской Федерации <b>нанесены удары беспилотными летательными аппаратами по логистическим центрами и портам Украины, судам, задействованным в интересах ВСУ, а также объектам транспортной инфраструктуры.</b><br/><br/>В результате удара поражены:<br/><br/><tg-emoji emoji-id=\"5449396879588614682\"><i class=\"emoji\" style=\"background-image:url('//telegram.org/img/emoji/40/F09F938D.png')\"><b>📍</b></i></tg-emoji> в Киевской области:<br/><br/><tg-emoji emoji-id=\"5469903849483431273\"><i class=\"emoji\" style=\"background-image:url('//telegram.org/img/emoji/40/E296AB.png')\"><b>▫️</b></i></tg-emoji> <b>таможенно-логистический центр «Копылов Логистик Парк»</b> в н.п. Копылов (41 км зап. Киева), используемый для хранения и распределения военных грузов, поступающих на Украину из европейских стран.<br/><br/><tg-emoji emoji-id=\"5449396879588614682\"><i class=\"emoji\" style=\"background-image:url('//telegram.org/img/emoji/40/F09F938D.png')\"><b>📍</b></i></tg-emoji> в Одесской области:<br/><br/><tg-emoji emoji-id=\"5469903849483431273\"><i class=\"emoji\" style=\"background-image:url('//telegram.org/img/emoji/40/E296AB.png')\"><b>▫️</b></i></tg-emoji> <b>понтонная переправа через р.Днестр,</b> используемая для транзита военных грузов, доставляемых на Украину из Румынии и порта Измаил;<br/><tg-emoji emoji-id=\"5469903849483431273\"><i class=\"emoji\" style=\"background-image:url('//telegram.org/img/emoji/40/E296AB.png')\"><b>▫️</b></i></tg-emoji> в порту Черноморск − <b>морское судно типа «сухогруз»,</b> доставившее грузы военного назначения.<br/><br/><tg-emoji emoji-id=\"5449682610877918293\"><i class=\"emoji\" style=\"background-image:url('//telegram.org/img/emoji/40/F09F92A5.png')\"><b>💥</b></i></tg-emoji> Кроме того, на переходе морем <b>поражены два морских судна типа «сухогруз»,</b> доставлявшие в порт Одесса грузы, предназначенные для обеспечения ВСУ.<br/><br/><tg-emoji emoji-id=\"5269510734265483362\"><i class=\"emoji\" style=\"background-image:url('//telegram.org/img/emoji/40/F09F94B9.png')\"><b>🔹</b></i></tg-emoji> <a href=\"https://max.ru/morf\" target=\"_blank\" rel=\"noopener\" onclick=\"return confirm('Open this link?\\n\\n'+this.href);\">Минобороны России</a>"}},{"type":"Feature","geometry":null,"properties":{"source":"ru_mod","source_name":"Ministry of Defence of Russia","group":"official_ru","id":67454,"posted_utc":"2026-09-19T06:15:37+00:00","link":"https://t.me/mod_russia/67454","text":"⚡️ В течение прошедшей ночи дежурными силами ПВО перехвачены и уничтожены 344 беспилотных летательных аппарата самолетного типа над территориями Ленинградской, Новгородской, Брянской, Курской, Белгородской, Орловской, Калужской, Тульской, Рязанской, Липецкой, Владимирской, Ростовской областей, Краснодарского края, Московского региона, Ямало-Ненецкого автономного округа, Республики Дагестан и над акваторией Черного моря.\n🔹 Канал Минобороны России в MAКС – боевая работа 24/7","links":["https://max.ru/morf"],"original_html":"<i class=\"emoji\" style=\"background-image:url('//telegram.org/img/emoji/40/E29AA1.png')\"><b>⚡️</b></i> В течение прошедшей ночи дежурными силами ПВО <b>перехвачены и уничтожены 344 беспилотных летательных аппарата самолетного типа</b> над территориями Ленинградской, Новгородской, Брянской, Курской, Белгородской, Орловской, Калужской, Тульской, Рязанской, Липецкой, Владимирской, Ростовской областей, Краснодарского края, Московского региона, Ямало-Ненецкого автономного округа, Республики Дагестан и над акваторией Черного моря.<br/><br/><tg-emoji emoji-id=\"5269510734265483362\"><i class=\"emoji\" style=\"background-image:url('//telegram.org/img/emoji/40/F09F94B9.png')\"><b>🔹</b></i></tg-emoji> <a href=\"https://max.ru/morf\" target=\"_blank\" rel=\"noopener\" onclick=\"return confirm('Open this link?\\n\\n'+this.href);\">Канал Минобороны России в MAКС – боевая работа 24/7</a>"}},{"type":"Feature","geometry":null,"properties":{"source":"ru_mod","source_name":"Ministry of Defence of Russia","group":"official_ru","id":67455,"posted_utc":"2026-09-19T06:44:14+00:00","link":"https://t.me/mod_russia/67455","text":"❗️ Сегодня ночью Вооруженными Силами Российской Федерации нанесены удары беспилотными летательными аппаратами по логистическим центрами и портам Украины, судам, задействованным в интересах ВСУ, а также объектам транспортной инфраструктуры.  В результате удара…","links":[],"original_html":"<tg-emoji emoji-id=\"5447116342148753425\"><i class=\"emoji\" style=\"background-image:url('//telegram.org/img/emoji/40/E29D97.png')\"><b>❗️</b></i></tg-emoji> Сегодня ночью Вооруженными Силами Российской Федерации нанесены удары беспилотными летательными аппаратами по логистическим центрами и портам Украины, судам, задействованным в интересах ВСУ, а также объектам транспортной инфраструктуры.  В результате удара…"}},{"type":"Feature","geometry":null,"properties":{"source":"ru_mod","source_name":"Ministry of Defence of Russia","group":"official_ru","id":67456,"posted_utc":"2026-09-19T06:55:58+00:00","link":"https://t.me/mod_russia/67456","text":"▫️ Наращиваем темпы наступления на всех направлениях\n📊  С начала текущего года освобождено свыше 5300 квадратных километров территории и более 220 населенных пунктов. При этом только в сентябре под российский контроль перешло более 670 квадратных километров и 27 населенных пунктов.\n📍 Группировка войск «Север» успешно продолжает создание полосы безопасности в приграничных районах Сумской и Харьковской областей.\n💥  Продолжается уничтожение формирований ВСУ, окруженных в северо-восточной части Харьковской области. С 5 сентября территория, контролируемая противником, сокращена на 152 кв. км. Под контроль взяты девять населенных пунктов (Березники, Озерное, Долгенькое, Зарубинка, Черняков, Широкое, Шевченково, Ольховатка и Малая Волчья). Потери противника составили около 700 военнослужащих.\n↗️ Активно развивается наступление в Запорожской области. Соединения и воинские части группировок «Восток» и «Днепр» продвигаются на широком фронте в направлении Запорожья. С начала сентября ими освобождены Червоная Криница, Новопавловка, Новоандреевка и Розовка. Ведутся бои в центральных кварталах города Орехов.\n💥 Наиболее интенсивные боевые действия идут на подступах к Краматорско-Славянской агломерации.\nСоединения и воинские части Южной группировки войск и группировки войск «Центр» преодолевают укрепленные рубежи обороны противника на ближних подступах к Славянску, Краматорску и Дружковке. Ведутся уличные бои центральном районе Доброполья.\n👉 На фоне высоких темпов продвижения российских войск на всех направлениях киевские власти в очередной раз пытаются убедить своих западных кураторов в способности ВСУ оказывать сопротивление нашей армии в зоне ответственности группировки войск «Запад». Для демонстрации этого командование ВСУ ввело в бой наиболее подготовленные подразделения и националистические формирования из состава 3-й отдельной штурмовой бригады ВСУ.\n▫️ При этом с помощью западных СМИ и военных экспертов киевский режим ведет агрессивную информационную кампанию, стремясь выдать действия ВСУ за крупные успехи на поле боя и перехват инициативы у российских войск.\n❗️ В действительности малые штурмовые группы противника, неся значительные потери в личном составе и пытаясь проникать через наши боевые порядки вблизи линии боевого соприкосновения, не имеют успеха. Подразделения группировки войск «Запад» пресекают вылазки противника, наносят ему огневое поражение и не позволяют перейти к дальнейшим действиям.\n🚩  Более того, подразделения группировки ведут успешные боевые действия по освобождению населенных пунктов Червоный Оскол, Крымки и Студенок. В Красном Лимане и Святогорске продолжается зачистка жилых кварталов от одиночных военнослужащих ВСУ.\n🔹 Канал Минобороны России в MAКС – боевая работа 24/7","links":["https://max.ru/morf"],"original_html":"<tg-emoji emoji-id=\"5352532894478793783\"><i class=\"emoji\" style=\"background-image:url('//telegram.org/img/emoji/40/E296AB.png')\"><b>▫️</b></i></tg-emoji> <b>Наращиваем темпы наступления на всех направлениях<br/><br/></b><b><tg-emoji emoji-id=\"5471887681992551719\"><i class=\"emoji\" style=\"background-image:url('//telegram.org/img/emoji/40/F09F938A.png')\"><b>📊</b></i></tg-emoji></b>  С начала текущего года освобождено свыше 5300 квадратных километров территории и более 220 населенных пунктов. При этом <b>только в сентябре под российский контроль перешло более 670 квадратных километров и 27 населенных пунктов.<br/><br/></b><b><tg-emoji emoji-id=\"5469680584198483528\"><i class=\"emoji\" style=\"background-image:url('//telegram.org/img/emoji/40/F09F938D.png')\"><b>📍</b></i></tg-emoji></b> <b>Группировка войск «Север» у</b>спешно продолжает создание полосы безопасности в приграничных районах Сумской и Харьковской областей.<br/><br/><tg-emoji emoji-id=\"5449682610877918293\"><i class=\"emoji\" style=\"background-image:url('//telegram.org/img/emoji/40/F09F92A5.png')\"><b>💥</b></i></tg-emoji>  Продолжается уничтожение формирований ВСУ, окруженных в северо-восточной части Харьковской области. С 5 сентября территория, контролируемая противником, сокращена на 152 кв. км. Под контроль взяты девять населенных пунктов (Березники, Озерное, Долгенькое, Зарубинка, Черняков, Широкое, Шевченково, Ольховатка и Малая Волчья). Потери противника составили около 700 военнослужащих.<br/><br/><tg-emoji emoji-id=\"5352838429862296415\"><i class=\"emoji\" style=\"background-image:url('//telegram.org/img/emoji/40/E28697.png')\"><b>↗️</b></i></tg-emoji> Активно развивается наступление в Запорожской области. Соединения и воинские части <b>группировок «Восток» и «Днепр» продвигаются на широком фронте в направлении Запорожья. </b>С начала сентября ими освобождены Червоная Криница, Новопавловка, Новоандреевка и Розовка. Ведутся бои в центральных кварталах города Орехов.<br/><br/><tg-emoji emoji-id=\"5449682610877918293\"><i class=\"emoji\" style=\"background-image:url('//telegram.org/img/emoji/40/F09F92A5.png')\"><b>💥</b></i></tg-emoji> Наиболее интенсивные боевые действия идут на подступах к Краматорско-Славянской агломерации.<br/>Соединения и воинские части <b>Южной группировки войск и группировки войск «Центр» п</b>реодолевают укрепленные рубежи обороны противника на ближних подступах к Славянску, Краматорску и Дружковке. Ведутся уличные бои центральном районе Доброполья.<br/><br/><i class=\"emoji\" style=\"background-image:url('//telegram.org/img/emoji/40/F09F9189.png')\"><b>👉</b></i><b> </b>На фоне высоких темпов продвижения российских войск на всех направлениях <b>киевские власти в очередной раз пытаются убедить своих западных кураторов в способности ВСУ оказывать сопротивление нашей армии в</b> зоне ответственности группировки войск «Запад». Для демонстрации этого <b>командование ВСУ ввело в бой наиболее подготовленные подразделения и националистические формирования и</b>з состава 3-й отдельной штурмовой бригады ВСУ.<br/><br/><tg-emoji emoji-id=\"5469903849483431273\"><i class=\"emoji\" style=\"background-image:url('//telegram.org/img/emoji/40/E296AB.png')\"><b>▫️</b></i></tg-emoji> При этом с помощью западных СМИ и военных экспертов <b>киевский режим ведет агрессивную информационную кампанию, </b>стремясь выдать действия ВСУ за крупные успехи на поле боя и перехват инициативы у российских войск.<br/><br/><tg-emoji emoji-id=\"5470085453585608671\"><i class=\"emoji\" style=\"background-image:url('//telegram.org/img/emoji/40/E29D97.png')\"><b>❗️</b></i></tg-emoji> В действительности ма<b>лые штурмовые группы противника, неся значительные потери в личном составе и пытаясь проникать через наши боевые порядки вблизи линии боевого соприкосновения, не имеют успеха. </b>Подразделения группировки войск «Запад» пресекают вылазки противника, наносят ему огневое поражение и не позволяют перейти к дальнейшим действиям.<br/><br/><tg-emoji emoji-id=\"5447466081335670917\"><i class=\"emoji\" style=\"background-image:url('//telegram.org/img/emoji/40/F09F9AA9.png')\"><b>🚩</b></i></tg-emoji>  Более того, <b>подразделения группировки ведут успешные боевые действия по освобождению населенных пунктов Червоный Оскол, Крымки и Студенок. </b>В Красном Лимане и Святогорске продолжается зачистка жилых кварталов от одиночных военнослужащих ВСУ.<br/><br/><tg-emoji emoji-id=\"5269510734265483362\"><i class=\"emoji\" style=\"background-image:url('//telegram.org/img/emoji/40/F09F94B9.png')\"><b>🔹</b></i></tg-emoji> <a href=\"https://max.ru/morf\" target=\"_blank\" rel=\"noopener\" onclick=\"return confirm('Open this link?\\n\\n'+this.href);\">Канал Минобороны России в MAКС – боевая работа 24/7</a>"}},{"type":"Feature","geometry":null,"properties":{"source":"ru_mod","source_name":"Ministry of Defence of Russia","group":"official_ru","id":67458,"posted_utc":"2026-09-19T08:17:20+00:00","link":"https://t.me/mod_russia/67458","text":"На передке пересдач не бывает\n▫️ Бойцы 35-й гвардейской отдельной мотострелковой бригады группировки «Центр» оттачивают навыки на полигоне.\n😎  Минимум теории – максимум практики: преодоление «открыток» и противодействие дронам, зачистка лесополос и штурм опорников.\nПарни – красавцы, так держать ▫️\n🔹 Канал Минобороны России в MAКС – боевая работа 24/7","links":["https://max.ru/morf"],"original_html":"<b>На передке пересдач не бывает</b><br/><br/><tg-emoji emoji-id=\"5264796878809099818\"><i class=\"emoji\" style=\"background-image:url('//telegram.org/img/emoji/40/E296AB.png')\"><b>▫️</b></i></tg-emoji> Бойцы 35-й гвардейской отдельной мотострелковой бригады группировки «Центр» <b>оттачивают навыки на полигоне</b>. <br/><br/><i class=\"emoji\" style=\"background-image:url('//telegram.org/img/emoji/40/F09F988E.png')\"><b>😎</b></i>  <b>Минимум теории – максимум практики:</b> преодоление «открыток» и противодействие дронам, зачистка лесополос и штурм опорников. <br/><br/>Парни – красавцы, так держать <tg-emoji emoji-id=\"5352532894478793783\"><i class=\"emoji\" style=\"background-image:url('//telegram.org/img/emoji/40/E296AB.png')\"><b>▫️</b></i></tg-emoji><br/><br/><tg-emoji emoji-id=\"5269510734265483362\"><i class=\"emoji\" style=\"background-image:url('//telegram.org/img/emoji/40/F09F94B9.png')\"><b>🔹</b></i></tg-emoji> <a href=\"https://max.ru/morf\" target=\"_blank\" rel=\"noopener\" onclick=\"return confirm('Open this link?\\n\\n'+this.href);\">Канал Минобороны России в MAКС – боевая работа 24/7</a>"}},{"type":"Feature","geometry":null,"properties":{"source":"ru_mod","source_name":"Ministry of Defence of Russia","group":"official_ru","id":67459,"posted_utc":"2026-09-19T08:47:45+00:00","link":"https://t.me/mod_russia/67459","text":"💥  Военный груз «Герани» жгут вместе с кораблями\nДроноводы отработали по сухогрузу и танкеру, задействованным в доставке военных грузов для ВСУ в порт Одесса.\n#ВойскаБПС\n🔹 MAКС – территория СВОих","links":["https://max.ru/morf"],"original_html":"<tg-emoji emoji-id=\"5449682610877918293\"><i class=\"emoji\" style=\"background-image:url('//telegram.org/img/emoji/40/F09F92A5.png')\"><b>💥</b></i></tg-emoji>  <b>Военный груз «Герани» жгут вместе с кораблями</b><br/><br/>Дроноводы отработали по сухогрузу и танкеру, задействованным в доставке военных грузов для ВСУ в порт Одесса.<br/><br/><a href=\"?q=%23%D0%92%D0%BE%D0%B9%D1%81%D0%BA%D0%B0%D0%91%D0%9F%D0%A1\">#ВойскаБПС</a><br/><tg-emoji emoji-id=\"5269510734265483362\"><i class=\"emoji\" style=\"background-image:url('//telegram.org/img/emoji/40/F09F94B9.png')\"><b>🔹</b></i></tg-emoji> <a href=\"https://max.ru/morf\" target=\"_blank\" rel=\"noopener\" onclick=\"return confirm('Open this link?\\n\\n'+this.href);\">MAКС – территория СВОих</a>"}},{"type":"Feature","geometry":null,"properties":{"source":"ru_mod","source_name":"Ministry of Defence of Russia","group":"official_ru","id":67460,"posted_utc":"2026-09-19T09:05:12+00:00","link":"https://t.me/mod_russia/67460","text":"⚡️ Подразделения группировки войск «Север» взяли под контроль населенные пункты Лошаково и Комиссарово в Харьковской области.\n🔹 Минобороны России","links":["https://max.ru/morf"],"original_html":"<i class=\"emoji\" style=\"background-image:url('//telegram.org/img/emoji/40/E29AA1.png')\"><b>⚡️</b></i> Подразделения группировки войск «Север» <b>взяли под контроль населенные пункты Лошаково и Комиссарово в Харьковской области.<br/><br/></b><tg-emoji emoji-id=\"5269510734265483362\"><i class=\"emoji\" style=\"background-image:url('//telegram.org/img/emoji/40/F09F94B9.png')\"><b>🔹</b></i></tg-emoji> <a href=\"https://max.ru/morf\" target=\"_blank\" rel=\"noopener\" onclick=\"return confirm('Open this link?\\n\\n'+this.href);\">Минобороны России</a>"}},{"type":"Feature","geometry":null,"properties":{"source":"ru_mod","source_name":"Ministry of Defence of Russia","group":"official_ru","id":67462,"posted_utc":"2026-09-19T09:05:35+00:00","link":"https://t.me/mod_russia/67462","text":"⚡ Подразделения группировки войск «Центр» освободили населенный пункт Марьевка в Донецкой Народной Республике.\n🔹 Минобороны России","links":["https://max.ru/morf"],"original_html":"<i class=\"emoji\" style=\"background-image:url('//telegram.org/img/emoji/40/E29AA1.png')\"><b>⚡</b></i> Подразделения группировки войск «Центр» <b>освободили населенный пункт Марьевка в Донецкой Народной Республике. <br/></b><br/><tg-emoji emoji-id=\"5269510734265483362\"><i class=\"emoji\" style=\"background-image:url('//telegram.org/img/emoji/40/F09F94B9.png')\"><b>🔹</b></i></tg-emoji> <a href=\"https://max.ru/morf\" target=\"_blank\" rel=\"noopener\" onclick=\"return confirm('Open this link?\\n\\n'+this.href);\">Минобороны России</a>"}},{"type":"Feature","geometry":null,"properties":{"source":"ru_mod","source_name":"Ministry of Defence of Russia","group":"official_ru","id":67463,"posted_utc":"2026-09-19T09:06:04+00:00","link":"https://t.me/mod_russia/67463","text":"⚡ Подразделения группировки войск «Центр» освободили населенный пункт Гулево в Донецкой Народной Республике.\n🔹 Минобороны России","links":["https://max.ru/morf"],"original_html":"<i class=\"emoji\" style=\"background-image:url('//telegram.org/img/emoji/40/E29AA1.png')\"><b>⚡</b></i> Подразделения группировки войск «Центр» <b>освободили населенный пункт Гулево в Донецкой Народной Республике. <br/><br/></b><b><tg-emoji emoji-id=\"5269510734265483362\"><i class=\"emoji\" style=\"background-image:url('//telegram.org/img/emoji/40/F09F94B9.png')\"><b>🔹</b></i></tg-emoji></b> <a href=\"https://max.ru/morf\" target=\"_blank\" rel=\"noopener\" onclick=\"return confirm('Open this link?\\n\\n'+this.href);\">Минобороны России</a>"}},{"type":"Feature","geometry":null,"properties":{"source":"ru_mod","source_name":"Ministry of Defence of Russia","group":"official_ru","id":67464,"posted_utc":"2026-09-19T09:06:44+00:00","link":"https://t.me/mod_russia/67464","text":"⚡️ Подразделения группировки войск «Восток» освободили населенный пункт Зеленая Диброва в Запорожской области.\nПодробнее об успехах наших войск ➡️ в MAКС","links":["https://max.ru/morf/AaC48oo_EfM"],"original_html":"<i class=\"emoji\" style=\"background-image:url('//telegram.org/img/emoji/40/E29AA1.png')\"><b>⚡️</b></i> Подразделения группировки войск «Восток» <b>освободили населенный пункт Зеленая Диброва в Запорожской области. <br/><br/></b>Подробнее об успехах наших войск <tg-emoji emoji-id=\"5469902676957357453\"><i class=\"emoji\" style=\"background-image:url('//telegram.org/img/emoji/40/E29EA1.png')\"><b>➡️</b></i></tg-emoji> <a href=\"https://max.ru/morf/AaC48oo_EfM\" target=\"_blank\" rel=\"noopener\" onclick=\"return confirm('Open this link?\\n\\n'+this.href);\">в MAКС</a>"}}]}