{"type":"FeatureCollection","features":[{"type":"Feature","geometry":{"type":"Polygon","coordinates":[[[37.03155,48.25889],[37.02986,48.26768],[37.04507,48.2688],[37.04603,48.27117],[37.0564,48.27015],[37.05763,48.26376],[37.05032,48.26163],[37.05117,48.25514],[37.04557,48.2538],[37.03353,48.25878],[37.03155,48.25889]]]},"properties":{"source":"deepstate","source_name":"DeepStateMap","source_url":"https://deepstatemap.live/en","category":"gained","category_label":"Newly Russian-occupied","period":"1d","compared_with":"2026-09-17","snapshot_time":"2026-09-18","area_km2_approx":2.5}}]}