{"type":"FeatureCollection","features":[{"type":"Feature","geometry":null,"properties":{"source":"ru_mod","source_name":"Ministry of Defence of Russia","group":"official_ru","id":67195,"posted_utc":"2026-09-10T09:28:52+00:00","link":"https://t.me/mod_russia/67195","text":"Разобрали цех сборки\n💥 Операторы ударных дронов «Герань-4 сикер» уничтожили очередную цель в Киеве.\nЦех, где больше не собирают БПЛА.\n🔹 Канал Минобороны России в MAКС – боевая работа 24/7","links":["https://t.me/mod_russia/67192","https://max.ru/morf"],"original_html":"<b>Разобрали цех сборки<br/></b><br/><tg-emoji emoji-id=\"5449682610877918293\"><i class=\"emoji\" style=\"background-image:url('//telegram.org/img/emoji/40/F09F92A5.png')\"><b>💥</b></i></tg-emoji> Операторы ударных дронов «Герань-4 сикер» уничтожили <a href=\"https://t.me/mod_russia/67192\" target=\"_blank\" rel=\"noopener\" onclick=\"return confirm('Open this link?\\n\\n'+this.href);\">очередную </a>цель в Киеве.<br/><br/>Цех, где больше не собирают БПЛА.<br/><br/><tg-emoji emoji-id=\"5269510734265483362\"><i class=\"emoji\" style=\"background-image:url('//telegram.org/img/emoji/40/F09F94B9.png')\"><b>🔹</b></i></tg-emoji> <a href=\"https://max.ru/morf\" target=\"_blank\" rel=\"noopener\" onclick=\"return confirm('Open this link?\\n\\n'+this.href);\">Канал Минобороны России в MAКС – боевая работа 24/7</a>"}},{"type":"Feature","geometry":null,"properties":{"source":"ru_mod","source_name":"Ministry of Defence of Russia","group":"official_ru","id":67196,"posted_utc":"2026-09-10T09:51:33+00:00","link":"https://t.me/mod_russia/67196","text":"💥 Продолжаем здоровую серию: «Герань» разнесла табачную фабрику в Киеве.\nКурение опасно для здоровья!\n#ВойскаБПС\n🔹 Канал Минобороны России в MAКС – боевая работа 24/7","links":["https://t.me/mod_russia/67195","https://max.ru/morf"],"original_html":"<i class=\"emoji\" style=\"background-image:url('//telegram.org/img/emoji/40/F09F92A5.png')\"><b>💥</b></i> <b>Продолжаем здоровую </b><a href=\"https://t.me/mod_russia/67195\" target=\"_blank\" rel=\"noopener\" onclick=\"return confirm('Open this link?\\n\\n'+this.href);\"><b><u>серию</u></b></a>: «Герань» разнесла табачную фабрику в Киеве.<br/><br/>Курение опасно для здоровья&#33;<br/><br/><a href=\"?q=%23%D0%92%D0%BE%D0%B9%D1%81%D0%BA%D0%B0%D0%91%D0%9F%D0%A1\">#ВойскаБПС</a><br/><tg-emoji emoji-id=\"5269510734265483362\"><i class=\"emoji\" style=\"background-image:url('//telegram.org/img/emoji/40/F09F94B9.png')\"><b>🔹</b></i></tg-emoji> <a href=\"https://max.ru/morf\" target=\"_blank\" rel=\"noopener\" onclick=\"return confirm('Open this link?\\n\\n'+this.href);\">Канал Минобороны России в MAКС – боевая работа 24/7</a>"}},{"type":"Feature","geometry":null,"properties":{"source":"ru_mod","source_name":"Ministry of Defence of Russia","group":"official_ru","id":67198,"posted_utc":"2026-09-10T09:53:00+00:00","link":"https://t.me/mod_russia/67198","text":"💥 Продолжаем здоровую серию: «Герань» разнесла табачную фабрику в Киеве.  Курение опасно для здоровья!  #ВойскаБПС 🔹 Канал Минобороны России в MAКС – боевая работа 24/7","links":[],"original_html":"<i class=\"emoji\" style=\"background-image:url('//telegram.org/img/emoji/40/F09F92A5.png')\"><b>💥</b></i> Продолжаем здоровую серию: «Герань» разнесла табачную фабрику в Киеве.  Курение опасно для здоровья&#33;  #ВойскаБПС <tg-emoji emoji-id=\"5269510734265483362\"><i class=\"emoji\" style=\"background-image:url('//telegram.org/img/emoji/40/F09F94B9.png')\"><b>🔹</b></i></tg-emoji> Канал Минобороны России в MAКС – боевая работа 24/7"}},{"type":"Feature","geometry":null,"properties":{"source":"ru_mod","source_name":"Ministry of Defence of Russia","group":"official_ru","id":67199,"posted_utc":"2026-09-10T10:54:08+00:00","link":"https://t.me/mod_russia/67199","text":"Перерезаем пути снабжения врага\n🔥 Дроноводы группировки «Восток» выжигают бронетехнику и наземных роботов ВСУ в Запорожье, срывая подвоз вражеских резервов и боекомплекта.\n#ВойскаБПС\n🔹 MAКС – территория СВОих","links":["https://max.ru/morf"],"original_html":"<b>Перерезаем пути снабжения врага<br/></b><br/><i class=\"emoji\" style=\"background-image:url('//telegram.org/img/emoji/40/F09F94A5.png')\"><b>🔥</b></i> Дроноводы группировки «Восток» <b>выжигают бронетехнику и наземных роботов ВСУ</b> в Запорожье, срывая подвоз вражеских резервов и боекомплекта.<br/><br/><a href=\"?q=%23%D0%92%D0%BE%D0%B9%D1%81%D0%BA%D0%B0%D0%91%D0%9F%D0%A1\">#ВойскаБПС</a><br/><tg-emoji emoji-id=\"5269510734265483362\"><i class=\"emoji\" style=\"background-image:url('//telegram.org/img/emoji/40/F09F94B9.png')\"><b>🔹</b></i></tg-emoji> <a href=\"https://max.ru/morf\" target=\"_blank\" rel=\"noopener\" onclick=\"return confirm('Open this link?\\n\\n'+this.href);\">MAКС – территория СВОих</a>"}},{"type":"Feature","geometry":null,"properties":{"source":"ru_mod","source_name":"Ministry of Defence of Russia","group":"official_ru","id":67200,"posted_utc":"2026-09-10T11:57:53+00:00","link":"https://t.me/mod_russia/67200","text":"Создаем условия для каждого\n🤝  В реабилитационно-образовательном центре, созданном на базе госпиталя имени П.В. Мандрыка, замминистра обороны РФ – начальник Главного военно-политического управления ВС РФ генерал армии Виктор Горемыкин вручил офицерам – участникам спецоперации дипломы о профессиональной переподготовке.\n🏥  Для бойцов создали все условия, чтобы они могли не просто восстановить здоровье, но и получить новую специальность. Генерал армии Виктор Горемыкин поблагодарил офицеров за мужество и отметил, что их уникальный боевой опыт – это ценнейший ресурс, который теперь поможет обучать и готовить других военнослужащих.\n«Министерство обороны уделяет самое пристальное внимание качественной медицинской реабилитации, всему комплексу социальных вопросов, а также созданию условий для дальнейшего прохождения военной службы тех, кто изъявил желание её продолжить. Для вас созданы все условия, от индивидуальных программ лечения и восстановления, обеспечения современными модульными активными и бионическими протезами, до определения дальнейшего служебного предназначения. Введены специальные воинские должности и организовано обучение для успешного выполнения новых должностных обязанностей», – отметил генерал армии Виктор Горемыкин.\n🔹 MAКС – территория СВОих","links":["https://max.ru/morf"],"original_html":"<b>Создаем условия для каждого</b><br/><br/><i class=\"emoji\" style=\"background-image:url('//telegram.org/img/emoji/40/F09FA49D.png')\"><b>🤝</b></i>  В реабилитационно-образовательном центре, созданном на базе госпиталя имени П.В. Мандрыка, замминистра обороны РФ – начальник Главного военно-политического управления ВС РФ генерал армии Виктор Горемыкин<b> вручил офицерам – участникам спецоперации дипломы о профессиональной переподготовке.</b><br/><br/><i class=\"emoji\" style=\"background-image:url('//telegram.org/img/emoji/40/F09F8FA5.png')\"><b>🏥</b></i>  <b>Для бойцов создали все условия, чтобы они могли не просто восстановить здоровье, но и получить новую специальность. </b>Генерал армии Виктор Горемыкин поблагодарил офицеров за мужество и отметил, что их уникальный боевой опыт – это ценнейший ресурс, который теперь поможет обучать и готовить других военнослужащих.<br/><br/><blockquote>«Министерство обороны уделяет самое пристальное внимание качественной медицинской реабилитации, всему комплексу социальных вопросов, а также созданию условий для дальнейшего прохождения военной службы тех, кто изъявил желание её продолжить. Для вас созданы все условия, от индивидуальных программ лечения и восстановления, обеспечения современными модульными активными и бионическими протезами, до определения дальнейшего служебного предназначения. Введены специальные воинские должности и организовано обучение для успешного выполнения новых должностных обязанностей», – отметил генерал армии Виктор Горемыкин. </blockquote><br/><br/><tg-emoji emoji-id=\"5269510734265483362\"><i class=\"emoji\" style=\"background-image:url('//telegram.org/img/emoji/40/F09F94B9.png')\"><b>🔹</b></i></tg-emoji> <a href=\"https://max.ru/morf\" target=\"_blank\" rel=\"noopener\" onclick=\"return confirm('Open this link?\\n\\n'+this.href);\">MAКС – территория СВОих</a>"}},{"type":"Feature","geometry":null,"properties":{"source":"ru_mod","source_name":"Ministry of Defence of Russia","group":"official_ru","id":67201,"posted_utc":"2026-09-10T13:34:54+00:00","link":"https://t.me/mod_russia/67201","text":"⚓️  Арктический поход: отряд Северного флота вошел в море Лаптевых\nОтряд боевых кораблей и судов обеспечения Северного флота в рамках арктического похода прошел пролив Вилькицкого, где провел разведку ледовой обстановки на маршруте с помощью вертолета Ка‑29 и БПЛА, и вошёл в море Лаптевых.\nАрктический поход кораблей Северного флота проводится с целью обеспечения безопасности морского судоходства и морской экономической деятельности России в Арктике.\n🗺️  Сейчас отряд продвигается по заданному курсу и активно поддерживает радиосвязь с судами, идущими по трассе Северного морского пути, для обеспечения их безопасности на маршруте следования.\n🌊  Впереди – напряжённая работа: в море Лаптевых моряки-североморцы продолжат следить за ледовой обстановкой. Её мониторинг здесь – важная задача, от которой зависят и успех похода, и защита интересов России в Арктике.\n🔹 Канал Минобороны России в MAКС – боевая работа 24/7","links":["https://max.ru/morf"],"original_html":"<i class=\"emoji\" style=\"background-image:url('//telegram.org/img/emoji/40/E29A93.png')\"><b>⚓️</b></i>  <b>Арктический поход: отряд Северного флота вошел в море Лаптевых</b><br/><br/><i>Отряд боевых кораблей и судов обеспечения Северного флота в рамках арктического похода прошел пролив Вилькицкого, где провел разведку ледовой обстановки на маршруте с помощью вертолета Ка‑29 и БПЛА, и вошёл в море Лаптевых.</i><br/><br/>Арктический поход кораблей Северного флота<b> </b>проводится с целью<b> обеспечения безопасности морского судоходства и морской экономической деятельности России</b> в Арктике.<br/><br/><i class=\"emoji\" style=\"background-image:url('//telegram.org/img/emoji/40/F09F97BA.png')\"><b>🗺️</b></i>  Сейчас отряд <b>продвигается по заданному курсу и активно поддерживает радиосвязь</b> с судами, идущими по трассе Северного морского пути, для обеспечения их безопасности на маршруте следования.<br/><br/><i class=\"emoji\" style=\"background-image:url('//telegram.org/img/emoji/40/F09F8C8A.png')\"><b>🌊</b></i>  <b>Впереди – напряжённая работа</b>: в море Лаптевых моряки-североморцы продолжат следить за ледовой обстановкой. Её мониторинг здесь – важная задача, от которой зависят и успех похода, и защита интересов России в Арктике.<br/><br/><tg-emoji emoji-id=\"5269510734265483362\"><i class=\"emoji\" style=\"background-image:url('//telegram.org/img/emoji/40/F09F94B9.png')\"><b>🔹</b></i></tg-emoji> <a href=\"https://max.ru/morf\" target=\"_blank\" rel=\"noopener\" onclick=\"return confirm('Open this link?\\n\\n'+this.href);\">Канал Минобороны России в MAКС – боевая работа 24/7</a>"}},{"type":"Feature","geometry":null,"properties":{"source":"ru_mod","source_name":"Ministry of Defence of Russia","group":"official_ru","id":67202,"posted_utc":"2026-09-10T14:42:21+00:00","link":"https://t.me/mod_russia/67202","text":"«Малыш» выходит на охоту: в небе появился новый перехватчик\n🎮 У операторов 506-го гвардейского мотострелкового Познанского полка группировки «Центр» появился новый надежный помощник – дрон-перехватчик «Малыш».\n▫️ Несмотря на скромное название характер у этой «птички» боевой – она невероятно маневренная и крепкая.\n💬 Всеми фишками и преимуществами «Малыша» поделился оператор-сапёр Михаил Сазонский.\n➡️ Хочешь управлять современными образцами вооружения? Служба по контракту в войсках беспилотных систем – это твой выбор. Узнай детали на сайте Беспилотныевойска.рф и по телефону 117(доб.4), а бот ответит на интересующие вопросы.\n#ВойскаБПС\n🔹 Канал Минобороны России в MAКС – только для своих!","links":["https://xn--80abdlarjifukdg1ajk8m.xn--p1ai/?utm_source=mil&utm_medium=social&utm_campaign=social","https://max.ru/contract_bpla_bot","https://max.ru/morf"],"original_html":"<b>«Малыш» выходит на охоту: в небе появился новый перехватчик</b><br/><br/><tg-emoji emoji-id=\"5449767024165154360\"><i class=\"emoji\" style=\"background-image:url('//telegram.org/img/emoji/40/F09F8EAE.png')\"><b>🎮</b></i></tg-emoji> У операторов 506-го гвардейского мотострелкового Познанского полка группировки «Центр» появился новый надежный помощник – дрон-перехватчик «Малыш». <br/><br/><tg-emoji emoji-id=\"5352532894478793783\"><i class=\"emoji\" style=\"background-image:url('//telegram.org/img/emoji/40/E296AB.png')\"><b>▫️</b></i></tg-emoji> Несмотря на скромное название <b>характер у этой «птички» боевой – она невероятно маневренная и крепкая. </b><br/><br/><tg-emoji emoji-id=\"5447486370761176298\"><i class=\"emoji\" style=\"background-image:url('//telegram.org/img/emoji/40/F09F92AC.png')\"><b>💬</b></i></tg-emoji> Всеми фишками и преимуществами «Малыша» поделился оператор-сапёр Михаил Сазонский.<br/><br/><i><tg-emoji emoji-id=\"5469902676957357453\"><i class=\"emoji\" style=\"background-image:url('//telegram.org/img/emoji/40/E29EA1.png')\"><b>➡️</b></i></tg-emoji></i><i> Хочешь управлять современными образцами вооружения? Служба по контракту в войсках беспилотных систем – это твой выбор. Узнай детали на сайте </i><a href=\"https://xn--80abdlarjifukdg1ajk8m.xn--p1ai/?utm_source=mil&amp;amp;utm_medium=social&amp;amp;utm_campaign=social\" target=\"_blank\" rel=\"noopener\" onclick=\"return confirm('Open this link?\\n\\n'+this.href);\"><i><u>Беспилотныевойска.рф</u></i></a><i> и по телефону 117(доб.4), а </i><a href=\"https://max.ru/contract_bpla_bot\" target=\"_blank\" rel=\"noopener\" onclick=\"return confirm('Open this link?\\n\\n'+this.href);\"><i><u>бот</u></i></a><i> ответит на интересующие вопросы.</i><br/><br/><a href=\"?q=%23%D0%92%D0%BE%D0%B9%D1%81%D0%BA%D0%B0%D0%91%D0%9F%D0%A1\">#ВойскаБПС</a><br/><tg-emoji emoji-id=\"5269510734265483362\"><i class=\"emoji\" style=\"background-image:url('//telegram.org/img/emoji/40/F09F94B9.png')\"><b>🔹</b></i></tg-emoji> <a href=\"https://max.ru/morf\" target=\"_blank\" rel=\"noopener\" onclick=\"return confirm('Open this link?\\n\\n'+this.href);\">Канал Минобороны России в MAКС – только для своих&#33;</a>"}},{"type":"Feature","geometry":null,"properties":{"source":"ru_mod","source_name":"Ministry of Defence of Russia","group":"official_ru","id":67203,"posted_utc":"2026-09-10T15:36:39+00:00","link":"https://t.me/mod_russia/67203","text":"⛽ Бесперебойный ритм фронта – результат их труда\nКомандир взвода обеспечения Сергей Воронов рассказал о пути, который преодолевает горючее, прежде чем попасть в бак любой техники на передовой.\n🔹 MAКС – территория СВОих","links":["https://max.ru/morf"],"original_html":"<b><i class=\"emoji\" style=\"background-image:url('//telegram.org/img/emoji/40/E29BBD.png')\"><b>⛽</b></i> Бесперебойный ритм фронта – результат их труда</b><br/><br/>Командир взвода обеспечения Сергей Воронов рассказал о пути, который преодолевает горючее, прежде чем попасть в бак любой техники на передовой.<br/><br/><tg-emoji emoji-id=\"5269510734265483362\"><i class=\"emoji\" style=\"background-image:url('//telegram.org/img/emoji/40/F09F94B9.png')\"><b>🔹</b></i></tg-emoji> <a href=\"https://max.ru/morf\" target=\"_blank\" rel=\"noopener\" onclick=\"return confirm('Open this link?\\n\\n'+this.href);\">MAКС – территория СВОих</a>"}},{"type":"Feature","geometry":null,"properties":{"source":"ru_mod","source_name":"Ministry of Defence of Russia","group":"official_ru","id":67204,"posted_utc":"2026-09-10T16:18:20+00:00","link":"https://t.me/mod_russia/67204","text":"❗️  Сегодня днем Вооруженными Силами Российской Федерации продолжено нанесение групповых ударов по морским портам Украины и судам, а также логистическим центрам, задействованным в интересах ВСУ.\n💥  В результате ударов в порту «Черноморск» поражено морское судно типа «сухогруз», доставлявшее грузы военного назначения, предназначенные для обеспечения ВСУ.\n🔹 Минобороны России","links":["https://max.ru/morf"],"original_html":"<i class=\"emoji\" style=\"background-image:url('//telegram.org/img/emoji/40/E29D97.png')\"><b>❗️</b></i>  Сегодня днем <b>Вооруженными Силами Российской Федерации продолжено нанесение групповых ударов по морским портам Украины и судам, а также логистическим центрам</b>, задействованным в интересах ВСУ.<br/><br/><i class=\"emoji\" style=\"background-image:url('//telegram.org/img/emoji/40/F09F92A5.png')\"><b>💥</b></i>  В результате ударов в порту «Черноморск» <b>поражено морское судно типа «сухогруз»</b>, доставлявшее грузы военного назначения, предназначенные для обеспечения ВСУ.<br/><br/><tg-emoji emoji-id=\"5269510734265483362\"><i class=\"emoji\" style=\"background-image:url('//telegram.org/img/emoji/40/F09F94B9.png')\"><b>🔹</b></i></tg-emoji> <a href=\"https://max.ru/morf\" target=\"_blank\" rel=\"noopener\" onclick=\"return confirm('Open this link?\\n\\n'+this.href);\">Минобороны России</a>"}},{"type":"Feature","geometry":null,"properties":{"source":"ru_mod","source_name":"Ministry of Defence of Russia","group":"official_ru","id":67205,"posted_utc":"2026-09-10T16:38:12+00:00","link":"https://t.me/mod_russia/67205","text":"Поговорили по-мужски: о том как родину любить не только на словах\n💬  Военнослужащие войск беспилотных систем группировки «Центр» пообщались со студентами учебных заведений Пензенской области в формате телемоста. Главным героем встречи стал студент Медицинского института ПГУ Владислав Годовалов.\n📑  Владислав принял решение подписать специальный контракт с Минобороны России. Благодаря техническим навыкам и ответственному подходу к делу ему подобрали должность оператора-сапёра в подразделении войск БПС.\n💪  Уже несколько месяцев боец успешно выполняет задачи на Добропольском направлении. Он поделился со студентами своим опытом и ответил на вопросы об условиях контракта.\n➡️  Приходи на службу по контракту в войска беспилотных систем! Тебя ждет профессиональная команда, фиксированный контракт, высокое денежное довольствие. Как подать документы, смотри на сайте Беспилотныевойска.рф, ответим на все вопросы по телефону 117(доб.4).\n#ВойскаБПС\n🔹 Минобороны России","links":["https://xn--80abdlarjifukdg1ajk8m.xn--p1ai/?utm_source=mil&utm_medium=social&utm_campaign=social","https://max.ru/morf"],"original_html":"<b>Поговорили по-мужски: о том как родину любить не только на словах</b><br/><br/><i class=\"emoji\" style=\"background-image:url('//telegram.org/img/emoji/40/F09F92AC.png')\"><b>💬</b></i>  Военнослужащие войск беспилотных систем группировки «Центр» <b>пообщались со студентами учебных заведений</b> Пензенской области в формате телемоста. Главным героем встречи стал студент Медицинского института ПГУ Владислав Годовалов.<br/><br/><i class=\"emoji\" style=\"background-image:url('//telegram.org/img/emoji/40/F09F9391.png')\"><b>📑</b></i>  <b>Владислав</b> <b>принял решение подписать специальный контракт</b> с Минобороны России. Благодаря техническим навыкам и ответственному подходу к делу ему подобрали должность оператора-сапёра в подразделении войск БПС.<br/><br/><i class=\"emoji\" style=\"background-image:url('//telegram.org/img/emoji/40/F09F92AA.png')\"><b>💪</b></i>  Уже несколько месяцев боец успешно<b> выполняет задачи на Добропольском направлении</b>. Он поделился со студентами своим опытом и ответил на вопросы об условиях контракта.<br/><br/><i class=\"emoji\" style=\"background-image:url('//telegram.org/img/emoji/40/E29EA1.png')\"><b>➡️</b></i> <i> Приходи на службу по контракту в войска беспилотных систем&#33; Тебя ждет профессиональная команда, фиксированный контракт, высокое денежное довольствие. Как подать документы, смотри на сайте </i><a href=\"https://xn--80abdlarjifukdg1ajk8m.xn--p1ai/?utm_source=mil&amp;amp;utm_medium=social&amp;amp;utm_campaign=social\" target=\"_blank\" rel=\"noopener\" onclick=\"return confirm('Open this link?\\n\\n'+this.href);\"><i><u>Беспилотныевойска.рф</u></i></a><i>, ответим на все вопросы по телефону 117(доб.4).</i><br/><br/><a href=\"?q=%23%D0%92%D0%BE%D0%B9%D1%81%D0%BA%D0%B0%D0%91%D0%9F%D0%A1\">#ВойскаБПС</a><br/><tg-emoji emoji-id=\"5269510734265483362\"><i class=\"emoji\" style=\"background-image:url('//telegram.org/img/emoji/40/F09F94B9.png')\"><b>🔹</b></i></tg-emoji> <a href=\"https://max.ru/morf\" target=\"_blank\" rel=\"noopener\" onclick=\"return confirm('Open this link?\\n\\n'+this.href);\">Минобороны России</a>"}},{"type":"Feature","geometry":null,"properties":{"source":"ru_mod","source_name":"Ministry of Defence of Russia","group":"official_ru","id":67206,"posted_utc":"2026-09-10T17:31:00+00:00","link":"https://t.me/mod_russia/67206","text":"⚡️  В течение дня в период с 8.00 до 20.00 мск дежурными силами ПВО перехвачены и уничтожены 97 украинских беспилотных летательных аппаратов самолетного типа над территориями Белгородской, Брянской, Калужской, Курской, Смоленской, Тульской областей, Московского региона, Республики Крым и над акваторией Черного моря.\n🔹 Минобороны России","links":["https://max.ru/morf"],"original_html":"<i class=\"emoji\" style=\"background-image:url('//telegram.org/img/emoji/40/E29AA1.png')\"><b>⚡️</b></i>  В течение дня в период с 8.00 до 20.00 мск <b>дежурными силами ПВО перехвачены и уничтожены 97 украинских беспилотных летательных аппаратов самолетного типа </b>над территориями Белгородской, Брянской, Калужской, Курской, Смоленской, Тульской областей, Московского региона, Республики Крым и над акваторией Черного моря.<br/><br/><tg-emoji emoji-id=\"5269510734265483362\"><i class=\"emoji\" style=\"background-image:url('//telegram.org/img/emoji/40/F09F94B9.png')\"><b>🔹</b></i></tg-emoji> <a href=\"https://max.ru/morf\" target=\"_blank\" rel=\"noopener\" onclick=\"return confirm('Open this link?\\n\\n'+this.href);\">Минобороны России</a>"}},{"type":"Feature","geometry":null,"properties":{"source":"ru_mod","source_name":"Ministry of Defence of Russia","group":"official_ru","id":67207,"posted_utc":"2026-09-10T17:39:43+00:00","link":"https://t.me/mod_russia/67207","text":"🔥  Дорога для противника – в один конец\nОператоры ударных FPV-дронов 20-й гвардейской общевойсковой армии группировки «Запад» жгут НРТК и пикапы с личным составом ВСУ на Краснолиманском направлении.\n#ВойскаБПС\n🔹 Канал Минобороны России в MAКС – боевая работа 24/7","links":["https://max.ru/morf"],"original_html":"<i class=\"emoji\" style=\"background-image:url('//telegram.org/img/emoji/40/F09F94A5.png')\"><b>🔥</b></i>  <b>Дорога для противника – в один конец</b><br/><br/>Операторы ударных FPV-дронов 20-й гвардейской общевойсковой армии группировки «Запад» <b>жгут НРТК и пикапы</b> с личным составом ВСУ на Краснолиманском направлении.<br/><br/><a href=\"?q=%23%D0%92%D0%BE%D0%B9%D1%81%D0%BA%D0%B0%D0%91%D0%9F%D0%A1\">#ВойскаБПС</a><br/><tg-emoji emoji-id=\"5269510734265483362\"><i class=\"emoji\" style=\"background-image:url('//telegram.org/img/emoji/40/F09F94B9.png')\"><b>🔹</b></i></tg-emoji> <a href=\"https://max.ru/morf\" target=\"_blank\" rel=\"noopener\" onclick=\"return confirm('Open this link?\\n\\n'+this.href);\">Канал Минобороны России в MAКС – боевая работа 24/7</a>"}},{"type":"Feature","geometry":null,"properties":{"source":"ru_mod","source_name":"Ministry of Defence of Russia","group":"official_ru","id":67208,"posted_utc":"2026-09-10T18:08:28+00:00","link":"https://t.me/mod_russia/67208","text":"Противника набили знатно! 💪\n🔹 Минобороны России","links":["https://max.ru/morf"],"original_html":"<b>Противника набили знатно&#33;</b> <i class=\"emoji\" style=\"background-image:url('//telegram.org/img/emoji/40/F09F92AA.png')\"><b>💪</b></i><br/><br/><tg-emoji emoji-id=\"5269510734265483362\"><i class=\"emoji\" style=\"background-image:url('//telegram.org/img/emoji/40/F09F94B9.png')\"><b>🔹</b></i></tg-emoji> <a href=\"https://max.ru/morf\" target=\"_blank\" rel=\"noopener\" onclick=\"return confirm('Open this link?\\n\\n'+this.href);\">Минобороны России</a>"}},{"type":"Feature","geometry":null,"properties":{"source":"ru_mod","source_name":"Ministry of Defence of Russia","group":"official_ru","id":67209,"posted_utc":"2026-09-10T18:34:05+00:00","link":"https://t.me/mod_russia/67209","text":"📆  Главное за день\n🚩  Развиваем успех: подразделения группировки войск «Север» взяли под контроль населенные пункты Гоптовка и Зарубинка в Харьковской области.\n💥  Бьем точно: ВС РФ продолжают наносить групповые удары по логистическим центрам и морским портам Украины, а также судам, задействованным в интересах ВСУ.\n🤝  Создаем условия для каждого: в реабилитационно-образовательном центре, созданном на базе госпиталя имени П.В. Мандрыка, замминистра обороны РФ генерал армии Виктор Горемыкин вручил офицерам – участникам спецоперации дипломы о профессиональной переподготовке.\n🎮 «Малыш» выходит на охоту: у операторов 506-го гвардейского мотострелкового Познанского полка группировки «Центр» появился новый надежный помощник – дрон-перехватчик «Малыш».\n🖥 Поговорили по-мужски: военнослужащие войск беспилотных систем группировки «Центр» пообщались со студентами учебных заведений Пензенской области в формате телемоста.\n⚓️  Арктический поход: отряд боевых кораблей и судов обеспечения Северного флота в рамках арктического похода прошел пролив Вилькицкого и вошёл в море Лаптевых.\nДень прошел совсем не зря.\nМы с вами эффективная команда!\n#ИтогиДня\n🔹 Канал Минобороны России в MAКС – боевая работа 24/7","links":["https://t.me/mod_russia/67193","https://t.me/mod_russia/67194","https://t.me/mod_russia/67187","https://t.me/mod_russia/67200","https://t.me/mod_russia/67202","https://t.me/mod_russia/67205","https://t.me/mod_russia/67201","https://max.ru/morf"],"original_html":"<i class=\"emoji\" style=\"background-image:url('//telegram.org/img/emoji/40/F09F9386.png')\"><b>📆</b></i>  <b>Главное за день</b><br/> <br/><i class=\"emoji\" style=\"background-image:url('//telegram.org/img/emoji/40/F09F9AA9.png')\"><b>🚩</b></i>  Развиваем успех: подразделения группировки войск «Север» <b>взяли под контроль населенные пункты </b><a href=\"https://t.me/mod_russia/67193\" target=\"_blank\" rel=\"noopener\" onclick=\"return confirm('Open this link?\\n\\n'+this.href);\"><b><u>Гоптовка</u></b></a><b> и </b><a href=\"https://t.me/mod_russia/67194\" target=\"_blank\" rel=\"noopener\" onclick=\"return confirm('Open this link?\\n\\n'+this.href);\"><b><u>Зарубинка</u></b></a><b> в Харьковской области.</b><br/> <br/><i class=\"emoji\" style=\"background-image:url('//telegram.org/img/emoji/40/F09F92A5.png')\"><b>💥</b></i> <b> </b>Бьем точно: ВС РФ <a href=\"https://t.me/mod_russia/67187\" target=\"_blank\" rel=\"noopener\" onclick=\"return confirm('Open this link?\\n\\n'+this.href);\"><b><u>продолжают</u></b></a> <b>наносить групповые удары </b>по логистическим центрам и морским портам Украины, а также судам, задействованным в интересах ВСУ.<br/><br/><i class=\"emoji\" style=\"background-image:url('//telegram.org/img/emoji/40/F09FA49D.png')\"><b>🤝</b></i> <b> </b>Создаем условия для каждого: в реабилитационно-образовательном центре, созданном на базе госпиталя имени П.В. Мандрыка, замминистра обороны РФ генерал армии Виктор Горемыкин <a href=\"https://t.me/mod_russia/67200\" target=\"_blank\" rel=\"noopener\" onclick=\"return confirm('Open this link?\\n\\n'+this.href);\"><b><u>вручил</u></b></a><b> офицерам – участникам спецоперации дипломы о профессиональной переподготовке.</b><br/> <br/><i class=\"emoji\" style=\"background-image:url('//telegram.org/img/emoji/40/F09F8EAE.png')\"><b>🎮</b></i> «Малыш» выходит на охоту: у операторов 506-го гвардейского мотострелкового Познанского полка группировки «Центр» <a href=\"https://t.me/mod_russia/67202\" target=\"_blank\" rel=\"noopener\" onclick=\"return confirm('Open this link?\\n\\n'+this.href);\"><b><u>появился</u></b></a><b> новый надежный помощник – дрон-перехватчик «Малыш»</b>.<br/> <br/><i class=\"emoji\" style=\"background-image:url('//telegram.org/img/emoji/40/F09F96A5.png')\"><b>🖥</b></i> Поговорили по-мужски: военнослужащие войск беспилотных систем группировки «Центр» <a href=\"https://t.me/mod_russia/67205\" target=\"_blank\" rel=\"noopener\" onclick=\"return confirm('Open this link?\\n\\n'+this.href);\"><b><u>пообщались</u></b></a><b> со студентами учебных заведений Пензенской области в формате телемоста</b>.<br/><br/><i class=\"emoji\" style=\"background-image:url('//telegram.org/img/emoji/40/E29A93.png')\"><b>⚓️</b></i>  Арктический поход: отряд боевых кораблей и судов обеспечения Северного флота в рамках арктического похода <b>прошел пролив Вилькицкого</b> <b>и</b> <a href=\"https://t.me/mod_russia/67201\" target=\"_blank\" rel=\"noopener\" onclick=\"return confirm('Open this link?\\n\\n'+this.href);\"><b><u>вошёл</u></b></a> <b>в море Лаптевых.</b><br/> <br/><b>День прошел совсем не зря. <br/>Мы с вами эффективная команда&#33;</b><br/><br/><a href=\"?q=%23%D0%98%D1%82%D0%BE%D0%B3%D0%B8%D0%94%D0%BD%D1%8F\">#ИтогиДня</a><br/><tg-emoji emoji-id=\"5269510734265483362\"><i class=\"emoji\" style=\"background-image:url('//telegram.org/img/emoji/40/F09F94B9.png')\"><b>🔹</b></i></tg-emoji> <a href=\"https://max.ru/morf\" target=\"_blank\" rel=\"noopener\" onclick=\"return confirm('Open this link?\\n\\n'+this.href);\">Канал Минобороны России в MAКС – боевая работа 24/7</a>"}},{"type":"Feature","geometry":null,"properties":{"source":"ru_mod","source_name":"Ministry of Defence of Russia","group":"official_ru","id":67210,"posted_utc":"2026-09-10T19:00:47+00:00","link":"https://t.me/mod_russia/67210","text":"🌙  Сегодня есть работа для пилота\nВ небо, работаем до самого утра ❤️\n🔹 MAКС – территория СВОих","links":["https://max.ru/morf"],"original_html":"<i class=\"emoji\" style=\"background-image:url('//telegram.org/img/emoji/40/F09F8C99.png')\"><b>🌙</b></i> <b><i> </i>Сегодня есть работа для пилота</b><br/><br/>В небо, работаем до самого утра <i class=\"emoji\" style=\"background-image:url('//telegram.org/img/emoji/40/E29DA4.png')\"><b>❤️</b></i><br/><br/><tg-emoji emoji-id=\"5269510734265483362\"><i class=\"emoji\" style=\"background-image:url('//telegram.org/img/emoji/40/F09F94B9.png')\"><b>🔹</b></i></tg-emoji> <a href=\"https://max.ru/morf\" target=\"_blank\" rel=\"noopener\" onclick=\"return confirm('Open this link?\\n\\n'+this.href);\">MAКС – территория СВОих</a>"}},{"type":"Feature","geometry":null,"properties":{"source":"ru_mod","source_name":"Ministry of Defence of Russia","group":"official_ru","id":67211,"posted_utc":"2026-09-10T22:02:01+00:00","link":"https://t.me/mod_russia/67211","text":"День воинской славы: Тендра и уроки Ушакова\n11 сентября Россия отмечает победу эскадры контр-адмирала Фёдора Ушакова над турецким флотом у мыса Тендра.\nЧто произошло?\nШёл 1790 год, русско-турецкая война была в разгаре. Османская империя стремилась не дать русскому флоту закрепиться на Чёрном море. Ушаков получил приказ найти и разгромить турецкую эскадру.\nРусские внезапно появились у стоянки турок между Тендрой и Хаджибеем, близ современной Одессы. Ушаков стремительно атаковал, не перестраиваясь, и ударил по флагманам. Турки спешно отходили.\nСилы были неравны: 10 линейных кораблей и 6 фрегатов у русских против 14 линейных кораблей и 8 фрегатов у турок. Но к исходу первого дня турецкая линия была разбита, на следующий день преследование продолжилось. Русские принудили к сдаче 66-пушечный «Мелек-и-Бахри» и 74-пушечный «Капудание». В плен попал адмирал Саид-бей.\nИтог сражения\nПотери русских – 46 человек убитыми и ранеными. Турки потеряли от 2000 до 5500 человек. Турецкий флот надолго вышел из борьбы на Чёрном море, что обеспечило свободу действий русской армии: в декабре 1790 года был взят Измаил, а в 1791 году победа закреплена при Калиакрии.\n🔹 Минобороны России","links":["https://max.ru/morf"],"original_html":"<b>День воинской славы: Тендра и уроки Ушакова</b><br/><br/><i>11 сентября Россия отмечает победу эскадры контр-адмирала Фёдора Ушакова над турецким флотом у мыса Тендра.</i><br/><br/><b>Что произошло?</b><br/><br/>Шёл 1790 год, русско-турецкая война была в разгаре. Османская империя стремилась не дать русскому флоту закрепиться на Чёрном море. Ушаков получил приказ найти и разгромить турецкую эскадру. <br/><br/>Русские внезапно появились у стоянки турок между Тендрой и Хаджибеем, близ современной Одессы. Ушаков стремительно атаковал, не перестраиваясь, и ударил по флагманам. Турки спешно отходили. <br/><br/>Силы были неравны: 10 линейных кораблей и 6 фрегатов у русских против 14 линейных кораблей и 8 фрегатов у турок. Но к исходу первого дня турецкая линия была разбита, на следующий день преследование продолжилось. Русские принудили к сдаче 66-пушечный «Мелек-и-Бахри» и 74-пушечный «Капудание». В плен попал адмирал Саид-бей.<br/><br/><b>Итог сражения</b><br/><br/>Потери русских – 46 человек убитыми и ранеными. Турки потеряли от 2000 до 5500 человек. Турецкий флот надолго вышел из борьбы на Чёрном море, что обеспечило свободу действий русской армии: в декабре 1790 года был взят Измаил, а в 1791 году победа закреплена при Калиакрии.<br/><br/><tg-emoji emoji-id=\"5269510734265483362\"><i class=\"emoji\" style=\"background-image:url('//telegram.org/img/emoji/40/F09F94B9.png')\"><b>🔹</b></i></tg-emoji> <a href=\"https://max.ru/morf\" target=\"_blank\" rel=\"noopener\" onclick=\"return confirm('Open this link?\\n\\n'+this.href);\">Минобороны России</a>"}}]}