{"type":"FeatureCollection","features":[{"type":"Feature","geometry":null,"properties":{"source":"ru_mod","source_name":"Ministry of Defence of Russia","group":"official_ru","id":67590,"posted_utc":"2026-09-24T06:14:59+00:00","link":"https://t.me/mod_russia/67590","text":"Вразумляющие доводы спускаем сверху-вниз  🔹 MAКС – территория СВОих","links":[],"original_html":"Вразумляющие доводы спускаем сверху-вниз  <tg-emoji emoji-id=\"5269510734265483362\"><i class=\"emoji\" style=\"background-image:url('//telegram.org/img/emoji/40/F09F94B9.png')\"><b>🔹</b></i></tg-emoji> MAКС – территория СВОих"}},{"type":"Feature","geometry":null,"properties":{"source":"ru_mod","source_name":"Ministry of Defence of Russia","group":"official_ru","id":67592,"posted_utc":"2026-09-24T07:26:13+00:00","link":"https://t.me/mod_russia/67592","text":"«Всегда сражались на полную отдачу, на 100 процентов. А тут — на 120 процентов».\nГвардии младший лейтенант с позывным «Утя» говорит об операции по освобождению Курской области. Сегодня он — командир роты беспилотных систем 810 бригады морской пехоты. А тогда, в жаркие дни в начале августа 2024-го, он был заместителем командира штурмового взвода.\nОн пришел на фронт в 2022 году, когда позвала Родина. И сам до сих пор в строю, и отец, который служит на Донецком направлении: «Работаем потихонечку, батя и я. Нормально у нас все!»\nРассказываем об участниках СВО в 📲 MAX,  📱 ВКонтакте и в 📱 Дзен","links":["https://max.ru/heroesofZ","https://vk.com/heroes0fz","http://dzen.ru/heroesofz"],"original_html":"<i>«Всегда сражались на полную отдачу, на 100 процентов. А тут — на 120 процентов».</i><br/><br/>Гвардии младший лейтенант с <b>позывным «Утя»</b> говорит об операции по освобождению Курской области. Сегодня он — командир роты беспилотных систем 810 бригады морской пехоты. А тогда, в жаркие дни в начале августа 2024-го, он был заместителем командира штурмового взвода.<br/><br/>Он пришел на фронт в 2022 году, когда позвала Родина. И сам до сих пор в строю, и отец, который служит на Донецком направлении: <i>«Работаем потихонечку, батя и я. Нормально у нас все&#33;»</i><br/><br/><i>Рассказываем об участниках СВО в</i> <i><tg-emoji emoji-id=\"5449407131675558756\"><i class=\"emoji\" style=\"background-image:url('//telegram.org/img/emoji/40/F09F93B2.png')\"><b>📲</b></i></tg-emoji></i><i> </i><a href=\"https://max.ru/heroesofZ\" target=\"_blank\" rel=\"noopener\" onclick=\"return confirm('Open this link?\\n\\n'+this.href);\"><i>MAX</i></a>,<i>  </i><i><tg-emoji emoji-id=\"5334853932915114338\"><i class=\"emoji\" style=\"background-image:url('//telegram.org/img/emoji/40/F09F93B1.png')\"><b>📱</b></i></tg-emoji></i><i> </i><a href=\"https://vk.com/heroes0fz\" target=\"_blank\" rel=\"noopener\" onclick=\"return confirm('Open this link?\\n\\n'+this.href);\"><i>ВКонтакте</i></a> <i>и в </i><i><tg-emoji emoji-id=\"5321533581472842536\"><i class=\"emoji\" style=\"background-image:url('//telegram.org/img/emoji/40/F09F93B1.png')\"><b>📱</b></i></tg-emoji></i><i> </i><a href=\"http://dzen.ru/heroesofz\" target=\"_blank\" rel=\"noopener\" onclick=\"return confirm('Open this link?\\n\\n'+this.href);\"><i>Дзен</i></a>"}},{"type":"Feature","geometry":null,"properties":{"source":"ru_mod","source_name":"Ministry of Defence of Russia","group":"official_ru","id":67593,"posted_utc":"2026-09-24T08:08:12+00:00","link":"https://t.me/mod_russia/67593","text":"▫️  Разложили как по нотам\nОсвобождение населенного пункта Польная в Харьковской области стало результатом четких и слаженных действий 82-го мотострелкового полка. Подходить к нему было крайне сложно из-за обилия вражеских беспилотников. Чтобы перехитрить противника, бойцы шли небольшими группами и использовали маскировку.\n💥  Успех операции обеспечила мощная поддержка с воздуха и земли.\n«Конечно, не без помощи наших ребят-летчиков – FPVшники, квадрокоптеры, доразведка, разведка. Потом отрабатывала артиллерия, и производилась зачистка», – рассказал командир штурмовой роты с позывным «Елец».\n👉 Присоединяйся к нашим бойцам и бей врага, как это делает «Елец»! Службапоконтракту.рф\n🔹 Канал Минобороны России в MAКС – боевая работа 24/7","links":["https://t.me/mod_russia/67526","https://clck.ru/3CW2xW","https://max.ru/morf"],"original_html":"<tg-emoji emoji-id=\"5352532894478793783\"><i class=\"emoji\" style=\"background-image:url('//telegram.org/img/emoji/40/E296AB.png')\"><b>▫️</b></i></tg-emoji>  <b>Разложили как по нотам</b><br/><br/>Освобождение населенного пункта <a href=\"https://t.me/mod_russia/67526\" target=\"_blank\" rel=\"noopener\" onclick=\"return confirm('Open this link?\\n\\n'+this.href);\"><u>Польная</u></a> в Харьковской области стало результатом четких и слаженных действий 82-го мотострелкового полка. Подходить к нему было крайне сложно из-за обилия вражеских беспилотников. <b>Чтобы перехитрить противника, бойцы шли небольшими группами и использовали маскировку. </b><br/><br/><tg-emoji emoji-id=\"5449682610877918293\"><i class=\"emoji\" style=\"background-image:url('//telegram.org/img/emoji/40/F09F92A5.png')\"><b>💥</b></i></tg-emoji>  Успех операции обеспечила мощная поддержка с воздуха и земли.<br/><br/><blockquote>«Конечно, не без помощи наших ребят-летчиков – FPVшники, квадрокоптеры, доразведка, разведка. Потом отрабатывала артиллерия, и производилась зачистка», – рассказал командир штурмовой роты с позывным «Елец». </blockquote><br/><b><br/><i class=\"emoji\" style=\"background-image:url('//telegram.org/img/emoji/40/F09F9189.png')\"><b>👉</b></i></b><i> Присоединяйся к нашим бойцам и бей врага, как это делает «Елец»&#33; </i><a href=\"https://clck.ru/3CW2xW\" target=\"_blank\" rel=\"noopener\" onclick=\"return confirm('Open this link?\\n\\n'+this.href);\"><i><u>Службапоконтракту.рф</u></i></a><i><u><br/></u></i><br/><tg-emoji emoji-id=\"5269510734265483362\"><i class=\"emoji\" style=\"background-image:url('//telegram.org/img/emoji/40/F09F94B9.png')\"><b>🔹</b></i></tg-emoji> <a href=\"https://max.ru/morf\" target=\"_blank\" rel=\"noopener\" onclick=\"return confirm('Open this link?\\n\\n'+this.href);\">Канал Минобороны России в MAКС – боевая работа 24/7</a>"}},{"type":"Feature","geometry":null,"properties":{"source":"ru_mod","source_name":"Ministry of Defence of Russia","group":"official_ru","id":67594,"posted_utc":"2026-09-24T09:32:14+00:00","link":"https://t.me/mod_russia/67594","text":"✈️ Боевой апгрейд: ВКС приняли партию истребителей Су-57 в новом техническом облике\n✅ Конструкторы непрерывно модернизируют самолет, улучшая его характеристики на основе реального боевого опыта.\n«Самолет себя уже хорошо показал в рамках проведения спецоперации. Новый технический облик будет способствовать расширению задач, к которым привлекается данный тип самолетов. Перспективные возможности, заложенные в комплекс авиационного вооружения, позволяют применять новые образцы авиационных средств поражения», – отметил летчик.\n▫️  Истребители прошли полный цикл заводских испытаний и готовы громить противника.\nВидео – «Ростех».\n🔹 MAКС – территория СВОих","links":["http://t.me/rostecru","https://max.ru/morf"],"original_html":"<tg-emoji emoji-id=\"5449403034276751727\"><i class=\"emoji\" style=\"background-image:url('//telegram.org/img/emoji/40/E29C88.png')\"><b>✈️</b></i></tg-emoji><b> Боевой апгрейд: ВКС приняли партию истребителей Су-57 в новом техническом облике</b><br/><br/><tg-emoji emoji-id=\"5469909785128234267\"><i class=\"emoji\" style=\"background-image:url('//telegram.org/img/emoji/40/E29C85.png')\"><b>✅</b></i></tg-emoji> Конструкторы непрерывно модернизируют самолет, улучшая его характеристики на основе реального боевого опыта.<br/><br/><blockquote>«Самолет себя уже хорошо показал в рамках проведения спецоперации. Новый технический облик будет способствовать расширению задач, к которым привлекается данный тип самолетов. Перспективные возможности, заложенные в комплекс авиационного вооружения, позволяют применять новые образцы авиационных средств поражения», – отметил летчик. </blockquote><br/><br/><tg-emoji emoji-id=\"5352532894478793783\"><i class=\"emoji\" style=\"background-image:url('//telegram.org/img/emoji/40/E296AB.png')\"><b>▫️</b></i></tg-emoji>  <b>Истребители прошли полный цикл заводских испытаний и готовы громить противника.<br/><br/> </b>Видео – <a href=\"http://t.me/rostecru\" target=\"_blank\" rel=\"noopener\" onclick=\"return confirm('Open this link?\\n\\n'+this.href);\"><u>«Ростех»</u></a>.<br/><br/><tg-emoji emoji-id=\"5269510734265483362\"><i class=\"emoji\" style=\"background-image:url('//telegram.org/img/emoji/40/F09F94B9.png')\"><b>🔹</b></i></tg-emoji> <a href=\"https://max.ru/morf\" target=\"_blank\" rel=\"noopener\" onclick=\"return confirm('Open this link?\\n\\n'+this.href);\">MAКС – территория СВОих</a>"}},{"type":"Feature","geometry":null,"properties":{"source":"ru_mod","source_name":"Ministry of Defence of Russia","group":"official_ru","id":67595,"posted_utc":"2026-09-24T09:36:28+00:00","link":"https://t.me/mod_russia/67595","text":"⚡️ Подразделения группировки войск «Север» в Харьковской области продолжают сжимать кольцо окружения и расширять внешнюю зону контроля.\n🚩 В кольце окружения взяты под контроль населенные пункты Бузово и Хижняково.\n🔹 Минобороны России","links":["https://max.ru/morf"],"original_html":"<tg-emoji emoji-id=\"5449911936361724483\"><i class=\"emoji\" style=\"background-image:url('//telegram.org/img/emoji/40/E29AA1.png')\"><b>⚡️</b></i></tg-emoji> Подразделения группировки войск «Север» в Харьковской области продолжают сжимать кольцо окружения и расширять внешнюю зону контроля. <br/><br/><tg-emoji emoji-id=\"5447466081335670917\"><i class=\"emoji\" style=\"background-image:url('//telegram.org/img/emoji/40/F09F9AA9.png')\"><b>🚩</b></i></tg-emoji> В кольце окружения<b> взяты под контроль населенные пункты Бузово и Хижняково.</b><br/><br/><tg-emoji emoji-id=\"5269510734265483362\"><i class=\"emoji\" style=\"background-image:url('//telegram.org/img/emoji/40/F09F94B9.png')\"><b>🔹</b></i></tg-emoji> <a href=\"https://max.ru/morf\" target=\"_blank\" rel=\"noopener\" onclick=\"return confirm('Open this link?\\n\\n'+this.href);\">Минобороны России</a>"}},{"type":"Feature","geometry":null,"properties":{"source":"ru_mod","source_name":"Ministry of Defence of Russia","group":"official_ru","id":67597,"posted_utc":"2026-09-24T09:38:10+00:00","link":"https://t.me/mod_russia/67597","text":"⚡️ В районе населенного пункта Доброполье подразделения 51-й армии в результате наступательных действий расширили внешнее кольцо окружения и освободили село Доброполье (Малое).\n🔹 Минобороны России","links":["https://max.ru/morf"],"original_html":"<tg-emoji emoji-id=\"5449911936361724483\"><i class=\"emoji\" style=\"background-image:url('//telegram.org/img/emoji/40/E29AA1.png')\"><b>⚡️</b></i></tg-emoji> В районе населенного пункта Доброполье подразделения 51-й армии в результате наступательных действий расширили внешнее кольцо окружения и <b>освободили село Доброполье (Малое).</b><br/><br/><tg-emoji emoji-id=\"5269510734265483362\"><i class=\"emoji\" style=\"background-image:url('//telegram.org/img/emoji/40/F09F94B9.png')\"><b>🔹</b></i></tg-emoji> <a href=\"https://max.ru/morf\" target=\"_blank\" rel=\"noopener\" onclick=\"return confirm('Open this link?\\n\\n'+this.href);\">Минобороны России</a>"}},{"type":"Feature","geometry":null,"properties":{"source":"ru_mod","source_name":"Ministry of Defence of Russia","group":"official_ru","id":67599,"posted_utc":"2026-09-24T09:40:31+00:00","link":"https://t.me/mod_russia/67599","text":"⚡️ Подразделения группировки войск «Восток» освободили населенный пункт Светлая Долина Запорожской области.\nПодробнее об успехах наших войск ➡️ в MAКС","links":["https://max.ru/morf/AaDSz1ljW3E"],"original_html":"<tg-emoji emoji-id=\"5449911936361724483\"><i class=\"emoji\" style=\"background-image:url('//telegram.org/img/emoji/40/E29AA1.png')\"><b>⚡️</b></i></tg-emoji> Подразделения группировки войск «Восток» <b>освободили населенный пункт Светлая Долина Запорожской области.</b><br/><br/>Подробнее об успехах наших войск <tg-emoji emoji-id=\"5469902676957357453\"><i class=\"emoji\" style=\"background-image:url('//telegram.org/img/emoji/40/E29EA1.png')\"><b>➡️</b></i></tg-emoji> <a href=\"https://max.ru/morf/AaDSz1ljW3E\" target=\"_blank\" rel=\"noopener\" onclick=\"return confirm('Open this link?\\n\\n'+this.href);\">в MAКС</a>"}},{"type":"Feature","geometry":null,"properties":{"source":"ru_mod","source_name":"Ministry of Defence of Russia","group":"official_ru","id":67601,"posted_utc":"2026-09-24T11:03:11+00:00","link":"https://t.me/mod_russia/67601","text":"▫️  Мастер-класс от разведчиков «Центра»\n📍  По сценарию тренировки разведгруппа скрытно вышла на маршрут и обнаружила укрепленный опорник, где прятались до 10 бойцов условного противника.\n⚡️️ Командир оценил обстановку и отдал приказ на штурм. Разведчики незаметно подобрались к позициям и под прикрытием дронов стремительно зачистили все траншеи и блиндажи.\n💬 Канал Минобороны России в MAКС – только для своих!","links":["https://max.ru/morf"],"original_html":"<tg-emoji emoji-id=\"5352532894478793783\"><i class=\"emoji\" style=\"background-image:url('//telegram.org/img/emoji/40/E296AB.png')\"><b>▫️</b></i></tg-emoji>  <b>Мастер-класс от разведчиков «Центра»</b><br/><br/><tg-emoji emoji-id=\"5469680584198483528\"><i class=\"emoji\" style=\"background-image:url('//telegram.org/img/emoji/40/F09F938D.png')\"><b>📍</b></i></tg-emoji>  По сценарию тренировки<b> разведгруппа скрытно вышла на маршрут и обнаружила укрепленный опорник</b>, где прятались до 10 бойцов условного противника.<br/><br/><tg-emoji emoji-id=\"5449911936361724483\"><i class=\"emoji\" style=\"background-image:url('//telegram.org/img/emoji/40/E29AA1.png')\"><b>⚡️</b></i></tg-emoji>️ Командир оценил обстановку и отдал приказ на штурм. Разведчики незаметно подобрались к позициям и под прикрытием дронов<b> стремительно зачистили все траншеи и блиндажи.<br/><br/></b><b><tg-emoji emoji-id=\"5447486370761176298\"><i class=\"emoji\" style=\"background-image:url('//telegram.org/img/emoji/40/F09F92AC.png')\"><b>💬</b></i></tg-emoji></b><b> </b><a href=\"https://max.ru/morf\" target=\"_blank\" rel=\"noopener\" onclick=\"return confirm('Open this link?\\n\\n'+this.href);\">Канал Минобороны России в MAКС – только для своих&#33;</a>"}},{"type":"Feature","geometry":null,"properties":{"source":"ru_mod","source_name":"Ministry of Defence of Russia","group":"official_ru","id":67602,"posted_utc":"2026-09-24T13:35:14+00:00","link":"https://t.me/mod_russia/67602","text":"❗️ Соединения и воинские части группировки войск «Центр» продолжают уничтожение окруженной группировки противника в городе Доброполье Донецкой Народной Республики и одновременно развивают наступление в направлении поселка Александровка.\n👉 Данное направление является одним из ключевых для достижения результатов по полному освобождению Донбасса и имеет принципиальное значение для ведения успешных наступательных операций Объединенной группировки войск.\n🚩 Связано это с тем, что с освобождением Доброполья значительно возрастает угроза потери противником основного укрепрайона ВСУ на территории Донбасса – Славянско-Краматорско-Дружковской агломерации.\n▫️ Доброполье представляет собой мощный укрепленный район ВСУ, который противник использовал для нанесения ударов во фланг и тыл нашей Южной группировки войск, наступающей на Дружковку.\n🛤 Наряду с этим Доброполье – важный транспортный узел, через который проходит одна из основных артерий снабжения ВСУ со стороны Днепропетровской области.\n▫️ Установление контроля над этим городом нарушит отлаженную систему обеспечения группировки противника не на отдельных отрезках, а во всей логистической цепочке снабжения украинской армии на Донбассе.\n↗️ Кроме того, взятие под контроль господствующих высот в районе Доброполья позволит российским войскам ускорить выход к границе Донецкой Народной Республики.\n▫️ Осознавая стратегическую важность данного укрепрайона, киевский режим стремится деблокировать окруженную группировку и не дать российской армии завершить освобождение города.\n▫️ Все атаки противника и попытки выхода из окружения пресекаются. При этом украинские войска несут существенные потери, в среднем каждый день уничтожается от 30 до 50 боевиков.\n🔹 Минобороны России","links":["https://max.ru/morf"],"original_html":"<tg-emoji emoji-id=\"5447116342148753425\"><i class=\"emoji\" style=\"background-image:url('//telegram.org/img/emoji/40/E29D97.png')\"><b>❗️</b></i></tg-emoji> Соединения и воинские части <b>группировки войск «Центр»</b> продолжают уничтожение окруженной группировки противника в городе Доброполье Донецкой Народной Республики и одновременно развивают наступление в направлении поселка Александровка.<br/><br/><i class=\"emoji\" style=\"background-image:url('//telegram.org/img/emoji/40/F09F9189.png')\"><b>👉</b></i> Данное направление является одним из ключевых<b> для достижения результатов по полному освобождению Донбасса</b> и имеет <b>принципиальное значение для ведения успешных наступательных операций Объединенной группировки войск.<br/></b><br/><tg-emoji emoji-id=\"5447466081335670917\"><i class=\"emoji\" style=\"background-image:url('//telegram.org/img/emoji/40/F09F9AA9.png')\"><b>🚩</b></i></tg-emoji> Связано это с тем, что с освобождением Доброполья значительно возрастает <b>угроза потери противником основного укрепрайона ВСУ на территории Донбасса – Славянско-Краматорско-Дружковской агломерации.</b><br/><br/><tg-emoji emoji-id=\"5469903849483431273\"><i class=\"emoji\" style=\"background-image:url('//telegram.org/img/emoji/40/E296AB.png')\"><b>▫️</b></i></tg-emoji> Доброполье представляет собой<b> мощный укрепленный район ВСУ</b>, который противник использовал для нанесения ударов во фланг и тыл нашей Южной группировки войск, наступающей на Дружковку.<br/><br/><i class=\"emoji\" style=\"background-image:url('//telegram.org/img/emoji/40/F09F9BA4.png')\"><b>🛤</b></i> Наряду с этим Доброполье – <b>важный транспортный узел, через который проходит одна из основных артерий снабжения ВСУ</b> со стороны Днепропетровской области. <br/><br/><tg-emoji emoji-id=\"5469903849483431273\"><i class=\"emoji\" style=\"background-image:url('//telegram.org/img/emoji/40/E296AB.png')\"><b>▫️</b></i></tg-emoji> Установление контроля над этим городом нарушит отлаженную систему обеспечения группировки противника не на отдельных отрезках, а во всей логистической цепочке снабжения украинской армии на Донбассе.<br/><br/><tg-emoji emoji-id=\"5352838429862296415\"><i class=\"emoji\" style=\"background-image:url('//telegram.org/img/emoji/40/E28697.png')\"><b>↗️</b></i></tg-emoji> Кроме того, взятие под контроль господствующих высот в районе Доброполья позволит российским войскам <b>ускорить выход к границе Донецкой Народной Республики.</b><br/><br/><tg-emoji emoji-id=\"5469903849483431273\"><i class=\"emoji\" style=\"background-image:url('//telegram.org/img/emoji/40/E296AB.png')\"><b>▫️</b></i></tg-emoji> Осознавая стратегическую важность данного укрепрайона, киевский режим стремится деблокировать окруженную группировку и не дать российской армии завершить освобождение города. <br/><br/><tg-emoji emoji-id=\"5352532894478793783\"><i class=\"emoji\" style=\"background-image:url('//telegram.org/img/emoji/40/E296AB.png')\"><b>▫️</b></i></tg-emoji> Все атаки противника и попытки выхода из окружения пресекаются. При этом <b>украинские войска несут существенные потери, в среднем каждый день уничтожается от 30 до 50 боевиков.</b><br/><br/><tg-emoji emoji-id=\"5269510734265483362\"><i class=\"emoji\" style=\"background-image:url('//telegram.org/img/emoji/40/F09F94B9.png')\"><b>🔹</b></i></tg-emoji> <a href=\"https://max.ru/morf\" target=\"_blank\" rel=\"noopener\" onclick=\"return confirm('Open this link?\\n\\n'+this.href);\">Минобороны России</a>"}},{"type":"Feature","geometry":null,"properties":{"source":"ru_mod","source_name":"Ministry of Defence of Russia","group":"official_ru","id":67603,"posted_utc":"2026-09-24T14:46:21+00:00","link":"https://t.me/mod_russia/67603","text":"🎮 По ползущим и летящим гадам бьем\nОператоры БПЛА сжигают автомобильную технику, НРТК и тяжелые гексакоптеры противника, срывая подвоз материальных средств в Запорожской области.\n#ВойскаБПС\n🔹 Канал Минобороны России в MAКС – боевая работа 24/7","links":["https://max.ru/morf"],"original_html":"<b><tg-emoji emoji-id=\"5449767024165154360\"><i class=\"emoji\" style=\"background-image:url('//telegram.org/img/emoji/40/F09F8EAE.png')\"><b>🎮</b></i></tg-emoji></b><b> По ползущим и летящим гадам бьем</b><br/><br/>Операторы БПЛА сжигают автомобильную технику, НРТК и тяжелые гексакоптеры противника, срывая подвоз материальных средств в Запорожской области. <br/><br/><a href=\"?q=%23%D0%92%D0%BE%D0%B9%D1%81%D0%BA%D0%B0%D0%91%D0%9F%D0%A1\">#ВойскаБПС</a><br/><tg-emoji emoji-id=\"5269510734265483362\"><i class=\"emoji\" style=\"background-image:url('//telegram.org/img/emoji/40/F09F94B9.png')\"><b>🔹</b></i></tg-emoji> <a href=\"https://max.ru/morf\" target=\"_blank\" rel=\"noopener\" onclick=\"return confirm('Open this link?\\n\\n'+this.href);\">Канал Минобороны России в MAКС – боевая работа 24/7</a>"}},{"type":"Feature","geometry":null,"properties":{"source":"ru_mod","source_name":"Ministry of Defence of Russia","group":"official_ru","id":67604,"posted_utc":"2026-09-24T15:28:37+00:00","link":"https://t.me/mod_russia/67604","text":"❗️ Сегодня днем Вооруженными Силами Российской Федерации нанесены удары беспилотными летательными аппаратами по логистическим и складским терминалам, используемым в интересах обеспечения деятельности ВСУ, а также морским судам, задействованным в доставке военных грузов на Украину.\n💥  В результате ударов в Одесской области поражены:\n▫️ логистический центр в г. Одессе, осуществляющий хранение и распределение грузов военного назначения, поступающих на Украину из европейских государств;\n▫️ склад беспилотных летательных аппаратов в н.п. Новые Беляры Одесской области.\n💥  Кроме того, на переходе морем поражено морское судно типа «сухогруз», доставлявшее в порт Одесса военное имущество для обеспечения ВСУ.\n🔹 Минобороны России","links":["https://max.ru/morf"],"original_html":"<tg-emoji emoji-id=\"5447116342148753425\"><i class=\"emoji\" style=\"background-image:url('//telegram.org/img/emoji/40/E29D97.png')\"><b>❗️</b></i></tg-emoji> <b>Сегодня днем Вооруженными Силами Российской Федерации нанесены удары беспилотными летательными аппаратами по логистическим и складским терминалам, используемым в интересах обеспечения деятельности ВСУ, а также морским судам, задействованным в доставке военных грузов на Украину.</b><br/><br/><tg-emoji emoji-id=\"5449682610877918293\"><i class=\"emoji\" style=\"background-image:url('//telegram.org/img/emoji/40/F09F92A5.png')\"><b>💥</b></i></tg-emoji>  В результате ударов в <b>Одесской области</b> <b>поражены:</b><br/><br/><tg-emoji emoji-id=\"5469903849483431273\"><i class=\"emoji\" style=\"background-image:url('//telegram.org/img/emoji/40/E296AB.png')\"><b>▫️</b></i></tg-emoji> логистический центр в г. Одессе, осуществляющий хранение и распределение грузов военного назначения, поступающих на Украину из европейских государств;<br/><br/><tg-emoji emoji-id=\"5469903849483431273\"><i class=\"emoji\" style=\"background-image:url('//telegram.org/img/emoji/40/E296AB.png')\"><b>▫️</b></i></tg-emoji> склад беспилотных летательных аппаратов в н.п. Новые Беляры Одесской области.<br/><br/><tg-emoji emoji-id=\"5449682610877918293\"><i class=\"emoji\" style=\"background-image:url('//telegram.org/img/emoji/40/F09F92A5.png')\"><b>💥</b></i></tg-emoji>  Кроме того, на переходе морем поражено морское судно типа «сухогруз», доставлявшее в порт Одесса военное имущество для обеспечения ВСУ.<br/><br/><tg-emoji emoji-id=\"5269510734265483362\"><i class=\"emoji\" style=\"background-image:url('//telegram.org/img/emoji/40/F09F94B9.png')\"><b>🔹</b></i></tg-emoji> <a href=\"https://max.ru/morf\" target=\"_blank\" rel=\"noopener\" onclick=\"return confirm('Open this link?\\n\\n'+this.href);\">Минобороны России</a>"}},{"type":"Feature","geometry":null,"properties":{"source":"ru_mod","source_name":"Ministry of Defence of Russia","group":"official_ru","id":67605,"posted_utc":"2026-09-24T17:33:00+00:00","link":"https://t.me/mod_russia/67605","text":"⚡ В течение дня в период с 8.00 мск до 20.00 мск дежурными силами ПВО перехвачены и уничтожены 34 украинских беспилотных летательных аппарата самолетного типа над территориями Белгородской, Курской областей, Республики Крым и над акваторией Черного моря.\n🔹 Курс на MAКС!","links":["https://max.ru/morf"],"original_html":"<i class=\"emoji\" style=\"background-image:url('//telegram.org/img/emoji/40/E29AA1.png')\"><b>⚡</b></i> В течение дня в период с 8.00 мск до 20.00 мск дежурными силами ПВО <b>перехвачены и уничтожены 34 украинских беспилотных летательных аппарата самолетного типа</b> над территориями Белгородской, Курской областей, Республики Крым и над акваторией Черного моря.<br/><br/><tg-emoji emoji-id=\"5269510734265483362\"><i class=\"emoji\" style=\"background-image:url('//telegram.org/img/emoji/40/F09F94B9.png')\"><b>🔹</b></i></tg-emoji> <a href=\"https://max.ru/morf\" target=\"_blank\" rel=\"noopener\" onclick=\"return confirm('Open this link?\\n\\n'+this.href);\">Курс на MAКС&#33;</a>"}},{"type":"Feature","geometry":null,"properties":{"source":"ru_mod","source_name":"Ministry of Defence of Russia","group":"official_ru","id":67606,"posted_utc":"2026-09-24T17:38:16+00:00","link":"https://t.me/mod_russia/67606","text":"💥  Ребята отлично отработали!\nРасчёт Д-30 группировки «Центр» уничтожил пункт управления БПЛА противника.\n📍 Днепропетровское направление\n▫️ Канал Минобороны России в MAКС – источник мощных новостей","links":["https://max.ru/morf"],"original_html":"<tg-emoji emoji-id=\"5449682610877918293\"><i class=\"emoji\" style=\"background-image:url('//telegram.org/img/emoji/40/F09F92A5.png')\"><b>💥</b></i></tg-emoji> <b> Ребята отлично отработали&#33;</b><br/><br/>Расчёт Д-30 группировки «Центр» <b>уничтожил пункт управления БПЛА противника.</b><br/><br/><tg-emoji emoji-id=\"5469680584198483528\"><i class=\"emoji\" style=\"background-image:url('//telegram.org/img/emoji/40/F09F938D.png')\"><b>📍</b></i></tg-emoji> <i>Днепропетровское направление<br/><br/></i><i><tg-emoji emoji-id=\"5352532894478793783\"><i class=\"emoji\" style=\"background-image:url('//telegram.org/img/emoji/40/E296AB.png')\"><b>▫️</b></i></tg-emoji></i><i> </i><a href=\"https://max.ru/morf\" target=\"_blank\" rel=\"noopener\" onclick=\"return confirm('Open this link?\\n\\n'+this.href);\">Канал Минобороны России в MAКС – источник мощных новостей</a>"}},{"type":"Feature","geometry":null,"properties":{"source":"ru_mod","source_name":"Ministry of Defence of Russia","group":"official_ru","id":67607,"posted_utc":"2026-09-24T18:05:31+00:00","link":"https://t.me/mod_russia/67607","text":"Вперед!\nЗадачи знаем, работы не боимся)\n#СобытиеДня\n🔹 Курс на MAКС!","links":["https://max.ru/morf"],"original_html":"<b>Вперед&#33;<br/>Задачи знаем, работы не боимся)</b><br/><br/><a href=\"?q=%23%D0%A1%D0%BE%D0%B1%D1%8B%D1%82%D0%B8%D0%B5%D0%94%D0%BD%D1%8F\">#СобытиеДня</a><br/><tg-emoji emoji-id=\"5269510734265483362\"><i class=\"emoji\" style=\"background-image:url('//telegram.org/img/emoji/40/F09F94B9.png')\"><b>🔹</b></i></tg-emoji> <a href=\"https://max.ru/morf\" target=\"_blank\" rel=\"noopener\" onclick=\"return confirm('Open this link?\\n\\n'+this.href);\">Курс на MAКС&#33;</a>"}},{"type":"Feature","geometry":null,"properties":{"source":"ru_mod","source_name":"Ministry of Defence of Russia","group":"official_ru","id":67608,"posted_utc":"2026-09-24T18:32:31+00:00","link":"https://t.me/mod_russia/67608","text":"📆 Главное за день\n🚩 Противник в западне: в кольце окружения в Харьковской области взяты под контроль населенные пункты Бузово и Хижняково, в ДНР в районе населенного пункта Доброполье расширили внешнее кольцо окружения и освободили село Доброполье (Малое), а в Запорожской области – Светлую Долину.\n💥 Вразумляющие доводы: нанесли массированный удар по промышленным предприятиям Украины, телекоммуникационным и логистическим центрам, а также морским судам, задействованным в интересах ВСУ.\n↗️ Натиск «Центра»: соединения и воинские части группировки продолжают уничтожение окруженной группировки противника в городе Доброполье в Донецкой Народной Республике и одновременно развивают наступление в направлении поселка Александровка.\n✈️ Боевой апгрейд: ВКС приняли партию истребителей Су-57 в новом техническом облике.\n👊 Разложили как по нотам: бойцы рассказали об освобождении Польной в Харьковской области.\n☦️ В молитве попросили покрова: в Крыму состоялись торжественные богослужения в честь обретения мощей святого благоверного князя Дмитрия Донского.\n⚡️ Работаем без пауз, повышаем градус!\n#ИтогиДня\n🔹 Минобороны России","links":["https://t.me/mod_russia/67595","https://t.me/mod_russia/67597","https://t.me/mod_russia/67599","https://t.me/mod_russia/67587","https://t.me/mod_russia/67602","https://t.me/mod_russia/67594","https://t.me/mod_russia/67593","https://t.me/mod_russia/67586","https://max.ru/morf"],"original_html":"<tg-emoji emoji-id=\"5472282252048104170\"><i class=\"emoji\" style=\"background-image:url('//telegram.org/img/emoji/40/F09F9386.png')\"><b>📆</b></i></tg-emoji> <b>Главное за день</b><br/><br/><tg-emoji emoji-id=\"5447466081335670917\"><i class=\"emoji\" style=\"background-image:url('//telegram.org/img/emoji/40/F09F9AA9.png')\"><b>🚩</b></i></tg-emoji> <b>Противник в западне: </b>в кольце окружения в Харьковской области <a href=\"https://t.me/mod_russia/67595\" target=\"_blank\" rel=\"noopener\" onclick=\"return confirm('Open this link?\\n\\n'+this.href);\">взяты под контроль</a> населенные пункты Бузово и Хижняково, в ДНР в районе населенного пункта Доброполье расширили внешнее кольцо окружения и <a href=\"https://t.me/mod_russia/67597\" target=\"_blank\" rel=\"noopener\" onclick=\"return confirm('Open this link?\\n\\n'+this.href);\">освободили</a> село Доброполье (Малое), а в Запорожской области – <a href=\"https://t.me/mod_russia/67599\" target=\"_blank\" rel=\"noopener\" onclick=\"return confirm('Open this link?\\n\\n'+this.href);\">Светлую Долину</a>.<br/><br/><tg-emoji emoji-id=\"5449682610877918293\"><i class=\"emoji\" style=\"background-image:url('//telegram.org/img/emoji/40/F09F92A5.png')\"><b>💥</b></i></tg-emoji> <b>Вразумляющие доводы: </b><a href=\"https://t.me/mod_russia/67587\" target=\"_blank\" rel=\"noopener\" onclick=\"return confirm('Open this link?\\n\\n'+this.href);\">нанесли</a> массированный удар по промышленным предприятиям Украины, телекоммуникационным и логистическим центрам, а также морским судам, задействованным в интересах ВСУ.<br/><br/><tg-emoji emoji-id=\"5352838429862296415\"><i class=\"emoji\" style=\"background-image:url('//telegram.org/img/emoji/40/E28697.png')\"><b>↗️</b></i></tg-emoji> <b>Натиск «Центра»:</b> соединения и воинские части группировки <a href=\"https://t.me/mod_russia/67602\" target=\"_blank\" rel=\"noopener\" onclick=\"return confirm('Open this link?\\n\\n'+this.href);\">продолжают уничтожение</a> окруженной группировки противника в городе Доброполье в Донецкой Народной Республике и одновременно развивают наступление в направлении поселка Александровка.<br/><br/><tg-emoji emoji-id=\"5449403034276751727\"><i class=\"emoji\" style=\"background-image:url('//telegram.org/img/emoji/40/E29C88.png')\"><b>✈️</b></i></tg-emoji> <b>Боевой апгрейд: </b>ВКС <a href=\"https://t.me/mod_russia/67594\" target=\"_blank\" rel=\"noopener\" onclick=\"return confirm('Open this link?\\n\\n'+this.href);\">приняли</a> партию истребителей Су-57 в новом техническом облике.<br/><br/><i class=\"emoji\" style=\"background-image:url('//telegram.org/img/emoji/40/F09F918A.png')\"><b>👊</b></i> <b>Разложили как по нотам:</b> бойцы <a href=\"https://t.me/mod_russia/67593\" target=\"_blank\" rel=\"noopener\" onclick=\"return confirm('Open this link?\\n\\n'+this.href);\">рассказали</a> об освобождении Польной в Харьковской области.<br/><br/><i class=\"emoji\" style=\"background-image:url('//telegram.org/img/emoji/40/E298A6.png')\"><b>☦️</b></i> <b>В молитве попросили покрова:</b> в Крыму <a href=\"https://t.me/mod_russia/67586\" target=\"_blank\" rel=\"noopener\" onclick=\"return confirm('Open this link?\\n\\n'+this.href);\">состоялись</a> торжественные богослужения в честь обретения мощей святого благоверного князя Дмитрия Донского.<br/><br/><tg-emoji emoji-id=\"5449911936361724483\"><i class=\"emoji\" style=\"background-image:url('//telegram.org/img/emoji/40/E29AA1.png')\"><b>⚡️</b></i></tg-emoji> <b>Работаем без пауз, повышаем градус&#33;<br/> </b><br/><a href=\"?q=%23%D0%98%D1%82%D0%BE%D0%B3%D0%B8%D0%94%D0%BD%D1%8F\">#ИтогиДня</a><br/><tg-emoji emoji-id=\"5269510734265483362\"><i class=\"emoji\" style=\"background-image:url('//telegram.org/img/emoji/40/F09F94B9.png')\"><b>🔹</b></i></tg-emoji> <a href=\"https://max.ru/morf\" target=\"_blank\" rel=\"noopener\" onclick=\"return confirm('Open this link?\\n\\n'+this.href);\">Минобороны России</a>"}},{"type":"Feature","geometry":null,"properties":{"source":"ru_mod","source_name":"Ministry of Defence of Russia","group":"official_ru","id":67609,"posted_utc":"2026-09-24T19:03:30+00:00","link":"https://t.me/mod_russia/67609","text":"Огнем полыхает закат 🌅\nЭто мы продолжаем накат!\nНаш бой продолжается! ▫️\n💬 Канал Минобороны России в MAКС – только для своих!","links":["https://max.ru/morf"],"original_html":"<b>Огнем полыхает закат </b><i class=\"emoji\" style=\"background-image:url('//telegram.org/img/emoji/40/F09F8C85.png')\"><b>🌅</b></i> <br/><b>Это мы продолжаем накат&#33;</b> <br/><br/><i>Наш бой продолжается&#33; </i><tg-emoji emoji-id=\"5352532894478793783\"><i class=\"emoji\" style=\"background-image:url('//telegram.org/img/emoji/40/E296AB.png')\"><b>▫️</b></i></tg-emoji><br/><br/><tg-emoji emoji-id=\"5447486370761176298\"><i class=\"emoji\" style=\"background-image:url('//telegram.org/img/emoji/40/F09F92AC.png')\"><b>💬</b></i></tg-emoji> <a href=\"https://max.ru/morf\" target=\"_blank\" rel=\"noopener\" onclick=\"return confirm('Open this link?\\n\\n'+this.href);\">Канал Минобороны России в MAКС – только для своих&#33;</a>"}},{"type":"Feature","geometry":null,"properties":{"source":"ru_mod","source_name":"Ministry of Defence of Russia","group":"official_ru","id":67610,"posted_utc":"2026-09-24T22:00:45+00:00","link":"https://t.me/mod_russia/67610","text":"▫️ Инженером супер можешь стать. Здесь тебя научат!\n▫️  Нижегородское гвардейское военно-инженерное командное училище – твой выбор. В вузе дают прикладные навыки военного инженера – от возведения фортификационных сооружений до управления беспилотниками. Здесь учат маскировать позиции и технику, наводить понтонные переправы, использовать военные дроны, роботы и современные системы минирования.\n📆  В субботу, 26 сентября НГВВИКУ приглашает всех желающих на День открытых дверей.\n📍   Адрес: 607654, Нижегородская обл., г. Кстово, пер. Энтузиастов, д. 17\n📞  Телефон: 8-831-453-53-16 (Приёмная комиссия)\nℹ️  Информация для поступающих: https://nvviku.mil.ru/postupayushhim\n#ЕстьТакаяПрофессия\n🔹 MAКС – территория СВОих","links":["https://nvviku.mil.ru/postupayushhim","https://max.ru/morf"],"original_html":"<tg-emoji emoji-id=\"5249179106410525413\"><i class=\"emoji\" style=\"background-image:url('//telegram.org/img/emoji/40/E296AB.png')\"><b>▫️</b></i></tg-emoji> <b>Инженером супер можешь стать. Здесь тебя научат&#33;</b><br/><br/><tg-emoji emoji-id=\"5352532894478793783\"><i class=\"emoji\" style=\"background-image:url('//telegram.org/img/emoji/40/E296AB.png')\"><b>▫️</b></i></tg-emoji>  <b>Нижегородское гвардейское военно-инженерное командное училище – твой выбор. </b>В вузе дают прикладные навыки военного инженера – от возведения фортификационных сооружений до управления беспилотниками. Здесь учат маскировать позиции и технику, наводить понтонные переправы, использовать военные дроны, роботы и современные системы минирования.<br/><br/><tg-emoji emoji-id=\"5472282252048104170\"><i class=\"emoji\" style=\"background-image:url('//telegram.org/img/emoji/40/F09F9386.png')\"><b>📆</b></i></tg-emoji>  <b>В субботу, 26 сентября НГВВИКУ приглашает всех желающих на День открытых дверей.</b><br/><br/><tg-emoji emoji-id=\"5469680584198483528\"><i class=\"emoji\" style=\"background-image:url('//telegram.org/img/emoji/40/F09F938D.png')\"><b>📍</b></i></tg-emoji>   <b>Адрес:</b> 607654, Нижегородская обл., г. Кстово, пер. Энтузиастов, д. 17<br/><i class=\"emoji\" style=\"background-image:url('//telegram.org/img/emoji/40/F09F939E.png')\"><b>📞</b></i>  <b>Телефон:</b> 8-831-453-53-16 (Приёмная комиссия)<br/><i class=\"emoji\" style=\"background-image:url('//telegram.org/img/emoji/40/E284B9.png')\"><b>ℹ️</b></i>  <b>Информация для поступающих:</b> <a href=\"https://nvviku.mil.ru/postupayushhim\" target=\"_blank\" rel=\"noopener\"><u>https://nvviku.mil.ru/postupayushhim</u></a><br/><br/><a href=\"?q=%23%D0%95%D1%81%D1%82%D1%8C%D0%A2%D0%B0%D0%BA%D0%B0%D1%8F%D0%9F%D1%80%D0%BE%D1%84%D0%B5%D1%81%D1%81%D0%B8%D1%8F\">#ЕстьТакаяПрофессия</a><br/><tg-emoji emoji-id=\"5269510734265483362\"><i class=\"emoji\" style=\"background-image:url('//telegram.org/img/emoji/40/F09F94B9.png')\"><b>🔹</b></i></tg-emoji> <a href=\"https://max.ru/morf\" target=\"_blank\" rel=\"noopener\" onclick=\"return confirm('Open this link?\\n\\n'+this.href);\">MAКС – территория СВОих</a>"}},{"type":"Feature","geometry":null,"properties":{"source":"ru_mod","source_name":"Ministry of Defence of Russia","group":"official_ru","id":67585,"posted_utc":"2026-09-24T02:01:01+00:00","link":"https://t.me/mod_russia/67585","text":"💥 Дуэт «Кота» и пса разносит врага\n💬 Механик-водитель расчёта «Тюльпана» с позывным «Кот» рассказал, как им удаётся за 15 минут раскатать противника их «маленькой машинкой».\n🐶 Успешно выполнять боевые задачи парням помогает их четвероногий друг – пёс «Тюбик»:\n«Когда небо неспокойно, он постоянно предупреждает нас. Сразу в воздух начинает лаять, суету наводит».\n✈️ Курс на MAКС!","links":["https://max.ru/morf"],"original_html":"<b><tg-emoji emoji-id=\"5449682610877918293\"><i class=\"emoji\" style=\"background-image:url('//telegram.org/img/emoji/40/F09F92A5.png')\"><b>💥</b></i></tg-emoji></b><b> Дуэт «Кота» и пса разносит врага</b><br/><br/><tg-emoji emoji-id=\"5447486370761176298\"><i class=\"emoji\" style=\"background-image:url('//telegram.org/img/emoji/40/F09F92AC.png')\"><b>💬</b></i></tg-emoji> Механик-водитель расчёта «Тюльпана» с позывным «Кот» <b>рассказал, как им удаётся за 15 минут раскатать противника </b>их «маленькой машинкой».<br/><br/><i class=\"emoji\" style=\"background-image:url('//telegram.org/img/emoji/40/F09F90B6.png')\"><b>🐶</b></i> Успешно выполнять боевые задачи <b>парням помогает их четвероногий друг – пёс «Тюбик»:</b><br/><br/><blockquote>«Когда небо неспокойно, он постоянно предупреждает нас. Сразу в воздух начинает лаять, суету наводит».</blockquote><br/><br/><tg-emoji emoji-id=\"5449403034276751727\"><i class=\"emoji\" style=\"background-image:url('//telegram.org/img/emoji/40/E29C88.png')\"><b>✈️</b></i></tg-emoji> <a href=\"https://max.ru/morf\" target=\"_blank\" rel=\"noopener\" onclick=\"return confirm('Open this link?\\n\\n'+this.href);\">Курс на MAКС&#33;</a>"}},{"type":"Feature","geometry":null,"properties":{"source":"ru_mod","source_name":"Ministry of Defence of Russia","group":"official_ru","id":67586,"posted_utc":"2026-09-24T03:51:01+00:00","link":"https://t.me/mod_russia/67586","text":"☦️ В молитве попросили покрова\nВ Крыму состоялись торжественные богослужения в честь обретения мощей святого благоверного князя Дмитрия Донского. Молебен прошел в Севастополе, в храме 18-й общевойсковой армии Южного военного округа, который носит имя великого князя.\n🔹 MAКС – территория СВОих","links":["https://max.ru/morf"],"original_html":"<b><i class=\"emoji\" style=\"background-image:url('//telegram.org/img/emoji/40/E298A6.png')\"><b>☦️</b></i> В молитве попросили покрова</b><br/><b><br/>В Крыму состоялись торжественные богослужения в честь обретения мощей святого благоверного князя Дмитрия Донского</b>. Молебен прошел в Севастополе, в храме 18-й общевойсковой армии Южного военного округа, который носит имя великого князя.<br/><br/><tg-emoji emoji-id=\"5269510734265483362\"><i class=\"emoji\" style=\"background-image:url('//telegram.org/img/emoji/40/F09F94B9.png')\"><b>🔹</b></i></tg-emoji> <a href=\"https://max.ru/morf\" target=\"_blank\" rel=\"noopener\" onclick=\"return confirm('Open this link?\\n\\n'+this.href);\">MAКС – территория СВОих</a>"}},{"type":"Feature","geometry":null,"properties":{"source":"ru_mod","source_name":"Ministry of Defence of Russia","group":"official_ru","id":67587,"posted_utc":"2026-09-24T05:09:16+00:00","link":"https://t.me/mod_russia/67587","text":"❗️ Сегодня ночью Вооруженными Силами Российской Федерации в результате массированного удара высокоточным оружием наземного и воздушного базирования, беспилотными летательными аппаратами поражены предприятия военно-промышленного комплекса Украины, телекоммуникационные и логистические центры в Киеве и Одесской области, а также морские суда, задействованные в интересах ВСУ.\n🔹 Минобороны России","links":["https://max.ru/morf"],"original_html":"<tg-emoji emoji-id=\"5447116342148753425\"><i class=\"emoji\" style=\"background-image:url('//telegram.org/img/emoji/40/E29D97.png')\"><b>❗️</b></i></tg-emoji> Сегодня ночью Вооруженными Силами Российской Федерации <b>в результате массированного удара</b> высокоточным оружием наземного и воздушного базирования, беспилотными летательными аппаратами <b>поражены предприятия военно-промышленного комплекса Украины, телекоммуникационные и логистические центры </b>в Киеве и Одесской области, а также <b>морские суда</b>, задействованные в интересах ВСУ.<br/><br/><tg-emoji emoji-id=\"5269510734265483362\"><i class=\"emoji\" style=\"background-image:url('//telegram.org/img/emoji/40/F09F94B9.png')\"><b>🔹</b></i></tg-emoji> <a href=\"https://max.ru/morf\" target=\"_blank\" rel=\"noopener\" onclick=\"return confirm('Open this link?\\n\\n'+this.href);\">Минобороны России</a>"}},{"type":"Feature","geometry":null,"properties":{"source":"ru_mod","source_name":"Ministry of Defence of Russia","group":"official_ru","id":67588,"posted_utc":"2026-09-24T05:43:49+00:00","link":"https://t.me/mod_russia/67588","text":"⚡️ В течение прошедшей ночи в период с 20.00 мск 23 сентября до 8.00 мск 24 сентября дежурными силами ПВО перехвачены и уничтожены 40 украинских беспилотных летательных аппаратов самолетного типа над территориями Брянской, Белгородской, Курской, Тверской, Ростовской областей, Краснодарского края и Республики Крым.\n🔹 Канал Минобороны России в MAКС – только для своих!","links":["https://max.ru/morf"],"original_html":"<tg-emoji emoji-id=\"5449911936361724483\"><i class=\"emoji\" style=\"background-image:url('//telegram.org/img/emoji/40/E29AA1.png')\"><b>⚡️</b></i></tg-emoji> В течение прошедшей ночи в период с 20.00 мск 23 сентября до 8.00 мск 24 сентября дежурными силами ПВО <b>перехвачены и уничтожены 40 украинских беспилотных летательных аппаратов самолетного типа</b> над территориями Брянской, Белгородской, Курской, Тверской, Ростовской областей, Краснодарского края и Республики Крым.<br/><br/><tg-emoji emoji-id=\"5269510734265483362\"><i class=\"emoji\" style=\"background-image:url('//telegram.org/img/emoji/40/F09F94B9.png')\"><b>🔹</b></i></tg-emoji> <a href=\"https://max.ru/morf\" target=\"_blank\" rel=\"noopener\" onclick=\"return confirm('Open this link?\\n\\n'+this.href);\">Канал Минобороны России в MAКС – только для своих&#33;</a>"}},{"type":"Feature","geometry":null,"properties":{"source":"ru_mod","source_name":"Ministry of Defence of Russia","group":"official_ru","id":67589,"posted_utc":"2026-09-24T05:47:51+00:00","link":"https://t.me/mod_russia/67589","text":"❗️ Сегодня ночью Вооруженными Силами Российской Федерации в результате массированного удара высокоточным оружием наземного и воздушного базирования, беспилотными летательными аппаратами поражены предприятия военно-промышленного комплекса Украины, телекоммуникационные…","links":[],"original_html":"<tg-emoji emoji-id=\"5447116342148753425\"><i class=\"emoji\" style=\"background-image:url('//telegram.org/img/emoji/40/E29D97.png')\"><b>❗️</b></i></tg-emoji> Сегодня ночью Вооруженными Силами Российской Федерации в результате массированного удара высокоточным оружием наземного и воздушного базирования, беспилотными летательными аппаратами поражены предприятия военно-промышленного комплекса Украины, телекоммуникационные…"}}]}