{"type":"FeatureCollection","features":[{"type":"Feature","geometry":{"type":"Point","coordinates":[34.192083,45.528556]},"properties":{"source":"geoconfirmed","source_name":"GeoConfirmed","source_url":"https://geoconfirmed.org/map/ukraine","id":"5fc8c2a9-03a9-472f-bc0b-00e54a482380","date":"2026-09-22","link":"https://geoconfirmed.org/map/ukraine/5fc8c2a9-03a9-472f-bc0b-00e54a482380","category":"Longe Range (>50km) OWAD (One Way Attack Drone) or Loitering munition, mostly fixed wing, Flying OR Attacking a target without knowing the outcome: if something is damaged --> icon of the damaged equipment.","side":"Ukraine","color":"#0051CA","description":"2:02-2:07 (left) - Drone strike on a Gas Distribution Station","orbat":["9th Long-Range Strike Battalion \"Kairos\""],"geolocation":["https://bsky.app/profile/eole2002.bsky.social/post/3mw6pl542d227"],"sources":["https://x.com/414magyarbirds/status/2102644574829044049","https://www.youtube.com/watch?v=sblRSKUAz9c","https://t.me/robert_magyar/2841"]}},{"type":"Feature","geometry":{"type":"Point","coordinates":[32.592854,46.635625]},"properties":{"source":"geoconfirmed","source_name":"GeoConfirmed","source_url":"https://geoconfirmed.org/map/ukraine","id":"f845f15d-e52b-44b9-b094-0e840a3d50ef","date":"2026-09-22","link":"https://geoconfirmed.org/map/ukraine/f845f15d-e52b-44b9-b094-0e840a3d50ef","category":"Multipurpose Bomber Drone, Flying OR Dropping OR bombing a target without knowing the outcome: if something is damaged --> icon of the damaged equipment.","side":"Russia","color":"#E00000","description":"A Russian drone dropped a grenade on a person.","orbat":[],"geolocation":["https://x.com/99Dominik_/status/2102491900016025981"],"sources":["https://x.com/99Dominik_/status/2102492119688753648","https://t.me/zona_Red/1676","https://t.me/zona_Red/1677"]}},{"type":"Feature","geometry":{"type":"Point","coordinates":[35.889332,46.720321]},"properties":{"source":"geoconfirmed","source_name":"GeoConfirmed","source_url":"https://geoconfirmed.org/map/ukraine","id":"9aac3881-9785-4507-9c6b-1971266f44a1","date":"2026-09-22","link":"https://geoconfirmed.org/map/ukraine/9aac3881-9785-4507-9c6b-1971266f44a1","category":"Recently Destroyed/Damaged[Visible in footage] Logistical Trucks (Soft skin OR armoured)","side":"Unknown","color":"#666666","description":"0:20 -0:54 - Driver films a destroyed truck, presumably from Ukrainian drone strike, east of Volodomyrivka, Zaporizhia  Oblast (with more visible smoke ahead)","orbat":[],"geolocation":["https://x.com/neonhandrail/status/2102538680909074794"],"sources":["https://x.com/bayraktar_1love/status/2102434115962188061","https://x.com/Exilenova_plus/status/2102433084004003949","https://x.com/neonhandrail/status/2102538826350780643"]}},{"type":"Feature","geometry":{"type":"Point","coordinates":[50.07774,53.109617]},"properties":{"source":"geoconfirmed","source_name":"GeoConfirmed","source_url":"https://geoconfirmed.org/map/ukraine","id":"ddb09ec5-622c-4cf0-ba64-1c64fb8b4227","date":"2026-09-22","link":"https://geoconfirmed.org/map/ukraine/ddb09ec5-622c-4cf0-ba64-1c64fb8b4227","category":"Picture - Always Point of View in description - - In the colour of who is doing the attack or is responsable for the incident in the picture.","side":"Ukraine","color":"#0051CA","description":"POV - Kubyshevsky refinery on fire","orbat":[],"geolocation":["https://x.com/neonhandrail/status/2102220448067150113"],"sources":["https://x.com/Exilenova_plus/status/2102212833589215358","https://t.me/exilenova_plus/31401?single"]}},{"type":"Feature","geometry":{"type":"Point","coordinates":[33.754111,44.645833]},"properties":{"source":"geoconfirmed","source_name":"GeoConfirmed","source_url":"https://geoconfirmed.org/map/ukraine","id":"bfe040af-0a08-4d1e-aebf-219a428b410e","date":"2026-09-22","link":"https://geoconfirmed.org/map/ukraine/bfe040af-0a08-4d1e-aebf-219a428b410e","category":"Longe Range (>50km) OWAD (One Way Attack Drone) or Loitering munition, mostly fixed wing, Flying OR Attacking a target without knowing the outcome: if something is damaged --> icon of the damaged equipment.","side":"Ukraine","color":"#0051CA","description":"1:56-2:01 (left) - Drone strike on a Gas Distribution Station","orbat":["9th Long-Range Strike Battalion \"Kairos\""],"geolocation":["https://bsky.app/profile/eole2002.bsky.social/post/3mw6co5tkok2g"],"sources":["https://x.com/414magyarbirds/status/2102644574829044049","https://www.youtube.com/watch?v=sblRSKUAz9c","https://t.me/robert_magyar/2841"]}},{"type":"Feature","geometry":{"type":"Point","coordinates":[36.258436,50.0917]},"properties":{"source":"geoconfirmed","source_name":"GeoConfirmed","source_url":"https://geoconfirmed.org/map/ukraine","id":"09a028fb-625d-4289-b9eb-3218ccdb0c2e","date":"2026-09-22","link":"https://geoconfirmed.org/map/ukraine/09a028fb-625d-4289-b9eb-3218ccdb0c2e","category":"Killed or wounded civilian. Potential Warcrime. In the colour of who is assessed as doing the attack/killing.","side":"Russia","color":"#E00000","description":"Multiple fiber optic drones attacked cars in northern Kharkiv, killing a woman.","orbat":[],"geolocation":["https://bsky.app/profile/scaratlas.bsky.social/post/3mw7bsxjdc22g"],"sources":["https://bsky.app/profile/scaratlas.bsky.social/post/3mw7bt2wndk2g","https://x.com/GwaraMedia/status/2102726636797895135","https://t.me/gwaramedia/62293"]}},{"type":"Feature","geometry":{"type":"Point","coordinates":[32.582714,46.629698]},"properties":{"source":"geoconfirmed","source_name":"GeoConfirmed","source_url":"https://geoconfirmed.org/map/ukraine","id":"dd736d7d-de07-43fb-b40c-34d0a971c8a4","date":"2026-09-22","link":"https://geoconfirmed.org/map/ukraine/dd736d7d-de07-43fb-b40c-34d0a971c8a4","category":"Multipurpose Bomber Drone, Flying OR Dropping OR bombing a target without knowing the outcome: if something is damaged --> icon of the damaged equipment.","side":"Russia","color":"#E00000","description":"A Russian drone dropped a grenade on the location where a person riding a two-wheeler was hiding.","orbat":[],"geolocation":["https://x.com/99Dominik_/status/2102356173311574474"],"sources":["https://x.com/99Dominik_/status/2102356410915049606","https://t.me/osvedomitell_alex/37977"]}},{"type":"Feature","geometry":{"type":"Point","coordinates":[35.878377,46.719411]},"properties":{"source":"geoconfirmed","source_name":"GeoConfirmed","source_url":"https://geoconfirmed.org/map/ukraine","id":"33d95771-c5da-44b5-a64a-360f0317e9cd","date":"2026-09-22","link":"https://geoconfirmed.org/map/ukraine/33d95771-c5da-44b5-a64a-360f0317e9cd","category":"Recently Destroyed/Damaged[Visible in footage] Logistical Trucks (Soft skin OR armoured)","side":"Unknown","color":"#666666","description":"0:55 -1:07 - Driver films what is presumably a burning vehicle , from reported Ukrainian drone strike , east of Volodomyrivka, Zaporizhia Oblast","orbat":[],"geolocation":["https://x.com/neonhandrail/status/2102541332845830411"],"sources":["https://x.com/bayraktar_1love/status/2102434115962188061","https://x.com/Exilenova_plus/status/2102433084004003949","https://www.youtube.com/watch?v=2X_JPex7JQk&t=7888s"]}},{"type":"Feature","geometry":{"type":"Point","coordinates":[37.01143,48.25904]},"properties":{"source":"geoconfirmed","source_name":"GeoConfirmed","source_url":"https://geoconfirmed.org/map/ukraine","id":"9bbcabaf-96c3-46b8-9b05-4280a1b387c5","date":"2026-09-22","link":"https://geoconfirmed.org/map/ukraine/9bbcabaf-96c3-46b8-9b05-4280a1b387c5","category":"WIA/KIA Soldier/Militant","side":"Russia","color":"#E00000","description":"0:46 - UA Unmanned Systems Battalion \"Black Sky\", 3rd Operational Brigade \"Spartan\" hits Russian soldiers near Udachne.","orbat":["Battalion of unmanned strike aerial systems \"Black Sky\""],"geolocation":["https://x.com/meowqai/status/2102490101079027796"],"sources":["https://x.com/meowqai/status/2102490101079027796","https://t.me/blacksky_3brop/182"]}},{"type":"Feature","geometry":{"type":"Point","coordinates":[36.337691,50.027198]},"properties":{"source":"geoconfirmed","source_name":"GeoConfirmed","source_url":"https://geoconfirmed.org/map/ukraine","id":"4863b7eb-be7d-4373-a5b3-429889c0c769","date":"2026-09-22","link":"https://geoconfirmed.org/map/ukraine/4863b7eb-be7d-4373-a5b3-429889c0c769","category":"Recently destroyed/Damaged[Visible in footage] or still burning infrastucture","side":"Neutral","color":"#AC7339","description":"Damaged window at a Mercedes-Benz dealership in Kharkiv following a Russian strike.","orbat":[],"geolocation":["https://x.com/Zeldamices/status/2102481225902354677"],"sources":["https://x.com/Zeldamices/status/2102481204830212598","https://t.me/hs_kharkiv/156809","https://newsukraine.rbc.ua/news/russia-attacks-kharkiv-three-times-with-drones-1790087804.html"]}},{"type":"Feature","geometry":{"type":"Point","coordinates":[38.066495,48.69718]},"properties":{"source":"geoconfirmed","source_name":"GeoConfirmed","source_url":"https://geoconfirmed.org/map/ukraine","id":"b383a141-ee97-4bbc-bcfb-42e4680115de","date":"2026-09-22","link":"https://geoconfirmed.org/map/ukraine/b383a141-ee97-4bbc-bcfb-42e4680115de","category":"Shelling by artillery or aerial bombings - Location of the shelling, colour of who is shelling; Brown = UXO","side":"Ukraine","color":"#0051CA","description":"Ukrainian Airstrike","orbat":[],"geolocation":["https://x.com/LloydUkrYT/status/2102471924773245173"],"sources":["https://x.com/LloydUkrYT/status/2102471580974452762","https://t.me/soniah_hub/18326"]}},{"type":"Feature","geometry":{"type":"Point","coordinates":[37.611775,48.419662]},"properties":{"source":"geoconfirmed","source_name":"GeoConfirmed","source_url":"https://geoconfirmed.org/map/ukraine","id":"8d12051d-4169-4962-b561-4e496201987a","date":"2026-09-22","link":"https://geoconfirmed.org/map/ukraine/8d12051d-4169-4962-b561-4e496201987a","category":"Short Range (<50km) OWAD (One Way Attack Drone), mostly rotary wing, Flying OR Attacking a target without knowing the outcome: if something is damaged --> icon of the damaged equipment.","side":"Ukraine","color":"#0051CA","description":"0:16-0:24 - 5th Special Purpose Detachment, NGU SFC \"Omega\" hits claimed Russian artillery piece with a Bumblebee Drone","orbat":["5th Special Purpose Detachment 'Omega 5\""],"geolocation":["https://x.com/AudaxonX/status/2102731240214269984"],"sources":["https://x.com/AudaxonX/status/2102731243599065406","https://t.me/Centr_omega_NG/10706"]}},{"type":"Feature","geometry":{"type":"Point","coordinates":[37.723457,49.101492]},"properties":{"source":"geoconfirmed","source_name":"GeoConfirmed","source_url":"https://geoconfirmed.org/map/ukraine","id":"3d7a34d4-597a-4858-991d-518e208830a7","date":"2026-09-22","link":"https://geoconfirmed.org/map/ukraine/3d7a34d4-597a-4858-991d-518e208830a7","category":"POW - Prisinor of War - In the colour of the faction of the POW","side":"Russia","color":"#E00000","description":"1:42-1:48 - Ukrainian soldiers captured two Russian soldiers.,","orbat":["66th Mechanized Brigade"],"geolocation":["https://x.com/99Dominik_/status/2102308126607478847"],"sources":["https://x.com/NOELreports/status/2102304685906383196","https://t.me/ombr66/3040"]}},{"type":"Feature","geometry":{"type":"Point","coordinates":[33.383903,45.669169]},"properties":{"source":"geoconfirmed","source_name":"GeoConfirmed","source_url":"https://geoconfirmed.org/map/ukraine","id":"543c2d80-a6da-413e-b7bd-567fc245407c","date":"2026-09-22","link":"https://geoconfirmed.org/map/ukraine/543c2d80-a6da-413e-b7bd-567fc245407c","category":"Longe Range (>50km) OWAD (One Way Attack Drone) or Loitering munition, mostly fixed wing, Flying OR Attacking a target without knowing the outcome: if something is damaged --> icon of the damaged equipment.","side":"Ukraine","color":"#0051CA","description":"1:33-1:43 - Drone strike on a Gas Distribution Station","orbat":["9th Long-Range Strike Battalion \"Kairos\""],"geolocation":["https://bsky.app/profile/eole2002.bsky.social/post/3mw64awyv6k2g"],"sources":["https://x.com/414magyarbirds/status/2102644574829044049","https://www.youtube.com/watch?v=sblRSKUAz9c","https://t.me/robert_magyar/2841"]}},{"type":"Feature","geometry":{"type":"Point","coordinates":[28.66849,50.30219]},"properties":{"source":"geoconfirmed","source_name":"GeoConfirmed","source_url":"https://geoconfirmed.org/map/ukraine","id":"c364383d-cc8a-4268-b3d9-57cb35cca8e0","date":"2026-09-22","link":"https://geoconfirmed.org/map/ukraine/c364383d-cc8a-4268-b3d9-57cb35cca8e0","category":"Recently destroyed/Damaged[Visible in footage] or still burning infrastucture","side":"Neutral","color":"#AC7339","description":"Area grid - A huge black smoke plume is coming from the 'Warehouse complex Zhytomyr' (Zhytomyr), also known as the Kromberg & Schubert plant, which manufactures electrical wiring systems for global automakers (Volkswagen, Audi, BMW, Mercedes-Benz, Porsche). On 8 August, the plant was already damaged following a reported Russian strike.","orbat":[],"geolocation":["https://x.com/zarGEOINT/status/2102461121450090583","https://wikimapia.org/#lang=ro&lat=50.301841&lon=28.668995&z=14&m=w"],"sources":["https://x.com/IuliiaMendel/status/2102407874735481264","https://www.ukrinform.net/rubric-ato/4166818-russian-forces-strike-foreigninvested-enterprise-again-in-zhytomyr-region.html","https://www.facebook.com/vitaliy.bunechko/posts/pfbid02vRFtMb4EMWYbjRV2YXP1ktKwJQKMEhUzXqQKdmmbRpEbyH2XEJS7Noqm3FJJdpnYl","https://www.kromberg-schubert.com/home","https://english.nv.ua/business/russian-strike-heavily-damages-german-invested-factory-in-zhytomyr-oblast-50631144.html"]}},{"type":"Feature","geometry":{"type":"Point","coordinates":[37.76585,48.424684]},"properties":{"source":"geoconfirmed","source_name":"GeoConfirmed","source_url":"https://geoconfirmed.org/map/ukraine","id":"531835b1-df01-4d92-bf77-5e10066b2c8c","date":"2026-09-22","link":"https://geoconfirmed.org/map/ukraine/531835b1-df01-4d92-bf77-5e10066b2c8c","category":"Short Range (<50km) OWAD (One Way Attack Drone), mostly rotary wing, Flying OR Attacking a target without knowing the outcome: if something is damaged --> icon of the damaged equipment.","side":"Ukraine","color":"#0051CA","description":"0:25-end - 5th Special Purpose Detachment, NGU SFC \"Omega\" hits claimed Russian artillery piece with a Bumblebee Drone","orbat":["5th Special Purpose Detachment 'Omega 5\""],"geolocation":["https://x.com/AudaxonX/status/2102731240214269984"],"sources":["https://x.com/AudaxonX/status/2102731243599065406","https://t.me/Centr_omega_NGU/10706"]}},{"type":"Feature","geometry":{"type":"Point","coordinates":[30.480833,50.495891]},"properties":{"source":"geoconfirmed","source_name":"GeoConfirmed","source_url":"https://geoconfirmed.org/map/ukraine","id":"afbae793-de1d-480b-88b6-642d5b0b68e1","date":"2026-09-22","link":"https://geoconfirmed.org/map/ukraine/afbae793-de1d-480b-88b6-642d5b0b68e1","category":"Video - Always Point of View in description - In the colour of who is doing the attack or is responsable for the incident in the video.","side":"Russia","color":"#E00000","description":"Point of view in west direction - Reported Geran 5 drone flying over Kyiv in north direction.","orbat":[],"geolocation":["https://x.com/Zeldamices/status/2102433129889988655"],"sources":["https://x.com/Zeldamices/status/2102429427602780326","https://t.me/kievinfo_kyiv/99208"]}},{"type":"Feature","geometry":{"type":"Point","coordinates":[34.042002,45.279526]},"properties":{"source":"geoconfirmed","source_name":"GeoConfirmed","source_url":"https://geoconfirmed.org/map/ukraine","id":"f1de1d8f-c6cd-4167-9eea-6f3a5c670e63","date":"2026-09-22","link":"https://geoconfirmed.org/map/ukraine/f1de1d8f-c6cd-4167-9eea-6f3a5c670e63","category":"Longe Range (>50km) OWAD (One Way Attack Drone) or Loitering munition, mostly fixed wing, Flying OR Attacking a target without knowing the outcome: if something is damaged --> icon of the damaged equipment.","side":"Ukraine","color":"#0051CA","description":"1:51-1:55 (right) - Drone strike on a Gas Distribution Station","orbat":["9th Long-Range Strike Battalion \"Kairos\""],"geolocation":["https://bsky.app/profile/eole2002.bsky.social/post/3mw6aq2kdbs2g"],"sources":["https://x.com/414magyarbirds/status/2102644574829044049","https://www.youtube.com/watch?v=sblRSKUAz9c","https://t.me/robert_magyar/2841"]}},{"type":"Feature","geometry":{"type":"Point","coordinates":[36.337593,50.027173]},"properties":{"source":"geoconfirmed","source_name":"GeoConfirmed","source_url":"https://geoconfirmed.org/map/ukraine","id":"86c5b2c8-c953-4b61-ad60-70d215192e7e","date":"2026-09-22","link":"https://geoconfirmed.org/map/ukraine/86c5b2c8-c953-4b61-ad60-70d215192e7e","category":"Killed or wounded civilian. Potential Warcrime. In the colour of who is assessed as doing the attack/killing.","side":"Russia","color":"#E00000","description":"The moment of a Russian attack near a Mercedes-Benz dealership in Kharkiv. A woman can be seen who appears to have been injured.","orbat":[],"geolocation":["https://x.com/Zeldamices/status/2102481225902354677","https://bsky.app/profile/scaratlas.bsky.social/post/3mw7efxqrpk23"],"sources":["https://x.com/Zeldamices/status/2102481198547185910","https://bsky.app/profile/scaratlas.bsky.social/post/3mw7eg2wwbc23","https://t.me/gwaramedia/62274","https://t.me/hs_kharkiv/156825","https://newsukraine.rbc.ua/news/russia-attacks-kharkiv-three-times-with-drones-1790087804.html"]}},{"type":"Feature","geometry":{"type":"Point","coordinates":[35.18225,47.77445]},"properties":{"source":"geoconfirmed","source_name":"GeoConfirmed","source_url":"https://geoconfirmed.org/map/ukraine","id":"c61fc497-53db-421b-801e-77411e26843d","date":"2026-09-22","link":"https://geoconfirmed.org/map/ukraine/c61fc497-53db-421b-801e-77411e26843d","category":"Recently destroyed/Damaged[Visible in footage] or still burning infrastucture","side":"Neutral","color":"#AC7339","description":"Fire at the Supermarket \"Amstor\" (Zaporizhye) following Russian drone strikes.","orbat":[],"geolocation":["https://x.com/zarGEOINT/status/2102475865334395273","https://x.com/giK1893/status/2102471594618630520"],"sources":["https://x.com/Maks_NAFO_FELLA/status/2102471362577408483","https://x.com/giK1893/status/2102471594618630520","https://t.me/eyes_everywhere_ua/148839","https://t.me/eyes_everywhere_ua/148828","https://x.com/giK1893/status/2102473881248501810","https://t.me/eyes_everywhere_ua/148863","https://x.com/giK1893/status/2102480847630667874","https://t.me/suspilnezaporizhzhya/62181"]}},{"type":"Feature","geometry":{"type":"Point","coordinates":[36.99894,48.2586]},"properties":{"source":"geoconfirmed","source_name":"GeoConfirmed","source_url":"https://geoconfirmed.org/map/ukraine","id":"dec536af-6a88-4f17-a206-79692747d96a","date":"2026-09-22","link":"https://geoconfirmed.org/map/ukraine/dec536af-6a88-4f17-a206-79692747d96a","category":"WIA/KIA Soldier/Militant","side":"Russia","color":"#E00000","description":"0:25 - UA Unmanned Systems Battalion \"Black Sky\", 3rd Operational Brigade \"Spartan\" hits Russian soldiers near Udachne.","orbat":["Battalion of unmanned strike aerial systems \"Black Sky\""],"geolocation":["https://x.com/meowqai/status/2102490101079027796"],"sources":["https://x.com/meowqai/status/2102490101079027796","https://t.me/blacksky_3brop/182"]}},{"type":"Feature","geometry":{"type":"Point","coordinates":[30.585198,50.476349]},"properties":{"source":"geoconfirmed","source_name":"GeoConfirmed","source_url":"https://geoconfirmed.org/map/ukraine","id":"0935645d-3a7f-40b4-81ad-7ed0e8d400c2","date":"2026-09-22","link":"https://geoconfirmed.org/map/ukraine/0935645d-3a7f-40b4-81ad-7ed0e8d400c2","category":"Older destroyed infrastucture","side":"Neutral","color":"#AC7339","description":"Russian Geran-4 or 5 struck the garden of a residential neighborhood in Kyiv's Rusanivski Sady area, damaging a house and injuring one person.","orbat":[],"geolocation":["https://x.com/giK1893/status/2102498480992211188","https://x.com/giK1893/status/2102498490375098765"],"sources":["https://x.com/giK1893/status/2102498480992211188","https://t.me/dsns_kyiv/4633?single","https://t.me/dsns_kyiv/4634?single","https://t.me/kyiv_golovne/90881"]}},{"type":"Feature","geometry":{"type":"Point","coordinates":[37.601323,49.698592]},"properties":{"source":"geoconfirmed","source_name":"GeoConfirmed","source_url":"https://geoconfirmed.org/map/ukraine","id":"7d178367-33eb-49ed-a722-8a5cb8c35f8b","date":"2026-09-22","link":"https://geoconfirmed.org/map/ukraine/7d178367-33eb-49ed-a722-8a5cb8c35f8b","category":"Recently destroyed/Damaged [Intercepted/crashed] Short Range (<50km) OWAD (One Way Attack Drone), mostly rotary wing","side":"Russia","color":"#E00000","description":"Russian drone hit by drone from Drone battalion of 41st Mechanized Brigade","orbat":["Drone battalion of 41st Mechanized Brigade"],"geolocation":["https://x.com/Vlad_23456/status/2102489546189570364"],"sources":["https://x.com/Vlad_23456/status/2102489708043366400","https://www.youtube.com/watch?v=LWPErFmf4as"]}},{"type":"Feature","geometry":{"type":"Point","coordinates":[35.187028,45.221944]},"properties":{"source":"geoconfirmed","source_name":"GeoConfirmed","source_url":"https://geoconfirmed.org/map/ukraine","id":"3e7e8b74-2820-4746-94a0-aa67c5b580d7","date":"2026-09-22","link":"https://geoconfirmed.org/map/ukraine/3e7e8b74-2820-4746-94a0-aa67c5b580d7","category":"Longe Range (>50km) OWAD (One Way Attack Drone) or Loitering munition, mostly fixed wing, Flying OR Attacking a target without knowing the outcome: if something is damaged --> icon of the damaged equipment.","side":"Ukraine","color":"#0051CA","description":"2:02-2:07 (right) - Drone strike on a Gas Distribution Station","orbat":["9th Long-Range Strike Battalion \"Kairos\""],"geolocation":["https://bsky.app/profile/eole2002.bsky.social/post/3mw6qq6yxkk2g"],"sources":["https://x.com/414magyarbirds/status/2102644574829044049","https://www.youtube.com/watch?v=sblRSKUAz9c","https://t.me/robert_magyar/2841"]}},{"type":"Feature","geometry":{"type":"Point","coordinates":[50.059733,53.145352]},"properties":{"source":"geoconfirmed","source_name":"GeoConfirmed","source_url":"https://geoconfirmed.org/map/ukraine","id":"c8e55a60-58b0-48a3-979d-b293940d74f9","date":"2026-09-22","link":"https://geoconfirmed.org/map/ukraine/c8e55a60-58b0-48a3-979d-b293940d74f9","category":"Video - Always Point of View in description - In the colour of who is doing the attack or is responsable for the incident in the video.","side":"Ukraine","color":"#0051CA","description":"Rough point of view in south direction - Huge black smoke from the direction of the Kuibyshevsky Oil Refinery (Samara)","orbat":[],"geolocation":["https://x.com/neonhandrail/status/2102265194110185938"],"sources":["https://x.com/markito0171/status/2102257269647753615","https://t.me/exilenova_plus/31451","https://censor.net/en/news/4024588/drones-attacked-the-kuibyshev-oil-refinery-in-the-samara-region-of-the-russian-federation","https://x.com/GeneralStaffUA/status/2102303547098329333","https://t.me/GeneralStaffZSU/42325"]}},{"type":"Feature","geometry":{"type":"Point","coordinates":[35.180297,47.811972]},"properties":{"source":"geoconfirmed","source_name":"GeoConfirmed","source_url":"https://geoconfirmed.org/map/ukraine","id":"26738665-5bf8-4f05-829e-bb23d776cafc","date":"2026-09-22","link":"https://geoconfirmed.org/map/ukraine/26738665-5bf8-4f05-829e-bb23d776cafc","category":"Recently destroyed/Damaged[Visible in footage] or still burning infrastucture","side":"Neutral","color":"#AC7339","description":"Damaged roof of a restaurant following a reported Russian attack.","orbat":[],"geolocation":["https://x.com/Zeldamices/status/2102336455779467414"],"sources":["https://x.com/Zeldamices/status/2102336451002462255","https://t.me/slavne_zaporizhia/70796","https://www.061.ua/news/4157883/cerez-ataku-rosijskih-droniv-u-zaporizzi-poskodzeni-budinki-avtomijka-ta-kafe"]}},{"type":"Feature","geometry":{"type":"Point","coordinates":[50.074157,53.151541]},"properties":{"source":"geoconfirmed","source_name":"GeoConfirmed","source_url":"https://geoconfirmed.org/map/ukraine","id":"82df52c5-bd55-4d4e-b47e-bf1ac81d8817","date":"2026-09-22","link":"https://geoconfirmed.org/map/ukraine/82df52c5-bd55-4d4e-b47e-bf1ac81d8817","category":"Video - Always Point of View in description - In the colour of who is doing the attack or is responsable for the incident in the video.","side":"Ukraine","color":"#0051CA","description":"Rough point of view in south west direction - Huge explosions from the direction of the Kuibyshevsky Oil Refinery (Samara)","orbat":[],"geolocation":["https://x.com/neonhandrail/status/2102236708154847299"],"sources":["https://x.com/Exilenova_plus/status/2102222069564080449","https://t.me/exilenova_plus/31424","https://censor.net/en/news/4024588/drones-attacked-the-kuibyshev-oil-refinery-in-the-samara-region-of-the-russian-federation","https://x.com/GeneralStaffUA/status/2102303547098329333","https://t.me/GeneralStaffZSU/42325"]}},{"type":"Feature","geometry":{"type":"Point","coordinates":[37.725996,48.437092]},"properties":{"source":"geoconfirmed","source_name":"GeoConfirmed","source_url":"https://geoconfirmed.org/map/ukraine","id":"d9922e16-0fc1-4f9e-969b-c10413484f20","date":"2026-09-22","link":"https://geoconfirmed.org/map/ukraine/d9922e16-0fc1-4f9e-969b-c10413484f20","category":"Short Range (<50km) OWAD (One Way Attack Drone), mostly rotary wing, Flying OR Attacking a target without knowing the outcome: if something is damaged --> icon of the damaged equipment.","side":"Ukraine","color":"#0051CA","description":"0:00-0:15 - 5th Special Purpose Detachment, NGU SFC \"Omega\" hits claimed Russian artillery piece with a Bumblebee Drone","orbat":["5th Special Purpose Detachment 'Omega 5\""],"geolocation":["https://x.com/AudaxonX/status/2102731240214269984"],"sources":["https://x.com/AudaxonX/status/2102731243599065406","https://t.me/Centr_omega_NG/10706"]}},{"type":"Feature","geometry":{"type":"Point","coordinates":[50.138858,53.108902]},"properties":{"source":"geoconfirmed","source_name":"GeoConfirmed","source_url":"https://geoconfirmed.org/map/ukraine","id":"17b2d63b-4c16-4aa2-b5a1-c5837838d802","date":"2026-09-22","link":"https://geoconfirmed.org/map/ukraine/17b2d63b-4c16-4aa2-b5a1-c5837838d802","category":"Video - Always Point of View in description - In the colour of who is doing the attack or is responsable for the incident in the video.","side":"Ukraine","color":"#0051CA","description":"Rough point of view in north west direction - Huge explosions from the direction of the Kuibyshevsky Oil Refinery (Samara)","orbat":[],"geolocation":["https://x.com/neonhandrail/status/2102241128699633717"],"sources":["https://x.com/Exilenova_plus/status/2102222069564080449","https://t.me/exilenova_plus/31424","https://censor.net/en/news/4024588/drones-attacked-the-kuibyshev-oil-refinery-in-the-samara-region-of-the-russian-federation","https://x.com/GeneralStaffUA/status/2102303547098329333","https://t.me/GeneralStaffZSU/42325"]}},{"type":"Feature","geometry":{"type":"Point","coordinates":[35.867559,46.719357]},"properties":{"source":"geoconfirmed","source_name":"GeoConfirmed","source_url":"https://geoconfirmed.org/map/ukraine","id":"8f39332d-4319-43ab-85b3-dcb14650dbee","date":"2026-09-22","link":"https://geoconfirmed.org/map/ukraine/8f39332d-4319-43ab-85b3-dcb14650dbee","category":"Recently Destroyed/Damaged[Visible in footage] Logistical Trucks (Soft skin OR armoured)","side":"Unknown","color":"#666666","description":"0:00-0:19 - Driver films what is presumably a burning vehicle , from reported Ukrainian drone strike , east of Volodomyrivka, Zaporizhia Oblast","orbat":[],"geolocation":["https://x.com/neonhandrail/status/2102539752553771438"],"sources":["https://x.com/bayraktar_1love/status/2102434115962188061","https://x.com/Exilenova_plus/status/2102433084004003949","https://x.com/neonhandrail/status/2102538826350780643"]}},{"type":"Feature","geometry":{"type":"Point","coordinates":[37.599082,48.732813]},"properties":{"source":"geoconfirmed","source_name":"GeoConfirmed","source_url":"https://geoconfirmed.org/map/ukraine","id":"941f2d19-6c48-4537-ac80-e032a7f6e5a0","date":"2026-09-22","link":"https://geoconfirmed.org/map/ukraine/941f2d19-6c48-4537-ac80-e032a7f6e5a0","category":"Recently destroyed/Damaged[Visible in footage] or still burning infrastucture","side":"Neutral","color":"#AC7339","description":"0:00-0:05 - Damaged church Khram Rizdva John the Baptist following a Russian strike","orbat":[],"geolocation":["https://x.com/Zeldamices/status/2102627647461204333","https://x.com/zarGEOINT/status/2102660553869234617","https://x.com/TuiteroMartin/status/2102490318780465237"],"sources":["https://x.com/Zeldamices/status/2102627639827517614","https://t.me/slav_kramatorskDonbass/141453","https://x.com/zarGEOINT/status/2102660553869234617","https://ua.news/en/war-vs-rf/rosiiskii-udar-poshkodiv-khram-u-kramatorsku"]}},{"type":"Feature","geometry":{"type":"Point","coordinates":[50.041101,53.098065]},"properties":{"source":"geoconfirmed","source_name":"GeoConfirmed","source_url":"https://geoconfirmed.org/map/ukraine","id":"7401a01a-035f-4970-b4cb-e53abf76978e","date":"2026-09-22","link":"https://geoconfirmed.org/map/ukraine/7401a01a-035f-4970-b4cb-e53abf76978e","category":"Recently destroyed/Damaged[Visible in footage] or still burning infrastucture","side":"Neutral","color":"#AC7339","description":"area grid - A huge black smoke plume is visible in the reservoir park of the Kuibyshevsky Oil Refinery (Samara) following reported Ukrainian strikes.","orbat":[],"geolocation":["https://maps.app.goo.gl/9CVAtWq3MCGgDCnx7"],"sources":["https://x.com/kromark/status/2102361425637499151","https://censor.net/en/news/4024588/drones-attacked-the-kuibyshev-oil-refinery-in-the-samara-region-of-the-russian-federation","https://x.com/GeneralStaffUA/status/2102303547098329333","https://t.me/GeneralStaffZSU/42325"]}},{"type":"Feature","geometry":{"type":"Point","coordinates":[37.2592,48.47091]},"properties":{"source":"geoconfirmed","source_name":"GeoConfirmed","source_url":"https://geoconfirmed.org/map/ukraine","id":"550b23c6-c8ce-4f78-9dd2-e73c29f3597a","date":"2026-09-22","link":"https://geoconfirmed.org/map/ukraine/550b23c6-c8ce-4f78-9dd2-e73c29f3597a","category":"Multipurpose Bomber Drone, Flying OR Dropping OR bombing a target without knowing the outcome: if something is damaged --> icon of the damaged equipment.","side":"Ukraine","color":"#0051CA","description":"0:52 - UA 1st Presidential Brigade “Bureviy” of the National Guard drops grenade on a RU soldier north of Nove Shakhove, Donetska Region, Ukraine.","orbat":["1st Presidential Operational Brigade \"Bureva\""],"geolocation":["https://x.com/meowqai/status/2102415666473017674"],"sources":["https://x.com/meowqai/status/2102434038736904543","https://t.me/bureviy_brigade/5532"]}},{"type":"Feature","geometry":{"type":"Point","coordinates":[30.595487,50.481859]},"properties":{"source":"geoconfirmed","source_name":"GeoConfirmed","source_url":"https://geoconfirmed.org/map/ukraine","id":"a3648054-8194-43c1-b4bf-f28002d09373","date":"2026-09-22","link":"https://geoconfirmed.org/map/ukraine/a3648054-8194-43c1-b4bf-f28002d09373","category":"Recently destroyed/Damaged[Visible in footage] or still burning infrastucture","side":"Neutral","color":"#AC7339","description":"A damaged five-story residential building as the result of a Russian attack. Reportedly, rescuers saved 15 people. Four people were injured, with three of whom being hospitalized.","orbat":[],"geolocation":["https://x.com/giK1893/status/2102409494173237345","https://x.com/Zeldamices/status/2102437351687696680"],"sources":["https://x.com/giK1893/status/2102409489781555418","https://t.me/kievinfo_kyiv/99116","https://www.instagram.com/p/Ddk8isjiFbs/?","https://x.com/giK1893/status/2102409489781555418","https://t.me/novynylive/213715","https://suspilne.media/kyiv/1409250-priletiv-bpla-po-pidvalu-so-kazut-meskanci-patipoverhivki-u-dniprovskomu-rajoni-pro-dronovu-ataku/"]}},{"type":"Feature","geometry":{"type":"Point","coordinates":[37.23973,48.45178]},"properties":{"source":"geoconfirmed","source_name":"GeoConfirmed","source_url":"https://geoconfirmed.org/map/ukraine","id":"7963e1cb-74c3-43f1-98c5-f2bf42c9b2cc","date":"2026-09-22","link":"https://geoconfirmed.org/map/ukraine/7963e1cb-74c3-43f1-98c5-f2bf42c9b2cc","category":"Short Range (<50km) OWAD (One Way Attack Drone), mostly rotary wing, Flying OR Attacking a target without knowing the outcome: if something is damaged --> icon of the damaged equipment.","side":"Ukraine","color":"#0051CA","description":"0:11 - UA 1st Presidential Brigade “Bureviy” of the National Guard FPV attacks a RU soldier in Nove Shakhove, Donetska Region, Ukraine.","orbat":["1st Presidential Operational Brigade \"Bureva\""],"geolocation":["https://x.com/meowqai/status/2102537843641827474"],"sources":["https://x.com/meowqai/status/2102434038736904543","https://t.me/bureviy_brigade/5532"]}},{"type":"Feature","geometry":{"type":"Point","coordinates":[37.06055,48.103715]},"properties":{"source":"geoconfirmed","source_name":"GeoConfirmed","source_url":"https://geoconfirmed.org/map/ukraine","id":"15c73d3b-3bd7-40a8-adb1-f8382c94a1dc","date":"2026-09-22","link":"https://geoconfirmed.org/map/ukraine/15c73d3b-3bd7-40a8-adb1-f8382c94a1dc","category":"Short Range (<50km) OWAD (One Way Attack Drone), mostly rotary wing, Flying OR Attacking a target without knowing the outcome: if something is damaged --> icon of the damaged equipment.","side":"Ukraine","color":"#0051CA","description":"010-0:14 - Garage struck by a Ukrainian FPV drone of the UAS Battalion \"Perun\" of the 2nd Separate Mechanized Brigade","orbat":["UAS Battalion \"Perun\""],"geolocation":["https://x.com/Kukulkan415/status/2102461407627264084"],"sources":["https://x.com/PuenteUribarri/status/2102447396940910718"]}},{"type":"Feature","geometry":{"type":"Point","coordinates":[36.1819,45.2893]},"properties":{"source":"geoconfirmed","source_name":"GeoConfirmed","source_url":"https://geoconfirmed.org/map/ukraine","id":"7eebfde5-d394-4ce5-a44b-fda05beaa522","date":"2026-09-22","link":"https://geoconfirmed.org/map/ukraine/7eebfde5-d394-4ce5-a44b-fda05beaa522","category":"Longe Range (>50km) OWAD (One Way Attack Drone) or Loitering munition, mostly fixed wing, Flying OR Attacking a target without knowing the outcome: if something is damaged --> icon of the damaged equipment.","side":"Ukraine","color":"#0051CA","description":"1:56-2:01 (right) - Drone strike on a Gas Distribution Station","orbat":["9th Long-Range Strike Battalion \"Kairos\""],"geolocation":["https://bsky.app/profile/eole2002.bsky.social/post/3mw6jofn5ac2g"],"sources":["https://x.com/414magyarbirds/status/2102644574829044049","https://www.youtube.com/watch?v=sblRSKUAz9c","https://t.me/robert_magyar/2841"]}},{"type":"Feature","geometry":{"type":"Point","coordinates":[35.180401,47.811469]},"properties":{"source":"geoconfirmed","source_name":"GeoConfirmed","source_url":"https://geoconfirmed.org/map/ukraine","id":"a4486f3b-af3e-4253-9c40-ffe8fa3ce869","date":"2026-09-22","link":"https://geoconfirmed.org/map/ukraine/a4486f3b-af3e-4253-9c40-ffe8fa3ce869","category":"Recently destroyed/Damaged[Visible in footage] or still burning infrastucture","side":"Neutral","color":"#AC7339","description":"Damaged roof of a restaurant following a reported Russian attack.","orbat":[],"geolocation":["https://x.com/Zeldamices/status/2102338848781177187"],"sources":["https://x.com/Zeldamices/status/2102338941047496734","https://t.me/slavne_zaporizhia/70796","https://www.061.ua/news/4157883/cerez-ataku-rosijskih-droniv-u-zaporizzi-poskodzeni-budinki-avtomijka-ta-kafe"]}}]}