{"type":"FeatureCollection","features":[{"type":"Feature","geometry":{"type":"Polygon","coordinates":[[[37.92042,48.79009],[37.91074,48.79889],[37.90251,48.8055],[37.90097,48.81381],[37.89853,48.81635],[37.89694,48.8194],[37.89271,48.82261],[37.88904,48.82658],[37.89378,48.82769],[37.90959,48.83394],[37.91443,48.81359],[37.91637,48.81015],[37.93153,48.81126],[37.93437,48.7966],[37.92103,48.79504],[37.92042,48.79009]]]},"properties":{"source":"ukrdaily","source_name":"UkrDailyUpdate","source_url":"https://map.ukrdailyupdate.com/","category":"gained","category_label":"Newly Russian-occupied","period":"1d","compared_with":"2026-09-24","snapshot_time":"2026-09-25","area_km2_approx":6.2}}]}