{"type":"FeatureCollection","features":[{"type":"Feature","geometry":null,"properties":{"source":"ru_mod","source_name":"Ministry of Defence of Russia","group":"official_ru","id":67841,"posted_utc":"2026-10-02T02:01:01+00:00","link":"https://t.me/mod_russia/67841","text":"📥 Доставляем мины прямо под колеса ВСУ\n💥 Военные инженеры группировки «Центр» продолжают кошмарить противника на логистических маршрутах на Добропольском направлении.\nЗдорово получается задавать жару врагу с помощью комплекта инженерной разведки и минирования. Этот комплект включает в себя дрон, систему сброса, а также дополнительную боковую камеру для контроля точности минирования.\n💬 О том, как получилось вскрыть маршруты подвоза противника, рассказал оператор БПЛА Руслан Мамедов:\n«Разведали лесополку, увидели накатанную дорогу, значит, есть подвоз. Заминировали ПТМ-ками, остановили подвоз».\n👉 Каждый вылет приносит пользу. Служба по контракту в войсках беспилотных систем для тех, кто готов помогать СВОим. Узнай подробности на сайте Беспилотныевойска.рф и по телефону 117(доб.4), а бот в мессенджере МАКС ответит на интересующие вопросы.\n#ВойскаБПС\n🎮 Канал Минобороны России в MAКС – боевая работа 24/7. Присоединяйся!","links":["https://xn--80abdlarjifukdg1ajk8m.xn--p1ai/?utm_source=mil&utm_medium=social&utm_campaign=social","https://max.ru/contract_bpla_bot","https://max.ru/morf"]}},{"type":"Feature","geometry":null,"properties":{"source":"ru_mod","source_name":"Ministry of Defence of Russia","group":"official_ru","id":67842,"posted_utc":"2026-10-02T03:53:01+00:00","link":"https://t.me/mod_russia/67842","text":"Здесь учат делать небо мирным\n▫️ Ярославское высшее военное училище противовоздушной обороны – место, где из обычных парней делают инженеров, способных за сотни километров «разглядеть» и ликвидировать воздушную угрозу.\n🤝 Тут готовят специалистов по эксплуатации зенитных ракетных систем, радиолокационных комплексов и автоматизированных систем управления для войск ПВО.\n📆 В субботу, 3 октября в 13.00 Ярославское училище ПВО приглашает всех желающих на День открытых дверей по адресу ул. Большая Октябрьская, д. 67А (вход через КПП № 1).\n📞 Телефон: 8-980-741-78-35 (Приёмная комиссия)\nℹ️ Информация для поступающих: https://yavvupvo.mil.ru/Postup/Pravila-priema/Pravila-priema\n#ЕстьТакаяПрофессия\n🔹 MAКС – территория СВОих","links":["https://yavvupvo.mil.ru/Postup/Pravila-priema/Pravila-priema","https://max.ru/morf"]}},{"type":"Feature","geometry":null,"properties":{"source":"ru_mod","source_name":"Ministry of Defence of Russia","group":"official_ru","id":67843,"posted_utc":"2026-10-02T05:07:21+00:00","link":"https://t.me/mod_russia/67843","text":"❗️ Вооруженные Силы Российской Федерации продолжают наносить удары по объектам портовой, энергетической инфраструктуры Украины и морским судам, задействованным в интересах ВСУ.\n💥 Сегодня ночью в результате ударов беспилотными летательными аппаратами поражены:\n▫️ в городе Киеве – автожелезнодорожный мост через реку Днепр, обеспечивающий переброски войск, логистические поставки военных грузов в интересах группировок ВСУ на Донбассе;\n▫️ в Киевской области – электроподстанция Киевская (населенный пункт Наливайковка), обеспечивающая переток электроэнергии и ее распределение для объектов военно-промышленного комплекса в Киеве и Киевской области;\n▫️ в Одесской области – производственно-промышленный комплекс в порту Измаил, обеспечивавший прием, хранение и транспортировку военных грузов и топлива для нужд ВСУ.\n▫️ Кроме того, на переходе морем в акватории Черного моря поражен сухогруз, доставлявший в порт Одесса военное имущество и грузы двойного назначения для ВСУ.\n▫️ Канал Минобороны России в MAКС – источник мощных новостей","links":["https://max.ru/morf"]}},{"type":"Feature","geometry":null,"properties":{"source":"ru_mod","source_name":"Ministry of Defence of Russia","group":"official_ru","id":67844,"posted_utc":"2026-10-02T05:59:26+00:00","link":"https://t.me/mod_russia/67844","text":"⚡️ В течение прошедшей ночи в период с 20.00 мск 1 октября до 8.00 мск 2 октября дежурными силами ПВО перехвачены и уничтожены 646 украинских беспилотных летательных аппаратов самолетного типа над территориями Белгородской, Брянской, Курской, Воронежской, Калужской, Тульской, Орловской, Ростовской, Саратовской, Волгоградской, Ульяновской, Самарской, Астраханской областей, Республики Крым и над акваториями Черного и Азовского морей.\n🔹 Канал Минобороны России в MAКС – только для своих!","links":["https://max.ru/morf"]}},{"type":"Feature","geometry":null,"properties":{"source":"ru_mod","source_name":"Ministry of Defence of Russia","group":"official_ru","id":67845,"posted_utc":"2026-10-02T06:03:38+00:00","link":"https://t.me/mod_russia/67845","text":"💥 Мокрого места не осталось.\nДроноводы обнаружили и разнесли вражеский пункт управления тяжёлыми дронами типа R-18 и склад боеприпасов.\nВ щепки.\n#ВойскаБПС\n🎮 Канал Минобороны России в MAКС – боевая работа 24/7. Присоединяйся!","links":["https://max.ru/morf"]}},{"type":"Feature","geometry":null,"properties":{"source":"ru_mod","source_name":"Ministry of Defence of Russia","group":"official_ru","id":67846,"posted_utc":"2026-10-02T06:50:06+00:00","link":"https://t.me/mod_russia/67846","text":"«Как говорит наш Президент, только Победа нас остановит».\nЗамкомандира роты по военно-политической работе с позывным «Литовец» выполняет боевые задачи в составе 22 мотострелкового полка 44 армейского корпуса. Он прибыл в Курскую область в январе 2025 года.\nОдним из первых боевых выходов для «Литовца» стало участие в освобождении населённых пунктов Старая Сорочина, Новая Сорочина, Погребки и Малая Локня. Тогда ему была поручена важная задача: водрузить государственный флаг Российской Федерации.\nЗа участие в освобождении Курской области «Литовец» награжден орденом Мужества и ведомственной медалью «За боевые отличия».\nГерои в 📲 MAX,  📱 ВКонтакте и в 📱 Дзен","links":["https://max.ru/heroesofZ","https://vk.com/heroes0fz","http://dzen.ru/heroesofz"]}},{"type":"Feature","geometry":null,"properties":{"source":"ru_mod","source_name":"Ministry of Defence of Russia","group":"official_ru","id":67847,"posted_utc":"2026-10-02T07:32:42+00:00","link":"https://t.me/mod_russia/67847","text":"🦾 Эшелон современных технологий\nВ ходе учения «Эшелон-2026» подразделения активно применяют наземные робототехнические комплексы.\n⚙️ Подразделения отрабатывают доставку грузов на линию боевого соприкосновения с помощью наземных робототехнических комплексов и БПЛА, а также эвакуацию раненых и поврежденных машин. В одном из районов военнослужащие задействовали НРТК «Богомол-7» — он подвозит грузы и эвакуирует мотовездеходную технику.\n🛠 Работу сборного пункта поврежденных машин организовали с учетом опыта специальной военной операции: посты восстановления и ремонта техники развернули в заглубленных фортификационных сооружениях.\n▫️ Район учений от воздушных атак защищают посты наблюдения и мобильные огневые группы.\n#ученияОДКБ\n🔹 MAКС – территория СВОих","links":["https://max.ru/morf"]}},{"type":"Feature","geometry":null,"properties":{"source":"ru_mod","source_name":"Ministry of Defence of Russia","group":"official_ru","id":67853,"posted_utc":"2026-10-02T08:27:45+00:00","link":"https://t.me/mod_russia/67853","text":"🔎 Скрытно не вышло\n▫️ Дроноводы группировки «Восток» сорвали вылазку вражеских диверсионно-разведывательных групп в Запорожской области.\n🎯 По целям отработали операторы FPV-дронов и тяжелых беспилотников «Молния». Часть боевиков была ликвидирована сразу, оставшихся настигли в лесополке.\nВся диверсионная группа уничтожена до выхода к передовым рубежам.\n🔹 Канал Минобороны России в MAКС – боевая работа 24/7","links":["https://max.ru/morf"]}},{"type":"Feature","geometry":null,"properties":{"source":"ru_mod","source_name":"Ministry of Defence of Russia","group":"official_ru","id":67854,"posted_utc":"2026-10-02T08:58:10+00:00","link":"https://t.me/mod_russia/67854","text":"⚡️ Подразделения группировки войск «Север» взяли под контроль населенные пункты Грачевка и Сердобино в Харьковской области.\n🔹 Минобороны России","links":["https://max.ru/morf"]}},{"type":"Feature","geometry":null,"properties":{"source":"ru_mod","source_name":"Ministry of Defence of Russia","group":"official_ru","id":67856,"posted_utc":"2026-10-02T08:58:41+00:00","link":"https://t.me/mod_russia/67856","text":"⚡️ Подразделения группировки войск «Север» взяли под контроль населенный пункт Малая Рыбица в Сумской области.\nПодробнее об успехах наших войск ➡️ в MAКС","links":["https://max.ru/morf/AaD8I5emEWo"]}},{"type":"Feature","geometry":null,"properties":{"source":"ru_mod","source_name":"Ministry of Defence of Russia","group":"official_ru","id":67877,"posted_utc":"2026-10-02T19:22:31+00:00","link":"https://t.me/mod_russia/67877","text":"📹📸 Итоги дня в кадрах. Листайте 👉\n#Центр2026\n🔹 Канал Минобороны России в MAКС – боевая работа 24/7","links":["https://max.ru/morf"]}},{"type":"Feature","geometry":null,"properties":{"source":"ru_mod","source_name":"Ministry of Defence of Russia","group":"official_ru","id":67886,"posted_utc":"2026-10-02T19:31:13+00:00","link":"https://t.me/mod_russia/67886","text":"17 за неделю, продолжаем давить!\n#Цифра\n🔹 MAКС – территория СВОих","links":["https://max.ru/morf"]}},{"type":"Feature","geometry":null,"properties":{"source":"ru_mod","source_name":"Ministry of Defence of Russia","group":"official_ru","id":67887,"posted_utc":"2026-10-02T19:40:11+00:00","link":"https://t.me/mod_russia/67887","text":"📆 Главное за день\n💥 Гремит главный этап учений «Центр-2026»: на полигоне Чебаркульский проходит основной этап СКШУ «Центр-2026». В нем задействованы войска Центрального военного округа, соединения и воинские части ВКС, ВДВ, центрального подчинения, а также силы Каспийской флотилии. За маневрами с полигона Чебаркульский наблюдал Верховный Главнокомандующий Владимир Путин, о ходе заключительного этапа главе государства доложил Министр обороны Андрей Белоусов.\n🚩 Полоса безопасности расширяется: подразделения группировки «Север» взяли под контроль в Харьковской области населенные пункты Грачевка и Сердобино, а в Сумской – Малую Рыбицу.\n⚡️ Удар за ударом: отработали по объектам портовой, энергетической инфраструктуры Украины и морским судам, задействованным в интересах ВСУ.\n🔄 «Север» сжимает тиски: экипажи танков уничтожили технику и живую силу подразделений ВСУ, находящихся в окружении в Харьковской области.\n📥 Доставляем мины прямо под колеса ВСУ: военные инженеры кошмарят противника на Добропольском направлении.\nНас не остановить!\n#ИтогиДня\n🔹 Минобороны России","links":["https://t.me/mod_russia/67866","https://t.me/mod_russia/67870","https://t.me/mod_russia/67869","https://t.me/mod_russia/67873","https://t.me/mod_russia/67871","https://t.me/mod_russia/67862","https://t.me/mod_russia/67865","https://t.me/mod_russia/67854","https://t.me/mod_russia/67856","https://t.me/mod_russia/67843","https://t.me/mod_russia/67860","https://t.me/mod_russia/67841","https://max.ru/morf"]}},{"type":"Feature","geometry":null,"properties":{"source":"ru_mod","source_name":"Ministry of Defence of Russia","group":"official_ru","id":67888,"posted_utc":"2026-10-02T19:48:52+00:00","link":"https://t.me/mod_russia/67888","text":"Заряжаемся – и на позиции,\nВпереди ночная жатва 🎯\n🔹 Канал Минобороны России в MAКС – только для своих!","links":["https://max.ru/morf"]}},{"type":"Feature","geometry":null,"properties":{"source":"ru_mod","source_name":"Ministry of Defence of Russia","group":"official_ru","id":67858,"posted_utc":"2026-10-02T11:18:44+00:00","link":"https://t.me/mod_russia/67858","text":"Навели логистические мосты\nПодразделения МТО группировки войск «Запад» организовали эффективную доставку грузов от соединений к штурмовым группам с помощью дронов.\n💬 Командир взвода БПЛА с позывным «Завгар» отметил значительное повышение эффективности работы МТО с началом использования дронов:\n«Мы увеличили объемы доставки в два раза, уменьшили риски потерь личного состава и автомобильной техники. Пока НРТК везет большой объем доставки, FPV-дроны раскидывают по маленьким подразделениям, по маленьким точкам небольшие, но очень важные грузы: медикаменты, связь, воду, продукты питания».\nКаждый вылет приносит пользу: разведка, точные удары или поддержка СВОих. Узнай подробности на сайте Беспилотныевойска.рф и по телефону 117(доб.4).\n#ВойскаБПС\n🔹 MAКС – территория СВОих","links":["https://xn--80abdlarjifukdg1ajk8m.xn--p1ai/?utm_source=mil&utm_medium=social&utm_campaign=social","https://max.ru/morf"]}},{"type":"Feature","geometry":null,"properties":{"source":"ru_mod","source_name":"Ministry of Defence of Russia","group":"official_ru","id":67859,"posted_utc":"2026-10-02T13:15:10+00:00","link":"https://t.me/mod_russia/67859","text":"Киберполиция предупреждает!\n⬆️ В аудиозаписи выше – пример того, как мошенники используют схему со звонком из «военкомата»\n📞 Злоумышленники позвонили 19-летнему парню, якобы чтобы обновить его анкетные данные и переоформить приписное свидетельство. Для бронирования времени визита в комиссариат у него выведали код из СМС, который выдали за номер «электронной повестки».\nНапоминаем, что посмотреть повестку внутри стандартного приложения или личного кабинета «Госуслуг» невозможно. Сами документы публикуются исключительно на официальном веб-ресурсе – в Реестре повесток РФ.\n❗️ Запомните: настоящие представители военных комиссариатов никогда не станут звонить вам с требованием продиктовать СМС-код для записи в какую-либо электронную очередь.","links":["https://t.me/cyberpolice_rus","https://xn--b1afabzvcegckfhg.xn--p1ai/lkrp/"]}},{"type":"Feature","geometry":null,"properties":{"source":"ru_mod","source_name":"Ministry of Defence of Russia","group":"official_ru","id":67860,"posted_utc":"2026-10-02T13:54:14+00:00","link":"https://t.me/mod_russia/67860","text":"🔄 «Север» сжимает тиски\nЭкипажи Т-72Б3М 11-го армейского корпуса группировки «Север» уничтожили технику и живую силу подразделений ВСУ, находящихся в окружении в Харьковской области.\n🔹 Канал Минобороны России в MAКС – источник мощных новостей","links":["https://max.ru/morf"]}},{"type":"Feature","geometry":null,"properties":{"source":"ru_mod","source_name":"Ministry of Defence of Russia","group":"official_ru","id":67861,"posted_utc":"2026-10-02T15:35:33+00:00","link":"https://t.me/mod_russia/67861","text":"❗️ Вооруженные Силы Российской Федерации продолжают наносить удары по объектам инфраструктуры Украины и морским судам, используемым в интересах ВСУ.\n💥  Сегодня днем в результате удара беспилотными летательными аппаратами в городе Николаеве поражен дата-центр «RX-Name», обеспечивавший обработку данных и хранение сайтов в интересах украинских войск.\n💥  Кроме того, на переходе морем в северо-западной части Черного моря поражено морское судно типа «сухогруз», доставлявшее в порт Одесса военное имущество.\n🔹 Минобороны России","links":["https://max.ru/morf"]}},{"type":"Feature","geometry":null,"properties":{"source":"ru_mod","source_name":"Ministry of Defence of Russia","group":"official_ru","id":67862,"posted_utc":"2026-10-02T16:33:14+00:00","link":"https://t.me/mod_russia/67862","text":"Верховный Главнокомандующий посетил полигон Чебаркульский в Челябинской области, где наблюдал за стратегическим командно-штабным учением «Центр-2026»\nЗадействовано свыше 47 тысяч военнослужащих, которые выполняют задачи на 11 полигонах и в акватории Каспийского моря. Главной целью учения является совершенствование навыков руководящего состава штабов всех уровней в управлении войсками при отражении внешней агрессии. Участники учения на практике применяют новое вооружение, технику, и при этом все задачи решаются с учётом опыта проведения специальной военной операции,\n– отметил, в частности, Президент в своём вступительном слове.\nО ходе учения главе государства доложили Министр обороны Андрей Белоусов, заместитель Министра обороны Юнус-Бек Евкуров и главнокомандующий Сухопутными войсками Андрей Мордвичёв\nПодробнее – на сайте Кремля.\nЗапись трансляции пленарного заседания – в «VK Видео» и на RUTUBE.","links":["http://kremlin.ru/events/president/news/80912","https://vkvideo.ru/video-216704731_456244132","https://rutube.ru/video/a0f53842c9489e7a5339e533aabaa3b9/"]}},{"type":"Feature","geometry":null,"properties":{"source":"ru_mod","source_name":"Ministry of Defence of Russia","group":"official_ru","id":67864,"posted_utc":"2026-10-02T16:43:46+00:00","link":"https://t.me/mod_russia/67864","text":"Владимир Путин провёл краткую встречу с иностранными военными атташе, прибывшими на стратегическое командно-штабное учение «Центр-2026»\nПолное видео – в «VK Видео» и на RUTUBE.","links":["https://vkvideo.ru/video-216704731_456244139","https://rutube.ru/video/58d0df81a05c5a56f493d89e9c7fbe1b/"]}},{"type":"Feature","geometry":null,"properties":{"source":"ru_mod","source_name":"Ministry of Defence of Russia","group":"official_ru","id":67865,"posted_utc":"2026-10-02T17:11:18+00:00","link":"https://t.me/mod_russia/67865","text":"▫️ Подготовка завершена, к активной фазе готовы\n💬 Министр обороны Андрей Белоусов доложил Верховному Главнокомандующему о ходе заключительного этапа «Центр-2026».\nТоварищ Верховный Главнокомандующий!\nВ соответствии с Планом подготовки Вооружённых Сил Российской Федерации с 28 сентября проводится стратегическое командно-штабное учение «Центр-2026».\nК мероприятию привлекаются войска Центрального военного округа, соединения и воинские части Воздушно-космических сил, Воздушно-десантных войск, соединения и воинские части центрального подчинения, а также силы Каспийской флотилии.\nКроме того, в учении принимают участие представители почти 60 государств, силы и средства системы коллективной безопасности ОДКБ. Семь стран направили свои воинские контингенты, оборонное ведомство Конго представлено оперативной группой, 51 государство – наблюдателями. Общая численность войск на полигоне Чебаркульский составляет около шести тысяч военнослужащих, задействуется порядка 700 единиц техники, более 600 беспилотных летательных аппаратов различных модификаций и свыше 60 роботизированных систем.\nУчебные задачи решаются в рамках операции группировки войск на Центрально-Азиатском стратегическом направлении, войска и силы завершили совместную подготовку и готовы к активной фазе учения.\n#Центр2026\n🔹 Минобороны России","links":["https://max.ru/morf"]}},{"type":"Feature","geometry":null,"properties":{"source":"ru_mod","source_name":"Ministry of Defence of Russia","group":"official_ru","id":67866,"posted_utc":"2026-10-02T17:12:36+00:00","link":"https://t.me/mod_russia/67866","text":"💥 На полигоне Чебаркульский гремит главный этап учений «Центр-2026»\n📆 2 октября 2026 года на полигоне Чебаркульский проходит основной этап стратегического командно-штабного учения «Центр-2026» – завершающий этап подготовки ВС РФ в этом году.\n➡️ Особенность основного этапа учения – применение различных сил и средств с учетом опыта СВО.\n#Центр2026\n🔹 MAКС – территория СВОих","links":["https://max.ru/morf"]}},{"type":"Feature","geometry":null,"properties":{"source":"ru_mod","source_name":"Ministry of Defence of Russia","group":"official_ru","id":67868,"posted_utc":"2026-10-02T17:14:12+00:00","link":"https://t.me/mod_russia/67868","text":"Мы делаем свою работу круто. И в бою, и на учениях.","links":[]}},{"type":"Feature","geometry":null,"properties":{"source":"ru_mod","source_name":"Ministry of Defence of Russia","group":"official_ru","id":67869,"posted_utc":"2026-10-02T17:15:53+00:00","link":"https://t.me/mod_russia/67869","text":"✈️ Показываем класс: масштабная работа авиации на учениях «Центр-2026»\nЭкипажи отработали полный спектр задач: от высадки штурмовых групп и массированных ударов по наземным и морским объектам до перехвата воздушных целей и ведения разведки. Авиация действует в тесной связке, обеспечивая комплексное и эффективное поражение условного противника.\nНебо под надежным контролем!\n#Центр2026\n🔹 Курс на MAКС!","links":["https://max.ru/morf"]}},{"type":"Feature","geometry":null,"properties":{"source":"ru_mod","source_name":"Ministry of Defence of Russia","group":"official_ru","id":67870,"posted_utc":"2026-10-02T17:17:20+00:00","link":"https://t.me/mod_russia/67870","text":"Работа наших парней – это всегда красиво 😍\n📍 полигон Чебаркульский в Челябинской области\n#Центр2026\n🔹 Канал Минобороны России в MAКС – боевая работа 24/7","links":["https://max.ru/morf"]}},{"type":"Feature","geometry":null,"properties":{"source":"ru_mod","source_name":"Ministry of Defence of Russia","group":"official_ru","id":67871,"posted_utc":"2026-10-02T17:19:59+00:00","link":"https://t.me/mod_russia/67871","text":"⚓️ Море слабых не любит. У нас все сильные!\nМасштабные маневры на Каспии:\n• В море и на берегу: Ракетные корабли, комплексы «Бал» и морская пехота уничтожили вражеский десант.\n• В воздухе: Истребители обеспечили безопасность полетов стратегической авиации.\n• Оборона побережья: Отражена атака морских дронов условного противника на Каспийск, а спецназ штурмом захватил судно-нарушитель.\nВсе подразделения успешно справились с задачами, показав высокую слаженность и готовность к защите рубежей.\n#Центр2026\n🔹 Канал Минобороны России в MAКС – только для своих!","links":["https://max.ru/morf"]}},{"type":"Feature","geometry":null,"properties":{"source":"ru_mod","source_name":"Ministry of Defence of Russia","group":"official_ru","id":67872,"posted_utc":"2026-10-02T17:33:45+00:00","link":"https://t.me/mod_russia/67872","text":"Пусть недруги знают, что им всегда ответят!","links":[]}},{"type":"Feature","geometry":null,"properties":{"source":"ru_mod","source_name":"Ministry of Defence of Russia","group":"official_ru","id":67873,"posted_utc":"2026-10-02T17:36:03+00:00","link":"https://t.me/mod_russia/67873","text":"Крылатая пехота и беспилотный авангард: мощь наших парней на учениях «Центр-2026»\nСкрытное десантирование в тыл, применение робототехнических комплексов, огневые засады и штурм населенных пунктов с разных направлений. Десантники отработали полный цикл: от разведки до зачистки объектов при поддержке противотанковых и мобильных огневых групп.\nОтработали с огоньком! 💥\n❤️ за мастерство\n#Центр2026\n▫️ Канал Минобороны России в MAКС – источник мощных новостей","links":["https://max.ru/morf"]}},{"type":"Feature","geometry":null,"properties":{"source":"ru_mod","source_name":"Ministry of Defence of Russia","group":"official_ru","id":67874,"posted_utc":"2026-10-02T17:47:52+00:00","link":"https://t.me/mod_russia/67874","text":"⚡️ В течение дня в период с 8.00 мск до 20.00 мск дежурными силами ПВО перехвачены и уничтожены 209 украинских беспилотных летательных аппаратов самолетного типа над территориями Астраханской, Белгородской, Брянской, Воронежской, Калужской, Курской, Нижегородской, Орловской, Пензенской, Самарской, Саратовской, Тульской областей, Чувашской Республики, Республики Крым и над акваторией Черного моря.\n🔹 Минобороны России","links":["https://max.ru/morf"]}},{"type":"Feature","geometry":null,"properties":{"source":"ru_mod","source_name":"Ministry of Defence of Russia","group":"official_ru","id":67875,"posted_utc":"2026-10-02T17:49:31+00:00","link":"https://t.me/mod_russia/67875","text":"Тем временем над позициями ВСУ разбушевался «Ураган»\nРасчёт «Урагана» группировки «Центр» накрыл огнем вражеские опорный пункт и пункт управления беспилотниками.\n📍 Добропольское направление\n🔹 Канал Минобороны России в MAКС – только для своих!","links":["https://max.ru/morf"]}},{"type":"Feature","geometry":null,"properties":{"source":"ru_mod","source_name":"Ministry of Defence of Russia","group":"official_ru","id":67876,"posted_utc":"2026-10-02T18:08:39+00:00","link":"https://t.me/mod_russia/67876","text":"👉 Будущее уже рядом! Работаем на удаленке.\nБезэкипажные танки на учениях «Центр-2026».\n#Центр2026\n🔹 Курс на MAКС!","links":["https://max.ru/morf"]}}]}