{"type":"FeatureCollection","features":[{"type":"Feature","geometry":{"type":"Point","coordinates":[37.36109,50.25094]},"properties":{"source":"lost_warinua","source_name":"lost_warinua (Telegram)","source_url":"https://t.me/s/lost_warinua","id":140996,"date":"2026-09-15","date_note":null,"posted_utc":"2026-09-25T13:55:33+00:00","link":"https://t.me/lost_warinua/140996","category":"Telegram post","side":"Claimed loss: Ukraine (ВСУ)","color":"#0051CA","description":"Уничтоженный бронеавтомобиль HMMWV с мангалом ВСУ возле н.п. Сердобино Харьковской области.","orbat":[],"sources":["https://t.me/sudoplatov_official/9340"]}},{"type":"Feature","geometry":{"type":"Point","coordinates":[37.40722,50.24272]},"properties":{"source":"lost_warinua","source_name":"lost_warinua (Telegram)","source_url":"https://t.me/s/lost_warinua","id":141000,"date":"2026-09-15","date_note":null,"posted_utc":"2026-09-25T13:57:07+00:00","link":"https://t.me/lost_warinua/141000","category":"Telegram post","side":"Claimed loss: Ukraine (ВСУ)","color":"#0051CA","description":"Уничтоженная САУ  2С1 Гвоздика ВСУ возле н.п. Сердобино Харьковской области.","orbat":[],"sources":["https://t.me/sudoplatov_official/9340"]}}]}