{"type":"FeatureCollection","features":[{"type":"Feature","geometry":{"type":"MultiPolygon","coordinates":[[[[37.83141,48.76001],[37.83335,48.76157],[37.83769,48.76383],[37.8419,48.76326],[37.84636,48.76167],[37.8631,48.76199],[37.87951,48.76552],[37.88029,48.76967],[37.87226,48.78197],[37.88022,48.78213],[37.89375,48.77827],[37.90278,48.77065],[37.91985,48.78545],[37.92097,48.79452],[37.92112,48.79452],[37.9236,48.78056],[37.93257,48.77446],[37.92556,48.7681],[37.92451,48.76832],[37.91841,48.76975],[37.9165,48.76956],[37.91639,48.76956],[37.91236,48.77066],[37.90957,48.77123],[37.90781,48.7697],[37.90338,48.76475],[37.90352,48.76349],[37.90116,48.76153],[37.89073,48.76077],[37.88007,48.75821],[37.86478,48.75559],[37.85675,48.75549],[37.8533,48.75515],[37.84905,48.75436],[37.84687,48.75501],[37.84094,48.75349],[37.83817,48.75306],[37.83453,48.75175],[37.83141,48.76001]]],[[[37.63355,48.47776],[37.62677,48.48177],[37.6217,48.48626],[37.61681,48.48763],[37.61132,48.49258],[37.61261,48.49474],[37.6302,48.49639],[37.62837,48.5067],[37.64252,48.50776],[37.64368,48.50287],[37.66187,48.50463],[37.66516,48.50345],[37.65932,48.49507],[37.66122,48.49008],[37.65918,48.49021],[37.65597,48.48976],[37.6547,48.48976],[37.65233,48.48754],[37.65258,48.48421],[37.65257,48.48387],[37.65259,48.48387],[37.65259,48.47548],[37.64775,48.4682],[37.64745,48.45796],[37.63944,48.45776],[37.6384,48.45762],[37.63355,48.47776]]],[[[37.38061,48.49678],[37.3853,48.49682],[37.41564,48.49342],[37.43616,48.48918],[37.43892,48.48991],[37.44118,48.48711],[37.44628,48.48516],[37.45686,48.48241],[37.45961,48.47792],[37.46313,48.47115],[37.46422,48.46642],[37.47141,48.4659],[37.47385,48.4651],[37.47226,48.46227],[37.47247,48.4609],[37.46972,48.46286],[37.46552,48.46386],[37.45777,48.46432],[37.45729,48.46497],[37.45667,48.4653],[37.45644,48.46706],[37.45599,48.46759],[37.45459,48.46811],[37.45431,48.46854],[37.45369,48.46871],[37.45281,48.46864],[37.45191,48.46908],[37.45039,48.47038],[37.44965,48.47429],[37.44494,48.48087],[37.40746,48.48626],[37.39133,48.48781],[37.38876,48.49133],[37.38386,48.49179],[37.38047,48.4929],[37.37942,48.49403],[37.37774,48.49461],[37.38061,48.49678]]],[[[37.22361,48.41961],[37.21987,48.42936],[37.21987,48.4323],[37.2294,48.43742],[37.22824,48.44317],[37.24069,48.44428],[37.24271,48.43018],[37.2444,48.42661],[37.22363,48.4255],[37.22516,48.41979],[37.22361,48.41961]]],[[[37.18566,48.3609],[37.19342,48.36166],[37.19432,48.35746],[37.19702,48.35483],[37.19904,48.35344],[37.20103,48.35364],[37.202,48.34958],[37.19871,48.34878],[37.19755,48.34789],[37.18552,48.34683],[37.18421,48.353],[37.1805,48.35268],[37.18566,48.3609]]],[[[36.16191,47.65173],[36.17016,47.65393],[36.16381,47.66399],[36.16037,47.67053],[36.16654,47.67268],[36.17064,47.67076],[36.17755,47.66147],[36.18568,47.66349],[36.1898,47.6562],[36.19616,47.65663],[36.19829,47.65293],[36.19986,47.64463],[36.19812,47.64364],[36.19784,47.64056],[36.19587,47.63743],[36.18471,47.63477],[36.17598,47.64499],[36.17265,47.64516],[36.16191,47.65173]]]]},"properties":{"source":"ukrdaily","source_name":"UkrDailyUpdate","source_url":"https://map.ukrdailyupdate.com/","category":"gained","category_label":"Newly Russian-occupied","period":"7d","compared_with":"2026-08-21","snapshot_time":"2026-08-28","area_km2_approx":35.1}},{"type":"Feature","geometry":{"type":"MultiPolygon","coordinates":[[[[37.90289,49.08313],[37.89961,49.08315],[37.88738,49.07868],[37.87762,49.07665],[37.8708,49.07296],[37.86989,49.0717],[37.8662,49.07277],[37.86538,49.07173],[37.86377,49.07166],[37.8628,49.07863],[37.86653,49.08643],[37.88293,49.09133],[37.88976,49.09296],[37.89454,49.09228],[37.89935,49.08773],[37.90701,49.08425],[37.90289,49.08313]]],[[[37.79155,48.6332],[37.78949,48.63836],[37.7902,48.64363],[37.79191,48.64128],[37.79396,48.63926],[37.79981,48.63737],[37.80045,48.63065],[37.7924,48.62163],[37.79155,48.6332]]],[[[37.62444,49.82558],[37.62411,49.82778],[37.6277,49.82942],[37.63,49.83148],[37.6411,49.8326],[37.63902,49.83446],[37.6348,49.83476],[37.63607,49.84008],[37.63619,49.84747],[37.63309,49.85021],[37.63581,49.85195],[37.64271,49.84989],[37.64983,49.85262],[37.66051,49.85096],[37.6645,49.84708],[37.66751,49.84196],[37.66916,49.83991],[37.64868,49.83032],[37.63242,49.82342],[37.62237,49.82441],[37.62444,49.82558]]],[[[36.76046,48.02624],[36.76305,48.04516],[36.78159,48.0499],[36.78571,48.05305],[36.79404,48.05007],[36.77932,48.03355],[36.77271,48.02818],[36.76998,48.01095],[36.76046,48.02624]]]]},"properties":{"source":"ukrdaily","source_name":"UkrDailyUpdate","source_url":"https://map.ukrdailyupdate.com/","category":"lost","category_label":"No longer Russian-occupied","period":"7d","compared_with":"2026-08-21","snapshot_time":"2026-08-28","area_km2_approx":14.8}}]}