{"type":"FeatureCollection","features":[{"type":"Feature","geometry":null,"properties":{"source":"ua_mod","source_name":"Ministry of Defence of Ukraine","group":"official_ua","id":16019,"posted_utc":"2026-08-13T08:14:54+00:00","link":"https://t.me/ministry_of_defense_ua/16019","text":"⚙️ Міноборони кодифікувало новий український бронетранспортер «Сова-БТР»: із посиленим протимінним захистом та VR-системою кругового огляду на 360°.\n«Сова» має колісну формулу 4×4, компактні розміри, високу мобільність і низьку помітність на полі бою. Модульне десантне відділення можна за кілька годин переобладнати для медичної евакуації.\nЗахист екіпажу та десанту забезпечують V-подібний корпус-монокок із подвійним дном, вибухопоглинаючі вузли та вибухостійкі крісла. Водій може керувати машиною у VR-окулярах з нічним баченням, оглядаючи увесь простір навколо БТР.\nБТР розроблений і виготовлений в Україні та підтвердив заявлені характеристики під час випробувань. Тепер його можна закуповувати для потреб Сил оборони.","links":["https://mod.gov.ua/news/virtualna-realnist-i-naivyshchyi-zakhyst-vid-min-minoborony-kodyfikuvalo-btr-sova?utm_source=mod-telegram&utm_medium=social"],"original_html":"<b><i class=\"emoji\" style=\"background-image:url('//telegram.org/img/emoji/40/E29A99.png')\"><b>⚙️</b></i> Міноборони кодифікувало </b><a href=\"https://mod.gov.ua/news/virtualna-realnist-i-naivyshchyi-zakhyst-vid-min-minoborony-kodyfikuvalo-btr-sova?utm_source=mod-telegram&amp;amp;utm_medium=social\" target=\"_blank\" rel=\"noopener\" onclick=\"return confirm('Open this link?\\n\\n'+this.href);\"><b>новий український бронетранспортер «Сова-БТР»</b></a><b>: із посиленим протимінним захистом та VR-системою кругового огляду на 360°. <br/></b><br/>«Сова» має колісну формулу 4×4, компактні розміри, високу мобільність і низьку помітність на полі бою. Модульне десантне відділення можна за кілька годин переобладнати для медичної евакуації.<br/><br/>Захист екіпажу та десанту забезпечують V-подібний корпус-монокок із подвійним дном, вибухопоглинаючі вузли та вибухостійкі крісла. Водій може керувати машиною у VR-окулярах з нічним баченням, оглядаючи увесь простір навколо БТР. <br/><br/>БТР розроблений і виготовлений в Україні та підтвердив заявлені характеристики під час випробувань. Тепер його можна закуповувати для потреб Сил оборони."}},{"type":"Feature","geometry":null,"properties":{"source":"ua_mod","source_name":"Ministry of Defence of Ukraine","group":"official_ua","id":16020,"posted_utc":"2026-08-13T09:50:30+00:00","link":"https://t.me/ministry_of_defense_ua/16020","text":"Тепер в Армія+ можна навчитися замовляти дрони й техніку через DOT-Chain Defence.\nКурс «Маркетплейс зброї DOT-Chain Defence» допоможе розібратися, як працює IT-система Агенції оборонних закупівель ДОТ, через яку військові можуть самостійно замовляти дрони, засоби РЕБ та іншу техніку за державні кошти – без зайвої бюрократії та затримок.\nУ восьми уроках пояснюють:\n➕ як отримати доступ й налаштувати автентифікацію;\n➕ як знаходити потрібні засоби в каталозі та оформлювати замовлення;\n➕ як підписувати документи КЕП і відстежувати поставки;\n➕ як оформлювати отримання техніки;\n➕ як користуватися рейтингами й відгуками;\n➕ як у конструкторі збирати дрони під потреби підрозділу.\nКурс буде корисним військовим, які працюють із дронами та їх забезпеченням. Передусім – командирам, начальникам служб забезпечення та складів, діловодам і працівникам фронтових майстерень.","links":["https://mod.gov.ua/news/v-armiia-zapustyly-navchalnyi-kurs-marketpleis-zbroi-dot-chain-defence?utm_source=mod-telegram&utm_medium=social"],"original_html":"<b>Тепер в Армія+ можна навчитися замовляти дрони й техніку через DOT-Chain Defence. <br/><br/></b><a href=\"https://mod.gov.ua/news/v-armiia-zapustyly-navchalnyi-kurs-marketpleis-zbroi-dot-chain-defence?utm_source=mod-telegram&amp;amp;utm_medium=social\" target=\"_blank\" rel=\"noopener\" onclick=\"return confirm('Open this link?\\n\\n'+this.href);\">Курс «Маркетплейс зброї DOT-Chain Defence»</a> допоможе розібратися, як працює IT-система Агенції оборонних закупівель ДОТ, через яку військові можуть самостійно замовляти дрони, засоби РЕБ та іншу техніку за державні кошти – без зайвої бюрократії та затримок.<br/><br/>У восьми уроках пояснюють:<br/><i class=\"emoji\" style=\"background-image:url('//telegram.org/img/emoji/40/E29E95.png')\"><b>➕</b></i> як отримати доступ й налаштувати автентифікацію;<br/><i class=\"emoji\" style=\"background-image:url('//telegram.org/img/emoji/40/E29E95.png')\"><b>➕</b></i> як знаходити потрібні засоби в каталозі та оформлювати замовлення;<br/><i class=\"emoji\" style=\"background-image:url('//telegram.org/img/emoji/40/E29E95.png')\"><b>➕</b></i> як підписувати документи КЕП і відстежувати поставки;<br/><i class=\"emoji\" style=\"background-image:url('//telegram.org/img/emoji/40/E29E95.png')\"><b>➕</b></i> як оформлювати отримання техніки;<br/><i class=\"emoji\" style=\"background-image:url('//telegram.org/img/emoji/40/E29E95.png')\"><b>➕</b></i> як користуватися рейтингами й відгуками;<br/><i class=\"emoji\" style=\"background-image:url('//telegram.org/img/emoji/40/E29E95.png')\"><b>➕</b></i> як у конструкторі збирати дрони під потреби підрозділу.<br/><br/>Курс буде корисним військовим, які працюють із дронами та їх забезпеченням. Передусім – командирам, начальникам служб забезпечення та складів, діловодам і працівникам фронтових майстерень."}},{"type":"Feature","geometry":null,"properties":{"source":"ua_mod","source_name":"Ministry of Defence of Ukraine","group":"official_ua","id":16021,"posted_utc":"2026-08-13T12:22:24+00:00","link":"https://t.me/ministry_of_defense_ua/16021","text":"✅ У військових частин стало більше можливостей швидко закуповувати необхідне: на Prozorro Market доступні 15 категорій товарів оборонного призначення.\nДо пікапів, мотоциклів, багі, квадроциклів додали бронежилети, тактичне взуття, термобілизну, польові костюми, маскувальні комплекти, електричні мотоцикли та інше речове майно.\nProzorro Market доступний підрозділам, які здійснюють закупівлі за кошти децентралізованих бюджетів. Ці кошти виділяються безпосередньо частинам для закупівель під їхні власні потреби.\nВійськова частина обирає категорію і товар. Далі Агенція оборонних закупівель ДОТ бере на себе всю організацію — від формування вимог до перевірки постачальників.\nТак ми знімаємо з військових значну частину бюрократії, скорочуємо строки закупівель, а також мінімізуємо ризики.","links":["https://mod.gov.ua/news/vid-bronezhyletiv-do-vzuttia-novi-katehorii-tovariv-dlia-viiskovykh-na-prozorro-market?utm_source=mod-telegram&utm_medium=social"],"original_html":"<b><i class=\"emoji\" style=\"background-image:url('//telegram.org/img/emoji/40/E29C85.png')\"><b>✅</b></i></b> <b>У військових частин стало більше можливостей швидко закуповувати необхідне: на Prozorro Market доступні 15 категорій товарів оборонного призначення. <br/></b><br/>До пікапів, мотоциклів, багі, квадроциклів додали бронежилети, тактичне взуття, термобілизну, польові костюми, маскувальні комплекти, електричні мотоцикли <a href=\"https://mod.gov.ua/news/vid-bronezhyletiv-do-vzuttia-novi-katehorii-tovariv-dlia-viiskovykh-na-prozorro-market?utm_source=mod-telegram&amp;amp;utm_medium=social\" target=\"_blank\" rel=\"noopener\" onclick=\"return confirm('Open this link?\\n\\n'+this.href);\">та інше речове майно</a>. <br/><br/>Prozorro Market доступний підрозділам, які здійснюють закупівлі за кошти децентралізованих бюджетів. Ці кошти виділяються безпосередньо частинам для закупівель під їхні власні потреби. <br/><br/>Військова частина обирає категорію і товар. Далі Агенція оборонних закупівель ДОТ бере на себе всю організацію — від формування вимог до перевірки постачальників. <br/><br/>Так ми знімаємо з військових значну частину бюрократії, скорочуємо строки закупівель, а також мінімізуємо ризики."}},{"type":"Feature","geometry":null,"properties":{"source":"ua_mod","source_name":"Ministry of Defence of Ukraine","group":"official_ua","id":16022,"posted_utc":"2026-08-13T14:08:45+00:00","link":"https://t.me/ministry_of_defense_ua/16022","text":"Роботодавці тепер можуть звіряти та оновлювати військово-облікові дані працівників онлайн через портал Дія.\nЗміни, про які можна повідомляти через портал Дія:\n• прийняття працівника на роботу або звільнення;\n• зміна прізвища;\n• зміна місця проживання.\nДля цього керівник підприємства або уповноважена особа авторизується на порталі, вносить дані та ставить електронний підпис.\nЯкщо інформацію подано онлайн, дублювати її на папері не потрібно.\nВідомості про прийняття на роботу або звільнення після перевірки оновлюються в Єдиному державному реєстрі призовників, військовозобов’язаних та резервістів протягом 72 годин.\nМенше ручної роботи для роботодавців і ТЦК та СП, менше ризику помилок — і актуальніші дані у системі військового обліку.","links":["https://mod.gov.ua/news/viiskovyi-oblik-bez-paperiv-robotodavtsi-teper-mozhut-peredavaty-dani-cherez-portal-diia?utm_source=mod-telegram&utm_medium=social"],"original_html":"<b>Роботодавці тепер можуть звіряти та оновлювати військово-облікові дані працівників онлайн через портал Дія.</b><br/><b><br/></b>Зміни, про які можна <a href=\"https://mod.gov.ua/news/viiskovyi-oblik-bez-paperiv-robotodavtsi-teper-mozhut-peredavaty-dani-cherez-portal-diia?utm_source=mod-telegram&amp;amp;utm_medium=social\" target=\"_blank\" rel=\"noopener\" onclick=\"return confirm('Open this link?\\n\\n'+this.href);\">повідомляти через портал Дія</a>:<br/>• прийняття працівника на роботу або звільнення;<br/>• зміна прізвища;<br/>• зміна місця проживання.<br/><br/>Для цього керівник підприємства або уповноважена особа авторизується на порталі, вносить дані та ставить електронний підпис. <br/><br/><u>Якщо інформацію подано онлайн, дублювати її на папері не потрібно.</u><br/><br/>Відомості про прийняття на роботу або звільнення після перевірки оновлюються в Єдиному державному реєстрі призовників, військовозобов’язаних та резервістів протягом 72 годин.<br/><br/>Менше ручної роботи для роботодавців і ТЦК та СП, менше ризику помилок — і актуальніші дані у системі військового обліку."}}]}