{"type":"FeatureCollection","features":[{"type":"Feature","geometry":{"type":"Point","coordinates":[37.99709,49.11313]},"properties":{"source":"warspotting","source_name":"WarSpotting","source_url":"https://ukr.warspotting.net/","id":47315,"date":"2026-09-25","link":"https://ukr.warspotting.net/view/47315/","category":"Infantry fighting vehicles","side":"Lost by Russia","color":"#E00000","description":"BMP-2M 675-sb3KDZ · Destroyed · near Terny, Kramatorsk raion · tags: Cope cage, Hedgehog","orbat":[]}}]}