{"type":"FeatureCollection","features":[{"type":"Feature","geometry":null,"properties":{"source":"ua_mod","source_name":"Ministry of Defence of Ukraine","group":"official_ua","id":16231,"posted_utc":"2026-09-22T07:15:35+00:00","link":"https://t.me/ministry_of_defense_ua/16231","text":"📈 26 договорів на 91,2 млн грн уже уклали підприємства ОПК за програмою пільгового лізингу Міноборони.\nПрограма допомагає виробникам зброї та військової техніки оновлювати обладнання й нарощувати виробництво без необхідності негайно витрачати значні суми на його придбання.\nЩо пропонує держава:\n• пільгове фінансування під 5% річних;\n• до 500 млн грн на один договір;\n• строк лізингу до 5 років;\n• можливість відтермінування платежів до 12 місяців.\nЗа програмою можна отримати виробниче обладнання, технологічне устаткування, засоби автоматизації, транспорт та інші необхідні активи.\nСкористатися підтримкою можуть підприємства зі статусом критично важливих у сфері ОПК.","links":[],"original_html":"<i class=\"emoji\" style=\"background-image:url('//telegram.org/img/emoji/40/F09F9388.png')\"><b>📈</b></i> <b>26 договорів на 91,2 млн грн уже уклали підприємства ОПК за програмою пільгового лізингу Міноборони.</b><br/><br/>Програма допомагає виробникам зброї та військової техніки оновлювати обладнання й нарощувати виробництво без необхідності негайно витрачати значні суми на його придбання.<br/><br/><u>Що пропонує держава:</u><br/>• пільгове фінансування під 5% річних;<br/>• до 500 млн грн на один договір;<br/>• строк лізингу до 5 років;<br/>• можливість відтермінування платежів до 12 місяців.<br/><br/>За програмою можна отримати виробниче обладнання, технологічне устаткування, засоби автоматизації, транспорт та інші необхідні активи.<br/><br/>Скористатися підтримкою можуть підприємства зі статусом критично важливих у сфері ОПК."}},{"type":"Feature","geometry":null,"properties":{"source":"ua_mod","source_name":"Ministry of Defence of Ukraine","group":"official_ua","id":16232,"posted_utc":"2026-09-22T09:48:37+00:00","link":"https://t.me/ministry_of_defense_ua/16232","text":"💥  Понад 350 000 російських дронів знешкодили Сили оборони з початку року. Кожне ураження підтверджене відео в DELTA.\nСеред знищених цілей:\n≈ 220 000 БпЛА літакового типу;\n≈ 100 000 дронів-коптерів;\n≈ 31 000 ударних дронів типу «Шахед».\nПонад 320 000 дронів літакового та коптерного типу – на рахунку підрозділів безпілотних систем. «Шахеди» збивали також мобільні вогневі групи та армійська авіація.\nУсі результати зафіксовані в бойовій системі DELTA та верифіковані кластером оборонних інновацій Brave1.\nЗнищення БпЛА літакового типу перешкоджає здійснювати розвідку в нашому тилу, завдавати ударів або коригувати удари по цивільних обʼєктах. Збиття коптерів не дозволяє ворогу знаходити та уражати позиції та техніку на передовій.","links":[],"original_html":"<b><i class=\"emoji\" style=\"background-image:url('//telegram.org/img/emoji/40/F09F92A5.png')\"><b>💥</b></i>  Понад 350 000 російських дронів знешкодили Сили оборони з початку року. Кожне ураження підтверджене відео в DELTA.<br/></b><br/>Серед знищених цілей:<br/>≈ 220 000 БпЛА літакового типу;<br/>≈ 100 000 дронів-коптерів;<br/>≈ 31 000 ударних дронів типу «Шахед».<br/><br/>Понад 320 000 дронів літакового та коптерного типу – на рахунку підрозділів безпілотних систем. «Шахеди» збивали також мобільні вогневі групи та армійська авіація.<br/><br/>Усі результати зафіксовані в бойовій системі DELTA та верифіковані кластером оборонних інновацій Brave1.<br/><br/>Знищення БпЛА літакового типу перешкоджає здійснювати розвідку в нашому тилу, завдавати ударів або коригувати удари по цивільних обʼєктах. Збиття коптерів не дозволяє ворогу знаходити та уражати позиції та техніку на передовій."}},{"type":"Feature","geometry":null,"properties":{"source":"ua_mod","source_name":"Ministry of Defence of Ukraine","group":"official_ua","id":16233,"posted_utc":"2026-09-22T11:36:28+00:00","link":"https://t.me/ministry_of_defense_ua/16233","text":"✅ 650 нових безпілотних авіаційних комплексів з початку року Міноборони кодифікувало та допустило до постачання Силам оборони.\nЦе:\n• 238 ударних коптерів;\n• 231 БпАК на оптоволокні;\n• 42 дрони-перехоплювачі;\n• 32 БпЛА middle strike;\n• 9 БпЛА deep strike.\nБільшість БпЛА – українського виробництва.\nРозвиваємо кілька напрямів безпілотної війни: ударні системи для передової, захищені від РЕБ дрони, перехоплювачі та засоби ураження на великій відстані.","links":[],"original_html":"<b><i class=\"emoji\" style=\"background-image:url('//telegram.org/img/emoji/40/E29C85.png')\"><b>✅</b></i> 650 нових безпілотних авіаційних комплексів з початку року Міноборони кодифікувало та допустило до постачання Силам оборони</b>.<br/>&nbsp;<br/>Це:<br/>• 238 ударних коптерів;<br/>• 231 БпАК на оптоволокні;<br/>• 42 дрони-перехоплювачі;<br/>• 32 БпЛА middle strike;<br/>• 9 БпЛА deep strike.<br/>&nbsp;<br/>Більшість БпЛА – українського виробництва.<br/><br/>Розвиваємо кілька напрямів безпілотної війни: ударні системи для передової, захищені від РЕБ дрони, перехоплювачі та засоби ураження на великій відстані."}},{"type":"Feature","geometry":null,"properties":{"source":"ua_mod","source_name":"Ministry of Defence of Ukraine","group":"official_ua","id":16234,"posted_utc":"2026-09-22T12:49:59+00:00","link":"https://t.me/ministry_of_defense_ua/16234","text":"✍️ Військовий облік на підприємстві: що має знати роботодавець?\nЗібрали в одному роз’ясненні правила, обов’язки роботодавця, перелік документів і порядок перевірок.\n• Хто відповідає за облік?\n• Які документи мають бути?\n• Кого ставлять на військовий облік?\n• Що робити при прийнятті нового працівника?\n• Які штрафи за порушення?\n🔗 Детальніше","links":["https://mod.gov.ua/explanation/viiskovyi-oblik-na-pidpryiemstvi-holovni-pravyla-ta-obovyazky-robotodavtsiv?utm_source=mod-telegram&utm_medium=social"],"original_html":"<div class=\"tgme_widget_message_text js-message_text\" dir=\"auto\"><b><i class=\"emoji\" style=\"background-image:url('//telegram.org/img/emoji/40/E29C8D.png')\"><b>✍️</b></i> Військовий облік на підприємстві: що має знати роботодавець?</b><br/><br/>Зібрали в одному роз’ясненні правила, обов’язки роботодавця, перелік документів і порядок перевірок.<br/><br/>• Хто відповідає за облік?<br/>• Які документи мають бути?<br/>• Кого ставлять на військовий облік?<br/>• Що робити при прийнятті нового працівника?<br/>• Які штрафи за порушення?<br/><br/>&nbsp;<i class=\"emoji\" style=\"background-image:url('//telegram.org/img/emoji/40/F09F9497.png')\"><b>🔗</b></i> <a href=\"https://mod.gov.ua/explanation/viiskovyi-oblik-na-pidpryiemstvi-holovni-pravyla-ta-obovyazky-robotodavtsiv?utm_source=mod-telegram&amp;amp;utm_medium=social\" target=\"_blank\" rel=\"noopener\" onclick=\"return confirm('Open this link?\\n\\n'+this.href);\">Детальніше</a>"}},{"type":"Feature","geometry":null,"properties":{"source":"ua_mod","source_name":"Ministry of Defence of Ukraine","group":"official_ua","id":16236,"posted_utc":"2026-09-22T13:06:27+00:00","link":"https://t.me/ministry_of_defense_ua/16236","text":"🤝 Україна та ЄС працюють над прискоренням фінансування критичних потреб Сил оборони\nМіністр оборони України Євгеній Хмара провів телефонну розмову з Європейським комісаром з питань оборони та космосу Андрюсом Кубілюсом.\nОчільник Міноборони подякував Європейському Союзу за черговий транш у €3,3 млрд у межах Ukraine Support Loan. Ці кошти надзвичайно важливі для захисту українського неба. Завдяки їм будуть профінансовані закупівлі дронів і засобів ППО.\nЄвгеній Хмара відзначив зусилля Євросоюзу щодо опрацювання запитів України і надання фінансування для посилення оборонних спроможностей.\n«Швидкість у цьому питанні є критичною. Чим швидше ухвалюються рішення та надходять кошти, тим швидше необхідні засоби потрапляють на поле бою та посилюють спроможності наших військових», – наголосив Євгеній Хмара.\nОкремо Євгеній Хмара та Андрюс Кубілюс обговорили питання закриття дефіциту оборонного бюджету України на 2026 рік і фінансування потреб на 2027 рік.","links":[],"original_html":"<b><i class=\"emoji\" style=\"background-image:url('//telegram.org/img/emoji/40/F09FA49D.png')\"><b>🤝</b></i> Україна та ЄС працюють над прискоренням фінансування критичних потреб Сил оборони</b><br/><br/>Міністр оборони України Євгеній Хмара провів телефонну розмову з Європейським комісаром з питань оборони та космосу Андрюсом Кубілюсом.<br/><br/>Очільник Міноборони подякував Європейському Союзу за черговий транш у €3,3 млрд у межах Ukraine Support Loan. Ці кошти надзвичайно важливі для захисту українського неба. Завдяки їм будуть профінансовані закупівлі дронів і засобів ППО.<br/><br/>Євгеній Хмара відзначив зусилля Євросоюзу щодо опрацювання запитів України і надання фінансування для посилення оборонних спроможностей.<br/><br/><blockquote>«Швидкість у цьому питанні є критичною. Чим швидше ухвалюються рішення та надходять кошти, тим швидше необхідні засоби потрапляють на поле бою та посилюють спроможності наших військових», – наголосив Євгеній Хмара.</blockquote><br/><br/>Окремо Євгеній Хмара та Андрюс Кубілюс обговорили питання закриття дефіциту оборонного бюджету України на 2026 рік і фінансування потреб на 2027 рік."}},{"type":"Feature","geometry":null,"properties":{"source":"ua_mod","source_name":"Ministry of Defence of Ukraine","group":"official_ua","id":16237,"posted_utc":"2026-09-22T14:48:39+00:00","link":"https://t.me/ministry_of_defense_ua/16237","text":"🔥 У ніч на 22 вересня Сили оборони наклали далекобійні санкції на Куйбишевський нафтопереробний завод у Самарі.\nПриймаючи близько 7 млн тонн нафти на рік, завод випускає бензини, дизельне пальне, мазут. Ця продукція забезпечує потреби армії рф, а тому ураження виробництва реалізує право України на самооборону.\nРобота щодо зниження військово-економічного потенціалу противника буде тривати.","links":[],"original_html":"<b><i class=\"emoji\" style=\"background-image:url('//telegram.org/img/emoji/40/F09F94A5.png')\"><b>🔥</b></i></b> <b>У ніч на 22 вересня Сили оборони наклали далекобійні санкції на Куйбишевський нафтопереробний завод у Самарі. <br/></b><br/>Приймаючи близько 7 млн тонн нафти на рік, завод випускає бензини, дизельне пальне, мазут. Ця продукція забезпечує потреби армії рф, а тому ураження виробництва реалізує право України на самооборону. <br/><br/>Робота щодо зниження військово-економічного потенціалу противника буде тривати."}},{"type":"Feature","geometry":null,"properties":{"source":"ua_mod","source_name":"Ministry of Defence of Ukraine","group":"official_ua","id":16238,"posted_utc":"2026-09-22T15:09:15+00:00","link":"https://t.me/ministry_of_defense_ua/16238","text":"В Армія+ з’явився новий курс «Психологічна підготовка до бойових умов»\nЯк повернути контроль над собою під час сильного стресу? Що робити, якщо побратим чи посестра завмерли, панікують або проявляють агресію? Як психологічно підготуватися до обстрілу, атаки БпЛА або протидії бронетехніці противника?\nКурс допоможе краще розуміти власні реакції на сильний стрес, керувати своїм станом і підтримувати побратима чи посестру у складній ситуації.\nУ п’яти модулях військові дізнаються:\n• як психологічно підготуватися до стресових умов;\n• як діяти під час ступору, паніки, агресії, істерики та інших гострих реакцій;\n• як надати першу психологічну допомогу;\n• як працювати зі страхом та підтримувати психологічну стійкість.\nОкремі уроки присвячені тренуванням із використанням доповненої та віртуальної реальності. Вони допомагають відпрацьовувати дії у складних сценаріях і тренувати самоконтроль.\n📲 Курс уже доступний у розділі «Навчання» в Армія+.\nКурс створило Головне управління психологічної підтримки персоналу Збройних Сил України, а реалізувало Міністерство оборони України спільно з Офісом ефективного регулювання BRDO за підтримки Міністерства оборони Німеччини.\nУ розділі «Навчання» в Армія+ уже доступні понад 30 курсів – від психологічної підготовки й тактичної медицини до БпЛА, РЕБ та цифрових систем.","links":[],"original_html":"<b>В Армія+ з’явився новий курс «Психологічна підготовка до бойових умов»</b><br/><br/>Як повернути контроль над собою під час сильного стресу? Що робити, якщо побратим чи посестра завмерли, панікують або проявляють агресію? Як психологічно підготуватися до обстрілу, атаки БпЛА або протидії бронетехніці противника?<br/><br/>Курс допоможе краще розуміти власні реакції на сильний стрес, керувати своїм станом і підтримувати побратима чи посестру у складній ситуації.<br/><br/>У п’яти модулях військові дізнаються:<br/>• як психологічно підготуватися до стресових умов;<br/>• як діяти під час ступору, паніки, агресії, істерики та інших гострих реакцій;<br/>• як надати першу психологічну допомогу;<br/>• як працювати зі страхом та підтримувати психологічну стійкість.<br/><br/>Окремі уроки присвячені тренуванням із використанням доповненої та віртуальної реальності. Вони допомагають відпрацьовувати дії у складних сценаріях і тренувати самоконтроль.<br/><br/><i class=\"emoji\" style=\"background-image:url('//telegram.org/img/emoji/40/F09F93B2.png')\"><b>📲</b></i> Курс уже доступний у розділі «Навчання» в Армія+.<br/><br/>Курс створило Головне управління психологічної підтримки персоналу Збройних Сил України, а реалізувало Міністерство оборони України спільно з Офісом ефективного регулювання BRDO за підтримки Міністерства оборони Німеччини.&nbsp;<br/><br/>У розділі «Навчання» в Армія+ уже доступні понад 30 курсів – від психологічної підготовки й тактичної медицини до БпЛА, РЕБ та цифрових систем."}}]}