{"type":"FeatureCollection","features":[{"type":"Feature","geometry":{"type":"Point","coordinates":[37.2556,48.30988]},"properties":{"source":"lost_warinua","source_name":"lost_warinua (Telegram)","source_url":"https://t.me/s/lost_warinua","id":140673,"date":"2026-01-13","date_note":null,"posted_utc":"2026-09-16T10:14:50+00:00","link":"https://t.me/lost_warinua/140673","category":"Telegram post","side":"Claimed loss: Ukraine (ВСУ)","color":"#0051CA","description":"Уничтоженный бронеавтомобиль UAT-D Gyurza 01 с мангалом ВСУ в г. Мирноград Донецкой области.","orbat":[],"sources":[],"original_html":"<div class=\"tgme_widget_message_text js-message_text\" dir=\"auto\">13.01.2026<br/>Уничтоженный бронеавтомобиль UAT-D Gyurza 01 с мангалом ВСУ в г. Мирноград Донецкой области.<br/>(<code>48.30988, 37.2556</code>)"}}]}