{"type":"FeatureCollection","features":[{"type":"Feature","geometry":{"type":"MultiPolygon","coordinates":[[[[37.82707,48.74687],[37.83181,48.74572],[37.8347,48.75206],[37.83833,48.75064],[37.84873,48.75044],[37.85453,48.75142],[37.85896,48.75398],[37.86272,48.75225],[37.851,48.74796],[37.84752,48.7453],[37.85106,48.74243],[37.85151,48.73719],[37.84537,48.73603],[37.84788,48.73437],[37.84337,48.73125],[37.8205,48.73975],[37.82707,48.74687]]],[[[37.64348,48.50088],[37.65949,48.49519],[37.64717,48.49383],[37.63768,48.49591],[37.64348,48.50088]]],[[[37.64696,48.48354],[37.63188,48.48384],[37.62744,48.49466],[37.63768,48.49591],[37.63676,48.49423],[37.64816,48.48974],[37.65042,48.47651],[37.65022,48.47645],[37.64696,48.48354]]]]},"properties":{"source":"deepstate","source_name":"DeepStateMap","source_url":"https://deepstatemap.live/en","category":"gained","category_label":"Newly Russian-occupied","period":"1d","compared_with":"2026-08-20","snapshot_time":"2026-08-21","area_km2_approx":5.5}}]}