{"type":"FeatureCollection","features":[{"type":"Feature","geometry":{"type":"MultiPolygon","coordinates":[[[[37.94903,48.80984],[37.94236,48.81105],[37.94025,48.81327],[37.93166,48.81278],[37.92994,48.81732],[37.93255,48.81936],[37.92794,48.83903],[37.92054,48.83955],[37.92055,48.83998],[37.93018,48.84038],[37.94096,48.84389],[37.9526,48.8428],[37.95535,48.82655],[37.95518,48.82186],[37.95036,48.8134],[37.95555,48.80973],[37.95352,48.80023],[37.94903,48.80984]]],[[[37.84537,48.73603],[37.85151,48.73719],[37.85106,48.74243],[37.86147,48.73956],[37.87696,48.74084],[37.881,48.73309],[37.87896,48.72989],[37.87022,48.72606],[37.84788,48.73437],[37.84537,48.73603]]],[[[37.82237,48.56485],[37.83037,48.57154],[37.82868,48.57718],[37.82467,48.58157],[37.83228,48.58076],[37.8344,48.57829],[37.83773,48.57814],[37.8364,48.57545],[37.83307,48.57266],[37.8342,48.56839],[37.83616,48.56636],[37.82884,48.56166],[37.82237,48.56485]]],[[[37.75174,49.6544],[37.72858,49.65144],[37.72429,49.65415],[37.73066,49.65744],[37.73985,49.66835],[37.76741,49.66715],[37.77781,49.67318],[37.77274,49.65771],[37.76997,49.65728],[37.77011,49.65429],[37.77732,49.65176],[37.77726,49.6515],[37.75174,49.6544]]],[[[37.72649,48.47945],[37.74268,48.48121],[37.74852,48.47794],[37.76195,48.48311],[37.77041,48.46952],[37.75495,48.47267],[37.74558,48.47402],[37.7218,48.472],[37.71615,48.48442],[37.72649,48.47945]]],[[[37.65056,48.47572],[37.64816,48.48974],[37.63676,48.49423],[37.63768,48.49591],[37.64717,48.49383],[37.65949,48.49519],[37.66168,48.48979],[37.65314,48.48912],[37.65288,48.47572],[37.64784,48.47094],[37.64767,48.47108],[37.65056,48.47572]]],[[[37.18678,48.37367],[37.19119,48.38121],[37.21035,48.39198],[37.2156,48.39146],[37.22768,48.39767],[37.23609,48.39807],[37.22973,48.38724],[37.22819,48.38171],[37.21652,48.38052],[37.21594,48.37573],[37.20288,48.37779],[37.20003,48.37198],[37.1921,48.37424],[37.18947,48.37186],[37.18678,48.37367]]],[[[36.60946,47.92468],[36.60571,47.93039],[36.60794,47.93742],[36.6271,47.93872],[36.62665,47.93696],[36.61034,47.92648],[36.60946,47.92468]]]]},"properties":{"source":"deepstate","source_name":"DeepStateMap","source_url":"https://deepstatemap.live/en","category":"gained","category_label":"Newly Russian-occupied","period":"7d","compared_with":"2026-08-05","snapshot_time":"2026-08-12","area_km2_approx":25.1}},{"type":"Feature","geometry":{"type":"MultiPolygon","coordinates":[[[[36.63014,47.95071],[36.62885,47.95795],[36.64712,47.96049],[36.64679,47.96447],[36.64382,47.97075],[36.63829,47.9716],[36.63507,47.98034],[36.66231,48.0008],[36.66528,48.00657],[36.67212,48.01251],[36.68397,48.01928],[36.69886,48.02618],[36.70433,48.03778],[36.70662,48.05351],[36.72215,48.05401],[36.73604,48.06435],[36.7473,48.0781],[36.76902,48.0754],[36.80392,48.06036],[36.80381,48.06003],[36.77619,48.06678],[36.76473,48.05498],[36.7636,48.03392],[36.74857,48.0267],[36.73554,48.00924],[36.74244,47.97461],[36.73217,47.9607],[36.66097,47.94367],[36.63615,47.93933],[36.6271,47.93872],[36.63014,47.95071]]],[[[36.6293,47.92106],[36.63675,47.91257],[36.62893,47.90374],[36.6293,47.92106]]],[[[36.60879,47.9233],[36.60951,47.92478],[36.62102,47.92379],[36.628,47.92149],[36.62793,47.92121],[36.60879,47.9233]]],[[[36.49287,47.84813],[36.5399,47.85151],[36.57253,47.86165],[36.57945,47.87385],[36.57407,47.89633],[36.57414,47.89636],[36.58901,47.87397],[36.58236,47.86015],[36.57219,47.84909],[36.52565,47.84114],[36.49098,47.83039],[36.45513,47.82459],[36.45513,47.8246],[36.49287,47.84813]]],[[[36.3088,47.82069],[36.32256,47.82736],[36.34597,47.8305],[36.40694,47.8301],[36.45511,47.82459],[36.45174,47.80728],[36.42562,47.80975],[36.38099,47.79511],[36.36816,47.79591],[36.34811,47.8057],[36.30291,47.80298],[36.3088,47.82069]]]]},"properties":{"source":"deepstate","source_name":"DeepStateMap","source_url":"https://deepstatemap.live/en","category":"lost","category_label":"No longer Russian-occupied","period":"7d","compared_with":"2026-08-05","snapshot_time":"2026-08-12","area_km2_approx":119.4}}]}