{"type":"FeatureCollection","features":[{"type":"Feature","geometry":{"type":"Point","coordinates":[37.6348,48.9502]},"properties":{"original":{"Date":"2026-08-11","Name":"11 AUG 2026","Faction":"Russia","Origin":"UAV","Latitude":"48.9502","Longitude":"37.6348","PlusCode":"8GWVXJ2M+3W Mayaky, Donetsk Oblast, Ukraine","Description":"0:17-0:29 - Russian Airstrike","Source":"https://x.com/franfran2424/status/2088208143952007668, https://t.me/The_Wrong_Side/30488","Geolocation":"https://x.com/franfran2424/status/2088208875493134835, based on: https://x.com/johnspectator/status/2071477567438061964","Equipment":"","EquipmentItems":"Airstrike","Units":"","OrbatUnits":"","Id":"7e8cfd70-5920-42fa-8757-00361016eea5","icon":"/api/icons/E00000/False/template/10.png"},"source":"geoconfirmed","source_name":"GeoConfirmed","source_url":"https://geoconfirmed.org/map/ukraine","id":"7e8cfd70-5920-42fa-8757-00361016eea5","date":"2026-08-11","link":"https://geoconfirmed.org/map/ukraine/7e8cfd70-5920-42fa-8757-00361016eea5","category":"Shelling by artillery or aerial bombings - Location of the shelling, colour of who is shelling; Brown = UXO","side":"Russia","color":"#E00000","description":"0:17-0:29 - Russian Airstrike","orbat":[],"geolocation":["https://x.com/franfran2424/status/2088208875493134835","https://x.com/johnspectator/status/2071477567438061964"],"sources":["https://x.com/franfran2424/status/2088208143952007668","https://t.me/The_Wrong_Side/30488"]}},{"type":"Feature","geometry":{"type":"Point","coordinates":[37.709069,48.895603]},"properties":{"original":{"Date":"2026-08-11","Name":"11 AUG 2026","Faction":"Russia","Origin":"UAV","Latitude":"48.895603","Longitude":"37.709069","PlusCode":"8GWVVPW5+6J Raihorodok, Donetsk Oblast, Ukraine","Description":"0:33-0:44 - Two Russian ambush drones strike on Ukrainian vehicle / soldiers","Source":"https://bsky.app/profile/scaratlas.bsky.social/post/3mthaoua7x22r, https://t.me/Phoenixdrone/751","Geolocation":"https://bsky.app/profile/scaratlas.bsky.social/post/3mthaoiyl5s2r","Equipment":"","EquipmentItems":"Fiber Optic (FO) FPV (First Person View) OWAD (One Way Attack Drone)","Units":"","OrbatUnits":"First Special Mining Battalion \"Phoenix\"","Id":"4fde24e9-06e9-44bf-96bb-05185443bc49","icon":"/api/icons/E00000/False/template/111.png"},"source":"geoconfirmed","source_name":"GeoConfirmed","source_url":"https://geoconfirmed.org/map/ukraine","id":"4fde24e9-06e9-44bf-96bb-05185443bc49","date":"2026-08-11","link":"https://geoconfirmed.org/map/ukraine/4fde24e9-06e9-44bf-96bb-05185443bc49","category":"Short Range (<50km) OWAD (One Way Attack Drone), mostly rotary wing, Flying OR Attacking a target without knowing the outcome: if something is damaged --> icon of the damaged equipment.","side":"Russia","color":"#E00000","description":"0:33-0:44 - Two Russian ambush drones strike on Ukrainian vehicle / soldiers","orbat":["First Special Mining Battalion \"Phoenix\""],"geolocation":["https://bsky.app/profile/scaratlas.bsky.social/post/3mthaoiyl5s2r"],"sources":["https://bsky.app/profile/scaratlas.bsky.social/post/3mthaoua7x22r","https://t.me/Phoenixdrone/751"]}},{"type":"Feature","geometry":{"type":"Point","coordinates":[37.6291,50.0357]},"properties":{"original":{"Date":"2026-08-11","Name":"11 AUG 2026","Faction":"Russia","Origin":"UAV","Latitude":"50.0357","Longitude":"37.6291","PlusCode":"9G2V2JPH+7J Novouzhvynivka, Kharkiv Oblast, Ukraine","Description":"0:00-0:15 - Russian Airstrike","Source":"https://x.com/franfran2424/status/2088208143952007668, https://t.me/The_Wrong_Side/30488","Geolocation":"https://x.com/franfran2424/status/2088208875493134835","Equipment":"","EquipmentItems":"Airstrike","Units":"","OrbatUnits":"","Id":"f846a74c-6f80-485e-9919-073ff278d6eb","icon":"/api/icons/E00000/False/template/10.png"},"source":"geoconfirmed","source_name":"GeoConfirmed","source_url":"https://geoconfirmed.org/map/ukraine","id":"f846a74c-6f80-485e-9919-073ff278d6eb","date":"2026-08-11","link":"https://geoconfirmed.org/map/ukraine/f846a74c-6f80-485e-9919-073ff278d6eb","category":"Shelling by artillery or aerial bombings - Location of the shelling, colour of who is shelling; Brown = UXO","side":"Russia","color":"#E00000","description":"0:00-0:15 - Russian Airstrike","orbat":[],"geolocation":["https://x.com/franfran2424/status/2088208875493134835"],"sources":["https://x.com/franfran2424/status/2088208143952007668","https://t.me/The_Wrong_Side/30488"]}},{"type":"Feature","geometry":{"type":"Point","coordinates":[61.527718,55.300227]},"properties":{"original":{"Date":"2026-08-11","Name":"11 AUG 2026","Faction":"Russia","Origin":"VID","Latitude":"55.300227","Longitude":"61.527718","PlusCode":"9J738G2H+33 Chelyabinsk, Chelyabinsk Oblast, Russia","Description":"0:22-end- Russian A-50U AWACS, RF-50606 B/N 51 redf ilmed at Chelyabinsk airport, Russia. , ","Source":"https://x.com/front_ukrainian/status/2087486329772703968","Geolocation":"https://x.com/RedIntelPanda/status/2087620834508628356","Equipment":" A-50U AWACS","EquipmentItems":"","Units":"","OrbatUnits":"","Id":"8fe7318d-aea9-4fcd-880e-13883656f829","icon":"/api/icons/E00000/False/template/81.png"},"source":"geoconfirmed","source_name":"GeoConfirmed","source_url":"https://geoconfirmed.org/map/ukraine","id":"8fe7318d-aea9-4fcd-880e-13883656f829","date":"2026-08-11","link":"https://geoconfirmed.org/map/ukraine/8fe7318d-aea9-4fcd-880e-13883656f829","category":"Large plane [Cargo or Bomber]","side":"Russia","color":"#E00000","description":"0:22-end- Russian A-50U AWACS, RF-50606 B/N 51 redf ilmed at Chelyabinsk airport, Russia. ,","orbat":[],"geolocation":["https://x.com/RedIntelPanda/status/2087620834508628356"],"sources":["https://x.com/front_ukrainian/status/2087486329772703968"]}},{"type":"Feature","geometry":{"type":"Point","coordinates":[37.6098,48.8483]},"properties":{"original":{"Date":"2026-08-11","Name":"11 AUG 2026","Faction":"Russia","Origin":"UAV","Latitude":"48.8483","Longitude":"37.6098","PlusCode":"8GWVRJX5+8W Slovyansk, Donetsk Oblast, Ukraine","Description":"0:00-0:10 - FPV strike on Pick-up","Source":"https://x.com/RALee85/status/2086784828502872418, https://t.me/dva_majors/97284","Geolocation":"https://x.com/franfran2424/status/2086798439275225398","Equipment":"","EquipmentItems":"Fiber Optic (FO) FPV (First Person View) OWAD (One Way Attack Drone) | Pick-up","Units":"","OrbatUnits":"","Id":"a23f6f24-988e-4a10-aa73-146872d2d9a3","icon":"/api/icons/E00000/False/template/111.png"},"source":"geoconfirmed","source_name":"GeoConfirmed","source_url":"https://geoconfirmed.org/map/ukraine","id":"a23f6f24-988e-4a10-aa73-146872d2d9a3","date":"2026-08-11","link":"https://geoconfirmed.org/map/ukraine/a23f6f24-988e-4a10-aa73-146872d2d9a3","category":"Short Range (<50km) OWAD (One Way Attack Drone), mostly rotary wing, Flying OR Attacking a target without knowing the outcome: if something is damaged --> icon of the damaged equipment.","side":"Russia","color":"#E00000","description":"0:00-0:10 - FPV strike on Pick-up","orbat":[],"geolocation":["https://x.com/franfran2424/status/2086798439275225398"],"sources":["https://x.com/RALee85/status/2086784828502872418","https://t.me/dva_majors/97284"]}},{"type":"Feature","geometry":{"type":"Point","coordinates":[37.7788778354,48.7995208339]},"properties":{"original":{"Date":"2026-08-11","Name":"11 AUG 2026","Faction":"Russia","Origin":"UAV","Latitude":"48.7995208339","Longitude":"37.7788778354","PlusCode":"8GWVQQXH+RH Orikhuvatka, Donetsk Oblast, Ukraine","Description":"0:47 - Molnya strike ","Source":"https://x.com/moklasen/status/2087294479665393997, https://t.me/omsbr_88_official/545","Geolocation":"https://x.com/moklasen/status/2087294475592781919","Equipment":"","EquipmentItems":"FPV (First Person View) OWAD (One Way Attack Drone)","Units":"","OrbatUnits":"88th Motorized Rifle Brigade","Id":"d6961cca-7637-42c8-b9ea-1a8f5a0ec848","icon":"/api/icons/E00000/False/template/111.png"},"source":"geoconfirmed","source_name":"GeoConfirmed","source_url":"https://geoconfirmed.org/map/ukraine","id":"d6961cca-7637-42c8-b9ea-1a8f5a0ec848","date":"2026-08-11","link":"https://geoconfirmed.org/map/ukraine/d6961cca-7637-42c8-b9ea-1a8f5a0ec848","category":"Short Range (<50km) OWAD (One Way Attack Drone), mostly rotary wing, Flying OR Attacking a target without knowing the outcome: if something is damaged --> icon of the damaged equipment.","side":"Russia","color":"#E00000","description":"0:47 - Molnya strike","orbat":["88th Motorized Rifle Brigade"],"geolocation":["https://x.com/moklasen/status/2087294475592781919"],"sources":["https://x.com/moklasen/status/2087294479665393997","https://t.me/omsbr_88_official/545"]}},{"type":"Feature","geometry":{"type":"Point","coordinates":[37.605573,49.715959]},"properties":{"original":{"Date":"2026-08-11","Name":"11 AUG 2026","Faction":"Ukraine","Origin":"UAV","Latitude":"49.715959","Longitude":"37.605573","PlusCode":"8GXVPJ84+96 Kup'yans'k, Kharkiv Oblast, Ukraine","Description":"0:06-0:08 - Ukrainian  UAV unit  'Apostles' Heavy Bomber crew dropped  drone dropped explosives on a building in Kupiansk, Kharkiv Oblast","Source":"https://x.com/Bielitzling/status/2087917349009535110, https://t.me/Svidky_Spasa/52","Geolocation":"https://x.com/Bielitzling/status/2087917344790061539","Equipment":"","EquipmentItems":"(Multi-Purpose) Bomber UAV","Units":"","OrbatUnits":"UAV Unit \"Apostles\"","Id":"3a16ab28-9aa5-45ef-ab48-21e5f43a3d6b","icon":"/api/icons/0051CA/False/template/110.png"},"source":"geoconfirmed","source_name":"GeoConfirmed","source_url":"https://geoconfirmed.org/map/ukraine","id":"3a16ab28-9aa5-45ef-ab48-21e5f43a3d6b","date":"2026-08-11","link":"https://geoconfirmed.org/map/ukraine/3a16ab28-9aa5-45ef-ab48-21e5f43a3d6b","category":"Multipurpose Bomber Drone, Flying OR Dropping OR bombing a target without knowing the outcome: if something is damaged --> icon of the damaged equipment.","side":"Ukraine","color":"#0051CA","description":"0:06-0:08 - Ukrainian  UAV unit  'Apostles' Heavy Bomber crew dropped  drone dropped explosives on a building in Kupiansk, Kharkiv Oblast","orbat":["UAV Unit \"Apostles\""],"geolocation":["https://x.com/Bielitzling/status/2087917344790061539"],"sources":["https://x.com/Bielitzling/status/2087917349009535110","https://t.me/Svidky_Spasa/52"]}},{"type":"Feature","geometry":{"type":"Point","coordinates":[37.221379,48.454744]},"properties":{"original":{"Date":"2026-08-11","Name":"11 AUG 2026","Faction":"Ukraine","Origin":"UAV","Latitude":"48.454744","Longitude":"37.221379","PlusCode":"8GWVF63C+VH Nove Shakhove, Donetsk Oblast, Ukraine","Description":"Ukrainian FPV drone in waiting attacked by Incendiary FPV ","Source":"https://x.com/giK1893/status/2087325422404911539, https://t.me/mihalichandall/3778","Geolocation":"https://x.com/giK1893/status/2087325426943242537","Equipment":"Zhdun, Dragon FPV","EquipmentItems":"FPV (First Person View) OWAD (One Way Attack Drone)","Units":"","OrbatUnits":"","Id":"03ba267e-ecc5-46c3-98cf-26e7dd3e6f98","icon":"/api/icons/0051CA/False/template/112.png"},"source":"geoconfirmed","source_name":"GeoConfirmed","source_url":"https://geoconfirmed.org/map/ukraine","id":"03ba267e-ecc5-46c3-98cf-26e7dd3e6f98","date":"2026-08-11","link":"https://geoconfirmed.org/map/ukraine/03ba267e-ecc5-46c3-98cf-26e7dd3e6f98","category":"Recently destroyed/Damaged [Intercepted/crashed] Short Range (<50km) OWAD (One Way Attack Drone), mostly rotary wing","side":"Ukraine","color":"#0051CA","description":"Ukrainian FPV drone in waiting attacked by Incendiary FPV","orbat":[],"geolocation":["https://x.com/giK1893/status/2087325426943242537"],"sources":["https://x.com/giK1893/status/2087325422404911539","https://t.me/mihalichandall/3778"]}},{"type":"Feature","geometry":{"type":"Point","coordinates":[61.526749,55.299638]},"properties":{"original":{"Date":"2026-08-11","Name":"11 AUG 2026","Faction":"Russia","Origin":"VID","Latitude":"55.299638","Longitude":"61.526749","PlusCode":"9J737GXG+VM Chelyabinsk, Chelyabinsk Oblast, Russia","Description":"0:00-0:20 - Russian A-50U AWACS, RF-93952 B/N 45 red filmed at Chelyabinsk airport, Russia. , ","Source":"https://x.com/front_ukrainian/status/2087486329772703968","Geolocation":"https://x.com/RedIntelPanda/status/2087620834508628356","Equipment":" A-50U AWACS","EquipmentItems":"","Units":"","OrbatUnits":"","Id":"10499c07-b943-4a7f-a017-273efbfde3e8","icon":"/api/icons/E00000/False/template/81.png"},"source":"geoconfirmed","source_name":"GeoConfirmed","source_url":"https://geoconfirmed.org/map/ukraine","id":"10499c07-b943-4a7f-a017-273efbfde3e8","date":"2026-08-11","link":"https://geoconfirmed.org/map/ukraine/10499c07-b943-4a7f-a017-273efbfde3e8","category":"Large plane [Cargo or Bomber]","side":"Russia","color":"#E00000","description":"0:00-0:20 - Russian A-50U AWACS, RF-93952 B/N 45 red filmed at Chelyabinsk airport, Russia. ,","orbat":[],"geolocation":["https://x.com/RedIntelPanda/status/2087620834508628356"],"sources":["https://x.com/front_ukrainian/status/2087486329772703968"]}},{"type":"Feature","geometry":{"type":"Point","coordinates":[37.560341,48.855914]},"properties":{"original":{"Date":"2026-08-11","Name":"11 AUG 2026","Faction":"Ukraine Civilian","Origin":"VID","Latitude":"48.855914","Longitude":"37.560341","PlusCode":"8GWVVH46+94 Slovyansk, Donetsk Oblast, Ukraine","Description":"Reported Russian FPV strike damaged a Ukrainian van evacuating civilians","Source":"https://x.com/99Dominik_/status/2087137572736708612, https://www.instagram.com/v1ad__islav/reel/Db5HPF1xD4j, ","Geolocation":"https://x.com/99Dominik_/status/2087135609944998056","Equipment":"(reported)","EquipmentItems":"FPV (First Person View) OWAD (One Way Attack Drone)","Units":"","OrbatUnits":"","Id":"b762659f-a1c7-4c04-90c4-34cdae0ff123","icon":"/api/icons/3184FF/False/template/62.png"},"source":"geoconfirmed","source_name":"GeoConfirmed","source_url":"https://geoconfirmed.org/map/ukraine","id":"b762659f-a1c7-4c04-90c4-34cdae0ff123","date":"2026-08-11","link":"https://geoconfirmed.org/map/ukraine/b762659f-a1c7-4c04-90c4-34cdae0ff123","category":"Recently Destroyed/Damaged[Visible in footage] Logistical Trucks (Soft skin OR armoured)","side":"Ukraine Civilian","color":"#3184FF","description":"Reported Russian FPV strike damaged a Ukrainian van evacuating civilians","orbat":[],"geolocation":["https://x.com/99Dominik_/status/2087135609944998056"],"sources":["https://x.com/99Dominik_/status/2087137572736708612","https://www.instagram.com/v1ad__islav/reel/Db5HPF1xD4j"]}},{"type":"Feature","geometry":{"type":"Point","coordinates":[37.601998,49.700452]},"properties":{"original":{"Date":"2026-08-11","Name":"11 AUG 2026","Faction":"Ukraine","Origin":"UAV","Latitude":"49.700452","Longitude":"37.601998","PlusCode":"8GXVPJ22+5Q Kup'yans'k, Kharkiv Oblast, Ukraine","Description":"0:16-0:18 - Ukrainian  UAV unit  'Apostles' Heavy Bomber crew dropped  drone dropped explosives on a building in Kupiansk, Kharkiv Oblast","Source":"https://x.com/Bielitzling/status/2087917349009535110, https://t.me/Svidky_Spasa/52","Geolocation":"https://x.com/Bielitzling/status/2087917344790061539","Equipment":"","EquipmentItems":"(Multi-Purpose) Bomber UAV","Units":"","OrbatUnits":"UAV Unit \"Apostles\"","Id":"7423567b-42f6-4c42-bcb9-3820580930fd","icon":"/api/icons/0051CA/False/template/110.png"},"source":"geoconfirmed","source_name":"GeoConfirmed","source_url":"https://geoconfirmed.org/map/ukraine","id":"7423567b-42f6-4c42-bcb9-3820580930fd","date":"2026-08-11","link":"https://geoconfirmed.org/map/ukraine/7423567b-42f6-4c42-bcb9-3820580930fd","category":"Multipurpose Bomber Drone, Flying OR Dropping OR bombing a target without knowing the outcome: if something is damaged --> icon of the damaged equipment.","side":"Ukraine","color":"#0051CA","description":"0:16-0:18 - Ukrainian  UAV unit  'Apostles' Heavy Bomber crew dropped  drone dropped explosives on a building in Kupiansk, Kharkiv Oblast","orbat":["UAV Unit \"Apostles\""],"geolocation":["https://x.com/Bielitzling/status/2087917344790061539"],"sources":["https://x.com/Bielitzling/status/2087917349009535110","https://t.me/Svidky_Spasa/52"]}},{"type":"Feature","geometry":{"type":"Point","coordinates":[36.310965,47.802901]},"properties":{"original":{"Date":"2026-08-11","Name":"11 AUG 2026","Faction":"Russia","Origin":"UAV","Latitude":"47.802901","Longitude":"36.310965","PlusCode":"8GVRR836+59 Solodke, Zaporizhia Oblast, Ukraine","Description":"0:00-0:12 - Group Vostok shells UA treeline west of Rybne","Source":"https://x.com/jimmhelloman555/status/2087311562360979620, https://t.me/RtrDonetsk/37559","Geolocation":"https://x.com/jimmhelloman555/status/2087311117257265265","Equipment":"","EquipmentItems":"Artillery","Units":" \t\"Vostok group\"","OrbatUnits":"","Id":"a2cccce4-49d7-468c-a646-514d1923ff88","icon":"/api/icons/E00000/False/template/10.png"},"source":"geoconfirmed","source_name":"GeoConfirmed","source_url":"https://geoconfirmed.org/map/ukraine","id":"a2cccce4-49d7-468c-a646-514d1923ff88","date":"2026-08-11","link":"https://geoconfirmed.org/map/ukraine/a2cccce4-49d7-468c-a646-514d1923ff88","category":"Shelling by artillery or aerial bombings - Location of the shelling, colour of who is shelling; Brown = UXO","side":"Russia","color":"#E00000","description":"0:00-0:12 - Group Vostok shells UA treeline west of Rybne","orbat":["\"Vostok group\""],"geolocation":["https://x.com/jimmhelloman555/status/2087311117257265265"],"sources":["https://x.com/jimmhelloman555/status/2087311562360979620","https://t.me/RtrDonetsk/37559"]}},{"type":"Feature","geometry":{"type":"Point","coordinates":[37.80405,48.77406]},"properties":{"original":{"Date":"2026-08-11","Name":"11 AUG 2026","Faction":"Russia","Origin":"UAV","Latitude":"48.77406","Longitude":"37.80405","PlusCode":"8GWVQRF3+JJ Yurkivka, Donetsk Oblast, Ukraine","Description":"0:24 - Drone dropped Grenade","Source":"https://x.com/moklasen/status/2087294479665393997, https://t.me/omsbr_88_official/545","Geolocation":"https://x.com/moklasen/status/2087294461495701936","Equipment":"","EquipmentItems":"(Multi-Purpose) Bomber UAV","Units":"","OrbatUnits":"88th Motorized Rifle Brigade","Id":"146c2f3a-0223-4bba-ba45-57f3035b26e3","icon":"/api/icons/E00000/False/template/110.png"},"source":"geoconfirmed","source_name":"GeoConfirmed","source_url":"https://geoconfirmed.org/map/ukraine","id":"146c2f3a-0223-4bba-ba45-57f3035b26e3","date":"2026-08-11","link":"https://geoconfirmed.org/map/ukraine/146c2f3a-0223-4bba-ba45-57f3035b26e3","category":"Multipurpose Bomber Drone, Flying OR Dropping OR bombing a target without knowing the outcome: if something is damaged --> icon of the damaged equipment.","side":"Russia","color":"#E00000","description":"0:24 - Drone dropped Grenade","orbat":["88th Motorized Rifle Brigade"],"geolocation":["https://x.com/moklasen/status/2087294461495701936"],"sources":["https://x.com/moklasen/status/2087294479665393997","https://t.me/omsbr_88_official/545"]}},{"type":"Feature","geometry":{"type":"Point","coordinates":[35.151422,47.849333]},"properties":{"original":{"Date":"2026-08-11","Name":"11 AUG 2026","Faction":"Neutral","Origin":"VID","Latitude":"47.849333","Longitude":"35.151422","PlusCode":"8GVQR5X2+PH Zaporizhzhia, Zaporizhia Oblast, Ukraine","Description":"0:35-0:36 - A large crater left near the damaged State Enterprise \"Zaporozhstadartmetrologija\" after a Russian air raid on Zaporizhzhia","Source":"https://bsky.app/profile/scaratlas.bsky.social/post/3mthl47r7pc2j, https://t.me/tv_freedom/75907","Geolocation":"https://bsky.app/profile/scaratlas.bsky.social/post/3mthgt4lups2f","Equipment":"","EquipmentItems":"","Units":"","OrbatUnits":"","Id":"13a823c3-e63d-4e10-a946-5f32c6b80122","icon":"/api/icons/AC7339/False/template/192.png"},"source":"geoconfirmed","source_name":"GeoConfirmed","source_url":"https://geoconfirmed.org/map/ukraine","id":"13a823c3-e63d-4e10-a946-5f32c6b80122","date":"2026-08-11","link":"https://geoconfirmed.org/map/ukraine/13a823c3-e63d-4e10-a946-5f32c6b80122","category":"Recently destroyed/Damaged[Visible in footage] or still burning infrastucture","side":"Neutral","color":"#AC7339","description":"0:35-0:36 - A large crater left near the damaged State Enterprise \"Zaporozhstadartmetrologija\" after a Russian air raid on Zaporizhzhia","orbat":[],"geolocation":["https://bsky.app/profile/scaratlas.bsky.social/post/3mthgt4lups2f"],"sources":["https://bsky.app/profile/scaratlas.bsky.social/post/3mthl47r7pc2j","https://t.me/tv_freedom/75907"]}},{"type":"Feature","geometry":{"type":"Point","coordinates":[36.9759,48.4925]},"properties":{"original":{"Date":"2026-08-11","Name":"11 AUG 2026","Faction":"Russia","Origin":"UAV","Latitude":"48.4925","Longitude":"36.9759","PlusCode":"8GWRFXVG+29 Virivka, Donetsk Oblast, Ukraine","Description":"Reported loitering munition \"Lancet\" with the intelligent guidance and target recognition system \"IRRA\" attacks a moving Ukrainian pick-up.","Source":"https://x.com/lostarmour/status/2087293270707609930, https://t.me/lost_armour/10767","Geolocation":"https://x.com/franfran2424/status/2088210410667151443, https://lostarmour.info/map?coord=48.49249207877642,36.97591499876182&zoom=15","Equipment":"","EquipmentItems":"Lancet | Pick-up","Units":"","OrbatUnits":"","Id":"b536f672-c5c5-4104-9206-6ead71944da0","icon":"/api/icons/E00000/False/template/111.png"},"source":"geoconfirmed","source_name":"GeoConfirmed","source_url":"https://geoconfirmed.org/map/ukraine","id":"b536f672-c5c5-4104-9206-6ead71944da0","date":"2026-08-11","link":"https://geoconfirmed.org/map/ukraine/b536f672-c5c5-4104-9206-6ead71944da0","category":"Short Range (<50km) OWAD (One Way Attack Drone), mostly rotary wing, Flying OR Attacking a target without knowing the outcome: if something is damaged --> icon of the damaged equipment.","side":"Russia","color":"#E00000","description":"Reported loitering munition \"Lancet\" with the intelligent guidance and target recognition system \"IRRA\" attacks a moving Ukrainian pick-up.","orbat":[],"geolocation":["https://x.com/franfran2424/status/2088210410667151443","https://lostarmour.info/map?coord=48.49249207877642"],"sources":["https://x.com/lostarmour/status/2087293270707609930","https://t.me/lost_armour/10767"]}},{"type":"Feature","geometry":{"type":"Point","coordinates":[35.397604,50.686105]},"properties":{"original":{"Date":"2026-08-11","Name":"11 AUG 2026","Faction":"Ukraine","Origin":"UAV","Latitude":"50.686105","Longitude":"35.397604","PlusCode":"9G2QM9PX+C2 Ryasne, Sumy Oblast, Ukraine","Description":"0:45 - Ukrainian strike","Source":"https://x.com/franfran2424/status/2087122832299786596, https://t.me/tro119ua/80","Geolocation":"https://x.com/ne_kotletka/status/2087108644261199902","Equipment":"","EquipmentItems":"","Units":"","OrbatUnits":"119th Separate Territorial Defense Brigade","Id":"bd6cffba-5745-4962-9ada-6fcde14770d1","icon":"/api/icons/0051CA/False/template/70.png"},"source":"geoconfirmed","source_name":"GeoConfirmed","source_url":"https://geoconfirmed.org/map/ukraine","id":"bd6cffba-5745-4962-9ada-6fcde14770d1","date":"2026-08-11","link":"https://geoconfirmed.org/map/ukraine/bd6cffba-5745-4962-9ada-6fcde14770d1","category":"Controlled Demolition OR explosion of unknown origin OR fire of unknown origin where no other icon fits","side":"Ukraine","color":"#0051CA","description":"0:45 - Ukrainian strike","orbat":["119th Separate Territorial Defense Brigade"],"geolocation":["https://x.com/ne_kotletka/status/2087108644261199902"],"sources":["https://x.com/franfran2424/status/2087122832299786596","https://t.me/tro119ua/80"]}},{"type":"Feature","geometry":{"type":"Point","coordinates":[36.090167,50.130528]},"properties":{"original":{"Date":"2026-08-11","Name":"11 AUG 2026","Faction":"Neutral","Origin":"UAV","Latitude":"50.130528","Longitude":"36.090167","PlusCode":"9G2R43JR+63 Derhachi, Kharkiv Oblast, Ukraine","Description":"A Ukrainian building in Northern Derhachi was struck","Source":"https://x.com/hgtvgloober/status/2087047903671885856","Geolocation":"https://x.com/hgtvgloober/status/2087047903671885856","Equipment":"","EquipmentItems":"","Units":"","OrbatUnits":"","Id":"e7d43e5d-f037-47ea-8a45-76cd1b75a8a1","icon":"/api/icons/AC7339/False/template/192.png"},"source":"geoconfirmed","source_name":"GeoConfirmed","source_url":"https://geoconfirmed.org/map/ukraine","id":"e7d43e5d-f037-47ea-8a45-76cd1b75a8a1","date":"2026-08-11","link":"https://geoconfirmed.org/map/ukraine/e7d43e5d-f037-47ea-8a45-76cd1b75a8a1","category":"Recently destroyed/Damaged[Visible in footage] or still burning infrastucture","side":"Neutral","color":"#AC7339","description":"A Ukrainian building in Northern Derhachi was struck","orbat":[],"geolocation":["https://x.com/hgtvgloober/status/2087047903671885856"],"sources":["https://x.com/hgtvgloober/status/2087047903671885856"]}},{"type":"Feature","geometry":{"type":"Point","coordinates":[37.08246,48.456345]},"properties":{"original":{"Date":"2026-08-11","Name":"11 AUG 2026","Faction":"Russia","Origin":"UAV","Latitude":"48.456345","Longitude":"37.08246","PlusCode":"8GWVF34J+GX Dobropillya, Donetsk Oblast, Ukraine","Description":"0:30-end - Russian Airstrike","Source":"https://x.com/franfran2424/status/2088208143952007668, https://t.me/The_Wrong_Side/30488","Geolocation":"https://x.com/franfran2424/status/2088208875493134835","Equipment":"","EquipmentItems":"Airstrike","Units":"","OrbatUnits":"","Id":"bf9a95b3-45cc-4c4a-902b-795a29f6ed88","icon":"/api/icons/E00000/False/template/10.png"},"source":"geoconfirmed","source_name":"GeoConfirmed","source_url":"https://geoconfirmed.org/map/ukraine","id":"bf9a95b3-45cc-4c4a-902b-795a29f6ed88","date":"2026-08-11","link":"https://geoconfirmed.org/map/ukraine/bf9a95b3-45cc-4c4a-902b-795a29f6ed88","category":"Shelling by artillery or aerial bombings - Location of the shelling, colour of who is shelling; Brown = UXO","side":"Russia","color":"#E00000","description":"0:30-end - Russian Airstrike","orbat":[],"geolocation":["https://x.com/franfran2424/status/2088208875493134835"],"sources":["https://x.com/franfran2424/status/2088208143952007668","https://t.me/The_Wrong_Side/30488"]}},{"type":"Feature","geometry":{"type":"Point","coordinates":[36.11371,47.77663]},"properties":{"original":{"Date":"2026-08-11","Name":"11 AUG 2026","Faction":"Russia","Origin":"UAV","Latitude":"47.77663","Longitude":"36.11371","PlusCode":"8GVRQ4G7+MF Vozdvyzhivka, Zaporizhia Oblast, Ukraine","Description":"0:05-0:10 - Russian Artillery shelling of reported Ukrainian drone team positions","Source":"https://x.com/moklasen/status/2087239918493815112, https://t.me/RtrDonetsk/37576","Geolocation":"https://x.com/moklasen/status/2087239915243241712/","Equipment":"","EquipmentItems":"Artillery","Units":"\"Vostok group\"","OrbatUnits":"","Id":"629780cf-c89f-489f-8b5c-7c6849252e0d","icon":"/api/icons/E00000/False/template/10.png"},"source":"geoconfirmed","source_name":"GeoConfirmed","source_url":"https://geoconfirmed.org/map/ukraine","id":"629780cf-c89f-489f-8b5c-7c6849252e0d","date":"2026-08-11","link":"https://geoconfirmed.org/map/ukraine/629780cf-c89f-489f-8b5c-7c6849252e0d","category":"Shelling by artillery or aerial bombings - Location of the shelling, colour of who is shelling; Brown = UXO","side":"Russia","color":"#E00000","description":"0:05-0:10 - Russian Artillery shelling of reported Ukrainian drone team positions","orbat":["\"Vostok group\""],"geolocation":["https://x.com/moklasen/status/2087239915243241712/"],"sources":["https://x.com/moklasen/status/2087239918493815112","https://t.me/RtrDonetsk/37576"]}},{"type":"Feature","geometry":{"type":"Point","coordinates":[39.21677,44.790433]},"properties":{"original":{"Date":"2026-08-11","Name":"11 AUG 2026","Faction":"Russia","Origin":"SAT","Latitude":"44.790433","Longitude":"39.21677","PlusCode":"8GPXQ6R8+5P Mol'kin, Krasnodar Krai, Russia","Description":"Damaged warehouse of military unit 51532, the 10th Special Purpose Brigade of the GRU, in Molkino, Krasnodar Krai following a reported fire on 30 July 2026.","Source":"https://x.com/GarbuzYe/status/2087229906585325648, , More information, Regarding Unit, https://www.rbc.ua/ukr/news/krasnodarskomu-krayi-gorit-kolishnya-baza-1726914046.html","Geolocation":"https://x.com/GeoConfirmed/status/2087520618774163534, https://x.com/GarbuzYe/status/2087229906585325648","Equipment":"","EquipmentItems":"","Units":"","OrbatUnits":"10th Guards Spetsnaz Brigade","Id":"55234522-15e9-4448-9adc-7f9fc97b5d6a","icon":"/api/icons/E00000/False/template/193.png"},"source":"geoconfirmed","source_name":"GeoConfirmed","source_url":"https://geoconfirmed.org/map/ukraine","id":"55234522-15e9-4448-9adc-7f9fc97b5d6a","date":"2026-08-11","link":"https://geoconfirmed.org/map/ukraine/55234522-15e9-4448-9adc-7f9fc97b5d6a","category":"Older destroyed infrastucture","side":"Russia","color":"#E00000","description":"Damaged warehouse of military unit 51532, the 10th Special Purpose Brigade of the GRU, in Molkino, Krasnodar Krai following a reported fire on 30 July 2026.","orbat":["10th Guards Spetsnaz Brigade"],"geolocation":["https://x.com/GeoConfirmed/status/2087520618774163534","https://x.com/GarbuzYe/status/2087229906585325648"],"sources":["https://x.com/GarbuzYe/status/2087229906585325648","https://www.rbc.ua/ukr/news/krasnodarskomu-krayi-gorit-kolishnya-baza-1726914046.html"]}},{"type":"Feature","geometry":{"type":"Point","coordinates":[35.387675,50.706182]},"properties":{"original":{"Date":"2026-08-11","Name":"11 AUG 2026","Faction":"Ukraine","Origin":"UAV","Latitude":"50.706182","Longitude":"35.387675","PlusCode":"9G2QP94Q+F3 Ryasne, Sumy Oblast, Ukraine","Description":"0:30 - Ukrainian drone strike","Source":"https://x.com/franfran2424/status/2087122832299786596, https://t.me/tro119ua/80","Geolocation":"https://x.com/ne_kotletka/status/2087108644261199902","Equipment":"","EquipmentItems":"(Multi-Purpose) Bomber UAV","Units":"","OrbatUnits":"119th Separate Territorial Defense Brigade","Id":"bdbcd075-6997-49a6-a551-8faaa0da936d","icon":"/api/icons/0051CA/False/template/110.png"},"source":"geoconfirmed","source_name":"GeoConfirmed","source_url":"https://geoconfirmed.org/map/ukraine","id":"bdbcd075-6997-49a6-a551-8faaa0da936d","date":"2026-08-11","link":"https://geoconfirmed.org/map/ukraine/bdbcd075-6997-49a6-a551-8faaa0da936d","category":"Multipurpose Bomber Drone, Flying OR Dropping OR bombing a target without knowing the outcome: if something is damaged --> icon of the damaged equipment.","side":"Ukraine","color":"#0051CA","description":"0:30 - Ukrainian drone strike","orbat":["119th Separate Territorial Defense Brigade"],"geolocation":["https://x.com/ne_kotletka/status/2087108644261199902"],"sources":["https://x.com/franfran2424/status/2087122832299786596","https://t.me/tro119ua/80"]}},{"type":"Feature","geometry":{"type":"Point","coordinates":[58.513872,51.249556]},"properties":{"original":{"Date":"2026-08-11","Name":"11 AUG 2026","Faction":"Ukraine","Origin":"SAT","Latitude":"51.249556","Longitude":"58.513872","PlusCode":"9H3W6GX7+RG Orsk, Orenburg Oblast, Russia","Description":"Center grid: huge black smoke plumes are coming from different locations in the Orsk Oil Refinery, \"Orsknefteorgsintez\", following a reported Ukrainian strike.","Source":"https://x.com/SoarAtlas/status/2087385837067792585, , More information, https://www.pravda.com.ua/eng/news/2026/08/11/8048210/","Geolocation":"https://x.com/GeoConfirmed/status/2087522216078418074, https://maps.app.goo.gl/8ga58c7T1B5mVUa57","Equipment":"","EquipmentItems":"Oil Refinery / Gas processing plant or similar","Units":"","OrbatUnits":"","Id":"36f4dc20-15e3-4e75-b699-91538f3a5a02","icon":"/api/icons/0051CA/False/template/70.png"},"source":"geoconfirmed","source_name":"GeoConfirmed","source_url":"https://geoconfirmed.org/map/ukraine","id":"36f4dc20-15e3-4e75-b699-91538f3a5a02","date":"2026-08-11","link":"https://geoconfirmed.org/map/ukraine/36f4dc20-15e3-4e75-b699-91538f3a5a02","category":"Controlled Demolition OR explosion of unknown origin OR fire of unknown origin where no other icon fits","side":"Ukraine","color":"#0051CA","description":"Center grid: huge black smoke plumes are coming from different locations in the Orsk Oil Refinery, \"Orsknefteorgsintez\", following a reported Ukrainian strike.","orbat":[],"geolocation":["https://x.com/GeoConfirmed/status/2087522216078418074","https://maps.app.goo.gl/8ga58c7T1B5mVUa57"],"sources":["https://x.com/SoarAtlas/status/2087385837067792585","https://www.pravda.com.ua/eng/news/2026/08/11/8048210/"]}},{"type":"Feature","geometry":{"type":"Point","coordinates":[35.51907,47.544838]},"properties":{"original":{"Date":"2026-08-11","Name":"11 AUG 2026","Faction":"Russia","Origin":"UAV","Latitude":"47.544838","Longitude":"35.51907","PlusCode":"8GVQGGV9+WJ Mali Shcherbaky, Zaporizhia Oblast, Ukraine","Description":"0:23 - Russian FPV strike","Source":"https://x.com/moklasen/status/2087276227031634329, https://t.me/Russki_Medved/2646","Geolocation":"https://x.com/moklasen/status/2087276223810421159","Equipment":"","EquipmentItems":"","Units":"392nd regimen","OrbatUnits":"58th Guards Combined Arms Army","Id":"d8b33448-4c10-419f-b22e-933d9d3f28ed","icon":"/api/icons/E00000/False/template/111.png"},"source":"geoconfirmed","source_name":"GeoConfirmed","source_url":"https://geoconfirmed.org/map/ukraine","id":"d8b33448-4c10-419f-b22e-933d9d3f28ed","date":"2026-08-11","link":"https://geoconfirmed.org/map/ukraine/d8b33448-4c10-419f-b22e-933d9d3f28ed","category":"Short Range (<50km) OWAD (One Way Attack Drone), mostly rotary wing, Flying OR Attacking a target without knowing the outcome: if something is damaged --> icon of the damaged equipment.","side":"Russia","color":"#E00000","description":"0:23 - Russian FPV strike","orbat":["58th Guards Combined Arms Army"],"geolocation":["https://x.com/moklasen/status/2087276223810421159"],"sources":["https://x.com/moklasen/status/2087276227031634329","https://t.me/Russki_Medved/2646"]}},{"type":"Feature","geometry":{"type":"Point","coordinates":[31.629393,52.441779]},"properties":{"original":{"Date":"2026-08-11","Name":"11 AUG 2026","Faction":"Ukraine","Origin":"VID","Latitude":"52.441779","Longitude":"31.629393","PlusCode":"9G4HCJRH+PQ Krasnyi Kamen', Bryansk Oblast, Russia","Description":"0:18-end - Damaged trucks following a reported Ukrainian drone attack.","Source":"https://x.com/ensonhaber/status/2087134431815582125, , More information, https://www.iha.com.tr/artvin-haberleri/rusya-belarus-sinirinda-tirlara-dron-saldirisi-turk-tircilar-dehset-anlarini-kaydetti-467900774, https://en.belsat.eu/94802588/mayday-border-checkpoint-between-belarus-and-russia-closed-following-drone-strike, https://t.me/flagshtok/14887","Geolocation":"https://x.com/MikiValbuena/status/2087430785791934634","Equipment":"","EquipmentItems":"","Units":"","OrbatUnits":"","Id":"b78df2b2-1c74-4d72-a8fb-95aaf5c75ed4","icon":"/api/icons/0051CA/False/template/30.png"},"source":"geoconfirmed","source_name":"GeoConfirmed","source_url":"https://geoconfirmed.org/map/ukraine","id":"b78df2b2-1c74-4d72-a8fb-95aaf5c75ed4","date":"2026-08-11","link":"https://geoconfirmed.org/map/ukraine/b78df2b2-1c74-4d72-a8fb-95aaf5c75ed4","category":"Video - Always Point of View in description - In the colour of who is doing the attack or is responsable for the incident in the video.","side":"Ukraine","color":"#0051CA","description":"0:18-end - Damaged trucks following a reported Ukrainian drone attack.","orbat":[],"geolocation":["https://x.com/MikiValbuena/status/2087430785791934634"],"sources":["https://x.com/ensonhaber/status/2087134431815582125","https://www.iha.com.tr/artvin-haberleri/rusya-belarus-sinirinda-tirlara-dron-saldirisi-turk-tircilar-dehset-anlarini-kaydetti-467900774","https://en.belsat.eu/94802588/mayday-border-checkpoint-between-belarus-and-russia-closed-following-drone-strike","https://t.me/flagshtok/14887"]}},{"type":"Feature","geometry":{"type":"Point","coordinates":[37.623065,48.749704]},"properties":{"original":{"Date":"2026-08-11","Name":"11 AUG 2026","Faction":"Russia","Origin":"VID","Latitude":"48.749704","Longitude":"37.623065","PlusCode":"8GWVPJXF+V6 Kramatorsk, Donetsk Oblast, Ukraine","Description":"Rough location at 0:02 - Two men were injured during a reported Russian attack; they received first aid and were evacuated afterwards.","Source":"https://x.com/99Dominik_/status/2087865463908806962, https://www.youtube.com/watch?v=xsWB5htMqdM, https://t.me/don_gunp/23044, , ","Geolocation":"https://x.com/99Dominik_/status/2087865209784279133","Equipment":"","EquipmentItems":"","Units":"","OrbatUnits":"","Id":"2a0d1b97-5a45-4ece-894e-a1183f5fe36e","icon":"/api/icons/E00000/False/template/50.png"},"source":"geoconfirmed","source_name":"GeoConfirmed","source_url":"https://geoconfirmed.org/map/ukraine","id":"2a0d1b97-5a45-4ece-894e-a1183f5fe36e","date":"2026-08-11","link":"https://geoconfirmed.org/map/ukraine/2a0d1b97-5a45-4ece-894e-a1183f5fe36e","category":"Killed or wounded civilian. Potential Warcrime. In the colour of who is assessed as doing the attack/killing.","side":"Russia","color":"#E00000","description":"Rough location at 0:02 - Two men were injured during a reported Russian attack; they received first aid and were evacuated afterwards.","orbat":[],"geolocation":["https://x.com/99Dominik_/status/2087865209784279133"],"sources":["https://x.com/99Dominik_/status/2087865463908806962","https://www.youtube.com/watch?v=xsWB5htMqdM","https://t.me/don_gunp/23044"]}},{"type":"Feature","geometry":{"type":"Point","coordinates":[36.70395,47.98273]},"properties":{"original":{"Date":"2026-08-11","Name":"11 AUG 2026","Faction":"Russia","Origin":"UAV","Latitude":"47.98273","Longitude":"36.70395","PlusCode":"8GVRXPM3+3H Myrne, Donetsk Oblast, Ukraine","Description":"0:44 - Fire in a Dugout, reportedly after an Russian strike.","Source":"https://x.com/moklasen/status/2087312563272900627, https://t.me/shturmovikche/1486","Geolocation":"https://x.com/moklasen/status/2087312556687786062","Equipment":"","EquipmentItems":"","Units":"","OrbatUnits":"6th Guards Tank Regiment ","Id":"689c2e2d-a6c6-4660-98bd-ac16ea65e45b","icon":"/api/icons/E00000/False/template/70.png"},"source":"geoconfirmed","source_name":"GeoConfirmed","source_url":"https://geoconfirmed.org/map/ukraine","id":"689c2e2d-a6c6-4660-98bd-ac16ea65e45b","date":"2026-08-11","link":"https://geoconfirmed.org/map/ukraine/689c2e2d-a6c6-4660-98bd-ac16ea65e45b","category":"Controlled Demolition OR explosion of unknown origin OR fire of unknown origin where no other icon fits","side":"Russia","color":"#E00000","description":"0:44 - Fire in a Dugout, reportedly after an Russian strike.","orbat":["6th Guards Tank Regiment"],"geolocation":["https://x.com/moklasen/status/2087312556687786062"],"sources":["https://x.com/moklasen/status/2087312563272900627","https://t.me/shturmovikche/1486"]}},{"type":"Feature","geometry":{"type":"Point","coordinates":[37.561725,48.699892]},"properties":{"original":{"Date":"2026-08-11","Name":"11 AUG 2026","Faction":"Neutral","Origin":"PIC","Latitude":"48.699892","Longitude":"37.561725","PlusCode":"8GWVMHX6+XM Kramatorsk, Donetsk Oblast, Ukraine","Description":"Aftermath of a reported Russian strike on St. Alexander Nevsky Orthodox Cathedral.","Source":"Pic, https://x.com/reconstruktor/status/2087131735280480670, Vid, https://x.com/PuenteUribarri/status/2087485280425050295, https://t.me/Tsaplienko/97246, More information, https://spzh.eu/en/news/94902-a-drone-hit-the-dome-of-a-uoc-church-in-kramatorsk, https://www.facebook.com/united24.media/videos/a-russian-strike-hit-the-church-of-st-alexander-nevsky-ukrainian-orthodox-church/1323447886239334/","Geolocation":"https://x.com/GeoConfirmed/status/2087515127046119915, https://x.com/MikiValbuena/status/2087423925198209433","Equipment":"","EquipmentItems":"Cathedral / Church / Mosque / Synagogue / other place of worship.","Units":"","OrbatUnits":"","Id":"8aa8e09b-16df-4033-b005-ad3f14716a97","icon":"/api/icons/AC7339/False/template/192.png"},"source":"geoconfirmed","source_name":"GeoConfirmed","source_url":"https://geoconfirmed.org/map/ukraine","id":"8aa8e09b-16df-4033-b005-ad3f14716a97","date":"2026-08-11","link":"https://geoconfirmed.org/map/ukraine/8aa8e09b-16df-4033-b005-ad3f14716a97","category":"Recently destroyed/Damaged[Visible in footage] or still burning infrastucture","side":"Neutral","color":"#AC7339","description":"Aftermath of a reported Russian strike on St. Alexander Nevsky Orthodox Cathedral.","orbat":[],"geolocation":["https://x.com/GeoConfirmed/status/2087515127046119915","https://x.com/MikiValbuena/status/2087423925198209433"],"sources":["https://x.com/reconstruktor/status/2087131735280480670","https://x.com/PuenteUribarri/status/2087485280425050295","https://t.me/Tsaplienko/97246","https://spzh.eu/en/news/94902-a-drone-hit-the-dome-of-a-uoc-church-in-kramatorsk","https://www.facebook.com/united24.media/videos/a-russian-strike-hit-the-church-of-st-alexander-nevsky-ukrainian-orthodox-church/1323447886239334/"]}},{"type":"Feature","geometry":{"type":"Point","coordinates":[35.38673,50.704362]},"properties":{"original":{"Date":"2026-08-11","Name":"11 AUG 2026","Faction":"Ukraine","Origin":"UAV","Latitude":"50.704362","Longitude":"35.38673","PlusCode":"9G2QP93P+PM Ryasne, Sumy Oblast, Ukraine","Description":"0:27 - Ukrainian strike","Source":"https://x.com/franfran2424/status/2087122832299786596, https://t.me/tro119ua/80","Geolocation":"https://x.com/ne_kotletka/status/2087108644261199902","Equipment":"","EquipmentItems":"","Units":"","OrbatUnits":"119th Separate Territorial Defense Brigade","Id":"fcb75fe9-7610-4931-b3cc-b1f4904a7141","icon":"/api/icons/0051CA/False/template/70.png"},"source":"geoconfirmed","source_name":"GeoConfirmed","source_url":"https://geoconfirmed.org/map/ukraine","id":"fcb75fe9-7610-4931-b3cc-b1f4904a7141","date":"2026-08-11","link":"https://geoconfirmed.org/map/ukraine/fcb75fe9-7610-4931-b3cc-b1f4904a7141","category":"Controlled Demolition OR explosion of unknown origin OR fire of unknown origin where no other icon fits","side":"Ukraine","color":"#0051CA","description":"0:27 - Ukrainian strike","orbat":["119th Separate Territorial Defense Brigade"],"geolocation":["https://x.com/ne_kotletka/status/2087108644261199902"],"sources":["https://x.com/franfran2424/status/2087122832299786596","https://t.me/tro119ua/80"]}},{"type":"Feature","geometry":{"type":"Point","coordinates":[37.713069,48.893211]},"properties":{"original":{"Date":"2026-08-11","Name":"11 AUG 2026","Faction":"Russia","Origin":"UAV","Latitude":"48.893211","Longitude":"37.713069","PlusCode":"8GWVVPV7+76 Raihorodok, Donetsk Oblast, Ukraine","Description":"0:17-0:33 - Two Russian FPVs attacking a Ukrainian pickup with gear onboard; the soldiers were able to jump off the pickup.","Source":"https://bsky.app/profile/scaratlas.bsky.social/post/3mthaoua7x22r, https://t.me/Phoenixdrone/751","Geolocation":"https://bsky.app/profile/scaratlas.bsky.social/post/3mthaog7sdk2r","Equipment":"","EquipmentItems":"Fiber Optic (FO) FPV (First Person View) OWAD (One Way Attack Drone) | Car ","Units":"","OrbatUnits":"First Special Mining Battalion \"Phoenix\"","Id":"31259589-5023-417a-8c9b-be2f05126bfe","icon":"/api/icons/E00000/False/template/111.png"},"source":"geoconfirmed","source_name":"GeoConfirmed","source_url":"https://geoconfirmed.org/map/ukraine","id":"31259589-5023-417a-8c9b-be2f05126bfe","date":"2026-08-11","link":"https://geoconfirmed.org/map/ukraine/31259589-5023-417a-8c9b-be2f05126bfe","category":"Short Range (<50km) OWAD (One Way Attack Drone), mostly rotary wing, Flying OR Attacking a target without knowing the outcome: if something is damaged --> icon of the damaged equipment.","side":"Russia","color":"#E00000","description":"0:17-0:33 - Two Russian FPVs attacking a Ukrainian pickup with gear onboard; the soldiers were able to jump off the pickup.","orbat":["First Special Mining Battalion \"Phoenix\""],"geolocation":["https://bsky.app/profile/scaratlas.bsky.social/post/3mthaog7sdk2r"],"sources":["https://bsky.app/profile/scaratlas.bsky.social/post/3mthaoua7x22r","https://t.me/Phoenixdrone/751"]}},{"type":"Feature","geometry":{"type":"Point","coordinates":[37.540438,48.723893]},"properties":{"original":{"Date":"2026-08-11","Name":"11 AUG 2026","Faction":"Russia","Origin":"PIC","Latitude":"48.723893","Longitude":"37.540438","PlusCode":"8GWVPGFR+H5 Kramatorsk, Donetsk Oblast, Ukraine","Description":"A Russian FPV drone hit a car, injuring a man.","Source":"Pic https://x.com/99Dominik_/status/2086810581743382801, https://www.facebook.com/alexander.vasilyevich.goncharenko/posts/pfbid0utywZ2nyw8C9gf53NsWTrMk6xWyiPtc4wcQ5yNpd7hopFDU4QvfUwr25FKeJcQ7Kl, Vid https://x.com/99Dominik_/status/2086811242602140001, https://t.me/don_gunp/23017, https://www.youtube.com/watch?v=zkkCrXFm1Fc","Geolocation":"https://x.com/GeoConfirmed/status/2087904939498418303, https://x.com/99Dominik_/status/2086810295557632434","Equipment":"","EquipmentItems":"","Units":"","OrbatUnits":"","Id":"2850cd7a-ef4f-47bb-9cad-c711d83896ca","icon":"/api/icons/E00000/False/template/50.png"},"source":"geoconfirmed","source_name":"GeoConfirmed","source_url":"https://geoconfirmed.org/map/ukraine","id":"2850cd7a-ef4f-47bb-9cad-c711d83896ca","date":"2026-08-11","link":"https://geoconfirmed.org/map/ukraine/2850cd7a-ef4f-47bb-9cad-c711d83896ca","category":"Killed or wounded civilian. Potential Warcrime. In the colour of who is assessed as doing the attack/killing.","side":"Russia","color":"#E00000","description":"A Russian FPV drone hit a car, injuring a man.","orbat":[],"geolocation":["https://x.com/GeoConfirmed/status/2087904939498418303","https://x.com/99Dominik_/status/2086810295557632434"],"sources":["https://x.com/99Dominik_/status/2086810581743382801","https://www.facebook.com/alexander.vasilyevich.goncharenko/posts/pfbid0utywZ2nyw8C9gf53NsWTrMk6xWyiPtc4wcQ5yNpd7hopFDU4QvfUwr25FKeJcQ7Kl","https://x.com/99Dominik_/status/2086811242602140001","https://t.me/don_gunp/23017","https://www.youtube.com/watch?v=zkkCrXFm1Fc"]}},{"type":"Feature","geometry":{"type":"Point","coordinates":[36.825166,47.908114]},"properties":{"original":{"Date":"2026-08-11","Name":"11 AUG 2026","Faction":"Ukraine","Origin":"UAV","Latitude":"47.908114","Longitude":"36.825166","PlusCode":"8GVRWR5G+63 Novoocheretuvate, Donetsk Oblast, Ukraine","Description":"Revetment on fire after S27 Pion presumably entered","Source":"https://x.com/giK1893/status/2087226474470183092, https://t.me/ptichii_rai/820","Geolocation":"https://x.com/giK1893/status/2087226478261907600","Equipment":"2S7 Pion","EquipmentItems":"","Units":"","OrbatUnits":"","Id":"b6985082-2558-4cbe-a425-c8e6021bb289","icon":"/api/icons/0051CA/False/template/70.png"},"source":"geoconfirmed","source_name":"GeoConfirmed","source_url":"https://geoconfirmed.org/map/ukraine","id":"b6985082-2558-4cbe-a425-c8e6021bb289","date":"2026-08-11","link":"https://geoconfirmed.org/map/ukraine/b6985082-2558-4cbe-a425-c8e6021bb289","category":"Controlled Demolition OR explosion of unknown origin OR fire of unknown origin where no other icon fits","side":"Ukraine","color":"#0051CA","description":"Revetment on fire after S27 Pion presumably entered","orbat":[],"geolocation":["https://x.com/giK1893/status/2087226478261907600"],"sources":["https://x.com/giK1893/status/2087226474470183092","https://t.me/ptichii_rai/820"]}},{"type":"Feature","geometry":{"type":"Point","coordinates":[137.057549,50.616516]},"properties":{"original":{"Date":"2026-08-11","Name":"11 AUG 2026","Faction":"Unknown","Origin":"UAV","Latitude":"50.616516","Longitude":"137.057549","PlusCode":"9Q2VJ385+J2 Komsomolsk-on-Amur, Khabarovsk Krai, Russia","Description":"Presumed Flaring off event, in Komsomolsk Oil Refinery in Khabarovsk Krai","Source":"https://x.com/Osinttechnical/status/2087003605786071111","Geolocation":"https://x.com/neonhandrail/status/2087009359914307943","Equipment":"","EquipmentItems":"","Units":"","OrbatUnits":"","Id":"f609cec0-22ca-469b-b0ac-cb096ca7c46a","icon":"/api/icons/666666/False/template/70.png"},"source":"geoconfirmed","source_name":"GeoConfirmed","source_url":"https://geoconfirmed.org/map/ukraine","id":"f609cec0-22ca-469b-b0ac-cb096ca7c46a","date":"2026-08-11","link":"https://geoconfirmed.org/map/ukraine/f609cec0-22ca-469b-b0ac-cb096ca7c46a","category":"Controlled Demolition OR explosion of unknown origin OR fire of unknown origin where no other icon fits","side":"Unknown","color":"#666666","description":"Presumed Flaring off event, in Komsomolsk Oil Refinery in Khabarovsk Krai","orbat":[],"geolocation":["https://x.com/neonhandrail/status/2087009359914307943"],"sources":["https://x.com/Osinttechnical/status/2087003605786071111"]}},{"type":"Feature","geometry":{"type":"Point","coordinates":[36.610888,47.92728]},"properties":{"original":{"Date":"2026-08-11","Name":"11 AUG 2026","Faction":"Ukraine","Origin":"UAV","Latitude":"47.92728","Longitude":"36.610888","PlusCode":"8GVRWJG6+W9 Maliivka, Dnipropetrovsk Oblast, Ukraine","Description":"0:05-0:17 - UA 31st mechanized brigade FPV strike on ru position in Maliivka, Dnipropetrovsk","Source":"https://x.com/moklasen/status/2087243647569846423?s=20, https://t.me/swallow_31ombr/301","Geolocation":"https://x.com/moklasen/status/2087243644008825013","Equipment":"","EquipmentItems":"(Multi-Purpose) Bomber UAV","Units":"","OrbatUnits":"31st Mechanized Brigade","Id":"f4d4be11-03e7-4265-b200-cf5f2bd4afa6","icon":"/api/icons/0051CA/False/template/111.png"},"source":"geoconfirmed","source_name":"GeoConfirmed","source_url":"https://geoconfirmed.org/map/ukraine","id":"f4d4be11-03e7-4265-b200-cf5f2bd4afa6","date":"2026-08-11","link":"https://geoconfirmed.org/map/ukraine/f4d4be11-03e7-4265-b200-cf5f2bd4afa6","category":"Short Range (<50km) OWAD (One Way Attack Drone), mostly rotary wing, Flying OR Attacking a target without knowing the outcome: if something is damaged --> icon of the damaged equipment.","side":"Ukraine","color":"#0051CA","description":"0:05-0:17 - UA 31st mechanized brigade FPV strike on ru position in Maliivka, Dnipropetrovsk","orbat":["31st Mechanized Brigade"],"geolocation":["https://x.com/moklasen/status/2087243644008825013"],"sources":["https://x.com/moklasen/status/2087243647569846423?s=20","https://t.me/swallow_31ombr/301"]}},{"type":"Feature","geometry":{"type":"Point","coordinates":[36.6950152725,47.9882887176]},"properties":{"original":{"Date":"2026-08-11","Name":"11 AUG 2026","Faction":"Russia","Origin":"UAV","Latitude":"47.9882887176","Longitude":"36.6950152725","PlusCode":"8GVRXMQW+82 Myrne, Donetsk Oblast, Ukraine","Description":"0:07- Shelling","Source":"https://x.com/moklasen/status/2087312563272900627, https://t.me/shturmovikche/1486","Geolocation":"https://x.com/moklasen/status/2087312560051585029","Equipment":"","EquipmentItems":"","Units":"","OrbatUnits":"6th Guards Tank Regiment ","Id":"ce7eba86-0486-4d66-b8b4-d1e03a29674c","icon":"/api/icons/E00000/False/template/10.png"},"source":"geoconfirmed","source_name":"GeoConfirmed","source_url":"https://geoconfirmed.org/map/ukraine","id":"ce7eba86-0486-4d66-b8b4-d1e03a29674c","date":"2026-08-11","link":"https://geoconfirmed.org/map/ukraine/ce7eba86-0486-4d66-b8b4-d1e03a29674c","category":"Shelling by artillery or aerial bombings - Location of the shelling, colour of who is shelling; Brown = UXO","side":"Russia","color":"#E00000","description":"0:07- Shelling","orbat":["6th Guards Tank Regiment"],"geolocation":["https://x.com/moklasen/status/2087312560051585029"],"sources":["https://x.com/moklasen/status/2087312563272900627","https://t.me/shturmovikche/1486"]}},{"type":"Feature","geometry":{"type":"Point","coordinates":[39.368957,51.611555]},"properties":{"original":{"Date":"2026-08-11","Name":"11 AUG 2026","Faction":"Ukraine","Origin":"VID","Latitude":"51.611555","Longitude":"39.368957","PlusCode":"9G3XJ969+JH Novaya Usman', Voronezh Oblast, Russia","Description":"Point of view looking in a northwest direction - fire at Wildberries logistics center. The fire at the Wildberries logistics center was also detected by NASA FIRMS.","Source":"https://x.com/Grimm_Intel/status/2086964781349589267, https://t.me/exilenova_plus/28509, , More information, https://kyivindependent.com/fire-reported-at-russian-oil-refinery-located-over-6-000-kilometers-from-ukraine-as-wildberries-targeted-again/, NASA Firms, /https://x.com/zarGEOINT/status/2087045430202794359, ","Geolocation":"https://x.com/Grimm_Intel/status/2086965082429292665","Equipment":"","EquipmentItems":"","Units":"","OrbatUnits":"","Id":"96a666da-f239-4724-8a53-d5c58859808e","icon":"/api/icons/0051CA/False/template/30.png"},"source":"geoconfirmed","source_name":"GeoConfirmed","source_url":"https://geoconfirmed.org/map/ukraine","id":"96a666da-f239-4724-8a53-d5c58859808e","date":"2026-08-11","link":"https://geoconfirmed.org/map/ukraine/96a666da-f239-4724-8a53-d5c58859808e","category":"Video - Always Point of View in description - In the colour of who is doing the attack or is responsable for the incident in the video.","side":"Ukraine","color":"#0051CA","description":"Point of view looking in a northwest direction - fire at Wildberries logistics center. The fire at the Wildberries logistics center was also detected by NASA FIRMS.","orbat":[],"geolocation":["https://x.com/Grimm_Intel/status/2086965082429292665"],"sources":["https://x.com/Grimm_Intel/status/2086964781349589267","https://t.me/exilenova_plus/28509","https://kyivindependent.com/fire-reported-at-russian-oil-refinery-located-over-6-000-kilometers-from-ukraine-as-wildberries-targeted-again/","https://x.com/zarGEOINT/status/2087045430202794359"]}},{"type":"Feature","geometry":{"type":"Point","coordinates":[36.182436,47.805333]},"properties":{"original":{"Date":"2026-08-11","Name":"11 AUG 2026","Faction":"Russia","Origin":"UAV","Latitude":"47.805333","Longitude":"36.182436","PlusCode":"8GVRR54J+4X Dobropillya, Zaporizhia Oblast, Ukraine","Description":"0:24-0:27 - Russian Artillery shelling of reported Ukrainian drone team positions","Source":"https://x.com/moklasen/status/2087239918493815112, https://t.me/RtrDonetsk/37576","Geolocation":"https://x.com/moklasen/status/2087239912030450062/","Equipment":"","EquipmentItems":"Artillery","Units":"\"Vostok group\"","OrbatUnits":"","Id":"e5fb66fd-530b-4895-8a28-d899468f7971","icon":"/api/icons/E00000/False/template/10.png"},"source":"geoconfirmed","source_name":"GeoConfirmed","source_url":"https://geoconfirmed.org/map/ukraine","id":"e5fb66fd-530b-4895-8a28-d899468f7971","date":"2026-08-11","link":"https://geoconfirmed.org/map/ukraine/e5fb66fd-530b-4895-8a28-d899468f7971","category":"Shelling by artillery or aerial bombings - Location of the shelling, colour of who is shelling; Brown = UXO","side":"Russia","color":"#E00000","description":"0:24-0:27 - Russian Artillery shelling of reported Ukrainian drone team positions","orbat":["\"Vostok group\""],"geolocation":["https://x.com/moklasen/status/2087239912030450062/"],"sources":["https://x.com/moklasen/status/2087239918493815112","https://t.me/RtrDonetsk/37576"]}},{"type":"Feature","geometry":{"type":"Point","coordinates":[37.611024,49.703536]},"properties":{"original":{"Date":"2026-08-11","Name":"11 AUG 2026","Faction":"Ukraine","Origin":"UAV","Latitude":"49.703536","Longitude":"37.611024","PlusCode":"8GXVPJ36+CC Kup'yans'k, Kharkiv Oblast, Ukraine","Description":"0:25 - Ukrainian  UAV unit  'Apostles' Heavy Bomber crew dropped  drone dropped explosives on a building in Kupiansk, Kharkiv Oblast","Source":"https://x.com/Bielitzling/status/2087917349009535110, https://t.me/Svidky_Spasa/52","Geolocation":"https://x.com/Bielitzling/status/2087917344790061539","Equipment":"","EquipmentItems":"(Multi-Purpose) Bomber UAV","Units":"","OrbatUnits":"UAV Unit \"Apostles\"","Id":"dbfee420-6393-4278-905f-d9f45ffe66ca","icon":"/api/icons/0051CA/False/template/110.png"},"source":"geoconfirmed","source_name":"GeoConfirmed","source_url":"https://geoconfirmed.org/map/ukraine","id":"dbfee420-6393-4278-905f-d9f45ffe66ca","date":"2026-08-11","link":"https://geoconfirmed.org/map/ukraine/dbfee420-6393-4278-905f-d9f45ffe66ca","category":"Multipurpose Bomber Drone, Flying OR Dropping OR bombing a target without knowing the outcome: if something is damaged --> icon of the damaged equipment.","side":"Ukraine","color":"#0051CA","description":"0:25 - Ukrainian  UAV unit  'Apostles' Heavy Bomber crew dropped  drone dropped explosives on a building in Kupiansk, Kharkiv Oblast","orbat":["UAV Unit \"Apostles\""],"geolocation":["https://x.com/Bielitzling/status/2087917344790061539"],"sources":["https://x.com/Bielitzling/status/2087917349009535110","https://t.me/Svidky_Spasa/52"]}},{"type":"Feature","geometry":{"type":"Point","coordinates":[39.340269,51.613869]},"properties":{"original":{"Date":"2026-08-11","Name":"11 AUG 2026","Faction":"Ukraine","Origin":"VID","Latitude":"51.613869","Longitude":"39.340269","PlusCode":"9G3XJ87R+P7 Nechaevka, Voronezh Oblast, Russia","Description":"Fire at Wildberries logistics center near Voronezh following a Ukrainian strike overnight.","Source":"https://x.com/Grimm_Intel/status/2086964781349589267, , More information, https://kyivindependent.com/fire-reported-at-russian-oil-refinery-located-over-6-000-kilometers-from-ukraine-as-wildberries-targeted-again/, NASA Firms, https://x.com/zarGEOINT/status/2087045430202794359","Geolocation":"Geo, https://x.com/Grimm_Intel/status/2086964781349589267, Based on, https://x.com/Grimm_Intel/status/2086965082429292665","Equipment":"","EquipmentItems":"","Units":"","OrbatUnits":"","Id":"ba4dec9d-0814-44d1-b839-da8692ad3a19","icon":"/api/icons/0051CA/False/template/70.png"},"source":"geoconfirmed","source_name":"GeoConfirmed","source_url":"https://geoconfirmed.org/map/ukraine","id":"ba4dec9d-0814-44d1-b839-da8692ad3a19","date":"2026-08-11","link":"https://geoconfirmed.org/map/ukraine/ba4dec9d-0814-44d1-b839-da8692ad3a19","category":"Controlled Demolition OR explosion of unknown origin OR fire of unknown origin where no other icon fits","side":"Ukraine","color":"#0051CA","description":"Fire at Wildberries logistics center near Voronezh following a Ukrainian strike overnight.","orbat":[],"geolocation":["https://x.com/Grimm_Intel/status/2086964781349589267","https://x.com/Grimm_Intel/status/2086965082429292665"],"sources":["https://x.com/Grimm_Intel/status/2086964781349589267","https://kyivindependent.com/fire-reported-at-russian-oil-refinery-located-over-6-000-kilometers-from-ukraine-as-wildberries-targeted-again/","https://x.com/zarGEOINT/status/2087045430202794359"]}},{"type":"Feature","geometry":{"type":"Point","coordinates":[37.18291,48.4015]},"properties":{"original":{"Date":"2026-08-11","Name":"11 AUG 2026","Faction":"Russia","Origin":"UAV","Latitude":"48.4015","Longitude":"37.18291","PlusCode":"8GWVC52M+H5 Bilyts'ke, Donetsk Oblast, Ukraine","Description":"1:34-1:43 - Area grid - Center for Advanced Unmanned Aerial Technologies \"Rubicon\" FPV and Vandal drones attacked a claimed Ukrainian position ","Source":"https://x.com/franfran2424/status/2087475717927784561, https://t.me/icpbtrubicon/2354, ","Geolocation":"https://x.com/GeoConfirmed/status/2087513194763796940, https://x.com/meowqai/status/2087438222926196829","Equipment":"","EquipmentItems":"FPV (First Person View) OWAD (One Way Attack Drone) | Vandal (KVN)","Units":"","OrbatUnits":"Center for Advanced Unmanned Aerial Technologies \"Rubicon\"","Id":"76ef67e0-ec26-46bb-afc3-e8913421ac3f","icon":"/api/icons/E00000/False/template/111.png"},"source":"geoconfirmed","source_name":"GeoConfirmed","source_url":"https://geoconfirmed.org/map/ukraine","id":"76ef67e0-ec26-46bb-afc3-e8913421ac3f","date":"2026-08-11","link":"https://geoconfirmed.org/map/ukraine/76ef67e0-ec26-46bb-afc3-e8913421ac3f","category":"Short Range (<50km) OWAD (One Way Attack Drone), mostly rotary wing, Flying OR Attacking a target without knowing the outcome: if something is damaged --> icon of the damaged equipment.","side":"Russia","color":"#E00000","description":"1:34-1:43 - Area grid - Center for Advanced Unmanned Aerial Technologies \"Rubicon\" FPV and Vandal drones attacked a claimed Ukrainian position","orbat":["Center for Advanced Unmanned Aerial Technologies \"Rubicon\""],"geolocation":["https://x.com/GeoConfirmed/status/2087513194763796940","https://x.com/meowqai/status/2087438222926196829"],"sources":["https://x.com/franfran2424/status/2087475717927784561","https://t.me/icpbtrubicon/2354"]}},{"type":"Feature","geometry":{"type":"Point","coordinates":[37.701068,48.500083]},"properties":{"original":{"Date":"2026-08-11","Name":"11 AUG 2026","Faction":"Russia","Origin":"UAV","Latitude":"48.500083","Longitude":"37.701068","PlusCode":"8GWVGP22+2C Kostyantynivka, Donetsk Oblast, Ukraine","Description":"Russian soldier, dressed as a civilian with a trash bag, tries to throw explosive into house in Kostiantinivka.","Source":"https://x.com/giK1893/status/2087252157351289084, https://t.me/mapukrdailyupdate/9563, (deleted) https://t.me/Legion_W_Bat1/1137, , screenshot of original post https://x.com/giK1893/status/2087252161147146450","Geolocation":"https://x.com/giK1893/status/2087252164171141576","Equipment":"Demolition charges","EquipmentItems":"","Units":"","OrbatUnits":"1st Motorized Rifle Battalion \"Legion W\"","Id":"18c550e7-682d-49cc-a800-e952c1684447","icon":"/api/icons/E00000/False/template/90.png"},"source":"geoconfirmed","source_name":"GeoConfirmed","source_url":"https://geoconfirmed.org/map/ukraine","id":"18c550e7-682d-49cc-a800-e952c1684447","date":"2026-08-11","link":"https://geoconfirmed.org/map/ukraine/18c550e7-682d-49cc-a800-e952c1684447","category":"Close fighting between two oposing factions - Colour of the force spreading the footage.","side":"Russia","color":"#E00000","description":"Russian soldier, dressed as a civilian with a trash bag, tries to throw explosive into house in Kostiantinivka.","orbat":["1st Motorized Rifle Battalion \"Legion W\""],"geolocation":["https://x.com/giK1893/status/2087252164171141576"],"sources":["https://x.com/giK1893/status/2087252157351289084","https://t.me/mapukrdailyupdate/9563","https://t.me/Legion_W_Bat1/1137","https://x.com/giK1893/status/2087252161147146450"]}},{"type":"Feature","geometry":{"type":"Point","coordinates":[36.348287,47.973695]},"properties":{"original":{"Date":"2026-08-11","Name":"11 AUG 2026","Faction":"Russia","Origin":"UAV","Latitude":"47.973695","Longitude":"36.348287","PlusCode":"8GVRX8FX+F8 Kolomiitsi, Dnipropetrovsk Oblast, Ukraine","Description":"0:00-0:14 - Airstrike (area grid)","Source":"https://x.com/juss_men/status/2087241732937371782, https://t.me/voin_dv/20623","Geolocation":"https://x.com/juss_men/status/2087241591433933033","Equipment":"","EquipmentItems":"Airstrike","Units":"","OrbatUnits":"11th Composite Aviation Regiment","Id":"abca5388-5a3f-4360-9ceb-f09f6bfd539a","icon":"/api/icons/E00000/False/template/10.png"},"source":"geoconfirmed","source_name":"GeoConfirmed","source_url":"https://geoconfirmed.org/map/ukraine","id":"abca5388-5a3f-4360-9ceb-f09f6bfd539a","date":"2026-08-11","link":"https://geoconfirmed.org/map/ukraine/abca5388-5a3f-4360-9ceb-f09f6bfd539a","category":"Shelling by artillery or aerial bombings - Location of the shelling, colour of who is shelling; Brown = UXO","side":"Russia","color":"#E00000","description":"0:00-0:14 - Airstrike (area grid)","orbat":["11th Composite Aviation Regiment"],"geolocation":["https://x.com/juss_men/status/2087241591433933033"],"sources":["https://x.com/juss_men/status/2087241732937371782","https://t.me/voin_dv/20623"]}},{"type":"Feature","geometry":{"type":"Point","coordinates":[37.725022,48.907008]},"properties":{"original":{"Date":"2026-08-11","Name":"11 AUG 2026","Faction":"Russia","Origin":"UAV","Latitude":"48.907008","Longitude":"37.725022","PlusCode":"8GWVWP4G+R2 Raihorodok, Donetsk Oblast, Ukraine","Description":"0:08-0:15 - Russian ambush FPV drone attacked an Ukrainian vehicle","Source":"https://bsky.app/profile/scaratlas.bsky.social/post/3mthaoua7x22r, https://t.me/Phoenixdrone/751","Geolocation":"https://bsky.app/profile/scaratlas.bsky.social/post/3mthaoe5o4s2r","Equipment":"","EquipmentItems":"Thermal FPV (First Person View) OWAD (One Way Attack Drone) | Car ","Units":"","OrbatUnits":"First Special Mining Battalion \"Phoenix\"","Id":"caf30bc5-6266-4625-89a1-f39e0cc74c21","icon":"/api/icons/E00000/False/template/111.png"},"source":"geoconfirmed","source_name":"GeoConfirmed","source_url":"https://geoconfirmed.org/map/ukraine","id":"caf30bc5-6266-4625-89a1-f39e0cc74c21","date":"2026-08-11","link":"https://geoconfirmed.org/map/ukraine/caf30bc5-6266-4625-89a1-f39e0cc74c21","category":"Short Range (<50km) OWAD (One Way Attack Drone), mostly rotary wing, Flying OR Attacking a target without knowing the outcome: if something is damaged --> icon of the damaged equipment.","side":"Russia","color":"#E00000","description":"0:08-0:15 - Russian ambush FPV drone attacked an Ukrainian vehicle","orbat":["First Special Mining Battalion \"Phoenix\""],"geolocation":["https://bsky.app/profile/scaratlas.bsky.social/post/3mthaoe5o4s2r"],"sources":["https://bsky.app/profile/scaratlas.bsky.social/post/3mthaoua7x22r","https://t.me/Phoenixdrone/751"]}},{"type":"Feature","geometry":{"type":"Point","coordinates":[37.730189,48.899922]},"properties":{"original":{"Date":"2026-08-11","Name":"11 AUG 2026","Faction":"Russia","Origin":"UAV","Latitude":"48.899922","Longitude":"37.730189","PlusCode":"8GWVVPXJ+X3 Raihorodok, Donetsk Oblast, Ukraine","Description":"A Russian FPV drone reportedly hit a car, killing one man and injuring another.","Source":"https://x.com/99Dominik_/status/2087204999826682055, https://www.instagram.com/v1ad__islav/reel/Da0IDJWAPPK/","Geolocation":"https://x.com/99Dominik_/status/2087204475773559090","Equipment":"","EquipmentItems":"FPV (First Person View) OWAD (One Way Attack Drone)","Units":"","OrbatUnits":"","Id":"3086d9c4-a4f6-48a1-ae4f-f860efc5fe86","icon":"/api/icons/E00000/False/template/50.png"},"source":"geoconfirmed","source_name":"GeoConfirmed","source_url":"https://geoconfirmed.org/map/ukraine","id":"3086d9c4-a4f6-48a1-ae4f-f860efc5fe86","date":"2026-08-11","link":"https://geoconfirmed.org/map/ukraine/3086d9c4-a4f6-48a1-ae4f-f860efc5fe86","category":"Killed or wounded civilian. Potential Warcrime. In the colour of who is assessed as doing the attack/killing.","side":"Russia","color":"#E00000","description":"A Russian FPV drone reportedly hit a car, killing one man and injuring another.","orbat":[],"geolocation":["https://x.com/99Dominik_/status/2087204475773559090"],"sources":["https://x.com/99Dominik_/status/2087204999826682055","https://www.instagram.com/v1ad__islav/reel/Da0IDJWAPPK/"]}},{"type":"Feature","geometry":{"type":"Point","coordinates":[36.84068,50.3911]},"properties":{"original":{"Date":"2026-08-11","Name":"11 AUG 2026","Faction":"Ukraine","Origin":"UAV","Latitude":"50.3911","Longitude":"36.84068","PlusCode":"9G2R9RRR+C7 Titovka, Belgorod Oblast, Russia","Description":"A Russian TOS-1A thermobaric multiple launch rocket system (MLRS) is hit with a drone by the 57th motorized brigade of Ukraine.","Source":"https://x.com/markito0171/status/2087081466060472464, https://t.me/kharkivnapriamok/3871","Geolocation":"https://x.com/blinzka/status/2087145432132563072","Equipment":"TOS-1A","EquipmentItems":"Thermal FPV (First Person View) OWAD (One Way Attack Drone)","Units":"","OrbatUnits":"57th Motorized Brigade","Id":"10d70f51-18b2-4673-8f58-fe88883ac3dc","icon":"/api/icons/0051CA/False/template/111.png"},"source":"geoconfirmed","source_name":"GeoConfirmed","source_url":"https://geoconfirmed.org/map/ukraine","id":"10d70f51-18b2-4673-8f58-fe88883ac3dc","date":"2026-08-11","link":"https://geoconfirmed.org/map/ukraine/10d70f51-18b2-4673-8f58-fe88883ac3dc","category":"Short Range (<50km) OWAD (One Way Attack Drone), mostly rotary wing, Flying OR Attacking a target without knowing the outcome: if something is damaged --> icon of the damaged equipment.","side":"Ukraine","color":"#0051CA","description":"A Russian TOS-1A thermobaric multiple launch rocket system (MLRS) is hit with a drone by the 57th motorized brigade of Ukraine.","orbat":["57th Motorized Brigade"],"geolocation":["https://x.com/blinzka/status/2087145432132563072"],"sources":["https://x.com/markito0171/status/2087081466060472464","https://t.me/kharkivnapriamok/3871"]}}]}