{"type":"FeatureCollection","features":[{"type":"Feature","geometry":{"type":"Point","coordinates":[36.92175,50.30709]},"properties":{"source":"lost_warinua","source_name":"lost_warinua (Telegram)","source_url":"https://t.me/s/lost_warinua","id":140988,"date":"2026-09-20","date_note":null,"posted_utc":"2026-09-25T06:57:28+00:00","link":"https://t.me/lost_warinua/140988","category":"Telegram post","side":"Claimed loss: Russia","color":"#E00000","description":"Уничтоженный российский МТ-ЛБ ВМК с мангалом в н.п. Волчанск Харьковской области.","orbat":[],"sources":["https://www.youtube.com/watch?v=Qo-QN6yj0Uc&t=350s"]}}]}