{"type":"FeatureCollection","features":[{"type":"Feature","geometry":{"type":"Polygon","coordinates":[[[37.12907,48.37427],[37.13538,48.37576],[37.14724,48.37222],[37.15207,48.37758],[37.15736,48.3815],[37.1679,48.38621],[37.17432,48.39103],[37.17039,48.37909],[37.16466,48.36998],[37.15679,48.36617],[37.15145,48.36863],[37.13237,48.36795],[37.11749,48.37905],[37.11762,48.37927],[37.12907,48.37427]]]},"properties":{"source":"deepstate","source_name":"DeepStateMap","source_url":"https://deepstatemap.live/en","category":"gained","category_label":"Russian advance: became occupied","period":"1d","compared_with":"2026-09-25","snapshot_time":"2026-09-26","area_km2_approx":3.5}}]}