{"type":"FeatureCollection","features":[{"type":"Feature","geometry":null,"properties":{"source":"ru_mod","source_name":"Ministry of Defence of Russia","group":"official_ru","id":67697,"posted_utc":"2026-09-28T02:01:02+00:00","link":"https://t.me/mod_russia/67697","text":"🔥 Тяжелая броня выжигает схроны врага\nЭкипажи танков Т-80БВМ 6-й гвардейской общевойсковой армии группировки «Север» разнесли вражеские склады боеприпасов.\n📍 Харьковская область\n💥 Канал Минобороны России в MAКС – боевая работа 24/7. Присоединяйся!","links":["https://max.ru/morf"],"original_html":"<b><tg-emoji emoji-id=\"5449590921916082144\"><i class=\"emoji\" style=\"background-image:url('//telegram.org/img/emoji/40/F09F94A5.png')\"><b>🔥</b></i></tg-emoji></b><b> Тяжелая броня выжигает схроны врага</b><br/><br/>Экипажи танков Т-80БВМ 6-й гвардейской общевойсковой армии группировки «Север» <b>разнесли вражеские склады боеприпасов.</b><br/><br/><tg-emoji emoji-id=\"5469680584198483528\"><i class=\"emoji\" style=\"background-image:url('//telegram.org/img/emoji/40/F09F938D.png')\"><b>📍</b></i></tg-emoji><i> Харьковская область</i><br/><br/><tg-emoji emoji-id=\"5447408202356389121\"><i class=\"emoji\" style=\"background-image:url('//telegram.org/img/emoji/40/F09F92A5.png')\"><b>💥</b></i></tg-emoji> <a href=\"https://max.ru/morf\" target=\"_blank\" rel=\"noopener\" onclick=\"return confirm('Open this link?\\n\\n'+this.href);\">Канал Минобороны России в MAКС – боевая работа 24/7. Присоединяйся&#33;</a>"}},{"type":"Feature","geometry":null,"properties":{"source":"ru_mod","source_name":"Ministry of Defence of Russia","group":"official_ru","id":67698,"posted_utc":"2026-09-28T03:52:01+00:00","link":"https://t.me/mod_russia/67698","text":"💥 Превратили маршруты в кладбище техники ВСУ\nОператоры ударных БПЛА группировки «Восток» жарят бронетехнику ВСУ и срывают переброску резервов противника в Запорожской области.\n#ВойскаБПС\n🔹 Канал Минобороны России в MAКС – только для своих!","links":["https://max.ru/morf"],"original_html":"<b><tg-emoji emoji-id=\"5449682610877918293\"><i class=\"emoji\" style=\"background-image:url('//telegram.org/img/emoji/40/F09F92A5.png')\"><b>💥</b></i></tg-emoji></b><b> Превратили маршруты в кладбище техники ВСУ<br/></b><br/>Операторы ударных БПЛА группировки «Восток»<b> жарят бронетехнику ВСУ и срывают переброску резервов противника </b>в Запорожской области.<br/><br/><a href=\"?q=%23%D0%92%D0%BE%D0%B9%D1%81%D0%BA%D0%B0%D0%91%D0%9F%D0%A1\">#ВойскаБПС</a><br/><tg-emoji emoji-id=\"5269510734265483362\"><i class=\"emoji\" style=\"background-image:url('//telegram.org/img/emoji/40/F09F94B9.png')\"><b>🔹</b></i></tg-emoji> <a href=\"https://max.ru/morf\" target=\"_blank\" rel=\"noopener\" onclick=\"return confirm('Open this link?\\n\\n'+this.href);\">Канал Минобороны России в MAКС – только для своих&#33;</a>"}},{"type":"Feature","geometry":null,"properties":{"source":"ru_mod","source_name":"Ministry of Defence of Russia","group":"official_ru","id":67699,"posted_utc":"2026-09-28T05:28:30+00:00","link":"https://t.me/mod_russia/67699","text":"❗️ Сегодня ночью Вооруженными Силами Российской Федерации продолжено нанесение ударов беспилотными летательными аппаратами по логистическим и коммуникационным центрам, объектам портовой инфраструктуры и морским судам, задействованным в интересах ВСУ.\n💥 В результате ударов поражены:\n📍 В городе Киеве:\n▫️ центр обработки данных компании «УкрТелеком», являющейся одной из крупнейших компаний, предоставляющих услуги стационарной и мобильной связи, а также высокоскоростного интернета для ВСУ;\n▫️ центр обработки данных компании «ДримЛайн», являющейся одной из крупнейших компаний, предоставляющих услуги высокоскоростного интернета для ВСУ, в том числе хранения разведывательных данных;\n▫️ объекты топливной инфраструктуры, задействованные в интересах ВСУ.\n▫️  На военном аэродроме Васильков (Киевская область) поражены инфраструктура и объекты.\n📍 В Одессе:\n▫️ логистический центр «Новая почта», осуществлявший хранение военных грузов.\n▫️  В порту Черноморск поражен сухогруз с военным имуществом и грузом двойного назначения для ВСУ.\n▫️  В порту Измаил – инфраструктура завода «Дунайсудосервис». Крупное судостроительное и судоремонтное предприятие, осуществляющее восстановление и модернизацию плавсредств, техническое обслуживание и переоборудование сторожевых катеров.\n▫️  Также на территории завода поражен пункт постоянной дислокации подразделения госпогранслужбы Украины.\n▫️  Кроме того, на переходе морем – сухогруз, доставлявший в порт Одесса военные грузы.\n🔹 Минобороны России","links":["https://max.ru/morf"],"original_html":"<tg-emoji emoji-id=\"5447116342148753425\"><i class=\"emoji\" style=\"background-image:url('//telegram.org/img/emoji/40/E29D97.png')\"><b>❗️</b></i></tg-emoji> Сегодня ночью Вооруженными Силами Российской Федерации <b>продолжено нанесение ударов </b>беспилотными летательными аппаратами <b>по логистическим и коммуникационным центрам, объектам портовой инфраструктуры и морским судам</b>, задействованным в интересах ВСУ.<br/><br/><tg-emoji emoji-id=\"5449682610877918293\"><i class=\"emoji\" style=\"background-image:url('//telegram.org/img/emoji/40/F09F92A5.png')\"><b>💥</b></i></tg-emoji> <b>В результате ударов поражены:</b><br/><br/><tg-emoji emoji-id=\"5449396879588614682\"><i class=\"emoji\" style=\"background-image:url('//telegram.org/img/emoji/40/F09F938D.png')\"><b>📍</b></i></tg-emoji> В городе Киеве:<br/><br/><tg-emoji emoji-id=\"5469903849483431273\"><i class=\"emoji\" style=\"background-image:url('//telegram.org/img/emoji/40/E296AB.png')\"><b>▫️</b></i></tg-emoji> <b>центр обработки данных компании «УкрТелеком»</b>, являющейся одной из крупнейших компаний, предоставляющих услуги стационарной и мобильной связи, а также высокоскоростного интернета для ВСУ;<br/><br/><tg-emoji emoji-id=\"5469903849483431273\"><i class=\"emoji\" style=\"background-image:url('//telegram.org/img/emoji/40/E296AB.png')\"><b>▫️</b></i></tg-emoji> <b>центр обработки данных компании «ДримЛайн»</b>, являющейся одной из крупнейших компаний, предоставляющих услуги высокоскоростного интернета для ВСУ, в том числе хранения разведывательных данных;<br/><br/><tg-emoji emoji-id=\"5469903849483431273\"><i class=\"emoji\" style=\"background-image:url('//telegram.org/img/emoji/40/E296AB.png')\"><b>▫️</b></i></tg-emoji> <b>объекты топливной инфраструктуры</b>, задействованные в интересах ВСУ.<br/><br/><i class=\"emoji\" style=\"background-image:url('//telegram.org/img/emoji/40/E296AB.png')\"><b>▫️</b></i>  На военном аэродроме Васильков (Киевская область) <b>поражены инфраструктура и объекты.</b><br/><br/><tg-emoji emoji-id=\"5449396879588614682\"><i class=\"emoji\" style=\"background-image:url('//telegram.org/img/emoji/40/F09F938D.png')\"><b>📍</b></i></tg-emoji> В Одессе:<br/><br/><tg-emoji emoji-id=\"5469903849483431273\"><i class=\"emoji\" style=\"background-image:url('//telegram.org/img/emoji/40/E296AB.png')\"><b>▫️</b></i></tg-emoji> логистический центр «Новая почта», осуществлявший хранение военных грузов.<br/><br/><i class=\"emoji\" style=\"background-image:url('//telegram.org/img/emoji/40/E296AB.png')\"><b>▫️</b></i>  В порту Черноморск <b>поражен сухогруз </b>с военным имуществом и грузом двойного назначения для ВСУ. <br/><br/><i class=\"emoji\" style=\"background-image:url('//telegram.org/img/emoji/40/E296AB.png')\"><b>▫️</b></i>  В порту Измаил – <b>инфраструктура завода «Дунайсудосервис»</b>. Крупное судостроительное и судоремонтное предприятие, осуществляющее восстановление и модернизацию плавсредств, техническое обслуживание и переоборудование сторожевых катеров. <br/><br/><i class=\"emoji\" style=\"background-image:url('//telegram.org/img/emoji/40/E296AB.png')\"><b>▫️</b></i>  Также на территории завода <b>поражен пункт постоянной дислокации </b>подразделения госпогранслужбы Украины.<br/><br/><i class=\"emoji\" style=\"background-image:url('//telegram.org/img/emoji/40/E296AB.png')\"><b>▫️</b></i>  Кроме того, на переходе морем – <b>сухогруз</b>, доставлявший в порт Одесса военные грузы.<br/><br/><tg-emoji emoji-id=\"5269510734265483362\"><i class=\"emoji\" style=\"background-image:url('//telegram.org/img/emoji/40/F09F94B9.png')\"><b>🔹</b></i></tg-emoji> <a href=\"https://max.ru/morf\" target=\"_blank\" rel=\"noopener\" onclick=\"return confirm('Open this link?\\n\\n'+this.href);\">Минобороны России</a>"}},{"type":"Feature","geometry":null,"properties":{"source":"ru_mod","source_name":"Ministry of Defence of Russia","group":"official_ru","id":67700,"posted_utc":"2026-09-28T06:04:44+00:00","link":"https://t.me/mod_russia/67700","text":"⚡️ В течение прошедшей ночи в период с 20.00 мск 27 сентября до 08.00 мск 28 сентября дежурными силами ПВО перехвачены и уничтожены 254 украинских беспилотных летательных аппарата самолетного типа над территориями Белгородской, Брянской, Смоленской, Калужской, Тульской, Курской, Воронежской, Липецкой, Тамбовской, Рязанской, Орловской, Саратовской, Ростовской областей, Московского региона, Краснодарского края, Республики Крым и над акваториями Азовского и Черного морей.\n🔹 MAКС – территория СВОих","links":["https://max.ru/morf"],"original_html":"<tg-emoji emoji-id=\"5449911936361724483\"><i class=\"emoji\" style=\"background-image:url('//telegram.org/img/emoji/40/E29AA1.png')\"><b>⚡️</b></i></tg-emoji> В течение прошедшей ночи в период с 20.00 мск 27 сентября до 08.00 мск 28 сентября дежурными силами ПВО<b> перехвачены и уничтожены 254 украинских беспилотных летательных аппарата самолетного типа </b>над территориями Белгородской, Брянской, Смоленской, Калужской, Тульской, Курской, Воронежской, Липецкой, Тамбовской, Рязанской, Орловской, Саратовской, Ростовской областей, Московского региона, Краснодарского края, Республики Крым и над акваториями Азовского и Черного морей.<br/><br/><tg-emoji emoji-id=\"5269510734265483362\"><i class=\"emoji\" style=\"background-image:url('//telegram.org/img/emoji/40/F09F94B9.png')\"><b>🔹</b></i></tg-emoji> <a href=\"https://max.ru/morf\" target=\"_blank\" rel=\"noopener\" onclick=\"return confirm('Open this link?\\n\\n'+this.href);\">MAКС – территория СВОих</a>"}},{"type":"Feature","geometry":null,"properties":{"source":"ru_mod","source_name":"Ministry of Defence of Russia","group":"official_ru","id":67701,"posted_utc":"2026-09-28T06:09:17+00:00","link":"https://t.me/mod_russia/67701","text":"🦅 Сезон соколиной охоты открыт\nРасчёт дрона-перехватчика «Сокол-И» группировки «Центр» отработали по беспилотникам ВСУ на Добропольском направлении.\n#ВойскаБПС\n🔹 Канал Минобороны России в MAКС – только для своих!","links":["https://max.ru/morf"],"original_html":"<b><i class=\"emoji\" style=\"background-image:url('//telegram.org/img/emoji/40/F09FA685.png')\"><b>🦅</b></i> Сезон соколиной охоты открыт</b><br/><br/>Расчёт дрона-перехватчика «Сокол-И» группировки «Центр»<b> отработали по беспилотникам ВСУ </b>на Добропольском направлении.<br/><br/><a href=\"?q=%23%D0%92%D0%BE%D0%B9%D1%81%D0%BA%D0%B0%D0%91%D0%9F%D0%A1\">#ВойскаБПС</a><br/><tg-emoji emoji-id=\"5269510734265483362\"><i class=\"emoji\" style=\"background-image:url('//telegram.org/img/emoji/40/F09F94B9.png')\"><b>🔹</b></i></tg-emoji> <a href=\"https://max.ru/morf\" target=\"_blank\" rel=\"noopener\" onclick=\"return confirm('Open this link?\\n\\n'+this.href);\">Канал Минобороны России в MAКС – только для своих&#33;</a>"}},{"type":"Feature","geometry":null,"properties":{"source":"ru_mod","source_name":"Ministry of Defence of Russia","group":"official_ru","id":67702,"posted_utc":"2026-09-28T06:58:57+00:00","link":"https://t.me/mod_russia/67702","text":"«Ни один человек в группе даже не поцарапался».\nГвардии сержант Егор Николаев, командир группы разведчиков 83-й бригады ВДВ, удостоен звания Героя России в 2025 году. Он возглавил группу бойцов, которая выбивала ВСУ из села Журавка — одного из ближайших к границе с Россией населенных пунктов в Сумской области. Российские войска пробились туда в конце февраля 2025-го, чтобы организовать для Курской области «зону безопасности».\nБойцы прошли порядка 27 километров, забрались врагу в тыл, заминировали дороги, выждали время — и стремительно атаковали организованные в селе опорники. А потом наши войска успешно развили наступление, быстро взяв следующий, более крупный населенный пункт Беловоды.\nВ этом видео Егор рассказывает об этой боевой операции и немного о себе.\nГерои в 📲 MAX,  📱 ВКонтакте и в 📱 Дзен","links":["https://max.ru/heroesofZ","https://vk.com/heroes0fz","http://dzen.ru/heroesofz"],"original_html":"<i>«Ни один человек в группе даже не поцарапался». </i><br/><br/>Гвардии сержант <b>Егор Николаев</b>, командир группы разведчиков 83-й бригады ВДВ, удостоен звания Героя России в 2025 году. Он возглавил группу бойцов, которая выбивала ВСУ из села Журавка — одного из ближайших к границе с Россией населенных пунктов в Сумской области. Российские войска пробились туда в конце февраля 2025-го, чтобы организовать для Курской области «зону безопасности». <br/><br/>Бойцы прошли порядка 27 километров, забрались врагу в тыл, заминировали дороги, выждали время — и стремительно атаковали организованные в селе опорники. А потом наши войска успешно развили наступление, быстро взяв следующий, более крупный населенный пункт Беловоды.<br/><br/>В этом видео Егор рассказывает об этой боевой операции и немного о себе.<br/><br/><i>Герои в </i><i><tg-emoji emoji-id=\"5449407131675558756\"><i class=\"emoji\" style=\"background-image:url('//telegram.org/img/emoji/40/F09F93B2.png')\"><b>📲</b></i></tg-emoji></i><i> </i><a href=\"https://max.ru/heroesofZ\" target=\"_blank\" rel=\"noopener\" onclick=\"return confirm('Open this link?\\n\\n'+this.href);\"><i>MAX</i></a>,<i>  </i><i><tg-emoji emoji-id=\"5334853932915114338\"><i class=\"emoji\" style=\"background-image:url('//telegram.org/img/emoji/40/F09F93B1.png')\"><b>📱</b></i></tg-emoji></i><i> </i><a href=\"https://vk.com/heroes0fz\" target=\"_blank\" rel=\"noopener\" onclick=\"return confirm('Open this link?\\n\\n'+this.href);\"><i>ВКонтакте</i></a> <i>и в </i><i><tg-emoji emoji-id=\"5321533581472842536\"><i class=\"emoji\" style=\"background-image:url('//telegram.org/img/emoji/40/F09F93B1.png')\"><b>📱</b></i></tg-emoji></i><i> </i><a href=\"http://dzen.ru/heroesofz\" target=\"_blank\" rel=\"noopener\" onclick=\"return confirm('Open this link?\\n\\n'+this.href);\"><i>Дзен</i></a>"}},{"type":"Feature","geometry":null,"properties":{"source":"ru_mod","source_name":"Ministry of Defence of Russia","group":"official_ru","id":67703,"posted_utc":"2026-09-28T07:35:34+00:00","link":"https://t.me/mod_russia/67703","text":"▫️ «Тропа Росомахи» пройдена!\nВ Приморье завершилось совместное учение вооружённых сил России и Шри‑Ланки «Тропа Росомахи‑2026».\n📍 полигон «Сергеевский», Приморский край\n▫️ В финальной части учения личный состав отработал тактические задачи. Бойцы действовали в составе смешанных расчётов на мото- и бронетехнике, багги, бронетранспортёрах и танках, а также совершили десантирование с вертолётов армейской авиации.\n🤝 Учения завершились торжественным маршем. Военные двух стран обменялись сувенирами, получили медали и открыли памятный камень в знак боевой дружбы.\n🔹 MAКС – территория СВОих","links":["https://max.ru/morf"],"original_html":"<tg-emoji emoji-id=\"5352532894478793783\"><i class=\"emoji\" style=\"background-image:url('//telegram.org/img/emoji/40/E296AB.png')\"><b>▫️</b></i></tg-emoji><b> «Тропа Росомахи» пройдена&#33;</b><br/><br/><b>В Приморье завершилось совместное учение вооружённых сил России и Шри‑Ланки «Тропа Росомахи‑2026».</b><br/><br/><tg-emoji emoji-id=\"5469680584198483528\"><i class=\"emoji\" style=\"background-image:url('//telegram.org/img/emoji/40/F09F938D.png')\"><b>📍</b></i></tg-emoji> <i>полигон «Сергеевский», Приморский край</i><br/><br/><tg-emoji emoji-id=\"5449519522379752546\"><i class=\"emoji\" style=\"background-image:url('//telegram.org/img/emoji/40/E296AB.png')\"><b>▫️</b></i></tg-emoji> В финальной части учения <b>личный состав отработал тактические задачи</b>. Бойцы действовали в составе смешанных расчётов на мото- и бронетехнике, багги, бронетранспортёрах и танках, а также совершили десантирование с вертолётов армейской авиации.<br/><br/><tg-emoji emoji-id=\"5447324252925620983\"><i class=\"emoji\" style=\"background-image:url('//telegram.org/img/emoji/40/F09FA49D.png')\"><b>🤝</b></i></tg-emoji> Учения завершились торжественным маршем. <b>Военные двух стран обменялись сувенирами, получили медали</b> и открыли памятный камень в знак боевой дружбы.<br/><br/><tg-emoji emoji-id=\"5269510734265483362\"><i class=\"emoji\" style=\"background-image:url('//telegram.org/img/emoji/40/F09F94B9.png')\"><b>🔹</b></i></tg-emoji> <a href=\"https://max.ru/morf\" target=\"_blank\" rel=\"noopener\" onclick=\"return confirm('Open this link?\\n\\n'+this.href);\">MAКС – территория СВОих</a>"}},{"type":"Feature","geometry":null,"properties":{"source":"ru_mod","source_name":"Ministry of Defence of Russia","group":"official_ru","id":67704,"posted_utc":"2026-09-28T08:36:10+00:00","link":"https://t.me/mod_russia/67704","text":"💥 Огненный тандем: артиллеристы и дроноводы «Южной» группировки разнесли вражеские пункты управления БПЛА и укрытия с живой силой ВСУ.\n📍 Алексеево-Дружковка, Краматорский район\n🔹 Канал Минобороны России в MAКС – боевая работа 24/7","links":["https://max.ru/morf"],"original_html":"<tg-emoji emoji-id=\"5449682610877918293\"><i class=\"emoji\" style=\"background-image:url('//telegram.org/img/emoji/40/F09F92A5.png')\"><b>💥</b></i></tg-emoji> <b>Огненный тандем: </b>артиллеристы и дроноводы «Южной» группировки <b>разнесли вражеские пункты управления БПЛА и укрытия с живой силой ВСУ.</b><br/><br/><tg-emoji emoji-id=\"5469680584198483528\"><i class=\"emoji\" style=\"background-image:url('//telegram.org/img/emoji/40/F09F938D.png')\"><b>📍</b></i></tg-emoji> <i>Алексеево-Дружковка, Краматорский район</i><br/><br/><tg-emoji emoji-id=\"5269510734265483362\"><i class=\"emoji\" style=\"background-image:url('//telegram.org/img/emoji/40/F09F94B9.png')\"><b>🔹</b></i></tg-emoji> <a href=\"https://max.ru/morf\" target=\"_blank\" rel=\"noopener\" onclick=\"return confirm('Open this link?\\n\\n'+this.href);\">Канал Минобороны России в MAКС – боевая работа 24/7</a>"}},{"type":"Feature","geometry":null,"properties":{"source":"ru_mod","source_name":"Ministry of Defence of Russia","group":"official_ru","id":67705,"posted_utc":"2026-09-28T08:55:24+00:00","link":"https://t.me/mod_russia/67705","text":"⚡️ В Сумской области подразделения группировки войск «Север» установили контроль над населенным пунктом Уланово.\n🔹 MAКС – территория СВОих","links":["https://max.ru/morf"],"original_html":"<tg-emoji emoji-id=\"5449911936361724483\"><i class=\"emoji\" style=\"background-image:url('//telegram.org/img/emoji/40/E29AA1.png')\"><b>⚡️</b></i></tg-emoji> В Сумской области подразделения группировки войск «Север» <b>установили контроль над населенным пунктом Уланово.</b><br/><br/><tg-emoji emoji-id=\"5269510734265483362\"><i class=\"emoji\" style=\"background-image:url('//telegram.org/img/emoji/40/F09F94B9.png')\"><b>🔹</b></i></tg-emoji> <a href=\"https://max.ru/morf\" target=\"_blank\" rel=\"noopener\" onclick=\"return confirm('Open this link?\\n\\n'+this.href);\">MAКС – территория СВОих</a>"}},{"type":"Feature","geometry":null,"properties":{"source":"ru_mod","source_name":"Ministry of Defence of Russia","group":"official_ru","id":67707,"posted_utc":"2026-09-28T08:56:16+00:00","link":"https://t.me/mod_russia/67707","text":"⚡️ Подразделения группировки войск «Центр» освободили населенный пункт Нововодяное Донецкой Народной Республики.\nПодробнее об успехах наших войск ➡️ в MAКС","links":["https://max.ru/morf","https://max.ru/morf/AaDnTg89TcY"],"original_html":"<tg-emoji emoji-id=\"5449911936361724483\"><i class=\"emoji\" style=\"background-image:url('//telegram.org/img/emoji/40/E29AA1.png')\"><b>⚡️</b></i></tg-emoji> Подразделения группировки войск «Центр» <b>освободили населенный пункт Нововодяное Донецкой Народной Республики.</b><br/><br/>Подробнее об успехах наших войск<a href=\"https://max.ru/morf\" target=\"_blank\" rel=\"noopener\" onclick=\"return confirm('Open this link?\\n\\n'+this.href);\"> </a><tg-emoji emoji-id=\"5469902676957357453\"><i class=\"emoji\" style=\"background-image:url('//telegram.org/img/emoji/40/E29EA1.png')\"><b>➡️</b></i></tg-emoji> <a href=\"https://max.ru/morf/AaDnTg89TcY\" target=\"_blank\" rel=\"noopener\" onclick=\"return confirm('Open this link?\\n\\n'+this.href);\">в MAКС</a>"}},{"type":"Feature","geometry":null,"properties":{"source":"ru_mod","source_name":"Ministry of Defence of Russia","group":"official_ru","id":67708,"posted_utc":"2026-09-28T10:24:58+00:00","link":"https://t.me/mod_russia/67708","text":"💥 Враг отрезан и будет разбит\nРасчёты беспилотников группировки «Центр» продолжают уничтожать окружённые формирования ВСУ в западных и восточных районах города Доброполья в ДНР.\n#ВойскаБПС\n💬 Канал Минобороны России в MAКС – только для своих!","links":["https://max.ru/morf"],"original_html":"<tg-emoji emoji-id=\"5449682610877918293\"><i class=\"emoji\" style=\"background-image:url('//telegram.org/img/emoji/40/F09F92A5.png')\"><b>💥</b></i></tg-emoji> <b>Враг отрезан и будет разбит</b><br/><br/>Расчёты беспилотников группировки «Центр» <b>продолжают уничтожать окружённые формирования ВСУ</b> в западных и восточных районах города Доброполья в ДНР.<br/><br/><a href=\"?q=%23%D0%92%D0%BE%D0%B9%D1%81%D0%BA%D0%B0%D0%91%D0%9F%D0%A1\">#ВойскаБПС</a><br/><tg-emoji emoji-id=\"5447486370761176298\"><i class=\"emoji\" style=\"background-image:url('//telegram.org/img/emoji/40/F09F92AC.png')\"><b>💬</b></i></tg-emoji> <a href=\"https://max.ru/morf\" target=\"_blank\" rel=\"noopener\" onclick=\"return confirm('Open this link?\\n\\n'+this.href);\">Канал Минобороны России в MAКС – только для своих&#33;</a>"}},{"type":"Feature","geometry":null,"properties":{"source":"ru_mod","source_name":"Ministry of Defence of Russia","group":"official_ru","id":67709,"posted_utc":"2026-09-28T11:11:40+00:00","link":"https://t.me/mod_russia/67709","text":"Морпехи выжгли логово «тяжёлых птиц»\n💥 Расчёты реактивных «Гераней» морской пехоты Северного флота испепелили пункт управления и запуска тяжелых коптеров ВСУ в восточной части Доброполья в ДНР.\n👉 В занятых строениях находились дроноводы и оборудование. Уничтожение крупного пункта управления лишило окружённые группы ВСУ возможности координировать запуски тяжёлых гексакоптеров и наносить удары по наступающим штурмовым группам.\n#ВойскаБПС\n🔹 Канал Минобороны России в MAКС – боевая работа 24/7","links":["https://max.ru/morf"],"original_html":"<b>Морпехи выжгли логово «тяжёлых птиц»</b><br/><br/><tg-emoji emoji-id=\"5449682610877918293\"><i class=\"emoji\" style=\"background-image:url('//telegram.org/img/emoji/40/F09F92A5.png')\"><b>💥</b></i></tg-emoji> Расчёты реактивных «Гераней» морской пехоты Северного флота <b>испепелили пункт управления и запуска тяжелых коптеров ВСУ</b> в восточной части Доброполья в ДНР.<br/><br/><i class=\"emoji\" style=\"background-image:url('//telegram.org/img/emoji/40/F09F9189.png')\"><b>👉</b></i> В занятых строениях находились дроноводы и оборудование. Уничтожение крупного пункта управления <b>лишило окружённые группы ВСУ возможности координировать запуски</b> тяжёлых гексакоптеров и наносить удары по наступающим штурмовым группам.<br/><br/><a href=\"?q=%23%D0%92%D0%BE%D0%B9%D1%81%D0%BA%D0%B0%D0%91%D0%9F%D0%A1\">#ВойскаБПС</a><br/><tg-emoji emoji-id=\"5269510734265483362\"><i class=\"emoji\" style=\"background-image:url('//telegram.org/img/emoji/40/F09F94B9.png')\"><b>🔹</b></i></tg-emoji> <a href=\"https://max.ru/morf\" target=\"_blank\" rel=\"noopener\" onclick=\"return confirm('Open this link?\\n\\n'+this.href);\">Канал Минобороны России в MAКС – боевая работа 24/7</a>"}},{"type":"Feature","geometry":null,"properties":{"source":"ru_mod","source_name":"Ministry of Defence of Russia","group":"official_ru","id":67723,"posted_utc":"2026-09-28T18:33:03+00:00","link":"https://t.me/mod_russia/67723","text":"📆 Главное за день\n▫️ Курс на усиление: Президент РФ Владимир Путин подписал Указ «Об установлении штатной численности Вооруженных Сил Российской Федерации».\n▫️ В полку гвардейцев прибыло: «гвардейскими» стали 92-я отдельная радиотехническая бригада (особого назначения) и 318-й отдельный радиотехнический полк (особого назначения). Соответствующие Указы подписал Президент РФ Владимир Путин.\n👊 Бьем по тылам: нанесли удары беспилотными летательными аппаратами по логистическим и коммуникационным центрам, объектам портовой инфраструктуры и морским судам, задействованным в интересах ВСУ.\n↗️ Не останавливаемся на достигнутом: российские войска освободили Нововодяное в Донецкой Народной Республике. Установлен контроль над населенным пунктом Уланово в Сумской области.\n💥 Огненный тандем: артиллеристы и дроноводы «Южной» группировки разносят вражеские пункты управления БПЛА и укрытия с живой силой ВСУ в Краматорском районе.\n🎯 Обнаружил – поразил: разведгруппы приступили к практическим действиям в ходе учений «Поиск-2026».\n▫️ «Тропа Росомахи» пройдена: в Приморье завершилось совместное учение вооружённых сил России и Шри‑Ланки «Тропа Росомахи‑2026».\nУверенно шагаем к победе!\n#ИтогиДня\n🔹 MAКС – территория СВОих","links":["https://t.me/mod_russia/67718","https://t.me/mod_russia/67719","https://t.me/mod_russia/67699","https://t.me/mod_russia/67707","https://t.me/mod_russia/67705","https://t.me/mod_russia/67704","https://t.me/mod_russia/67710","https://t.me/mod_russia/67703","https://max.ru/morf"],"original_html":"<tg-emoji emoji-id=\"5472282252048104170\"><i class=\"emoji\" style=\"background-image:url('//telegram.org/img/emoji/40/F09F9386.png')\"><b>📆</b></i></tg-emoji> <b>Главное за день</b><br/><br/><tg-emoji emoji-id=\"5264796878809099818\"><i class=\"emoji\" style=\"background-image:url('//telegram.org/img/emoji/40/E296AB.png')\"><b>▫️</b></i></tg-emoji><b> Курс на усиление: </b>Президент РФ Владимир Путин <a href=\"https://t.me/mod_russia/67718\" target=\"_blank\" rel=\"noopener\" onclick=\"return confirm('Open this link?\\n\\n'+this.href);\">подписал</a> Указ «Об установлении штатной численности Вооруженных Сил Российской Федерации».<br/><br/><tg-emoji emoji-id=\"5381867138858368918\"><i class=\"emoji\" style=\"background-image:url('//telegram.org/img/emoji/40/E296AB.png')\"><b>▫️</b></i></tg-emoji> <b>В полку гвардейцев прибыло:</b> «гвардейскими» <a href=\"https://t.me/mod_russia/67719\" target=\"_blank\" rel=\"noopener\" onclick=\"return confirm('Open this link?\\n\\n'+this.href);\">стали</a> 92-я отдельная радиотехническая бригада (особого назначения) и 318-й отдельный радиотехнический полк (особого назначения). Соответствующие Указы подписал Президент РФ Владимир Путин.<br/><br/><i class=\"emoji\" style=\"background-image:url('//telegram.org/img/emoji/40/F09F918A.png')\"><b>👊</b></i> <b>Бьем по тылам:</b> <a href=\"https://t.me/mod_russia/67699\" target=\"_blank\" rel=\"noopener\" onclick=\"return confirm('Open this link?\\n\\n'+this.href);\">нанесли удары</a> беспилотными летательными аппаратами по логистическим и коммуникационным центрам, объектам портовой инфраструктуры и морским судам, задействованным в интересах ВСУ.<br/><br/><tg-emoji emoji-id=\"5352838429862296415\"><i class=\"emoji\" style=\"background-image:url('//telegram.org/img/emoji/40/E28697.png')\"><b>↗️</b></i></tg-emoji> <b>Не останавливаемся на достигнутом: </b>российские войска освободили <a href=\"https://t.me/mod_russia/67707\" target=\"_blank\" rel=\"noopener\" onclick=\"return confirm('Open this link?\\n\\n'+this.href);\">Нововодяное</a> в Донецкой Народной Республике. Установлен контроль над населенным пунктом <a href=\"https://t.me/mod_russia/67705\" target=\"_blank\" rel=\"noopener\" onclick=\"return confirm('Open this link?\\n\\n'+this.href);\">Уланово</a> в Сумской области.<br/><br/><tg-emoji emoji-id=\"5449682610877918293\"><i class=\"emoji\" style=\"background-image:url('//telegram.org/img/emoji/40/F09F92A5.png')\"><b>💥</b></i></tg-emoji> <b>Огненный тандем: </b>артиллеристы и дроноводы «Южной» группировки <a href=\"https://t.me/mod_russia/67704\" target=\"_blank\" rel=\"noopener\" onclick=\"return confirm('Open this link?\\n\\n'+this.href);\">разносят</a> вражеские пункты управления БПЛА и укрытия с живой силой ВСУ в Краматорском районе.<br/><br/><tg-emoji emoji-id=\"5467558728620341717\"><i class=\"emoji\" style=\"background-image:url('//telegram.org/img/emoji/40/F09F8EAF.png')\"><b>🎯</b></i></tg-emoji> <b>Обнаружил – поразил: </b>разведгруппы <a href=\"https://t.me/mod_russia/67710\" target=\"_blank\" rel=\"noopener\" onclick=\"return confirm('Open this link?\\n\\n'+this.href);\">приступили</a> к практическим действиям в ходе учений «Поиск-2026».<br/><br/><tg-emoji emoji-id=\"5352532894478793783\"><i class=\"emoji\" style=\"background-image:url('//telegram.org/img/emoji/40/E296AB.png')\"><b>▫️</b></i></tg-emoji> <b>«Тропа Росомахи» пройдена:</b> в Приморье <a href=\"https://t.me/mod_russia/67703\" target=\"_blank\" rel=\"noopener\" onclick=\"return confirm('Open this link?\\n\\n'+this.href);\">завершилось</a> совместное учение вооружённых сил России и Шри‑Ланки «Тропа Росомахи‑2026».<b><br/><br/>Уверенно шагаем к победе&#33;<br/></b>&nbsp;<br/><a href=\"?q=%23%D0%98%D1%82%D0%BE%D0%B3%D0%B8%D0%94%D0%BD%D1%8F\">#ИтогиДня</a><br/><tg-emoji emoji-id=\"5269510734265483362\"><i class=\"emoji\" style=\"background-image:url('//telegram.org/img/emoji/40/F09F94B9.png')\"><b>🔹</b></i></tg-emoji> <a href=\"https://max.ru/morf\" target=\"_blank\" rel=\"noopener\" onclick=\"return confirm('Open this link?\\n\\n'+this.href);\">MAКС – территория СВОих</a>"}},{"type":"Feature","geometry":null,"properties":{"source":"ru_mod","source_name":"Ministry of Defence of Russia","group":"official_ru","id":67724,"posted_utc":"2026-09-28T19:02:19+00:00","link":"https://t.me/mod_russia/67724","text":"Верные друзья\nСтрана под защитой сильных рук и цепких лап ❤️\n🔹 Канал Минобороны России в MAКС – только для своих!","links":["https://max.ru/morf"],"original_html":"<b>Верные друзья</b><br/><br/>Страна под защитой сильных рук и цепких лап <i class=\"emoji\" style=\"background-image:url('//telegram.org/img/emoji/40/E29DA4.png')\"><b>❤️</b></i><br/><br/><tg-emoji emoji-id=\"5269510734265483362\"><i class=\"emoji\" style=\"background-image:url('//telegram.org/img/emoji/40/F09F94B9.png')\"><b>🔹</b></i></tg-emoji> <a href=\"https://max.ru/morf\" target=\"_blank\" rel=\"noopener\" onclick=\"return confirm('Open this link?\\n\\n'+this.href);\">Канал Минобороны России в MAКС – только для своих&#33;</a>"}},{"type":"Feature","geometry":null,"properties":{"source":"ru_mod","source_name":"Ministry of Defence of Russia","group":"official_ru","id":67725,"posted_utc":"2026-09-28T22:02:07+00:00","link":"https://t.me/mod_russia/67725","text":"🇷🇺 🇲🇳  Военный союз крепнет: замминистра обороны РФ Василий Осьмаков провел серию переговоров с руководством оборонного ведомства Монголии.\n📑  Работаем на долгосрок\nИтогом встречи Василия Осьмакова с его монгольским коллегой, генерал-майором Дашцэдэнгийном Баасандамбой, стало подписание фундаментального документа – Плана российско-монгольского стратегического партнерства в военной сфере на 2027–2031 года.\n🤝  Устойчивое взаимодействие на всех уровнях\nВектор на углубление связей был закреплен на встрече Василия Осьмакова с министром обороны Монголии Дамбыном Батлутом. На сегодняшний день между странами выстроен прочный рабочий контакт: эффективно взаимодействуют генеральные штабы, приграничные военные округа, различные виды вооруженных сил и профильные военные вузы.\n🧭 Сверили карты, закрепили курс\nКроме того, Василий Осьмаков провел переговоры с начальником Генерального штаба ВС Монголии генерал-лейтенантом Сунрэвом Ганбямбой. Российская сторона высоко оценила точность выполнения апрельских соглашений. Генерал-лейтенант Сунрэв Ганбямба заверил, что Генеральный штаб Монголии берет реализацию нового пятилетнего плана под личный контроль.\n🔹 Минобороны России","links":["https://max.ru/morf"],"original_html":"<i class=\"emoji\" style=\"background-image:url('//telegram.org/img/emoji/40/F09F87B7F09F87BA.png')\"><b>🇷🇺</b></i> <i class=\"emoji\" style=\"background-image:url('//telegram.org/img/emoji/40/F09F87B2F09F87B3.png')\"><b>🇲🇳</b></i> <b> Военный союз крепнет: замминистра обороны РФ Василий Осьмаков провел серию переговоров с руководством оборонного ведомства Монголии. </b><br/><br/><tg-emoji emoji-id=\"5449382637477063656\"><i class=\"emoji\" style=\"background-image:url('//telegram.org/img/emoji/40/F09F9391.png')\"><b>📑</b></i></tg-emoji>  <b><i>Работаем на долгосрок</i></b><br/><br/>Итогом встречи Василия Осьмакова с его монгольским коллегой, генерал-майором Дашцэдэнгийном Баасандамбой, стало подписание фундаментального документа – Плана российско-монгольского стратегического партнерства в военной сфере на 2027–2031 года. <br/><br/><tg-emoji emoji-id=\"5447324252925620983\"><i class=\"emoji\" style=\"background-image:url('//telegram.org/img/emoji/40/F09FA49D.png')\"><b>🤝</b></i></tg-emoji>  <b><i>Устойчивое взаимодействие на всех уровнях</i></b><br/><br/>Вектор на углубление связей был закреплен на встрече Василия Осьмакова с министром обороны Монголии Дамбыном Батлутом. На сегодняшний день между странами выстроен прочный рабочий контакт: эффективно взаимодействуют генеральные штабы, приграничные военные округа, различные виды вооруженных сил и профильные военные вузы. <br/><br/> <i class=\"emoji\" style=\"background-image:url('//telegram.org/img/emoji/40/F09FA7AD.png')\"><b>🧭</b></i> <b><i>Сверили карты, закрепили курс</i></b><br/><br/>Кроме того, Василий Осьмаков провел переговоры с начальником Генерального штаба ВС Монголии генерал-лейтенантом Сунрэвом Ганбямбой. Российская сторона высоко оценила точность выполнения апрельских соглашений. Генерал-лейтенант Сунрэв Ганбямба заверил, что Генеральный штаб Монголии берет реализацию нового пятилетнего плана под личный контроль.<br/><br/><tg-emoji emoji-id=\"5269510734265483362\"><i class=\"emoji\" style=\"background-image:url('//telegram.org/img/emoji/40/F09F94B9.png')\"><b>🔹</b></i></tg-emoji> <a href=\"https://max.ru/morf\" target=\"_blank\" rel=\"noopener\" onclick=\"return confirm('Open this link?\\n\\n'+this.href);\">Минобороны России</a>"}},{"type":"Feature","geometry":null,"properties":{"source":"ru_mod","source_name":"Ministry of Defence of Russia","group":"official_ru","id":67710,"posted_utc":"2026-09-28T12:10:58+00:00","link":"https://t.me/mod_russia/67710","text":"▫️ Обнаружил – поразил: разведгруппы приступили к практическим действиям в ходе учений «Поиск-2026»\n📍 полигон Чебаркульский\n💥 Разведывательные группы уже вышли в назначенные районы для поиска условного противника. Для поражения «противника» бойцы используют разведывательные и ударные FPV-дроны, а также корректируют огонь артиллерии и авиации.\n➡️ Одновременно органы управления разведкой собирают, анализируют и обобщают добытую информацию и доводят ее до Командования КСОР. Это позволяет реализовать принцип «обнаружил – поразил».\nЦель учения – ведение различных видов разведки в интересах применения КСОР ОДКБ, совершенствование практических навыков органов управления и личного состава разведывательных подразделений.\n#ученияОДКБ\n🔹 Курс на MAКС!","links":["https://max.ru/morf"],"original_html":"<tg-emoji emoji-id=\"5352532894478793783\"><i class=\"emoji\" style=\"background-image:url('//telegram.org/img/emoji/40/E296AB.png')\"><b>▫️</b></i></tg-emoji> <b>Обнаружил – поразил: разведгруппы приступили к практическим действиям в ходе учений «Поиск-2026»<br/>&nbsp;</b><br/><tg-emoji emoji-id=\"5469680584198483528\"><i class=\"emoji\" style=\"background-image:url('//telegram.org/img/emoji/40/F09F938D.png')\"><b>📍</b></i></tg-emoji> <i>полигон Чебаркульский</i><br/><br/><tg-emoji emoji-id=\"5449682610877918293\"><i class=\"emoji\" style=\"background-image:url('//telegram.org/img/emoji/40/F09F92A5.png')\"><b>💥</b></i></tg-emoji> Разведывательные группы уже вышли в назначенные районы для поиска условного противника. Для поражения «противника» бойцы используют разведывательные и ударные FPV-дроны, а также корректируют огонь артиллерии и авиации. <br/><br/><tg-emoji emoji-id=\"5469902676957357453\"><i class=\"emoji\" style=\"background-image:url('//telegram.org/img/emoji/40/E29EA1.png')\"><b>➡️</b></i></tg-emoji> Одновременно органы управления разведкой собирают, анализируют и обобщают добытую информацию и доводят ее до Командования КСОР. Это позволяет реализовать принцип «обнаружил – поразил».<br/><br/><i>Цель учения – ведение различных видов разведки в интересах применения КСОР ОДКБ, совершенствование практических навыков органов управления и личного состава разведывательных подразделений.</i><br/><br/><a href=\"?q=%23%D1%83%D1%87%D0%B5%D0%BD%D0%B8%D1%8F%D0%9E%D0%94%D0%9A%D0%91\">#ученияОДКБ</a><br/><tg-emoji emoji-id=\"5269510734265483362\"><i class=\"emoji\" style=\"background-image:url('//telegram.org/img/emoji/40/F09F94B9.png')\"><b>🔹</b></i></tg-emoji> <a href=\"https://max.ru/morf\" target=\"_blank\" rel=\"noopener\" onclick=\"return confirm('Open this link?\\n\\n'+this.href);\">Курс на MAКС&#33;</a>"}},{"type":"Feature","geometry":null,"properties":{"source":"ru_mod","source_name":"Ministry of Defence of Russia","group":"official_ru","id":67713,"posted_utc":"2026-09-28T12:57:04+00:00","link":"https://t.me/mod_russia/67713","text":"«Держите голову в холоде»\nПарни, не совершайте глупостей и не ломайте себе жизнь.\nОчередной случай общения с «девушкой» на сайте знакомств привел 16-летнего подростка к поджогу на автозаправочной станции. Столичная полиция установила все обстоятельства произошедшего.\nПо предварительным данным, молодой человек с помощью легковоспламеняющейся жидкости совершил поджог одной из топливораздаточных колонок на АЗС, расположенной на МКАД, после чего скрылся. Возгорание было оперативно ликвидировано. В результате инцидента никто не пострадал.\nВ течение нескольких часов подозреваемого задержали оперативники столичной полиции. По словам подростка, он действовал под руководством неизвестных лиц, которые запугали его и вынудили совершить противоправное деяние.\nВ настоящее время следователем возбуждено уголовное дело по признакам преступления, предусмотренного частью 2 статьи 167 УК РФ. В отношении подозреваемого избрана мера пресечения в виде подписки о невыезде и надлежащем поведении.\nОБРАТИТЕ ВНИМАНИЕ\n☝️  Этот случай – еще одно напоминание о том, что вербовщики действуют исключительно чужими руками, а сами остаются в тени. Не молчите, если вам поступают подобные указания или угрозы: расскажите близким и обратитесь в полицию.\n⚠️  Не поддавайтесь на провокации и не выполняйте указания вербовщиков. Статья 31 УК РФ предусматривает, что добровольный отказ от совершения преступления освобождает от ответственности.\n🌐  Подробнее – на сайте специального проекта «Выход31».\n#РаботаетПолиция #НеИдиНаПоводу #Выход31\nВидео – «МВД России»","links":["https://xn--31-dlci3c0b2b.xn--p1ai/","https://max.ru/mvd"],"original_html":"«<b>Держите голову в холоде»</b><br/><br/><b>Парни, не совершайте глупостей и не ломайте себе жизнь.</b><br/><br/>Очередной случай общения с «девушкой» на сайте знакомств привел 16-летнего подростка <b>к поджогу на автозаправочной станции. </b>Столичная полиция установила все обстоятельства произошедшего.<br/><blockquote>По предварительным данным, молодой человек с помощью легковоспламеняющейся жидкости совершил поджог одной из топливораздаточных колонок на АЗС, расположенной на МКАД, после чего скрылся. Возгорание было оперативно ликвидировано. В результате инцидента никто не пострадал. </blockquote><br/><br/>В течение нескольких часов подозреваемого задержали оперативники столичной полиции. По словам подростка, он действовал под руководством <b>неизвестных лиц, которые запугали его и вынудили совершить противоправное деяние</b>.<br/><br/>В настоящее время следователем возбуждено уголовное дело по признакам преступления, предусмотренного частью 2 статьи 167 УК РФ. В отношении подозреваемого избрана мера пресечения в виде подписки о невыезде и надлежащем поведении.<br/><br/><b>ОБРАТИТЕ ВНИМАНИЕ</b><br/><br/><i class=\"emoji\" style=\"background-image:url('//telegram.org/img/emoji/40/E2989D.png')\"><b>☝️</b></i> <b><i> Этот случай – еще одно напоминание о том, что вербовщики действуют исключительно чужими руками, а сами остаются в тени. Не молчите, если вам поступают подобные указания или угрозы: расскажите близким и обратитесь в полицию.</i></b><br/><blockquote><i class=\"emoji\" style=\"background-image:url('//telegram.org/img/emoji/40/E29AA0.png')\"><b>⚠️</b></i> <b><i> Не поддавайтесь на провокации и не выполняйте указания вербовщиков. Статья 31 УК РФ предусматривает, что добровольный отказ от совершения преступления освобождает от ответственности. </i></b> </blockquote><br/><br/><i class=\"emoji\" style=\"background-image:url('//telegram.org/img/emoji/40/F09F8C90.png')\"><b>🌐</b></i> <b><i> Подробнее – </i></b><a href=\"https://xn--31-dlci3c0b2b.xn--p1ai/\" target=\"_blank\" rel=\"noopener\" onclick=\"return confirm('Open this link?\\n\\n'+this.href);\"><b><i><u>на сайте специального проекта «Выход31».</u></i></b></a><br/><br/><a href=\"?q=%23%D0%A0%D0%B0%D0%B1%D0%BE%D1%82%D0%B0%D0%B5%D1%82%D0%9F%D0%BE%D0%BB%D0%B8%D1%86%D0%B8%D1%8F\">#РаботаетПолиция</a> <a href=\"?q=%23%D0%9D%D0%B5%D0%98%D0%B4%D0%B8%D0%9D%D0%B0%D0%9F%D0%BE%D0%B2%D0%BE%D0%B4%D1%83\">#НеИдиНаПоводу</a> <a href=\"?q=%23%D0%92%D1%8B%D1%85%D0%BE%D0%B431\">#Выход31</a><br/><br/><b>Видео – </b><a href=\"https://max.ru/mvd\" target=\"_blank\" rel=\"noopener\" onclick=\"return confirm('Open this link?\\n\\n'+this.href);\"><b><u>«МВД России»</u></b></a>"}},{"type":"Feature","geometry":null,"properties":{"source":"ru_mod","source_name":"Ministry of Defence of Russia","group":"official_ru","id":67714,"posted_utc":"2026-09-28T13:26:09+00:00","link":"https://t.me/mod_russia/67714","text":"▫️ После нас маршрут безопасен: инженерные подразделения группировки «Восток» круглосуточно разминируют освобождённые территории.\n💬 Сапёры рассказали, как они обеспечивают безопасность на маршрутах продвижения наших войск.\n🔹 Курс на MAКС!","links":["https://max.ru/morf"],"original_html":"<tg-emoji emoji-id=\"5249179106410525413\"><i class=\"emoji\" style=\"background-image:url('//telegram.org/img/emoji/40/E296AB.png')\"><b>▫️</b></i></tg-emoji><b> После нас маршрут безопасен: </b>инженерные подразделения группировки «Восток» круглосуточно<b> разминируют освобождённые территории.</b><br/><br/><tg-emoji emoji-id=\"5447486370761176298\"><i class=\"emoji\" style=\"background-image:url('//telegram.org/img/emoji/40/F09F92AC.png')\"><b>💬</b></i></tg-emoji> Сапёры рассказали, как они обеспечивают безопасность на маршрутах продвижения наших войск.<br/><br/><tg-emoji emoji-id=\"5269510734265483362\"><i class=\"emoji\" style=\"background-image:url('//telegram.org/img/emoji/40/F09F94B9.png')\"><b>🔹</b></i></tg-emoji> <a href=\"https://max.ru/morf\" target=\"_blank\" rel=\"noopener\" onclick=\"return confirm('Open this link?\\n\\n'+this.href);\">Курс на MAКС&#33;</a>"}},{"type":"Feature","geometry":null,"properties":{"source":"ru_mod","source_name":"Ministry of Defence of Russia","group":"official_ru","id":67715,"posted_utc":"2026-09-28T15:13:47+00:00","link":"https://t.me/mod_russia/67715","text":"За выдающиеся заслуги в боях по защите Родины\n🤝 Поздравляем десантников-артиллеристов с заслуженной наградой – орденом Суворова.\n💬 Заместитель командующего ВДВ по вооружению генерал-майор Ханиф Беглов вручил орден Суворова гвардейскому артиллерийскому полку. Замкомандующего поздравил личный состав с высокой государственной наградой:\n«Сегодня военнослужащие полка успешно ведут боевые действия в зоне проведения специальной военной операции. Огнем и сталью, шаг за шагом продвигая линию фронта вперед, приближая нашу общую победу. Пройдут годы, сменятся поколения гвардейцев-десантников, но орден Суворова на Георгиевском знамени будет свидетельством мужества и героизма всего коллектива полка».\n▫️ Работайте дальше, братья, как вы это умеете!\n🔹 Канал Минобороны России в MAКС – только для своих!","links":["https://max.ru/morf"],"original_html":"<b>За выдающиеся заслуги в боях по защите Родины</b><br/><br/><tg-emoji emoji-id=\"5447324252925620983\"><i class=\"emoji\" style=\"background-image:url('//telegram.org/img/emoji/40/F09FA49D.png')\"><b>🤝</b></i></tg-emoji> Поздравляем десантников-артиллеристов с заслуженной наградой – орденом Суворова.<br/><br/><tg-emoji emoji-id=\"5447486370761176298\"><i class=\"emoji\" style=\"background-image:url('//telegram.org/img/emoji/40/F09F92AC.png')\"><b>💬</b></i></tg-emoji> Заместитель командующего ВДВ по вооружению генерал-майор Ханиф Беглов вручил орден Суворова гвардейскому артиллерийскому полку. Замкомандующего поздравил личный состав с высокой государственной наградой:<br/><br/><blockquote>«Сегодня военнослужащие полка успешно ведут боевые действия в зоне проведения специальной военной операции. <b>Огнем и сталью, шаг за шагом продвигая линию фронта вперед, приближая нашу общую победу. </b>Пройдут годы, сменятся поколения гвардейцев-десантников, но орден Суворова на Георгиевском знамени будет свидетельством мужества и героизма всего коллектива полка».</blockquote><br/><br/><tg-emoji emoji-id=\"5447420966999193906\"><i class=\"emoji\" style=\"background-image:url('//telegram.org/img/emoji/40/E296AB.png')\"><b>▫️</b></i></tg-emoji> Работайте дальше, братья, как вы это умеете&#33;<br/><br/><tg-emoji emoji-id=\"5269510734265483362\"><i class=\"emoji\" style=\"background-image:url('//telegram.org/img/emoji/40/F09F94B9.png')\"><b>🔹</b></i></tg-emoji> <a href=\"https://max.ru/morf\" target=\"_blank\" rel=\"noopener\" onclick=\"return confirm('Open this link?\\n\\n'+this.href);\">Канал Минобороны России в MAКС – только для своих&#33;</a>"}},{"type":"Feature","geometry":null,"properties":{"source":"ru_mod","source_name":"Ministry of Defence of Russia","group":"official_ru","id":67716,"posted_utc":"2026-09-28T15:19:39+00:00","link":"https://t.me/mod_russia/67716","text":"❗️ Вооруженные Силы Российской Федерации продолжают наносить удары по коммуникационным и логистическим центрам, а также морским судам, задействованным в интересах ВСУ.\n💥  Сегодня днем в результате ударов беспилотными летательными аппаратами в городе Киеве на улице Антоновича поражен центр обработки данных компании «Укр Телеком», являющейся одной из основных компаний, предоставляющих услуги высокоскоростного интернета для ВСУ, а также хранения большого объема баз данных.\n💥  Кроме того, при переходе морем поражены два морских судна типа «сухогруз», доставлявшие грузы военного назначения в порт Одесса.\n🔹 Минобороны России","links":["https://max.ru/morf"],"original_html":"<tg-emoji emoji-id=\"5447116342148753425\"><i class=\"emoji\" style=\"background-image:url('//telegram.org/img/emoji/40/E29D97.png')\"><b>❗️</b></i></tg-emoji> <b>Вооруженные Силы Российской Федерации продолжают наносить удары по коммуникационным и логистическим центрам, а также морским судам, задействованным в интересах ВСУ.</b><br/><br/><tg-emoji emoji-id=\"5449682610877918293\"><i class=\"emoji\" style=\"background-image:url('//telegram.org/img/emoji/40/F09F92A5.png')\"><b>💥</b></i></tg-emoji>  Сегодня днем в результате ударов беспилотными летательными аппаратами в <b>городе Киеве</b> на улице Антоновича поражен <b>центр обработки данных компании «Укр Телеком»</b>, являющейся одной из основных компаний, предоставляющих услуги высокоскоростного интернета для ВСУ, а также хранения большого объема баз данных.<br/><br/><tg-emoji emoji-id=\"5449682610877918293\"><i class=\"emoji\" style=\"background-image:url('//telegram.org/img/emoji/40/F09F92A5.png')\"><b>💥</b></i></tg-emoji>  Кроме того, <b>при переходе морем </b>поражены <b>два морских судна типа «сухогруз»</b>, доставлявшие грузы военного назначения в порт Одесса.<br/><br/><tg-emoji emoji-id=\"5269510734265483362\"><i class=\"emoji\" style=\"background-image:url('//telegram.org/img/emoji/40/F09F94B9.png')\"><b>🔹</b></i></tg-emoji> <a href=\"https://max.ru/morf\" target=\"_blank\" rel=\"noopener\" onclick=\"return confirm('Open this link?\\n\\n'+this.href);\">Минобороны России</a>"}},{"type":"Feature","geometry":null,"properties":{"source":"ru_mod","source_name":"Ministry of Defence of Russia","group":"official_ru","id":67717,"posted_utc":"2026-09-28T16:26:22+00:00","link":"https://t.me/mod_russia/67717","text":"💥 Артиллеристы пробивают путь штурмовикам\nРасчёт САУ «Мста-С» группировки «Центр» уничтожил опорный пункт ВСУ, обеспечив стремительное продвижение наших штурмовых подразделений.\n📍 Добропольское направление\n🔹 Канал Минобороны России в MAКС – боевая работа 24/7","links":["https://max.ru/morf"],"original_html":"<tg-emoji emoji-id=\"5449682610877918293\"><i class=\"emoji\" style=\"background-image:url('//telegram.org/img/emoji/40/F09F92A5.png')\"><b>💥</b></i></tg-emoji> <b>Артиллеристы пробивают путь штурмовикам<br/></b><br/>Расчёт САУ «Мста-С» группировки «Центр» <b>уничтожил опорный пункт ВСУ</b>, обеспечив стремительное продвижение наших штурмовых подразделений.<br/><br/><tg-emoji emoji-id=\"5469680584198483528\"><i class=\"emoji\" style=\"background-image:url('//telegram.org/img/emoji/40/F09F938D.png')\"><b>📍</b></i></tg-emoji> <i>Добропольское направление<br/></i><br/><tg-emoji emoji-id=\"5269510734265483362\"><i class=\"emoji\" style=\"background-image:url('//telegram.org/img/emoji/40/F09F94B9.png')\"><b>🔹</b></i></tg-emoji> <a href=\"https://max.ru/morf\" target=\"_blank\" rel=\"noopener\" onclick=\"return confirm('Open this link?\\n\\n'+this.href);\">Канал Минобороны России в MAКС – боевая работа 24/7</a>"}},{"type":"Feature","geometry":null,"properties":{"source":"ru_mod","source_name":"Ministry of Defence of Russia","group":"official_ru","id":67718,"posted_utc":"2026-09-28T17:09:58+00:00","link":"https://t.me/mod_russia/67718","text":"📑  Президент РФ Владимир Путин подписал Указ «Об установлении штатной численности Вооруженных Сил Российской Федерации».\n🔹 Минобороны России","links":["https://publication.pravo.gov.ru/document/0001202609280040","https://max.ru/morf"],"original_html":"<i class=\"emoji\" style=\"background-image:url('//telegram.org/img/emoji/40/F09F9391.png')\"><b>📑</b></i>  Президент РФ Владимир Путин подписал <a href=\"https://publication.pravo.gov.ru/document/0001202609280040\" target=\"_blank\" rel=\"noopener\" onclick=\"return confirm('Open this link?\\n\\n'+this.href);\"><u>Указ</u></a> «Об установлении штатной численности Вооруженных Сил Российской Федерации».<br/><br/><tg-emoji emoji-id=\"5269510734265483362\"><i class=\"emoji\" style=\"background-image:url('//telegram.org/img/emoji/40/F09F94B9.png')\"><b>🔹</b></i></tg-emoji> <a href=\"https://max.ru/morf\" target=\"_blank\" rel=\"noopener\" onclick=\"return confirm('Open this link?\\n\\n'+this.href);\">Минобороны России</a>"}},{"type":"Feature","geometry":null,"properties":{"source":"ru_mod","source_name":"Ministry of Defence of Russia","group":"official_ru","id":67719,"posted_utc":"2026-09-28T17:11:54+00:00","link":"https://t.me/mod_russia/67719","text":"▫️ В полку гвардейцев прибыло, поздравляем!\n«Гвардейскими» стали 92-я отдельная радиотехническая бригада (особого назначения) и 318-й отдельный радиотехнический полк (особого назначения).\nСоответствующие Указы подписал Президент Российской Федерации Владимир Путин.\n🔹 MAКС – территория СВОих","links":["https://publication.pravo.gov.ru/document/0001202609280018","https://publication.pravo.gov.ru/document/0001202609280017","https://max.ru/morf"],"original_html":"<b><tg-emoji emoji-id=\"5381867138858368918\"><i class=\"emoji\" style=\"background-image:url('//telegram.org/img/emoji/40/E296AB.png')\"><b>▫️</b></i></tg-emoji></b><b> В полку гвардейцев прибыло, поздравляем&#33;</b><br/><br/>«Гвардейскими» стали <a href=\"https://publication.pravo.gov.ru/document/0001202609280018\" target=\"_blank\" rel=\"noopener\" onclick=\"return confirm('Open this link?\\n\\n'+this.href);\"><u>92-я отдельная радиотехническая бригада (особого назначения)</u></a> и <a href=\"https://publication.pravo.gov.ru/document/0001202609280017\" target=\"_blank\" rel=\"noopener\" onclick=\"return confirm('Open this link?\\n\\n'+this.href);\"><u>318-й отдельный радиотехнический полк (особого назначения)</u></a>.<br/><br/><i>Соответствующие Указы подписал Президент Российской Федерации Владимир Путин.<br/><br/></i><i><tg-emoji emoji-id=\"5269510734265483362\"><i class=\"emoji\" style=\"background-image:url('//telegram.org/img/emoji/40/F09F94B9.png')\"><b>🔹</b></i></tg-emoji></i><i> </i><a href=\"https://max.ru/morf\" target=\"_blank\" rel=\"noopener\" onclick=\"return confirm('Open this link?\\n\\n'+this.href);\">MAКС – территория СВОих</a>"}},{"type":"Feature","geometry":null,"properties":{"source":"ru_mod","source_name":"Ministry of Defence of Russia","group":"official_ru","id":67721,"posted_utc":"2026-09-28T17:47:13+00:00","link":"https://t.me/mod_russia/67721","text":"⚡ В течение дня в период с 8.00 мск до 20.00 мск дежурными силами ПВО перехвачены и уничтожены 14 украинских беспилотных летательных аппаратов самолетного типа над территориями Белгородской, Брянской, Воронежской, Курской, Орловской областей, Республики Крым и над акваторией Черного моря.\n🔹 Курс на MAКС!","links":["https://max.ru/morf"],"original_html":"<i class=\"emoji\" style=\"background-image:url('//telegram.org/img/emoji/40/E29AA1.png')\"><b>⚡</b></i> В течение дня в период с 8.00 мск до 20.00 мск дежурными силами ПВО <b>перехвачены и уничтожены 14 украинских беспилотных летательных аппаратов самолетного типа </b>над территориями Белгородской, Брянской, Воронежской, Курской, Орловской областей, Республики Крым и над акваторией Черного моря.<br/><br/><tg-emoji emoji-id=\"5269510734265483362\"><i class=\"emoji\" style=\"background-image:url('//telegram.org/img/emoji/40/F09F94B9.png')\"><b>🔹</b></i></tg-emoji> <a href=\"https://max.ru/morf\" target=\"_blank\" rel=\"noopener\" onclick=\"return confirm('Open this link?\\n\\n'+this.href);\">Курс на MAКС&#33;</a>"}},{"type":"Feature","geometry":null,"properties":{"source":"ru_mod","source_name":"Ministry of Defence of Russia","group":"official_ru","id":67722,"posted_utc":"2026-09-28T18:05:50+00:00","link":"https://t.me/mod_russia/67722","text":"На пути к Победе!\n#СобытиеДня\n✈️ Курс на MAКС!","links":["https://max.ru/morf"],"original_html":"<b>На пути к Победе&#33;</b><br/><br/><a href=\"?q=%23%D0%A1%D0%BE%D0%B1%D1%8B%D1%82%D0%B8%D0%B5%D0%94%D0%BD%D1%8F\">#СобытиеДня</a><br/><tg-emoji emoji-id=\"5449403034276751727\"><i class=\"emoji\" style=\"background-image:url('//telegram.org/img/emoji/40/E29C88.png')\"><b>✈️</b></i></tg-emoji> <a href=\"https://max.ru/morf\" target=\"_blank\" rel=\"noopener\" onclick=\"return confirm('Open this link?\\n\\n'+this.href);\">Курс на MAКС&#33;</a>"}}]}