{"type":"FeatureCollection","features":[{"type":"Feature","geometry":{"type":"Point","coordinates":[37.060316,48.122985]},"properties":{"original":{"id":46506,"type":"Towed artillery","model":"152mm 2A65 'Msta-B' howitzer","status":"Destroyed","lost_by":"Russia","date":"2026-08-16","nearest_location":"Novoielyzavetivka, Pokrovsk raion","geo":"48.122985,37.060316","unit":null,"tags":null},"source":"warspotting","source_name":"WarSpotting","source_url":"https://ukr.warspotting.net/","id":46506,"date":"2026-08-16","link":"https://ukr.warspotting.net/view/46506/","category":"Towed artillery","side":"Lost by Russia","color":"#E00000","description":"152mm 2A65 'Msta-B' howitzer · Destroyed · near Novoielyzavetivka, Pokrovsk raion","orbat":[]}},{"type":"Feature","geometry":{"type":"Point","coordinates":[37.450828,48.139018]},"properties":{"original":{"id":46507,"type":"Transport","model":"'Ulan-2' all-terrain vehicle","status":"Destroyed","lost_by":"Russia","date":"2026-08-16","nearest_location":"Kalynove, Pokrovsk raion","geo":"48.139018,37.450828","unit":null,"tags":"Jammer"},"source":"warspotting","source_name":"WarSpotting","source_url":"https://ukr.warspotting.net/","id":46507,"date":"2026-08-16","link":"https://ukr.warspotting.net/view/46507/","category":"Transport","side":"Lost by Russia","color":"#E00000","description":"'Ulan-2' all-terrain vehicle · Destroyed · near Kalynove, Pokrovsk raion · tags: Jammer","orbat":[]}},{"type":"Feature","geometry":{"type":"Point","coordinates":[35.32446,51.137509]},"properties":{"original":{"id":46511,"type":"Transport","model":"Ural-4320","status":"Destroyed","lost_by":"Russia","date":"2026-08-16","nearest_location":"Cherkasskaya Konopelka, Sudzha raion","geo":"51.137509,35.324460","unit":null,"tags":"Cope cage, Additional armour"},"source":"warspotting","source_name":"WarSpotting","source_url":"https://ukr.warspotting.net/","id":46511,"date":"2026-08-16","link":"https://ukr.warspotting.net/view/46511/","category":"Transport","side":"Lost by Russia","color":"#E00000","description":"Ural-4320 · Destroyed · near Cherkasskaya Konopelka, Sudzha raion · tags: Cope cage, Additional armour","orbat":[]}}]}