{"type":"FeatureCollection","features":[{"type":"Feature","geometry":{"type":"Polygon","coordinates":[[[37.24422,48.4376],[37.24719,48.43794],[37.2504,48.44246],[37.24914,48.45077],[37.24953,48.45282],[37.25255,48.45288],[37.27126,48.46059],[37.27673,48.46738],[37.2947,48.4683],[37.30967,48.46928],[37.30623,48.46528],[37.29609,48.46222],[37.28907,48.46316],[37.28139,48.45271],[37.27798,48.44921],[37.27003,48.44697],[37.25924,48.44277],[37.25379,48.43855],[37.24222,48.43335],[37.24422,48.4376]]]},"properties":{"source":"ukrdaily","source_name":"UkrDailyUpdate","source_url":"https://map.ukrdailyupdate.com/","category":"gained","category_label":"Newly Russian-occupied","period":"1d","compared_with":"2026-08-04","snapshot_time":"2026-08-05","area_km2_approx":5.4}}]}