{"type":"FeatureCollection","features":[{"type":"Feature","geometry":null,"properties":{"source":"ua_mod","source_name":"Ministry of Defence of Ukraine","group":"official_ua","id":16034,"posted_utc":"2026-08-16T10:01:05+00:00","link":"https://t.me/ministry_of_defense_ua/16034","text":"❗️Євгеній Хмара:\nРазом із заступницею Міністра оборони Любов’ю Галан відвідали військові медичні заклади, де проходять лікування та реабілітацію українські захисники.\nВажливо було особисто почути воїнів. Поговорили з військовими, які проходять лікування і відновлення. Зібрали проблемні питання, що потребують рішень Міністерства. Також поспілкувалися з медичним персоналом і керівництвом закладів.\nЦілі Міністерства чіткі: маємо робити все, щоб берегти життя воїнів на фронті, забезпечувати якісну медичну допомогу у разі поранення, створювати умови для повернення військових до служби після лікування та реабілітації.\nЖиття та здоров’я воїнів мають бути пріоритетом для кожного командира. Питання медичної підготовки, вчасної евакуації та супроводу поранених у військових частинах будемо тримати на постійному контролі.\nОкремий фокус — оновлення інфраструктури військових медичних закладів та підтримка медичних фахівців. Розглянемо усі можливі шляхи спрямування додаткових ресурсів. Будемо активніше залучати допомогу міжнародних партнерів для цього. Медичне забезпечення наших захисників потребує сучасних умов і вмотивованого та навченого персоналу.\nДякую лікарям, медичним працівникам, всім, хто щодня повертає нашим захисникам здоров’я і сили.","links":[],"original_html":"<div class=\"tgme_widget_message_text js-message_text\" dir=\"auto\"><i class=\"emoji\" style=\"background-image:url('//telegram.org/img/emoji/40/E29D97.png')\"><b>❗️</b></i><b>Євгеній Хмара:</b><br/><b><br/></b>Разом із заступницею Міністра оборони Любов’ю Галан відвідали військові медичні заклади, де проходять лікування та реабілітацію українські захисники.<br/><br/>Важливо було особисто почути воїнів. Поговорили з військовими, які проходять лікування і відновлення. Зібрали проблемні питання, що потребують рішень Міністерства. Також поспілкувалися з медичним персоналом і керівництвом закладів. <br/><br/>Цілі Міністерства чіткі: маємо робити все, щоб берегти життя воїнів на фронті, забезпечувати якісну медичну допомогу у разі поранення, створювати умови для повернення військових до служби після лікування та реабілітації.<br/><br/>Життя та здоров’я воїнів мають бути пріоритетом для кожного командира. Питання медичної підготовки, вчасної евакуації та супроводу поранених у військових частинах будемо тримати на постійному контролі.<br/><br/>Окремий фокус — оновлення інфраструктури військових медичних закладів та підтримка медичних фахівців. Розглянемо усі можливі шляхи спрямування додаткових ресурсів. Будемо активніше залучати допомогу міжнародних партнерів для цього. Медичне забезпечення наших захисників потребує сучасних умов і вмотивованого та навченого персоналу.<br/><br/>Дякую лікарям, медичним працівникам, всім, хто щодня повертає нашим захисникам здоров’я і сили."}},{"type":"Feature","geometry":null,"properties":{"source":"ua_mod","source_name":"Ministry of Defence of Ukraine","group":"official_ua","id":16040,"posted_utc":"2026-08-16T10:41:35+00:00","link":"https://t.me/ministry_of_defense_ua/16040","text":"🔥 Україна вивела з ладу 7 із 10 найбільших логістичних центрів Wildberries.\nУ ніч на неділю після масштабної атаки безпілотників на Підмосков’я разом зі складом в Домодєдово також припинив роботу логістичний вузол компанії в індустріальному парку «Коледіно». Це був найбільший за площею склад Wildberries – 250 тисяч м².\nРосійська логістика гостро відчуває наслідки війни, яку рф принесла в Україну.","links":[],"original_html":"<i class=\"emoji\" style=\"background-image:url('//telegram.org/img/emoji/40/F09F94A5.png')\"><b>🔥</b></i> <b>Україна вивела з ладу 7 із 10 найбільших логістичних центрів Wildberries.</b><br/><br/>У ніч на неділю після масштабної атаки безпілотників на Підмосков’я разом зі складом в Домодєдово також припинив роботу логістичний вузол компанії в індустріальному парку «Коледіно». Це був найбільший за площею склад Wildberries – 250 тисяч м².<br/><br/>Російська логістика гостро відчуває наслідки війни, яку рф принесла в Україну."}}]}