{"type":"FeatureCollection","features":[{"type":"Feature","geometry":{"type":"MultiPolygon","coordinates":[[[[37.90042,48.77406],[37.91345,48.78343],[37.92267,48.78527],[37.92041,48.79508],[37.92941,48.79792],[37.93738,48.79601],[37.94044,48.79842],[37.93561,48.80185],[37.92891,48.81154],[37.92994,48.81732],[37.93166,48.81278],[37.94025,48.81327],[37.94236,48.81105],[37.94903,48.80984],[37.95352,48.80023],[37.95676,48.79745],[37.95105,48.7814],[37.93022,48.77464],[37.92135,48.76929],[37.89956,48.77134],[37.89171,48.77778],[37.89183,48.77796],[37.90042,48.77406]]],[[[37.89484,48.86269],[37.89205,48.86483],[37.90241,48.86573],[37.90779,48.87007],[37.89871,48.87537],[37.90121,48.87802],[37.90646,48.87774],[37.91037,48.87969],[37.91635,48.87961],[37.92534,48.88456],[37.92553,48.88429],[37.91494,48.87565],[37.91655,48.87193],[37.91012,48.86597],[37.90838,48.86255],[37.89484,48.86269]]],[[[37.85104,48.76079],[37.86489,48.76165],[37.88436,48.76645],[37.88728,48.76974],[37.88083,48.77925],[37.89466,48.77177],[37.89041,48.76137],[37.87998,48.75773],[37.86912,48.7594],[37.86359,48.75909],[37.85854,48.75655],[37.85156,48.75819],[37.84093,48.76383],[37.84107,48.76416],[37.85104,48.76079]]],[[[37.80865,48.71044],[37.80747,48.71517],[37.79867,48.71989],[37.79846,48.72189],[37.81589,48.72193],[37.80975,48.73286],[37.81715,48.73709],[37.80814,48.74032],[37.81095,48.74373],[37.82033,48.74055],[37.82707,48.74687],[37.83181,48.74572],[37.8347,48.75206],[37.83833,48.75064],[37.84873,48.75044],[37.85453,48.75142],[37.85896,48.75398],[37.86272,48.75225],[37.851,48.74796],[37.84752,48.7453],[37.85106,48.74243],[37.86147,48.73956],[37.87696,48.74084],[37.881,48.73309],[37.87896,48.72989],[37.87022,48.72606],[37.84788,48.73437],[37.84337,48.73125],[37.8205,48.73975],[37.82147,48.73779],[37.83119,48.73412],[37.83344,48.73133],[37.83063,48.72826],[37.83046,48.72356],[37.83535,48.7215],[37.8393,48.71773],[37.85157,48.71118],[37.8589,48.7056],[37.85225,48.70082],[37.84416,48.70445],[37.83395,48.7064],[37.82516,48.70542],[37.81542,48.70932],[37.81928,48.71842],[37.81712,48.71914],[37.81037,48.70897],[37.80537,48.70202],[37.80514,48.70215],[37.80865,48.71044]]],[[[37.79597,48.54703],[37.79565,48.56424],[37.81298,48.56464],[37.81391,48.56694],[37.81937,48.57173],[37.81583,48.5755],[37.81963,48.58246],[37.81441,48.58816],[37.81814,48.59059],[37.82111,48.58816],[37.82066,48.58473],[37.82467,48.58157],[37.83228,48.58076],[37.8344,48.57829],[37.83773,48.57814],[37.8364,48.57545],[37.83307,48.57266],[37.8342,48.56839],[37.83616,48.56636],[37.82884,48.56166],[37.83615,48.55242],[37.82243,48.54611],[37.79442,48.53862],[37.77055,48.54354],[37.77056,48.54364],[37.79597,48.54703]]],[[[37.79071,48.64597],[37.78724,48.65643],[37.80027,48.66385],[37.81171,48.66552],[37.81649,48.663],[37.79797,48.65768],[37.80067,48.64387],[37.78467,48.63351],[37.79071,48.64597]]],[[[37.75174,49.6544],[37.72858,49.65144],[37.72506,49.64215],[37.70832,49.64209],[37.70798,49.64874],[37.71674,49.654],[37.71726,49.65637],[37.71375,49.65868],[37.7123,49.66544],[37.73985,49.66835],[37.76741,49.66715],[37.77781,49.67318],[37.77274,49.65771],[37.76997,49.65728],[37.77011,49.65429],[37.77732,49.65176],[37.77726,49.6515],[37.75174,49.6544]]],[[[37.7286,48.49526],[37.74068,48.49541],[37.74654,48.48638],[37.76195,48.48311],[37.74852,48.47794],[37.74268,48.48121],[37.72649,48.47945],[37.71615,48.48442],[37.7286,48.49526]]],[[[37.63337,48.47508],[37.62216,48.48564],[37.61511,48.49355],[37.62035,48.49756],[37.62842,48.50675],[37.64252,48.50773],[37.64657,48.5002],[37.66469,48.50368],[37.65949,48.49519],[37.66168,48.48979],[37.65314,48.48912],[37.65288,48.47572],[37.64721,48.47034],[37.64808,48.45764],[37.63852,48.45482],[37.63849,48.45193],[37.63821,48.4519],[37.63337,48.47508]]],[[[37.6269,50.2405],[37.60019,50.24053],[37.5886,50.2456],[37.59496,50.25079],[37.61076,50.2558],[37.62681,50.25479],[37.6256,50.24552],[37.6269,50.2405]]],[[[37.54578,50.22673],[37.52772,50.22076],[37.52236,50.22905],[37.52845,50.2362],[37.52743,50.24315],[37.54237,50.24416],[37.56886,50.23713],[37.56882,50.23687],[37.53979,50.23788],[37.53875,50.23587],[37.54458,50.23409],[37.56879,50.22991],[37.56878,50.22975],[37.54578,50.22673]]],[[[37.38679,48.49337],[37.39242,48.49678],[37.41674,48.4949],[37.43708,48.48813],[37.44617,48.49068],[37.44463,48.48472],[37.41897,48.48329],[37.39569,48.48586],[37.38833,48.49133],[37.38145,48.49317],[37.38147,48.49339],[37.38679,48.49337]]],[[[37.22514,48.41616],[37.21902,48.42985],[37.23085,48.43943],[37.23722,48.44842],[37.24049,48.44834],[37.23956,48.45435],[37.26369,48.45654],[37.26375,48.45607],[37.24883,48.45344],[37.25002,48.44264],[37.24657,48.43822],[37.24397,48.43759],[37.24442,48.43392],[37.24207,48.43376],[37.2427,48.42682],[37.23579,48.42621],[37.2245,48.42468],[37.22632,48.42091],[37.23672,48.41941],[37.23265,48.41675],[37.22514,48.41616]]],[[[37.07913,48.35621],[37.08589,48.3578],[37.08477,48.36258],[37.10284,48.36528],[37.10765,48.37903],[37.11658,48.37973],[37.13237,48.36795],[37.15145,48.36863],[37.15679,48.36617],[37.16466,48.36998],[37.17039,48.37909],[37.1781,48.37906],[37.18572,48.38035],[37.18673,48.39364],[37.20468,48.39768],[37.21319,48.40149],[37.24056,48.40383],[37.24026,48.40645],[37.24071,48.40652],[37.2423,48.39904],[37.23609,48.39807],[37.22973,48.38724],[37.22819,48.38171],[37.21652,48.38052],[37.21594,48.37573],[37.20288,48.37779],[37.20003,48.37198],[37.1921,48.37424],[37.18947,48.37186],[37.1894,48.36903],[37.19376,48.36777],[37.19391,48.36059],[37.20187,48.35596],[37.20219,48.35379],[37.18283,48.35341],[37.16139,48.35141],[37.1568,48.34807],[37.1433,48.35293],[37.12363,48.34884],[37.10515,48.34737],[37.10614,48.33993],[37.08623,48.34685],[37.07295,48.34857],[37.07069,48.35179],[37.07913,48.35621]]],[[[37.14511,50.33534],[37.14336,50.34586],[37.16296,50.35194],[37.18034,50.36317],[37.18828,50.35397],[37.16136,50.34378],[37.15765,50.33507],[37.14511,50.33534]]],[[[36.60946,47.92468],[36.60571,47.93039],[36.60794,47.93742],[36.6271,47.93872],[36.62665,47.93696],[36.61034,47.92648],[36.60946,47.92468]]],[[[36.16457,47.65167],[36.17061,47.65487],[36.16026,47.66886],[36.16607,47.67461],[36.17244,47.68045],[36.1671,47.69232],[36.14226,47.70203],[36.1352,47.71367],[36.14772,47.72357],[36.16435,47.72631],[36.16346,47.74594],[36.17493,47.7546],[36.19196,47.75773],[36.19505,47.75346],[36.19896,47.72874],[36.19007,47.71985],[36.17568,47.7143],[36.15288,47.71101],[36.15822,47.70111],[36.18501,47.69755],[36.1913,47.69579],[36.20094,47.68472],[36.19783,47.67797],[36.17193,47.66943],[36.17988,47.65799],[36.19555,47.65776],[36.20232,47.64835],[36.20386,47.64355],[36.19482,47.63712],[36.18279,47.63314],[36.17729,47.64322],[36.17195,47.64508],[36.15978,47.65279],[36.15984,47.65292],[36.16457,47.65167]]],[[[36.10581,47.60224],[36.09738,47.62622],[36.10508,47.63136],[36.14208,47.64064],[36.15418,47.65087],[36.1589,47.64249],[36.14036,47.63325],[36.12809,47.62141],[36.12399,47.61129],[36.12959,47.60294],[36.12392,47.59188],[36.10852,47.58992],[36.1085,47.58709],[36.10814,47.58706],[36.10581,47.60224]]],[[[36.06809,47.59032],[36.07329,47.59496],[36.10704,47.5852],[36.10698,47.5849],[36.0944,47.58593],[36.08967,47.58198],[36.06809,47.59032]]],[[[36.05615,47.53356],[36.06382,47.55287],[36.07253,47.55055],[36.06525,47.52684],[36.03239,47.52614],[36.03235,47.52633],[36.05615,47.53356]]],[[[35.53519,47.54982],[35.56335,47.55818],[35.58307,47.55375],[35.59699,47.54082],[35.5903,47.52837],[35.57191,47.53857],[35.55494,47.54451],[35.53725,47.54368],[35.53618,47.54622],[35.53519,47.54982]]]]},"properties":{"source":"deepstate","source_name":"DeepStateMap","source_url":"https://deepstatemap.live/en","category":"gained","category_label":"Newly Russian-occupied","period":"30d","compared_with":"2026-08-07","snapshot_time":"2026-09-06","area_km2_approx":161.8}},{"type":"Feature","geometry":{"type":"MultiPolygon","coordinates":[[[[37.60525,49.80215],[37.60013,49.80926],[37.60051,49.81177],[37.60976,49.81587],[37.61571,49.82345],[37.61708,49.82479],[37.62823,49.82806],[37.62943,49.83053],[37.63339,49.84098],[37.63229,49.85088],[37.63414,49.85167],[37.64791,49.85135],[37.64791,49.85795],[37.63646,49.86277],[37.63775,49.86466],[37.65537,49.86166],[37.66748,49.85373],[37.66298,49.84968],[37.66628,49.84612],[37.66687,49.83877],[37.66888,49.82655],[37.67596,49.81892],[37.66995,49.81202],[37.66051,49.80922],[37.63853,49.81798],[37.63424,49.82411],[37.61965,49.82324],[37.61705,49.81665],[37.62463,49.81448],[37.61859,49.80455],[37.61177,49.80177],[37.6057,49.79574],[37.60525,49.80215]]],[[[36.63014,47.95071],[36.62885,47.95795],[36.64712,47.96049],[36.64679,47.96447],[36.64382,47.97075],[36.63829,47.9716],[36.63507,47.98034],[36.66231,48.0008],[36.66528,48.00657],[36.67212,48.01251],[36.68397,48.01928],[36.69886,48.02618],[36.70433,48.03778],[36.70662,48.05351],[36.72215,48.05401],[36.73604,48.06435],[36.7473,48.0781],[36.76902,48.0754],[36.80392,48.06036],[36.80381,48.06003],[36.77619,48.06678],[36.76473,48.05498],[36.7636,48.03392],[36.74857,48.0267],[36.73554,48.00924],[36.74244,47.97461],[36.73217,47.9607],[36.66097,47.94367],[36.63615,47.93933],[36.6271,47.93872],[36.63014,47.95071]]],[[[36.6293,47.92106],[36.63675,47.91257],[36.62893,47.90374],[36.6293,47.92106]]],[[[36.60879,47.9233],[36.60951,47.92478],[36.62102,47.92379],[36.628,47.92149],[36.62793,47.92121],[36.60879,47.9233]]],[[[36.49287,47.84813],[36.5399,47.85151],[36.57253,47.86165],[36.57945,47.87385],[36.57407,47.89633],[36.57414,47.89636],[36.58901,47.87397],[36.58236,47.86015],[36.57219,47.84909],[36.52565,47.84114],[36.49098,47.83039],[36.45513,47.82459],[36.45513,47.8246],[36.49287,47.84813]]],[[[36.3088,47.82069],[36.32256,47.82736],[36.34597,47.8305],[36.40694,47.8301],[36.45511,47.82459],[36.45174,47.80728],[36.42562,47.80975],[36.38099,47.79511],[36.36816,47.79591],[36.34811,47.8057],[36.30291,47.80298],[36.3088,47.82069]]]]},"properties":{"source":"deepstate","source_name":"DeepStateMap","source_url":"https://deepstatemap.live/en","category":"lost","category_label":"No longer Russian-occupied","period":"30d","compared_with":"2026-08-07","snapshot_time":"2026-09-06","area_km2_approx":134.8}}]}