{"type":"FeatureCollection","features":[{"type":"Feature","geometry":{"type":"Polygon","coordinates":[[[37.10765,48.37903],[37.11658,48.37973],[37.13237,48.36795],[37.15145,48.36863],[37.15679,48.36617],[37.16466,48.36998],[37.17039,48.37909],[37.1781,48.37906],[37.17923,48.37481],[37.18947,48.37186],[37.1834,48.36173],[37.16604,48.3603],[37.14662,48.36549],[37.10328,48.36302],[37.10284,48.36528],[37.10765,48.37903]]]},"properties":{"source":"deepstate","source_name":"DeepStateMap","source_url":"https://deepstatemap.live/en","category":"gained","category_label":"Newly Russian-occupied","period":"1d","compared_with":"2026-09-05","snapshot_time":"2026-09-06","area_km2_approx":6.5}}]}