{"type":"FeatureCollection","features":[{"type":"Feature","geometry":{"type":"MultiPolygon","coordinates":[[[[37.75681,48.51932],[37.74513,48.52361],[37.74238,48.52994],[37.74463,48.53194],[37.74127,48.54089],[37.76617,48.54322],[37.76623,48.54289],[37.75209,48.53896],[37.74737,48.53467],[37.7465,48.53244],[37.7599,48.53342],[37.77088,48.52236],[37.75681,48.51932]]],[[[36.1589,47.64249],[36.15418,47.65087],[36.15938,47.65304],[36.17195,47.64508],[36.17729,47.64322],[36.18279,47.63314],[36.16259,47.64138],[36.144,47.63458],[36.14383,47.63498],[36.1589,47.64249]]]]},"properties":{"source":"deepstate","source_name":"DeepStateMap","source_url":"https://deepstatemap.live/en","category":"gained","category_label":"Newly Russian-occupied","period":"1d","compared_with":"2026-07-30","snapshot_time":"2026-07-31","area_km2_approx":4.8}}]}