{"type":"FeatureCollection","features":[{"type":"Feature","geometry":{"type":"Polygon","coordinates":[[[37.31838,48.47393],[37.33935,48.47373],[37.36486,48.47782],[37.36711,48.48189],[37.36728,48.48183],[37.36529,48.47292],[37.36003,48.47196],[37.35143,48.46391],[37.33909,48.4597],[37.3254,48.45891],[37.31844,48.4647],[37.30217,48.46476],[37.31838,48.47393]]]},"properties":{"source":"deepstate","source_name":"DeepStateMap","source_url":"https://deepstatemap.live/en","category":"gained","category_label":"Newly Russian-occupied","period":"1d","compared_with":"2026-08-03","snapshot_time":"2026-08-04","area_km2_approx":5.1}}]}