{"type":"FeatureCollection","features":[{"type":"Feature","geometry":{"type":"Polygon","coordinates":[[[36.15456,47.65097],[36.1586,47.65375],[36.17265,47.64516],[36.17598,47.64499],[36.18471,47.63477],[36.19587,47.63743],[36.19579,47.63372],[36.18659,47.63021],[36.18174,47.63441],[36.17405,47.63157],[36.1631,47.64173],[36.15456,47.65097]]]},"properties":{"source":"ukrdaily","source_name":"UkrDailyUpdate","source_url":"https://map.ukrdailyupdate.com/","category":"gained","category_label":"Newly Russian-occupied","period":"1d","compared_with":"2026-07-30","snapshot_time":"2026-07-31","area_km2_approx":2.5}}]}