{"type":"FeatureCollection","features":[{"type":"Feature","geometry":{"type":"Point","coordinates":[37.67586,48.528248]},"properties":{"original":{"Date":"2026-09-02","Name":"02 SEP 2026","Faction":"Russia","Origin":"UAV","Latitude":"48.528248","Longitude":"37.67586","PlusCode":"8GWVGMHG+78 Kostyantynivka, Donetsk Oblast, Ukraine","Description":"Vid1 0:22-0:32/Vid2 1:26-1:33 - The Assault Detachment and Reconnaissance Company, 4th MRB targets two Ukrainian soldiers in Kostyantynivka with a Vandal Drone.","Source":"Vid1, (1/2), https://x.com/AudaxonX/status/2102712164029174097, https://t.me/kaskader3/388, Vid2, (2/2), https://x.com/AudaxonX/status/2102712164029174097, https://t.me/z4lpr/1909","Geolocation":"https://x.com/AudaxonX/status/2102712188737901030","Equipment":"","EquipmentItems":"Vandal (KVN)","Units":"","OrbatUnits":"","Id":"a462a653-7a72-435d-a1fa-02259fd19193","icon":"/api/icons/E00000/False/template/111.png"},"source":"geoconfirmed","source_name":"GeoConfirmed","source_url":"https://geoconfirmed.org/map/ukraine","id":"a462a653-7a72-435d-a1fa-02259fd19193","date":"2026-09-02","link":"https://geoconfirmed.org/map/ukraine/a462a653-7a72-435d-a1fa-02259fd19193","category":"Short Range (<50km) OWAD (One Way Attack Drone), mostly rotary wing, Flying OR Attacking a target without knowing the outcome: if something is damaged --> icon of the damaged equipment.","side":"Russia","color":"#E00000","description":"Vid1 0:22-0:32/Vid2 1:26-1:33 - The Assault Detachment and Reconnaissance Company, 4th MRB targets two Ukrainian soldiers in Kostyantynivka with a Vandal Drone.","orbat":[],"geolocation":["https://x.com/AudaxonX/status/2102712188737901030"],"sources":["https://x.com/AudaxonX/status/2102712164029174097","https://t.me/kaskader3/388","https://x.com/AudaxonX/status/2102712164029174097","https://t.me/z4lpr/1909"]}},{"type":"Feature","geometry":{"type":"Point","coordinates":[36.209713,50.334449]},"properties":{"original":{"Date":"2026-09-02","Name":"02 SEP 2026","Faction":"Russia","Origin":"UAV","Latitude":"50.334449","Longitude":"36.209713","PlusCode":"9G2R86M5+QV Kozacha Lopan', Kharkiv Oblast, Ukraine","Description":"1:12-1:20 - Russian soldier showed a flag to a drone in Kozacha Lopan'","Source":"https://x.com/franfran2424/status/2095104117064482873, https://t.me/warriorofnorth/21668","Geolocation":"https://x.com/GeoConfirmed/status/2095239673496883428, https://x.com/richardzai38580/status/2095031158115627036","Equipment":"","EquipmentItems":"Reconnaissance UAV","Units":"Ukrainian Units Claimed","OrbatUnits":"11th Tank Brigade | \"Zapad-Akhmat\" battalion | 245th Motorized Rifle Regiment | 475th Assault Regiment | 58th Motorized Brigade | Battalion \"Vakha\" / \"Ваха\"","Id":"34ee9af6-3345-400d-9e45-0c27b0d3fc94","icon":"/api/icons/E00000/False/template/100.png"},"source":"geoconfirmed","source_name":"GeoConfirmed","source_url":"https://geoconfirmed.org/map/ukraine","id":"34ee9af6-3345-400d-9e45-0c27b0d3fc94","date":"2026-09-02","link":"https://geoconfirmed.org/map/ukraine/34ee9af6-3345-400d-9e45-0c27b0d3fc94","category":"Civilian or Soldier or Militant (Depending on the colour)","side":"Russia","color":"#E00000","description":"1:12-1:20 - Russian soldier showed a flag to a drone in Kozacha Lopan'","orbat":["11th Tank Brigade","\"Zapad-Akhmat\" battalion","245th Motorized Rifle Regiment","475th Assault Regiment","58th Motorized Brigade","Battalion \"Vakha\" / \"Ваха\""],"geolocation":["https://x.com/GeoConfirmed/status/2095239673496883428","https://x.com/richardzai38580/status/2095031158115627036"],"sources":["https://x.com/franfran2424/status/2095104117064482873","https://t.me/warriorofnorth/21668"]}},{"type":"Feature","geometry":{"type":"Point","coordinates":[37.638724,49.691042]},"properties":{"original":{"Date":"2026-09-02","Name":"02 SEP 2026","Faction":"Russia","Origin":"UAV","Latitude":"49.691042","Longitude":"37.638724","PlusCode":"8GXVMJRQ+CF Kup'yans'k-Vuzlovyi, Kharkiv Oblast, Ukraine","Description":"0:00-0:17 - Alleged Russian soldier in Kupiansk.","Source":"https://x.com/franfran2424/status/2095105382800634236, https://t.me/kcaebirds/3507","Geolocation":"(1/4&2/4), https://x.com/richardzai38580/status/2095078822928589035","Equipment":"","EquipmentItems":"","Units":"","OrbatUnits":"6th Combined Arms Army","Id":"75244fb2-4e27-4162-bec3-19072f893c19","icon":"/api/icons/E00000/False/template/100.png"},"source":"geoconfirmed","source_name":"GeoConfirmed","source_url":"https://geoconfirmed.org/map/ukraine","id":"75244fb2-4e27-4162-bec3-19072f893c19","date":"2026-09-02","link":"https://geoconfirmed.org/map/ukraine/75244fb2-4e27-4162-bec3-19072f893c19","category":"Civilian or Soldier or Militant (Depending on the colour)","side":"Russia","color":"#E00000","description":"0:00-0:17 - Alleged Russian soldier in Kupiansk.","orbat":["6th Combined Arms Army"],"geolocation":["https://x.com/richardzai38580/status/2095078822928589035"],"sources":["https://x.com/franfran2424/status/2095105382800634236","https://t.me/kcaebirds/3507"]}},{"type":"Feature","geometry":{"type":"Point","coordinates":[37.679507,48.527044]},"properties":{"original":{"Date":"2026-09-02","Name":"02 SEP 2026","Faction":"Russia","Origin":"UAV","Latitude":"48.527044","Longitude":"37.679507","PlusCode":"8GWVGMGH+RR Kostyantynivka, Donetsk Oblast, Ukraine","Description":"1:44-1:53 - 78th Motorized Rifle Regiment \"Sever-Akhmat\" hits a claimed Ukrainian position in Kostyantynivka with a FPV Drone, house later on fire.","Source":"https://x.com/AudaxonX/status/2096983582115840447, https://t.me/zayndi_zingiev/522","Geolocation":"https://x.com/AudaxonX/status/2096983614319735114","Equipment":"","EquipmentItems":"FPV (First Person View) OWAD (One Way Attack Drone)","Units":"","OrbatUnits":"78th Special Purpose Motorized Regiment \"Sever-Akhmat\" / \"Север-АХМАТ\"","Id":"5a823c66-816d-4bae-9e0d-19db0b2a14bd","icon":"/api/icons/E00000/False/template/111.png"},"source":"geoconfirmed","source_name":"GeoConfirmed","source_url":"https://geoconfirmed.org/map/ukraine","id":"5a823c66-816d-4bae-9e0d-19db0b2a14bd","date":"2026-09-02","link":"https://geoconfirmed.org/map/ukraine/5a823c66-816d-4bae-9e0d-19db0b2a14bd","category":"Short Range (<50km) OWAD (One Way Attack Drone), mostly rotary wing, Flying OR Attacking a target without knowing the outcome: if something is damaged --> icon of the damaged equipment.","side":"Russia","color":"#E00000","description":"1:44-1:53 - 78th Motorized Rifle Regiment \"Sever-Akhmat\" hits a claimed Ukrainian position in Kostyantynivka with a FPV Drone, house later on fire.","orbat":["78th Special Purpose Motorized Regiment \"Sever-Akhmat\" / \"Север-АХМАТ\""],"geolocation":["https://x.com/AudaxonX/status/2096983614319735114"],"sources":["https://x.com/AudaxonX/status/2096983582115840447","https://t.me/zayndi_zingiev/522"]}},{"type":"Feature","geometry":{"type":"Point","coordinates":[37.068003,48.417651]},"properties":{"original":{"Date":"2026-09-02","Name":"02 SEP 2026","Faction":"Ukraine","Origin":"UAV","Latitude":"48.417651","Longitude":"37.068003","PlusCode":"8GWVC399+36 Dobropillya, Donetsk Oblast, Ukraine","Description":"1:05-1:09 - Pravidnya Sirka Battalion hits claimed Russian position in a house in Dobropillia (village), Donetsk Oblast","Source":"https://x.com/Bielitzling/status/2095676349293683093, https://t.me/pravytsia_sirka/160","Geolocation":"https://x.com/Bielitzling/status/2095676345388769508","Equipment":"","EquipmentItems":"","Units":"Pravidnya Sirka Battalion","OrbatUnits":"","Id":"2f5e2274-9cd1-49e9-b3f9-1bbcc374cafe","icon":"/api/icons/0051CA/False/template/10.png"},"source":"geoconfirmed","source_name":"GeoConfirmed","source_url":"https://geoconfirmed.org/map/ukraine","id":"2f5e2274-9cd1-49e9-b3f9-1bbcc374cafe","date":"2026-09-02","link":"https://geoconfirmed.org/map/ukraine/2f5e2274-9cd1-49e9-b3f9-1bbcc374cafe","category":"Shelling by artillery or aerial bombings - Location of the shelling, colour of who is shelling; Brown = UXO","side":"Ukraine","color":"#0051CA","description":"1:05-1:09 - Pravidnya Sirka Battalion hits claimed Russian position in a house in Dobropillia (village), Donetsk Oblast","orbat":["Pravidnya Sirka Battalion"],"geolocation":["https://x.com/Bielitzling/status/2095676345388769508"],"sources":["https://x.com/Bielitzling/status/2095676349293683093","https://t.me/pravytsia_sirka/160"]}},{"type":"Feature","geometry":{"type":"Point","coordinates":[142.76169,47.28107]},"properties":{"original":{"Date":"2026-09-02","Name":"02 SEP 2026","Faction":"Russia","Origin":"VID","Latitude":"47.28107","Longitude":"142.76169","PlusCode":"8RV47QJ6+CM Sokol, Sakhalin Oblast, Russia","Description":"A Russian Mi-8 helicopter in military service performs a crash landing, reportedly with also journalists on board.","Source":"https://bsky.app/profile/specialkhersoncat.bsky.social/post/3mujql4g2v226, https://x.com/bayraktar_1love/status/2095098936625172749","Geolocation":"https://x.com/GeoConfirmed/status/2095234641322025423, https://bsky.app/profile/did:plc:mtenhfd6jiq5i5osxpz4en3a/post/3mukonpum6s2q, https://x.com/blinzka/status/2095110928148615431, https://bsky.app/profile/blinzka.bsky.social/post/3mujtdidzjk2l","Equipment":"","EquipmentItems":"Mi-8M series","Units":"UNK","OrbatUnits":"","Id":"778c86db-e34c-4908-8223-20a1d8adb51f","icon":"/api/icons/E00000/False/template/22.png"},"source":"geoconfirmed","source_name":"GeoConfirmed","source_url":"https://geoconfirmed.org/map/ukraine","id":"778c86db-e34c-4908-8223-20a1d8adb51f","date":"2026-09-02","link":"https://geoconfirmed.org/map/ukraine/778c86db-e34c-4908-8223-20a1d8adb51f","category":"Recently Destroyed/Damaged[Visible in footage] Helicopter (Attack or transport)","side":"Russia","color":"#E00000","description":"A Russian Mi-8 helicopter in military service performs a crash landing, reportedly with also journalists on board.","orbat":["UNK"],"geolocation":["https://x.com/GeoConfirmed/status/2095234641322025423","https://bsky.app/profile/did:plc:mtenhfd6jiq5i5osxpz4en3a/post/3mukonpum6s2q","https://x.com/blinzka/status/2095110928148615431","https://bsky.app/profile/blinzka.bsky.social/post/3mujtdidzjk2l"],"sources":["https://bsky.app/profile/specialkhersoncat.bsky.social/post/3mujql4g2v226","https://x.com/bayraktar_1love/status/2095098936625172749"]}},{"type":"Feature","geometry":{"type":"Point","coordinates":[34.63302,51.32252]},"properties":{"original":{"Date":"2026-09-02","Name":"02 SEP 2026","Faction":"Russia","Origin":"UAV","Latitude":"51.32252","Longitude":"34.63302","PlusCode":"9G3P8JFM+26 Glushkovo, Kursk Oblast, Russia","Description":"1:01-1:08 - Smoke is seen leaving a building, filmed by the Rubikon unit of the 17th Heavy Mechanized Brigade of Ukraine., Likely related to the FPV strike on the dump truck from the previous scene, which occurred from 0:51-0:58.","Source":"https://x.com/PuenteUribarri/status/2095052623971856427, https://www.facebook.com/reel/2044699636166069, https://t.me/kryvyirih17otbr/6811","Geolocation":"https://x.com/blinzka/status/2095194057630728441","Equipment":"UNK","EquipmentItems":"","Units":"","OrbatUnits":"Drone Battalion \"Rubikon\"","Id":"8b1818ca-ad5b-463e-a597-225741822426","icon":"/api/icons/E00000/False/template/70.png"},"source":"geoconfirmed","source_name":"GeoConfirmed","source_url":"https://geoconfirmed.org/map/ukraine","id":"8b1818ca-ad5b-463e-a597-225741822426","date":"2026-09-02","link":"https://geoconfirmed.org/map/ukraine/8b1818ca-ad5b-463e-a597-225741822426","category":"Controlled Demolition OR explosion of unknown origin OR fire of unknown origin where no other icon fits","side":"Russia","color":"#E00000","description":"1:01-1:08 - Smoke is seen leaving a building, filmed by the Rubikon unit of the 17th Heavy Mechanized Brigade of Ukraine., Likely related to the FPV strike on the dump truck from the previous scene, which occurred from 0:51-0:58.","orbat":["Drone Battalion \"Rubikon\""],"geolocation":["https://x.com/blinzka/status/2095194057630728441"],"sources":["https://x.com/PuenteUribarri/status/2095052623971856427","https://www.facebook.com/reel/2044699636166069","https://t.me/kryvyirih17otbr/6811"]}},{"type":"Feature","geometry":{"type":"Point","coordinates":[30.750375,46.471692]},"properties":{"original":{"Date":"2026-09-02","Name":"02 SEP 2026","Faction":"Neutral","Origin":"VID","Latitude":"46.471692","Longitude":"30.750375","PlusCode":"8GRGFQC2+M4 Odesa, Odesa Oblast, Ukraine","Description":"Damaged building 'Odesa Prombudproekt' following reported Russian strikes","Source":"https://x.com/wartranslated/status/2095084203847077942","Geolocation":"https://x.com/Zeldamices/status/2095088120957898930","Equipment":"","EquipmentItems":"","Units":"","OrbatUnits":"","Id":"6d48e789-d46b-45e9-9e0f-24371c97aaec","icon":"/api/icons/AC7339/False/template/192.png"},"source":"geoconfirmed","source_name":"GeoConfirmed","source_url":"https://geoconfirmed.org/map/ukraine","id":"6d48e789-d46b-45e9-9e0f-24371c97aaec","date":"2026-09-02","link":"https://geoconfirmed.org/map/ukraine/6d48e789-d46b-45e9-9e0f-24371c97aaec","category":"Recently destroyed/Damaged[Visible in footage] or still burning infrastucture","side":"Neutral","color":"#AC7339","description":"Damaged building 'Odesa Prombudproekt' following reported Russian strikes","orbat":[],"geolocation":["https://x.com/Zeldamices/status/2095088120957898930"],"sources":["https://x.com/wartranslated/status/2095084203847077942"]}},{"type":"Feature","geometry":{"type":"Point","coordinates":[36.186709,50.333962]},"properties":{"original":{"Date":"2026-09-02","Name":"02 SEP 2026","Faction":"Russia","Origin":"UAV","Latitude":"50.333962","Longitude":"36.186709","PlusCode":"9G2R85HV+42 Kozacha Lopan', Kharkiv Oblast, Ukraine","Description":"1:00-1:09 - Russian soldier showed a flag to a drone in Kozacha Lopan'","Source":"https://x.com/franfran2424/status/2095104117064482873, https://t.me/warriorofnorth/21668","Geolocation":"https://x.com/GeoConfirmed/status/2095239673496883428, https://x.com/richardzai38580/status/2095029493534765520","Equipment":"","EquipmentItems":"Reconnaissance UAV","Units":"Ukrainian Units Claimed","OrbatUnits":"11th Tank Brigade | \"Zapad-Akhmat\" battalion | 245th Motorized Rifle Regiment | 475th Assault Regiment | 58th Motorized Brigade | Battalion \"Vakha\" / \"Ваха\"","Id":"f945cd29-1fb7-440a-a9d6-2868b0345c3b","icon":"/api/icons/E00000/False/template/100.png"},"source":"geoconfirmed","source_name":"GeoConfirmed","source_url":"https://geoconfirmed.org/map/ukraine","id":"f945cd29-1fb7-440a-a9d6-2868b0345c3b","date":"2026-09-02","link":"https://geoconfirmed.org/map/ukraine/f945cd29-1fb7-440a-a9d6-2868b0345c3b","category":"Civilian or Soldier or Militant (Depending on the colour)","side":"Russia","color":"#E00000","description":"1:00-1:09 - Russian soldier showed a flag to a drone in Kozacha Lopan'","orbat":["11th Tank Brigade","\"Zapad-Akhmat\" battalion","245th Motorized Rifle Regiment","475th Assault Regiment","58th Motorized Brigade","Battalion \"Vakha\" / \"Ваха\""],"geolocation":["https://x.com/GeoConfirmed/status/2095239673496883428","https://x.com/richardzai38580/status/2095029493534765520"],"sources":["https://x.com/franfran2424/status/2095104117064482873","https://t.me/warriorofnorth/21668"]}},{"type":"Feature","geometry":{"type":"Point","coordinates":[30.559149,50.354861]},"properties":{"original":{"Date":"2026-09-02","Name":"02 SEP 2026","Faction":"Russia","Origin":"VID","Latitude":"50.354861","Longitude":"30.559149","PlusCode":"9G2G9H35+WM Kyiv, Kyiv city, Ukraine","Description":"Two injured men after a Russian drone attack on the premises of the Kyiv Regional Customs, Office No. 4, with a fire visible in the background.","Source":"https://x.com/99Dominik_/status/2095224618109866025, https://t.me/patrolpolice_ua/14040","Geolocation":"https://x.com/GeoConfirmed/status/2095233813316026854, https://x.com/99Dominik_/status/2095224459992998001","Equipment":"","EquipmentItems":"","Units":"","OrbatUnits":"","Id":"17aedae8-dcce-4af7-ba1a-348d096f70b1","icon":"/api/icons/E00000/False/template/50.png"},"source":"geoconfirmed","source_name":"GeoConfirmed","source_url":"https://geoconfirmed.org/map/ukraine","id":"17aedae8-dcce-4af7-ba1a-348d096f70b1","date":"2026-09-02","link":"https://geoconfirmed.org/map/ukraine/17aedae8-dcce-4af7-ba1a-348d096f70b1","category":"Killed or wounded civilian. Potential Warcrime. In the colour of who is assessed as doing the attack/killing.","side":"Russia","color":"#E00000","description":"Two injured men after a Russian drone attack on the premises of the Kyiv Regional Customs, Office No. 4, with a fire visible in the background.","orbat":[],"geolocation":["https://x.com/GeoConfirmed/status/2095233813316026854","https://x.com/99Dominik_/status/2095224459992998001"],"sources":["https://x.com/99Dominik_/status/2095224618109866025","https://t.me/patrolpolice_ua/14040"]}},{"type":"Feature","geometry":{"type":"Point","coordinates":[37.649277,48.541571]},"properties":{"original":{"Date":"2026-09-02","Name":"02 SEP 2026","Faction":"Russia","Origin":"UAV","Latitude":"48.541571","Longitude":"37.649277","PlusCode":"8GWVGJRX+JP Kostyantynivka, Donetsk Oblast, Ukraine","Description":"1:00-1:01 - The 78th Motorized Rifle Regiment \"Sever-Akhmat\" attacks a claimed Ukrainian position in Kostyantynivka with an FPV drone.","Source":"https://x.com/AudaxonX/status/2096983582115840447, https://t.me/zayndi_zingiev/522","Geolocation":"https://x.com/AudaxonX/status/2096983603854868704","Equipment":"","EquipmentItems":"FPV (First Person View) OWAD (One Way Attack Drone)","Units":"","OrbatUnits":"78th Special Purpose Motorized Regiment \"Sever-Akhmat\" / \"Север-АХМАТ\"","Id":"a3448062-00a5-41d8-acf6-355599657806","icon":"/api/icons/E00000/False/template/111.png"},"source":"geoconfirmed","source_name":"GeoConfirmed","source_url":"https://geoconfirmed.org/map/ukraine","id":"a3448062-00a5-41d8-acf6-355599657806","date":"2026-09-02","link":"https://geoconfirmed.org/map/ukraine/a3448062-00a5-41d8-acf6-355599657806","category":"Short Range (<50km) OWAD (One Way Attack Drone), mostly rotary wing, Flying OR Attacking a target without knowing the outcome: if something is damaged --> icon of the damaged equipment.","side":"Russia","color":"#E00000","description":"1:00-1:01 - The 78th Motorized Rifle Regiment \"Sever-Akhmat\" attacks a claimed Ukrainian position in Kostyantynivka with an FPV drone.","orbat":["78th Special Purpose Motorized Regiment \"Sever-Akhmat\" / \"Север-АХМАТ\""],"geolocation":["https://x.com/AudaxonX/status/2096983603854868704"],"sources":["https://x.com/AudaxonX/status/2096983582115840447","https://t.me/zayndi_zingiev/522"]}},{"type":"Feature","geometry":{"type":"Point","coordinates":[36.168319,50.325166]},"properties":{"original":{"Date":"2026-09-02","Name":"02 SEP 2026","Faction":"Russia","Origin":"UAV","Latitude":"50.325166","Longitude":"36.168319","PlusCode":"9G2R85G9+38 Kozacha Lopan', Kharkiv Oblast, Ukraine","Description":"1:48-1:53 - Russian soldier showed a flag to a drone in Kozacha Lopan'","Source":"https://x.com/franfran2424/status/2095104117064482873, https://t.me/warriorofnorth/21668","Geolocation":"https://x.com/GeoConfirmed/status/2095239673496883428, https://x.com/richardzai38580/status/2095032683785327083","Equipment":"","EquipmentItems":"Reconnaissance UAV","Units":"","OrbatUnits":"11th Tank Brigade | \"Zapad-Akhmat\" battalion | 245th Motorized Rifle Regiment | 475th Assault Regiment | 58th Motorized Brigade | Battalion \"Vakha\" / \"Ваха\"","Id":"caae17a6-073a-43c3-bb4f-3b4948b8ead4","icon":"/api/icons/E00000/False/template/100.png"},"source":"geoconfirmed","source_name":"GeoConfirmed","source_url":"https://geoconfirmed.org/map/ukraine","id":"caae17a6-073a-43c3-bb4f-3b4948b8ead4","date":"2026-09-02","link":"https://geoconfirmed.org/map/ukraine/caae17a6-073a-43c3-bb4f-3b4948b8ead4","category":"Civilian or Soldier or Militant (Depending on the colour)","side":"Russia","color":"#E00000","description":"1:48-1:53 - Russian soldier showed a flag to a drone in Kozacha Lopan'","orbat":["11th Tank Brigade","\"Zapad-Akhmat\" battalion","245th Motorized Rifle Regiment","475th Assault Regiment","58th Motorized Brigade","Battalion \"Vakha\" / \"Ваха\""],"geolocation":["https://x.com/GeoConfirmed/status/2095239673496883428","https://x.com/richardzai38580/status/2095032683785327083"],"sources":["https://x.com/franfran2424/status/2095104117064482873","https://t.me/warriorofnorth/21668"]}},{"type":"Feature","geometry":{"type":"Point","coordinates":[35.768699,47.564107]},"properties":{"original":{"Date":"2026-09-02","Name":"02 SEP 2026","Faction":"Ukraine","Origin":"UAV","Latitude":"47.564107","Longitude":"35.768699","PlusCode":"8GVQHQ79+JF Orikhiv, Zaporizhia Oblast, Ukraine","Description":"0:00-1:50 - Claimed Ukrainian 2S1 artillery destroyed by Russian lancet strike of the 291st Artillery Brigade","Source":"https://x.com/moklasen/status/2095255226563314159, https://t.me/brigada291art/254","Geolocation":"https://x.com/moklasen/status/2095255222624932041","Equipment":"","EquipmentItems":"Lancet | 2S19 Msta-S","Units":"","OrbatUnits":"291st Artillery Brigade","Id":"649d1e41-4dfb-4ae4-b91c-3fc103f8f418","icon":"/api/icons/0051CA/False/template/02.png"},"source":"geoconfirmed","source_name":"GeoConfirmed","source_url":"https://geoconfirmed.org/map/ukraine","id":"649d1e41-4dfb-4ae4-b91c-3fc103f8f418","date":"2026-09-02","link":"https://geoconfirmed.org/map/ukraine/649d1e41-4dfb-4ae4-b91c-3fc103f8f418","category":"Recently Destroyed/Damaged[Visible in footage] Artillery","side":"Ukraine","color":"#0051CA","description":"0:00-1:50 - Claimed Ukrainian 2S1 artillery destroyed by Russian lancet strike of the 291st Artillery Brigade","orbat":["291st Artillery Brigade"],"geolocation":["https://x.com/moklasen/status/2095255222624932041"],"sources":["https://x.com/moklasen/status/2095255226563314159","https://t.me/brigada291art/254"]}},{"type":"Feature","geometry":{"type":"Point","coordinates":[36.380952,47.751328]},"properties":{"original":{"Date":"2026-09-02","Name":"02 SEP 2026","Faction":"Ukraine","Origin":"UAV","Latitude":"47.751328","Longitude":"36.380952","PlusCode":"8GVRQ92J+G9 Nove, Zaporizhia Oblast, Ukraine","Description":"0:00-0:21 - Claimed Russian position targeted by a Ukrainian FPV drone of the Drone Company \"Wild Division\" of the 82nd Air Assault Brigade","Source":"https://x.com/Kukulkan415/status/2095217506071773187, https://t.me/wilddivision82/349","Geolocation":"https://x.com/Kukulkan415/status/2095217506071773187","Equipment":"","EquipmentItems":"FPV (First Person View) OWAD (One Way Attack Drone)","Units":"","OrbatUnits":"Drone Company \"Wild Division\"","Id":"58b21662-eace-4f0f-b158-487fcfd547bd","icon":"/api/icons/0051CA/False/template/111.png"},"source":"geoconfirmed","source_name":"GeoConfirmed","source_url":"https://geoconfirmed.org/map/ukraine","id":"58b21662-eace-4f0f-b158-487fcfd547bd","date":"2026-09-02","link":"https://geoconfirmed.org/map/ukraine/58b21662-eace-4f0f-b158-487fcfd547bd","category":"Short Range (<50km) OWAD (One Way Attack Drone), mostly rotary wing, Flying OR Attacking a target without knowing the outcome: if something is damaged --> icon of the damaged equipment.","side":"Ukraine","color":"#0051CA","description":"0:00-0:21 - Claimed Russian position targeted by a Ukrainian FPV drone of the Drone Company \"Wild Division\" of the 82nd Air Assault Brigade","orbat":["Drone Company \"Wild Division\""],"geolocation":["https://x.com/Kukulkan415/status/2095217506071773187"],"sources":["https://x.com/Kukulkan415/status/2095217506071773187","https://t.me/wilddivision82/349"]}},{"type":"Feature","geometry":{"type":"Point","coordinates":[36.182381,50.344869]},"properties":{"original":{"Date":"2026-09-02","Name":"02 SEP 2026","Faction":"Russia","Origin":"UAV","Latitude":"50.344869","Longitude":"36.182381","PlusCode":"9G2R85VJ+WX Kozacha Lopan', Kharkiv Oblast, Ukraine","Description":"1:57-2:04 - Russian soldier showed a flag to a drone in Kozacha Lopan'","Source":"https://x.com/franfran2424/status/2095104117064482873, https://t.me/warriorofnorth/21668","Geolocation":"https://x.com/GeoConfirmed/status/2095239673496883428, https://x.com/richardzai38580/status/2095034432650711389","Equipment":"","EquipmentItems":"Reconnaissance UAV","Units":"","OrbatUnits":"11th Tank Brigade | \"Zapad-Akhmat\" battalion | 245th Motorized Rifle Regiment | 475th Assault Regiment | 58th Motorized Brigade | Battalion \"Vakha\" / \"Ваха\"","Id":"361d9b9a-010f-4ba6-bdad-4887cf5aef5a","icon":"/api/icons/E00000/False/template/100.png"},"source":"geoconfirmed","source_name":"GeoConfirmed","source_url":"https://geoconfirmed.org/map/ukraine","id":"361d9b9a-010f-4ba6-bdad-4887cf5aef5a","date":"2026-09-02","link":"https://geoconfirmed.org/map/ukraine/361d9b9a-010f-4ba6-bdad-4887cf5aef5a","category":"Civilian or Soldier or Militant (Depending on the colour)","side":"Russia","color":"#E00000","description":"1:57-2:04 - Russian soldier showed a flag to a drone in Kozacha Lopan'","orbat":["11th Tank Brigade","\"Zapad-Akhmat\" battalion","245th Motorized Rifle Regiment","475th Assault Regiment","58th Motorized Brigade","Battalion \"Vakha\" / \"Ваха\""],"geolocation":["https://x.com/GeoConfirmed/status/2095239673496883428","https://x.com/richardzai38580/status/2095034432650711389"],"sources":["https://x.com/franfran2424/status/2095104117064482873","https://t.me/warriorofnorth/21668"]}},{"type":"Feature","geometry":{"type":"Point","coordinates":[36.426458,47.774165]},"properties":{"original":{"Date":"2026-09-02","Name":"02 SEP 2026","Faction":"Ukraine","Origin":"UAV","Latitude":"47.774165","Longitude":"36.426458","PlusCode":"8GVRQCFG+MH Uspenivka, Zaporizhia Oblast, Ukraine","Description":"1:03-end - Claimed Russian position targeted by a Ukrainian FPV drone of the Drone Company \"Wild Division\" of the 82nd Air Assault Brigade","Source":"https://x.com/Kukulkan415/status/2095217506071773187, https://t.me/wilddivision82/349","Geolocation":"https://x.com/Kukulkan415/status/2095236658555740443","Equipment":"","EquipmentItems":"FPV (First Person View) OWAD (One Way Attack Drone)","Units":"","OrbatUnits":"Drone Company \"Wild Division\"","Id":"97bcb024-b61f-4b8e-a08c-4d7dc81e9925","icon":"/api/icons/0051CA/False/template/111.png"},"source":"geoconfirmed","source_name":"GeoConfirmed","source_url":"https://geoconfirmed.org/map/ukraine","id":"97bcb024-b61f-4b8e-a08c-4d7dc81e9925","date":"2026-09-02","link":"https://geoconfirmed.org/map/ukraine/97bcb024-b61f-4b8e-a08c-4d7dc81e9925","category":"Short Range (<50km) OWAD (One Way Attack Drone), mostly rotary wing, Flying OR Attacking a target without knowing the outcome: if something is damaged --> icon of the damaged equipment.","side":"Ukraine","color":"#0051CA","description":"1:03-end - Claimed Russian position targeted by a Ukrainian FPV drone of the Drone Company \"Wild Division\" of the 82nd Air Assault Brigade","orbat":["Drone Company \"Wild Division\""],"geolocation":["https://x.com/Kukulkan415/status/2095236658555740443"],"sources":["https://x.com/Kukulkan415/status/2095217506071773187","https://t.me/wilddivision82/349"]}},{"type":"Feature","geometry":{"type":"Point","coordinates":[30.7125,46.3988]},"properties":{"original":{"Date":"2026-09-02","Name":"02 SEP 2026","Faction":"Neutral","Origin":"VID","Latitude":"46.3988","Longitude":"30.7125","PlusCode":"8GRG9PX7+G2 Odesa, Odesa Oblast, Ukraine","Description":"Damaged apartment building following reported Russian strikes.","Source":"Vid, (1/3), https://x.com/dedzaebal/status/2095041560681365999, https://usionline.com/post/14483, Pic, (2/3), https://x.com/dedzaebal/status/2095041560681365999, https://usionline.com/post/14483","Geolocation":"https://x.com/GeoConfirmed/status/2095234039925854366, https://x.com/0angrygrizzly0/status/2095145774657012155","Equipment":"","EquipmentItems":"","Units":"","OrbatUnits":"","Id":"1d96c92c-ef44-442a-b186-4e19fdf3e582","icon":"/api/icons/AC7339/False/template/192.png"},"source":"geoconfirmed","source_name":"GeoConfirmed","source_url":"https://geoconfirmed.org/map/ukraine","id":"1d96c92c-ef44-442a-b186-4e19fdf3e582","date":"2026-09-02","link":"https://geoconfirmed.org/map/ukraine/1d96c92c-ef44-442a-b186-4e19fdf3e582","category":"Recently destroyed/Damaged[Visible in footage] or still burning infrastucture","side":"Neutral","color":"#AC7339","description":"Damaged apartment building following reported Russian strikes.","orbat":[],"geolocation":["https://x.com/GeoConfirmed/status/2095234039925854366","https://x.com/0angrygrizzly0/status/2095145774657012155"],"sources":["https://x.com/dedzaebal/status/2095041560681365999","https://usionline.com/post/14483","https://x.com/dedzaebal/status/2095041560681365999","https://usionline.com/post/14483"]}},{"type":"Feature","geometry":{"type":"Point","coordinates":[37.632768,48.54795]},"properties":{"original":{"Date":"2026-09-02","Name":"02 SEP 2026","Faction":"Ukraine","Origin":"UAV","Latitude":"48.54795","Longitude":"37.632768","PlusCode":"8GWVGJXM+54 Kostyantynivka, Donetsk Oblast, Ukraine","Description":"Vid1 0:00-0:15/ Vid2 0:46-1:00 - Assault Detachment and Reconnaissance Company, 4th MRB hits a Ukrainan soldier (likely killed) in Kostyantynivka with two Vandal Drones, recon by UAV Unit \"Thor\", 1st MRBn \"Rosana\", 4th MRB","Source":"Vid1, (1/2), https://x.com/AudaxonX/status/2102712164029174097, https://t.me/kaskader3/388, Vid2, (2/2), https://x.com/AudaxonX/status/2102712164029174097, https://t.me/z4lpr/1909","Geolocation":"https://x.com/AudaxonX/status/2102712177329426763","Equipment":"","EquipmentItems":"Vandal (KVN)","Units":"","OrbatUnits":"","Id":"57141135-4d6f-46d3-85bd-52c41be55b31","icon":"/api/icons/0051CA/False/template/92.png"},"source":"geoconfirmed","source_name":"GeoConfirmed","source_url":"https://geoconfirmed.org/map/ukraine","id":"57141135-4d6f-46d3-85bd-52c41be55b31","date":"2026-09-02","link":"https://geoconfirmed.org/map/ukraine/57141135-4d6f-46d3-85bd-52c41be55b31","category":"WIA/KIA Soldier/Militant","side":"Ukraine","color":"#0051CA","description":"Vid1 0:00-0:15/ Vid2 0:46-1:00 - Assault Detachment and Reconnaissance Company, 4th MRB hits a Ukrainan soldier (likely killed) in Kostyantynivka with two Vandal Drones, recon by UAV Unit \"Thor\", 1st MRBn \"Rosana\", 4th MRB","orbat":[],"geolocation":["https://x.com/AudaxonX/status/2102712177329426763"],"sources":["https://x.com/AudaxonX/status/2102712164029174097","https://t.me/kaskader3/388","https://x.com/AudaxonX/status/2102712164029174097","https://t.me/z4lpr/1909"]}},{"type":"Feature","geometry":{"type":"Point","coordinates":[36.429567,46.751482]},"properties":{"original":{"Date":"2026-09-02","Name":"02 SEP 2026","Faction":"Ukraine","Origin":"UAV","Latitude":"46.751482","Longitude":"36.429567","PlusCode":"8GRRQC2H+HR Prymors'k, Zaporizhia Oblast, Ukraine","Description":"0:31-0:33 - A truck was attacked by a drone from the 3rd Regiment SOF Ukraine","Source":"https://x.com/3sofua/status/2095134657901695188","Geolocation":"https://x.com/neonhandrail/status/2095148490901041401","Equipment":"","EquipmentItems":"Fixed Wing OWAD (One Way Attack Drone) | Truck","Units":"","OrbatUnits":"Special Operations Center \"East\"","Id":"d85e490d-506f-430e-9dd7-543c78731dbf","icon":"/api/icons/0051CA/False/template/111.png"},"source":"geoconfirmed","source_name":"GeoConfirmed","source_url":"https://geoconfirmed.org/map/ukraine","id":"d85e490d-506f-430e-9dd7-543c78731dbf","date":"2026-09-02","link":"https://geoconfirmed.org/map/ukraine/d85e490d-506f-430e-9dd7-543c78731dbf","category":"Short Range (<50km) OWAD (One Way Attack Drone), mostly rotary wing, Flying OR Attacking a target without knowing the outcome: if something is damaged --> icon of the damaged equipment.","side":"Ukraine","color":"#0051CA","description":"0:31-0:33 - A truck was attacked by a drone from the 3rd Regiment SOF Ukraine","orbat":["Special Operations Center \"East\""],"geolocation":["https://x.com/neonhandrail/status/2095148490901041401"],"sources":["https://x.com/3sofua/status/2095134657901695188"]}},{"type":"Feature","geometry":{"type":"Point","coordinates":[37.612794,49.711192]},"properties":{"original":{"Date":"2026-09-02","Name":"02 SEP 2026","Faction":"Russia","Origin":"UAV","Latitude":"49.711192","Longitude":"37.612794","PlusCode":"8GXVPJ67+F4 Kup'yans'k, Kharkiv Oblast, Ukraine","Description":"0:41-end: Alleged Russian soldiers are seen running in Kupiansk.","Source":"https://x.com/franfran2424/status/2095105382800634236, https://t.me/kcaebirds/3507","Geolocation":"(3/4&4/4), https://x.com/richardzai38580/status/2095078822928589035","Equipment":"","EquipmentItems":"","Units":"","OrbatUnits":"6th Combined Arms Army","Id":"2682f6a5-2683-4a0c-830a-5cb57aed2ff9","icon":"/api/icons/E00000/False/template/100.png"},"source":"geoconfirmed","source_name":"GeoConfirmed","source_url":"https://geoconfirmed.org/map/ukraine","id":"2682f6a5-2683-4a0c-830a-5cb57aed2ff9","date":"2026-09-02","link":"https://geoconfirmed.org/map/ukraine/2682f6a5-2683-4a0c-830a-5cb57aed2ff9","category":"Civilian or Soldier or Militant (Depending on the colour)","side":"Russia","color":"#E00000","description":"0:41-end: Alleged Russian soldiers are seen running in Kupiansk.","orbat":["6th Combined Arms Army"],"geolocation":["https://x.com/richardzai38580/status/2095078822928589035"],"sources":["https://x.com/franfran2424/status/2095105382800634236","https://t.me/kcaebirds/3507"]}},{"type":"Feature","geometry":{"type":"Point","coordinates":[36.187351,50.316704]},"properties":{"original":{"Date":"2026-09-02","Name":"02 SEP 2026","Faction":"Russia","Origin":"UAV","Latitude":"50.316704","Longitude":"36.187351","PlusCode":"9G2R858P+MW Kozacha Lopan', Kharkiv Oblast, Ukraine","Description":"2:05-2:17 - Russian soldier showed a flag to a drone in Kozacha Lopan'","Source":"https://x.com/franfran2424/status/2095104117064482873, https://t.me/warriorofnorth/21668","Geolocation":"https://x.com/GeoConfirmed/status/2095239673496883428, https://x.com/richardzai38580/status/2095034432650711389","Equipment":"","EquipmentItems":"Reconnaissance UAV","Units":"","OrbatUnits":"11th Tank Brigade | \"Zapad-Akhmat\" battalion | 245th Motorized Rifle Regiment | 475th Assault Regiment | 58th Motorized Brigade | Battalion \"Vakha\" / \"Ваха\"","Id":"c1578489-9c5a-430d-9724-5cf39c5f2b02","icon":"/api/icons/E00000/False/template/100.png"},"source":"geoconfirmed","source_name":"GeoConfirmed","source_url":"https://geoconfirmed.org/map/ukraine","id":"c1578489-9c5a-430d-9724-5cf39c5f2b02","date":"2026-09-02","link":"https://geoconfirmed.org/map/ukraine/c1578489-9c5a-430d-9724-5cf39c5f2b02","category":"Civilian or Soldier or Militant (Depending on the colour)","side":"Russia","color":"#E00000","description":"2:05-2:17 - Russian soldier showed a flag to a drone in Kozacha Lopan'","orbat":["11th Tank Brigade","\"Zapad-Akhmat\" battalion","245th Motorized Rifle Regiment","475th Assault Regiment","58th Motorized Brigade","Battalion \"Vakha\" / \"Ваха\""],"geolocation":["https://x.com/GeoConfirmed/status/2095239673496883428","https://x.com/richardzai38580/status/2095034432650711389"],"sources":["https://x.com/franfran2424/status/2095104117064482873","https://t.me/warriorofnorth/21668"]}},{"type":"Feature","geometry":{"type":"Point","coordinates":[30.760061,46.419518]},"properties":{"original":{"Date":"2026-09-02","Name":"02 SEP 2026","Faction":"Neutral","Origin":"VID","Latitude":"46.419518","Longitude":"30.760061","PlusCode":"8GRGCQ96+R2 Odesa, Odesa Oblast, Ukraine","Description":"A Russian drone damaged an apartment building, injuring several civilians.","Source":"https://x.com/99Dominik_/status/2095422253772964038, https://t.me/now_odessa/107771, ","Geolocation":"https://x.com/99Dominik_/status/2095421976646918271","Equipment":"","EquipmentItems":"","Units":"","OrbatUnits":"","Id":"1146ffa8-acd8-4f57-83f8-5d2e89edf234","icon":"/api/icons/AC7339/False/template/192.png"},"source":"geoconfirmed","source_name":"GeoConfirmed","source_url":"https://geoconfirmed.org/map/ukraine","id":"1146ffa8-acd8-4f57-83f8-5d2e89edf234","date":"2026-09-02","link":"https://geoconfirmed.org/map/ukraine/1146ffa8-acd8-4f57-83f8-5d2e89edf234","category":"Recently destroyed/Damaged[Visible in footage] or still burning infrastucture","side":"Neutral","color":"#AC7339","description":"A Russian drone damaged an apartment building, injuring several civilians.","orbat":[],"geolocation":["https://x.com/99Dominik_/status/2095421976646918271"],"sources":["https://x.com/99Dominik_/status/2095422253772964038","https://t.me/now_odessa/107771"]}},{"type":"Feature","geometry":{"type":"Point","coordinates":[36.178362,50.346476]},"properties":{"original":{"Date":"2026-09-02","Name":"02 SEP 2026","Faction":"Russia","Origin":"UAV","Latitude":"50.346476","Longitude":"36.178362","PlusCode":"9G2R85WH+H8 Kozacha Lopan', Kharkiv Oblast, Ukraine","Description":"2:21-2:28- Russian soldier showed a flag to a drone in Kozacha Lopan'","Source":"https://x.com/franfran2424/status/2095104117064482873, https://t.me/warriorofnorth/21668","Geolocation":"https://x.com/GeoConfirmed/status/2095239673496883428, https://x.com/richardzai38580/status/2095035887138812112","Equipment":"","EquipmentItems":"Reconnaissance UAV","Units":"Ukrainian Units Claimed","OrbatUnits":"11th Tank Brigade | \"Zapad-Akhmat\" battalion | 245th Motorized Rifle Regiment | 475th Assault Regiment | 58th Motorized Brigade | Battalion \"Vakha\" / \"Ваха\"","Id":"a11b9638-1dc1-4e1f-a53c-6810837fde23","icon":"/api/icons/E00000/False/template/100.png"},"source":"geoconfirmed","source_name":"GeoConfirmed","source_url":"https://geoconfirmed.org/map/ukraine","id":"a11b9638-1dc1-4e1f-a53c-6810837fde23","date":"2026-09-02","link":"https://geoconfirmed.org/map/ukraine/a11b9638-1dc1-4e1f-a53c-6810837fde23","category":"Civilian or Soldier or Militant (Depending on the colour)","side":"Russia","color":"#E00000","description":"2:21-2:28- Russian soldier showed a flag to a drone in Kozacha Lopan'","orbat":["11th Tank Brigade","\"Zapad-Akhmat\" battalion","245th Motorized Rifle Regiment","475th Assault Regiment","58th Motorized Brigade","Battalion \"Vakha\" / \"Ваха\""],"geolocation":["https://x.com/GeoConfirmed/status/2095239673496883428","https://x.com/richardzai38580/status/2095035887138812112"],"sources":["https://x.com/franfran2424/status/2095104117064482873","https://t.me/warriorofnorth/21668"]}},{"type":"Feature","geometry":{"type":"Point","coordinates":[30.937838,50.426669]},"properties":{"original":{"Date":"2026-09-02","Name":"02 SEP 2026","Faction":"Neutral","Origin":"VID","Latitude":"50.426669","Longitude":"30.937838","PlusCode":"9G2GCWGQ+M4 Dudarkiv, Kyiv Oblast, Ukraine","Description":"Area grid - A huge black smoke plume is coming from \"Dp \"Fm Lozhistik Dnipro\" following a reported Russian attack. The fire was also picked up by NASA FIRMS.","Source":"https://x.com/VerdadeseNadaMa/status/2095189317949780315, https://t.me/warhistoryalconafter/282874, , More information, (2/2), https://x.com/Zeldamices/status/2095239217181802602","Geolocation":"(1/2), https://x.com/Zeldamices/status/2095239217181802602","Equipment":"","EquipmentItems":"","Units":"","OrbatUnits":"","Id":"0f6a5324-e711-40ba-87d4-71cd2950edd5","icon":"/api/icons/AC7339/False/template/192.png"},"source":"geoconfirmed","source_name":"GeoConfirmed","source_url":"https://geoconfirmed.org/map/ukraine","id":"0f6a5324-e711-40ba-87d4-71cd2950edd5","date":"2026-09-02","link":"https://geoconfirmed.org/map/ukraine/0f6a5324-e711-40ba-87d4-71cd2950edd5","category":"Recently destroyed/Damaged[Visible in footage] or still burning infrastucture","side":"Neutral","color":"#AC7339","description":"Area grid - A huge black smoke plume is coming from \"Dp \"Fm Lozhistik Dnipro\" following a reported Russian attack. The fire was also picked up by NASA FIRMS.","orbat":[],"geolocation":["https://x.com/Zeldamices/status/2095239217181802602"],"sources":["https://x.com/VerdadeseNadaMa/status/2095189317949780315","https://t.me/warhistoryalconafter/282874","https://x.com/Zeldamices/status/2095239217181802602"]}},{"type":"Feature","geometry":{"type":"Point","coordinates":[36.418646,47.779117]},"properties":{"original":{"Date":"2026-09-02","Name":"02 SEP 2026","Faction":"Ukraine","Origin":"UAV","Latitude":"47.779117","Longitude":"36.418646","PlusCode":"8GVRQCH9+JF Uspenivka, Zaporizhia Oblast, Ukraine","Description":"0:21-0:47 - Claimed Russian position targeted by a Ukrainian FPV drone of the Drone Company \"Wild Division\" of the 82nd Air Assault Brigade","Source":"https://x.com/Kukulkan415/status/2095217506071773187, https://t.me/wilddivision82/349","Geolocation":"https://x.com/Kukulkan415/status/2095247601251623020","Equipment":"","EquipmentItems":"FPV (First Person View) OWAD (One Way Attack Drone)","Units":"","OrbatUnits":"Drone Company \"Wild Division\"","Id":"15f779ee-a4df-4bea-82ca-71cf9ea95e93","icon":"/api/icons/0051CA/False/template/111.png"},"source":"geoconfirmed","source_name":"GeoConfirmed","source_url":"https://geoconfirmed.org/map/ukraine","id":"15f779ee-a4df-4bea-82ca-71cf9ea95e93","date":"2026-09-02","link":"https://geoconfirmed.org/map/ukraine/15f779ee-a4df-4bea-82ca-71cf9ea95e93","category":"Short Range (<50km) OWAD (One Way Attack Drone), mostly rotary wing, Flying OR Attacking a target without knowing the outcome: if something is damaged --> icon of the damaged equipment.","side":"Ukraine","color":"#0051CA","description":"0:21-0:47 - Claimed Russian position targeted by a Ukrainian FPV drone of the Drone Company \"Wild Division\" of the 82nd Air Assault Brigade","orbat":["Drone Company \"Wild Division\""],"geolocation":["https://x.com/Kukulkan415/status/2095247601251623020"],"sources":["https://x.com/Kukulkan415/status/2095217506071773187","https://t.me/wilddivision82/349"]}},{"type":"Feature","geometry":{"type":"Point","coordinates":[36.47719,47.718869]},"properties":{"original":{"Date":"2026-09-02","Name":"02 SEP 2026","Faction":"Ukraine","Origin":"UAV","Latitude":"47.718869","Longitude":"36.47719","PlusCode":"8GVRPF9G+GV Poltavka, Zaporizhia Oblast, Ukraine","Description":"0:47-1:03 - Claimed Russian position targeted by a Ukrainian FPV drone of the Drone Company \"Wild Division\" of the 82nd Air Assault Brigade","Source":"https://x.com/Kukulkan415/status/2095217506071773187, https://t.me/wilddivision82/349","Geolocation":"https://x.com/Kukulkan415/status/2095233732500193291","Equipment":"","EquipmentItems":"FPV (First Person View) OWAD (One Way Attack Drone)","Units":"","OrbatUnits":"Drone Company \"Wild Division\"","Id":"289ded01-ef7c-4743-9ffc-72860ee2157b","icon":"/api/icons/0051CA/False/template/111.png"},"source":"geoconfirmed","source_name":"GeoConfirmed","source_url":"https://geoconfirmed.org/map/ukraine","id":"289ded01-ef7c-4743-9ffc-72860ee2157b","date":"2026-09-02","link":"https://geoconfirmed.org/map/ukraine/289ded01-ef7c-4743-9ffc-72860ee2157b","category":"Short Range (<50km) OWAD (One Way Attack Drone), mostly rotary wing, Flying OR Attacking a target without knowing the outcome: if something is damaged --> icon of the damaged equipment.","side":"Ukraine","color":"#0051CA","description":"0:47-1:03 - Claimed Russian position targeted by a Ukrainian FPV drone of the Drone Company \"Wild Division\" of the 82nd Air Assault Brigade","orbat":["Drone Company \"Wild Division\""],"geolocation":["https://x.com/Kukulkan415/status/2095233732500193291"],"sources":["https://x.com/Kukulkan415/status/2095217506071773187","https://t.me/wilddivision82/349"]}},{"type":"Feature","geometry":{"type":"Point","coordinates":[32.569045,46.626138]},"properties":{"original":{"Date":"2026-09-02","Name":"02 SEP 2026","Faction":"Russia","Origin":"UAV","Latitude":"46.626138","Longitude":"32.569045","PlusCode":"8GRJJHG9+FJ Kherson, Kherson Oblast, Ukraine","Description":"A man was targeted by Russian FPV drone.","Source":"https://x.com/99Dominik_/status/2095042485068124631, https://t.me/osvedomitell_alex/37493","Geolocation":"https://x.com/99Dominik_/status/2095042029751279796, , Refernce for geo, (0:37), https://www.youtube.com/watch","Equipment":"","EquipmentItems":"FPV (First Person View) OWAD (One Way Attack Drone)","Units":"","OrbatUnits":"","Id":"8d719dc3-c7a6-4389-962d-86170328f9a7","icon":"/api/icons/E00000/False/template/111.png"},"source":"geoconfirmed","source_name":"GeoConfirmed","source_url":"https://geoconfirmed.org/map/ukraine","id":"8d719dc3-c7a6-4389-962d-86170328f9a7","date":"2026-09-02","link":"https://geoconfirmed.org/map/ukraine/8d719dc3-c7a6-4389-962d-86170328f9a7","category":"Short Range (<50km) OWAD (One Way Attack Drone), mostly rotary wing, Flying OR Attacking a target without knowing the outcome: if something is damaged --> icon of the damaged equipment.","side":"Russia","color":"#E00000","description":"A man was targeted by Russian FPV drone.","orbat":[],"geolocation":["https://x.com/99Dominik_/status/2095042029751279796","https://www.youtube.com/watch"],"sources":["https://x.com/99Dominik_/status/2095042485068124631","https://t.me/osvedomitell_alex/37493"]}},{"type":"Feature","geometry":{"type":"Point","coordinates":[36.0606,47.7507]},"properties":{"original":{"Date":"2026-09-02","Name":"02 SEP 2026","Faction":"Ukraine","Origin":"UAV","Latitude":"47.7507","Longitude":"36.0606","PlusCode":"8GVRQ326+76 Vozdvyzhivka, Zaporizhia Oblast, Ukraine","Description":"0:38-0:43 - A position of Russian soldiers is shelled by the artillery of the 142nd mechanized brigade.","Source":"https://bsky.app/profile/blinzka.bsky.social/post/3mul5dwimdc2a, https://x.com/blinzka/status/2095300693737234809, https://www.facebook.com/reel/1759208508649977","Geolocation":"https://bsky.app/profile/blinzka.bsky.social/post/3mul5dyh2es2a, https://x.com/blinzka/status/2095300702700527834","Equipment":"UNK (shelling)","EquipmentItems":"","Units":"","OrbatUnits":"142nd Separate Mechanized Brigade","Id":"2b56cd3e-ca74-4fdb-aad4-96948e2c63aa","icon":"/api/icons/0051CA/False/template/10.png"},"source":"geoconfirmed","source_name":"GeoConfirmed","source_url":"https://geoconfirmed.org/map/ukraine","id":"2b56cd3e-ca74-4fdb-aad4-96948e2c63aa","date":"2026-09-02","link":"https://geoconfirmed.org/map/ukraine/2b56cd3e-ca74-4fdb-aad4-96948e2c63aa","category":"Shelling by artillery or aerial bombings - Location of the shelling, colour of who is shelling; Brown = UXO","side":"Ukraine","color":"#0051CA","description":"0:38-0:43 - A position of Russian soldiers is shelled by the artillery of the 142nd mechanized brigade.","orbat":["142nd Separate Mechanized Brigade"],"geolocation":["https://bsky.app/profile/blinzka.bsky.social/post/3mul5dyh2es2a","https://x.com/blinzka/status/2095300702700527834"],"sources":["https://bsky.app/profile/blinzka.bsky.social/post/3mul5dwimdc2a","https://x.com/blinzka/status/2095300693737234809","https://www.facebook.com/reel/1759208508649977"]}},{"type":"Feature","geometry":{"type":"Point","coordinates":[35.024046,48.533167]},"properties":{"original":{"Date":"2026-09-02","Name":"02 SEP 2026","Faction":"Russia","Origin":"VID","Latitude":"48.533167","Longitude":"35.024046","PlusCode":"8GWQG2MF+7J Dnipro, Dnipropetrovsk Oblast, Ukraine","Description":"Two people were killed and five others were injured followig a reported Russian attack on a distribution centre. The damaged warehouse is visible., Listed as  'Distribution center No. 6 of ATB-Market LLC' (Dnipro)(Wikimapia)","Source":"https://x.com/99Dominik_/status/2095202511179088126, https://t.me/dneprovski_volonteri/629, ","Geolocation":"https://x.com/GeoConfirmed/status/2095233694311022876, https://x.com/99Dominik_/status/2095202168521314785","Equipment":"","EquipmentItems":"","Units":"","OrbatUnits":"","Id":"c588f1ab-faf5-42e4-857e-ae8c8853c556","icon":"/api/icons/E00000/False/template/50.png"},"source":"geoconfirmed","source_name":"GeoConfirmed","source_url":"https://geoconfirmed.org/map/ukraine","id":"c588f1ab-faf5-42e4-857e-ae8c8853c556","date":"2026-09-02","link":"https://geoconfirmed.org/map/ukraine/c588f1ab-faf5-42e4-857e-ae8c8853c556","category":"Killed or wounded civilian. Potential Warcrime. In the colour of who is assessed as doing the attack/killing.","side":"Russia","color":"#E00000","description":"Two people were killed and five others were injured followig a reported Russian attack on a distribution centre. The damaged warehouse is visible., Listed as  'Distribution center No. 6 of ATB-Market LLC' (Dnipro)(Wikimapia)","orbat":[],"geolocation":["https://x.com/GeoConfirmed/status/2095233694311022876","https://x.com/99Dominik_/status/2095202168521314785"],"sources":["https://x.com/99Dominik_/status/2095202511179088126","https://t.me/dneprovski_volonteri/629"]}},{"type":"Feature","geometry":{"type":"Point","coordinates":[36.09227,47.75581]},"properties":{"original":{"Date":"2026-09-02","Name":"02 SEP 2026","Faction":"Russia","Origin":"UAV","Latitude":"47.75581","Longitude":"36.09227","PlusCode":"8GVRQ34R+8W Vozdvyzhivka, Zaporizhia Oblast, Ukraine","Description":"0:11-0:22 - Russian soldiers are killed by shelling of the artillery of the 142nd mechanized brigade of Ukraine","Source":"https://bsky.app/profile/blinzka.bsky.social/post/3mul5dwimdc2a, https://x.com/blinzka/status/2095300693737234809, https://www.facebook.com/reel/1759208508649977","Geolocation":"https://bsky.app/profile/blinzka.bsky.social/post/3mul5dwk46k2a, https://x.com/blinzka/status/2095300697851941233","Equipment":"UNK (shelling)","EquipmentItems":"","Units":"","OrbatUnits":"142nd Separate Mechanized Brigade","Id":"0f694b6a-ad72-4729-8c4f-b4eb7b1216f5","icon":"/api/icons/E00000/False/template/92.png"},"source":"geoconfirmed","source_name":"GeoConfirmed","source_url":"https://geoconfirmed.org/map/ukraine","id":"0f694b6a-ad72-4729-8c4f-b4eb7b1216f5","date":"2026-09-02","link":"https://geoconfirmed.org/map/ukraine/0f694b6a-ad72-4729-8c4f-b4eb7b1216f5","category":"WIA/KIA Soldier/Militant","side":"Russia","color":"#E00000","description":"0:11-0:22 - Russian soldiers are killed by shelling of the artillery of the 142nd mechanized brigade of Ukraine","orbat":["142nd Separate Mechanized Brigade"],"geolocation":["https://bsky.app/profile/blinzka.bsky.social/post/3mul5dwk46k2a","https://x.com/blinzka/status/2095300697851941233"],"sources":["https://bsky.app/profile/blinzka.bsky.social/post/3mul5dwimdc2a","https://x.com/blinzka/status/2095300693737234809","https://www.facebook.com/reel/1759208508649977"]}},{"type":"Feature","geometry":{"type":"Point","coordinates":[56.581199,58.016266]},"properties":{"original":{"Date":"2026-09-02","Name":"02 SEP 2026","Faction":"Neutral","Origin":"VID","Latitude":"58.016266","Longitude":"56.581199","PlusCode":"9HCR2H8J+GF Sverdlovsky City District, Perm, Russia","Description":"Huge smoke plume coming from the premises of the sanctioned JSC Proton-PM (Perm). , The cause of the fire has not yet been reported.","Source":"Vid, (2/2), https://x.com/LXSummer1/status/2095035179345588425, https://t.me/chp_159_59/38352, Pic, https://x.com/Exilenova_plus/status/2094996794610692591, https://t.me/exilenova_plus/30217, , More information, https://www.opensanctions.org/entities/NK-Hck7EwgfurBayJwFsDzeSA/, https://vetta.tv/news/society/proton-pm-nachal-postavki-oborudovaniya-dlya-raket-nositeley-angara/, https://newsukraine.rbc.ua/news/fire-breaks-out-at-russian-factory-producing-1788330237.html, ","Geolocation":"https://x.com/neonhandrail/status/2095047966566531221","Equipment":"","EquipmentItems":"","Units":"","OrbatUnits":"","Id":"4f939bfd-5146-43e6-b250-b5b6a6e3912b","icon":"/api/icons/AC7339/False/template/192.png"},"source":"geoconfirmed","source_name":"GeoConfirmed","source_url":"https://geoconfirmed.org/map/ukraine","id":"4f939bfd-5146-43e6-b250-b5b6a6e3912b","date":"2026-09-02","link":"https://geoconfirmed.org/map/ukraine/4f939bfd-5146-43e6-b250-b5b6a6e3912b","category":"Recently destroyed/Damaged[Visible in footage] or still burning infrastucture","side":"Neutral","color":"#AC7339","description":"Huge smoke plume coming from the premises of the sanctioned JSC Proton-PM (Perm). , The cause of the fire has not yet been reported.","orbat":[],"geolocation":["https://x.com/neonhandrail/status/2095047966566531221"],"sources":["https://x.com/LXSummer1/status/2095035179345588425","https://t.me/chp_159_59/38352","https://x.com/Exilenova_plus/status/2094996794610692591","https://t.me/exilenova_plus/30217","https://www.opensanctions.org/entities/NK-Hck7EwgfurBayJwFsDzeSA/","https://vetta.tv/news/society/proton-pm-nachal-postavki-oborudovaniya-dlya-raket-nositeley-angara/","https://newsukraine.rbc.ua/news/fire-breaks-out-at-russian-factory-producing-1788330237.html"]}},{"type":"Feature","geometry":{"type":"Point","coordinates":[36.176256,50.334852]},"properties":{"original":{"Date":"2026-09-02","Name":"02 SEP 2026","Faction":"Russia","Origin":"UAV","Latitude":"50.334852","Longitude":"36.176256","PlusCode":"9G2R86M5+QV Kozacha Lopan', Kharkiv Oblast, Ukraine","Description":"1:24-1:30 - Russian soldier showed a flag to a drone in Kozacha Lopan'","Source":"https://x.com/franfran2424/status/2095104117064482873, https://t.me/warriorofnorth/21668","Geolocation":"https://x.com/GeoConfirmed/status/2095239673496883428, https://x.com/richardzai38580/status/2095031158115627036","Equipment":"","EquipmentItems":"Reconnaissance UAV","Units":"","OrbatUnits":"11th Tank Brigade | \"Zapad-Akhmat\" battalion | 245th Motorized Rifle Regiment | 475th Assault Regiment | 58th Motorized Brigade | Battalion \"Vakha\" / \"Ваха\"","Id":"d00cca5a-7d8e-4f3b-9c34-bccd8034adfb","icon":"/api/icons/E00000/False/template/100.png"},"source":"geoconfirmed","source_name":"GeoConfirmed","source_url":"https://geoconfirmed.org/map/ukraine","id":"d00cca5a-7d8e-4f3b-9c34-bccd8034adfb","date":"2026-09-02","link":"https://geoconfirmed.org/map/ukraine/d00cca5a-7d8e-4f3b-9c34-bccd8034adfb","category":"Civilian or Soldier or Militant (Depending on the colour)","side":"Russia","color":"#E00000","description":"1:24-1:30 - Russian soldier showed a flag to a drone in Kozacha Lopan'","orbat":["11th Tank Brigade","\"Zapad-Akhmat\" battalion","245th Motorized Rifle Regiment","475th Assault Regiment","58th Motorized Brigade","Battalion \"Vakha\" / \"Ваха\""],"geolocation":["https://x.com/GeoConfirmed/status/2095239673496883428","https://x.com/richardzai38580/status/2095031158115627036"],"sources":["https://x.com/franfran2424/status/2095104117064482873","https://t.me/warriorofnorth/21668"]}},{"type":"Feature","geometry":{"type":"Point","coordinates":[30.739265,46.487014]},"properties":{"original":{"Date":"2026-09-02","Name":"02 SEP 2026","Faction":"Russia","Origin":"VID","Latitude":"46.487014","Longitude":"30.739265","PlusCode":"8GRGFPPQ+RP Odesa, Odesa Oblast, Ukraine","Description":"Rough point of view looking in a north direction - huge plume of smoke following a reported Russian attack","Source":"https://x.com/EuromaidanPR/status/2095072726654357680","Geolocation":"https://x.com/Zeldamices/status/2095078037935051093","Equipment":"","EquipmentItems":"","Units":"","OrbatUnits":"","Id":"7b5390ac-31e4-4920-8c6e-cb2f26313514","icon":"/api/icons/E00000/False/template/30.png"},"source":"geoconfirmed","source_name":"GeoConfirmed","source_url":"https://geoconfirmed.org/map/ukraine","id":"7b5390ac-31e4-4920-8c6e-cb2f26313514","date":"2026-09-02","link":"https://geoconfirmed.org/map/ukraine/7b5390ac-31e4-4920-8c6e-cb2f26313514","category":"Video - Always Point of View in description - In the colour of who is doing the attack or is responsable for the incident in the video.","side":"Russia","color":"#E00000","description":"Rough point of view looking in a north direction - huge plume of smoke following a reported Russian attack","orbat":[],"geolocation":["https://x.com/Zeldamices/status/2095078037935051093"],"sources":["https://x.com/EuromaidanPR/status/2095072726654357680"]}},{"type":"Feature","geometry":{"type":"Point","coordinates":[37.669136,48.53126]},"properties":{"original":{"Date":"2026-09-02","Name":"02 SEP 2026","Faction":"Russia","Origin":"UAV","Latitude":"48.53126","Longitude":"37.669136","PlusCode":"8GWVGMJ9+GM Kostyantynivka, Donetsk Oblast, Ukraine","Description":"Vid1 0:45-1:09/Vid2 0:38-0:45 - The Assault Detachment and Reconnaissance Company, 4th MRB hits a Ukrainian soldier in Kostyantynivka with a Fibre Optic FPV Drone, recon by UAV Unit \"Coast\", 2nd MRBn, 1465th MRR, 4th MRB","Source":"Vid1, (1/2), https://x.com/AudaxonX/status/2102712164029174097, https://t.me/kaskader3/388, Vid2, (2/2), https://x.com/AudaxonX/status/2102712164029174097, https://t.me/z4lpr/1909","Geolocation":"https://x.com/AudaxonX/status/2102712197688197244","Equipment":"","EquipmentItems":"Fiber Optic (FO) FPV (First Person View) OWAD (One Way Attack Drone)","Units":"","OrbatUnits":"","Id":"7f97131b-1261-4a33-a3a7-cbe7db25f0f3","icon":"/api/icons/E00000/False/template/111.png"},"source":"geoconfirmed","source_name":"GeoConfirmed","source_url":"https://geoconfirmed.org/map/ukraine","id":"7f97131b-1261-4a33-a3a7-cbe7db25f0f3","date":"2026-09-02","link":"https://geoconfirmed.org/map/ukraine/7f97131b-1261-4a33-a3a7-cbe7db25f0f3","category":"Short Range (<50km) OWAD (One Way Attack Drone), mostly rotary wing, Flying OR Attacking a target without knowing the outcome: if something is damaged --> icon of the damaged equipment.","side":"Russia","color":"#E00000","description":"Vid1 0:45-1:09/Vid2 0:38-0:45 - The Assault Detachment and Reconnaissance Company, 4th MRB hits a Ukrainian soldier in Kostyantynivka with a Fibre Optic FPV Drone, recon by UAV Unit \"Coast\", 2nd MRBn, 1465th MRR, 4th MRB","orbat":[],"geolocation":["https://x.com/AudaxonX/status/2102712197688197244"],"sources":["https://x.com/AudaxonX/status/2102712164029174097","https://t.me/kaskader3/388","https://x.com/AudaxonX/status/2102712164029174097","https://t.me/z4lpr/1909"]}},{"type":"Feature","geometry":{"type":"Point","coordinates":[37.72372,49.84444]},"properties":{"original":{"Date":"2026-09-02","Name":"02 SEP 2026","Faction":"Ukraine","Origin":"UAV","Latitude":"49.84444","Longitude":"37.72372","PlusCode":"8GXVRPVF+QF Hryanykivka, Kharkiv Oblast, Ukraine","Description":"Area grid - Several Russian positions in a forest destroyed by Ukrainian FVP drones of the Drone Unit \"Yokai\"","Source":"https://x.com/moklasen/status/2095229863997161598, https://t.me/yokaiUA/543","Geolocation":"https://x.com/moklasen/status/2095229859840577659","Equipment":"","EquipmentItems":"FPV (First Person View) OWAD (One Way Attack Drone)","Units":"","OrbatUnits":"Drone Unit \"Yokai\"","Id":"ac41aafe-30c1-4336-99bd-cc14c3bb32aa","icon":"/api/icons/0051CA/False/template/111.png"},"source":"geoconfirmed","source_name":"GeoConfirmed","source_url":"https://geoconfirmed.org/map/ukraine","id":"ac41aafe-30c1-4336-99bd-cc14c3bb32aa","date":"2026-09-02","link":"https://geoconfirmed.org/map/ukraine/ac41aafe-30c1-4336-99bd-cc14c3bb32aa","category":"Short Range (<50km) OWAD (One Way Attack Drone), mostly rotary wing, Flying OR Attacking a target without knowing the outcome: if something is damaged --> icon of the damaged equipment.","side":"Ukraine","color":"#0051CA","description":"Area grid - Several Russian positions in a forest destroyed by Ukrainian FVP drones of the Drone Unit \"Yokai\"","orbat":["Drone Unit \"Yokai\""],"geolocation":["https://x.com/moklasen/status/2095229859840577659"],"sources":["https://x.com/moklasen/status/2095229863997161598","https://t.me/yokaiUA/543"]}},{"type":"Feature","geometry":{"type":"Point","coordinates":[36.192529,50.327863]},"properties":{"original":{"Date":"2026-09-02","Name":"02 SEP 2026","Faction":"Russia","Origin":"UAV","Latitude":"50.327863","Longitude":"36.192529","PlusCode":"9G2R85HV+42 Kozacha Lopan', Kharkiv Oblast, Ukraine","Description":"0:50-0:58 - Russian soldier showed a flag to a drone in Kozacha Lopan'","Source":"https://x.com/franfran2424/status/2095104117064482873, https://t.me/warriorofnorth/21668","Geolocation":"https://x.com/GeoConfirmed/status/2095239673496883428, https://x.com/richardzai38580/status/2095029493534765520","Equipment":"","EquipmentItems":"Reconnaissance UAV","Units":"Ukrainian Units Claimed","OrbatUnits":"11th Tank Brigade | \"Zapad-Akhmat\" battalion | 245th Motorized Rifle Regiment | 475th Assault Regiment | 58th Motorized Brigade | Battalion \"Vakha\" / \"Ваха\"","Id":"08ec50a8-14d9-49a5-8d45-dbc13d359b8d","icon":"/api/icons/E00000/False/template/100.png"},"source":"geoconfirmed","source_name":"GeoConfirmed","source_url":"https://geoconfirmed.org/map/ukraine","id":"08ec50a8-14d9-49a5-8d45-dbc13d359b8d","date":"2026-09-02","link":"https://geoconfirmed.org/map/ukraine/08ec50a8-14d9-49a5-8d45-dbc13d359b8d","category":"Civilian or Soldier or Militant (Depending on the colour)","side":"Russia","color":"#E00000","description":"0:50-0:58 - Russian soldier showed a flag to a drone in Kozacha Lopan'","orbat":["11th Tank Brigade","\"Zapad-Akhmat\" battalion","245th Motorized Rifle Regiment","475th Assault Regiment","58th Motorized Brigade","Battalion \"Vakha\" / \"Ваха\""],"geolocation":["https://x.com/GeoConfirmed/status/2095239673496883428","https://x.com/richardzai38580/status/2095029493534765520"],"sources":["https://x.com/franfran2424/status/2095104117064482873","https://t.me/warriorofnorth/21668"]}},{"type":"Feature","geometry":{"type":"Point","coordinates":[36.170152,50.33775]},"properties":{"original":{"Date":"2026-09-02","Name":"02 SEP 2026","Faction":"Russia","Origin":"UAV","Latitude":"50.33775","Longitude":"36.170152","PlusCode":"9G2R85QC+33 Kozacha Lopan', Kharkiv Oblast, Ukraine","Description":"1:35-1:42 - Russian soldier showed a flag to a drone in Kozacha Lopan'","Source":"https://x.com/franfran2424/status/2095104117064482873, https://t.me/warriorofnorth/21668","Geolocation":"https://x.com/GeoConfirmed/status/2095239673496883428, https://x.com/richardzai38580/status/2095032683785327083","Equipment":"","EquipmentItems":"Reconnaissance UAV","Units":"","OrbatUnits":"11th Tank Brigade | \"Zapad-Akhmat\" battalion | 245th Motorized Rifle Regiment | 475th Assault Regiment | 58th Motorized Brigade | Battalion \"Vakha\" / \"Ваха\"","Id":"18019bb7-1ee4-466f-98f4-dc674eea05c3","icon":"/api/icons/E00000/False/template/100.png"},"source":"geoconfirmed","source_name":"GeoConfirmed","source_url":"https://geoconfirmed.org/map/ukraine","id":"18019bb7-1ee4-466f-98f4-dc674eea05c3","date":"2026-09-02","link":"https://geoconfirmed.org/map/ukraine/18019bb7-1ee4-466f-98f4-dc674eea05c3","category":"Civilian or Soldier or Militant (Depending on the colour)","side":"Russia","color":"#E00000","description":"1:35-1:42 - Russian soldier showed a flag to a drone in Kozacha Lopan'","orbat":["11th Tank Brigade","\"Zapad-Akhmat\" battalion","245th Motorized Rifle Regiment","475th Assault Regiment","58th Motorized Brigade","Battalion \"Vakha\" / \"Ваха\""],"geolocation":["https://x.com/GeoConfirmed/status/2095239673496883428","https://x.com/richardzai38580/status/2095032683785327083"],"sources":["https://x.com/franfran2424/status/2095104117064482873","https://t.me/warriorofnorth/21668"]}},{"type":"Feature","geometry":{"type":"Point","coordinates":[36.16462,50.322177]},"properties":{"original":{"Date":"2026-09-02","Name":"02 SEP 2026","Faction":"Russia","Origin":"UAV","Latitude":"50.322177","Longitude":"36.16462","PlusCode":"9G2R85C7+VR Kozacha Lopan', Kharkiv Oblast, Ukraine","Description":"2:33-end - Russian soldier showed a flag to a drone in Kozacha Lopan'","Source":"https://x.com/franfran2424/status/2095104117064482873, https://t.me/warriorofnorth/21668","Geolocation":"https://x.com/GeoConfirmed/status/2095239673496883428, https://x.com/richardzai38580/status/2095035887138812112","Equipment":"","EquipmentItems":"Reconnaissance UAV","Units":"Ukrainian Units Claimed","OrbatUnits":"11th Tank Brigade | \"Zapad-Akhmat\" battalion | 245th Motorized Rifle Regiment | 475th Assault Regiment | 58th Motorized Brigade | Battalion \"Vakha\" / \"Ваха\"","Id":"f677e347-1bf4-4eaf-8f0e-e96d427a6708","icon":"/api/icons/E00000/False/template/100.png"},"source":"geoconfirmed","source_name":"GeoConfirmed","source_url":"https://geoconfirmed.org/map/ukraine","id":"f677e347-1bf4-4eaf-8f0e-e96d427a6708","date":"2026-09-02","link":"https://geoconfirmed.org/map/ukraine/f677e347-1bf4-4eaf-8f0e-e96d427a6708","category":"Civilian or Soldier or Militant (Depending on the colour)","side":"Russia","color":"#E00000","description":"2:33-end - Russian soldier showed a flag to a drone in Kozacha Lopan'","orbat":["11th Tank Brigade","\"Zapad-Akhmat\" battalion","245th Motorized Rifle Regiment","475th Assault Regiment","58th Motorized Brigade","Battalion \"Vakha\" / \"Ваха\""],"geolocation":["https://x.com/GeoConfirmed/status/2095239673496883428","https://x.com/richardzai38580/status/2095035887138812112"],"sources":["https://x.com/franfran2424/status/2095104117064482873","https://t.me/warriorofnorth/21668"]}},{"type":"Feature","geometry":{"type":"Point","coordinates":[36.193086,50.332729]},"properties":{"original":{"Date":"2026-09-02","Name":"02 SEP 2026","Faction":"Russia","Origin":"UAV","Latitude":"50.332729","Longitude":"36.193086","PlusCode":"9G2R86M2+MQ Kozacha Lopan', Kharkiv Oblast, Ukraine","Description":"0:40-0:46 - Russian soldier showed a flag to a drone in Kozacha Lopan'","Source":"https://x.com/franfran2424/status/2095104117064482873, https://t.me/warriorofnorth/21668","Geolocation":"https://x.com/GeoConfirmed/status/2095239673496883428, https://x.com/richardzai38580/status/2095027877377093638","Equipment":"","EquipmentItems":"Reconnaissance UAV","Units":"Ukrainian Units Claimed , ","OrbatUnits":"11th Tank Brigade | \"Zapad-Akhmat\" battalion | 245th Motorized Rifle Regiment | 475th Assault Regiment | 58th Motorized Brigade | Battalion \"Vakha\" / \"Ваха\"","Id":"5618cbf5-eee6-4cd8-b595-efb75700302a","icon":"/api/icons/E00000/False/template/100.png"},"source":"geoconfirmed","source_name":"GeoConfirmed","source_url":"https://geoconfirmed.org/map/ukraine","id":"5618cbf5-eee6-4cd8-b595-efb75700302a","date":"2026-09-02","link":"https://geoconfirmed.org/map/ukraine/5618cbf5-eee6-4cd8-b595-efb75700302a","category":"Civilian or Soldier or Militant (Depending on the colour)","side":"Russia","color":"#E00000","description":"0:40-0:46 - Russian soldier showed a flag to a drone in Kozacha Lopan'","orbat":["11th Tank Brigade","\"Zapad-Akhmat\" battalion","245th Motorized Rifle Regiment","475th Assault Regiment","58th Motorized Brigade","Battalion \"Vakha\" / \"Ваха\""],"geolocation":["https://x.com/GeoConfirmed/status/2095239673496883428","https://x.com/richardzai38580/status/2095027877377093638"],"sources":["https://x.com/franfran2424/status/2095104117064482873","https://t.me/warriorofnorth/21668"]}},{"type":"Feature","geometry":{"type":"Point","coordinates":[37.717851,48.529289]},"properties":{"original":{"Date":"2026-09-02","Name":"02 SEP 2026","Faction":"Ukraine","Origin":"UAV","Latitude":"48.529289","Longitude":"37.717851","PlusCode":"8GWVGPH9+P4 Kostyantynivka, Donetsk Oblast, Ukraine","Description":"0:02-0:06 - Unmanned Systems Battalion \"Guardians\", 36th Marine Brigade blows up a claimedd Russian position in Kostyantynivka with a Vampire Drone Dropped TM-62","Source":"https://x.com/AudaxonX/status/2096982112846938442, https://t.me/VARTOVI_36/916","Geolocation":"https://x.com/AudaxonX/status/2096982056781685041","Equipment":"","EquipmentItems":"Vampire | TM-62","Units":"","OrbatUnits":"Battalion of unmanned systems \"Vartovi\"","Id":"e243edda-4bef-4c62-915e-fb73d8c3179c","icon":"/api/icons/0051CA/False/template/110.png"},"source":"geoconfirmed","source_name":"GeoConfirmed","source_url":"https://geoconfirmed.org/map/ukraine","id":"e243edda-4bef-4c62-915e-fb73d8c3179c","date":"2026-09-02","link":"https://geoconfirmed.org/map/ukraine/e243edda-4bef-4c62-915e-fb73d8c3179c","category":"Multipurpose Bomber Drone, Flying OR Dropping OR bombing a target without knowing the outcome: if something is damaged --> icon of the damaged equipment.","side":"Ukraine","color":"#0051CA","description":"0:02-0:06 - Unmanned Systems Battalion \"Guardians\", 36th Marine Brigade blows up a claimedd Russian position in Kostyantynivka with a Vampire Drone Dropped TM-62","orbat":["Battalion of unmanned systems \"Vartovi\""],"geolocation":["https://x.com/AudaxonX/status/2096982056781685041"],"sources":["https://x.com/AudaxonX/status/2096982112846938442","https://t.me/VARTOVI_36/916"]}},{"type":"Feature","geometry":{"type":"Point","coordinates":[36.201918,50.33423]},"properties":{"original":{"Date":"2026-09-02","Name":"02 SEP 2026","Faction":"Russia","Origin":"UAV","Latitude":"50.33423","Longitude":"36.201918","PlusCode":"9G2R86M2+MQ Kozacha Lopan', Kharkiv Oblast, Ukraine","Description":"0:26-0:37 - Russian soldier showed a flag to a drone in Kozacha Lopan'","Source":"https://x.com/franfran2424/status/2095104117064482873, https://t.me/warriorofnorth/21668","Geolocation":"https://x.com/GeoConfirmed/status/2095239673496883428, https://x.com/richardzai38580/status/2095027877377093638","Equipment":"","EquipmentItems":"Reconnaissance UAV","Units":"Ukrainian Units Claimed","OrbatUnits":"11th Tank Brigade | \"Zapad-Akhmat\" battalion | 245th Motorized Rifle Regiment | 475th Assault Regiment | 58th Motorized Brigade | Battalion \"Vakha\" / \"Ваха\"","Id":"8c30d880-1444-4737-b9ed-fffb01938851","icon":"/api/icons/E00000/False/template/100.png"},"source":"geoconfirmed","source_name":"GeoConfirmed","source_url":"https://geoconfirmed.org/map/ukraine","id":"8c30d880-1444-4737-b9ed-fffb01938851","date":"2026-09-02","link":"https://geoconfirmed.org/map/ukraine/8c30d880-1444-4737-b9ed-fffb01938851","category":"Civilian or Soldier or Militant (Depending on the colour)","side":"Russia","color":"#E00000","description":"0:26-0:37 - Russian soldier showed a flag to a drone in Kozacha Lopan'","orbat":["11th Tank Brigade","\"Zapad-Akhmat\" battalion","245th Motorized Rifle Regiment","475th Assault Regiment","58th Motorized Brigade","Battalion \"Vakha\" / \"Ваха\""],"geolocation":["https://x.com/GeoConfirmed/status/2095239673496883428","https://x.com/richardzai38580/status/2095027877377093638"],"sources":["https://x.com/franfran2424/status/2095104117064482873","https://t.me/warriorofnorth/21668"]}}]}