{"type":"FeatureCollection","features":[{"type":"Feature","geometry":{"type":"MultiPolygon","coordinates":[[[[37.7944,49.06859],[37.79184,49.07079],[37.81453,49.07006],[37.81454,49.06958],[37.7944,49.06859]]],[[[37.78175,48.6279],[37.77869,48.64432],[37.77048,48.65276],[37.75973,48.65433],[37.75483,48.65608],[37.75173,48.66089],[37.75394,48.66448],[37.78182,48.67337],[37.78449,48.65666],[37.79071,48.64597],[37.78467,48.63351],[37.788,48.62353],[37.78175,48.6279]]],[[[37.17432,48.39103],[37.19362,48.40242],[37.18939,48.40997],[37.19619,48.40675],[37.20268,48.4079],[37.22274,48.40678],[37.22433,48.40423],[37.21319,48.40149],[37.20468,48.39768],[37.18673,48.39364],[37.18572,48.38035],[37.1781,48.37906],[37.17039,48.37909],[37.17432,48.39103]]],[[[37.13721,50.33183],[37.13025,50.33444],[37.12535,50.3412],[37.13478,50.3475],[37.13838,50.36095],[37.14336,50.34586],[37.14511,50.33534],[37.15578,50.33511],[37.1558,50.33478],[37.13721,50.33183]]],[[[37.03155,48.25889],[37.02986,48.26768],[37.04507,48.2688],[37.04603,48.27117],[37.0564,48.27015],[37.05763,48.26376],[37.05032,48.26163],[37.05117,48.25514],[37.04557,48.2538],[37.03353,48.25878],[37.03155,48.25889]]]]},"properties":{"source":"deepstate","source_name":"DeepStateMap","source_url":"https://deepstatemap.live/en","category":"gained","category_label":"Russian advance: became occupied","period":"7d","compared_with":"2026-09-15","snapshot_time":"2026-09-22","area_km2_approx":14.9}},{"type":"Feature","geometry":{"type":"MultiPolygon","coordinates":[[[[37.72834,49.1341],[37.72577,49.12976],[37.73058,49.12492],[37.72668,49.11905],[37.72502,49.10598],[37.73752,49.10095],[37.7465,49.1075],[37.75477,49.10896],[37.77208,49.10669],[37.78617,49.0991],[37.77073,49.09305],[37.77364,49.09],[37.78122,49.08906],[37.78557,49.08391],[37.78054,49.07676],[37.78943,49.06707],[37.80566,49.06651],[37.80565,49.06596],[37.78102,49.06594],[37.75634,49.06023],[37.72726,49.05867],[37.73158,49.05204],[37.7256,49.04833],[37.70539,49.05936],[37.7061,49.06825],[37.71306,49.07917],[37.71663,49.08715],[37.71074,49.09533],[37.707,49.10598],[37.70963,49.1193],[37.71633,49.13088],[37.72264,49.13499],[37.72834,49.1341]]],[[[37.60902,49.81395],[37.5969,49.81659],[37.59285,49.82224],[37.59721,49.82649],[37.60639,49.82611],[37.61064,49.82416],[37.61528,49.82721],[37.62917,49.82618],[37.63732,49.8296],[37.64176,49.82498],[37.64702,49.81832],[37.63729,49.81701],[37.62805,49.81377],[37.62007,49.80679],[37.61574,49.80709],[37.60902,49.81395]]],[[[37.58909,49.78972],[37.59415,49.79745],[37.60043,49.80242],[37.61235,49.8038],[37.6109,49.79433],[37.61912,49.7918],[37.6129,49.77702],[37.58909,49.78972]]],[[[37.38233,48.539],[37.38934,48.53502],[37.3891,48.53456],[37.38077,48.53873],[37.38233,48.539]]]]},"properties":{"source":"deepstate","source_name":"DeepStateMap","source_url":"https://deepstatemap.live/en","category":"lost","category_label":"Ukrainian advance: became Ukrainian-held","period":"7d","compared_with":"2026-09-15","snapshot_time":"2026-09-22","area_km2_approx":39.7}},{"type":"Feature","geometry":{"type":"MultiPolygon","coordinates":[[[[37.78584,49.07099],[37.78054,49.07676],[37.78557,49.08391],[37.78122,49.08906],[37.77364,49.09],[37.77073,49.09305],[37.78617,49.0991],[37.77208,49.10669],[37.75477,49.10896],[37.7465,49.1075],[37.73752,49.10095],[37.72502,49.10598],[37.72668,49.11905],[37.73058,49.12492],[37.72683,49.1287],[37.73232,49.12945],[37.7473,49.12972],[37.73095,49.11945],[37.72882,49.10849],[37.73666,49.10383],[37.7417,49.10796],[37.75293,49.11119],[37.77348,49.10778],[37.79007,49.09939],[37.77272,49.09231],[37.77481,49.09116],[37.78257,49.09091],[37.78847,49.08418],[37.78398,49.07756],[37.79184,49.07079],[37.78584,49.07099]]],[[[37.61503,49.80282],[37.61557,49.79956],[37.62936,49.78972],[37.62687,49.7829],[37.62327,49.77672],[37.61491,49.78179],[37.61912,49.7918],[37.6109,49.79433],[37.61206,49.80189],[37.61499,49.80308],[37.61499,49.80308],[37.61859,49.80455],[37.61996,49.8068],[37.62007,49.80679],[37.62805,49.81377],[37.63729,49.81701],[37.64004,49.81738],[37.64754,49.81439],[37.64735,49.81388],[37.64343,49.81527],[37.63699,49.80987],[37.63133,49.80181],[37.62847,49.80817],[37.62463,49.80695],[37.62674,49.80062],[37.61503,49.80282]]]]},"properties":{"source":"deepstate","source_name":"DeepStateMap","source_url":"https://deepstatemap.live/en","category":"occupied_to_contested","category_label":"Occupied became contested","period":"7d","compared_with":"2026-09-15","snapshot_time":"2026-09-22","area_km2_approx":6.4}},{"type":"Feature","geometry":{"type":"MultiPolygon","coordinates":[[[[37.76614,48.62931],[37.77051,48.63512],[37.75371,48.6536],[37.74103,48.65438],[37.7356,48.65692],[37.7294,48.6653],[37.71853,48.66744],[37.71848,48.66857],[37.73537,48.66935],[37.76173,48.67019],[37.77644,48.67637],[37.77662,48.676],[37.76499,48.66928],[37.76353,48.66754],[37.75394,48.66448],[37.75173,48.66089],[37.75483,48.65608],[37.75699,48.65531],[37.75706,48.65371],[37.77547,48.64254],[37.77419,48.63322],[37.78261,48.62655],[37.77858,48.62358],[37.77099,48.62299],[37.76614,48.62931]]],[[[37.36314,48.5357],[37.36304,48.53621],[37.37876,48.53974],[37.38077,48.53873],[37.36314,48.5357]]]]},"properties":{"source":"deepstate","source_name":"DeepStateMap","source_url":"https://deepstatemap.live/en","category":"ukrainian_to_contested","category_label":"Ukrainian-held became contested","period":"7d","compared_with":"2026-09-15","snapshot_time":"2026-09-22","area_km2_approx":5.6}}]}