{"type":"FeatureCollection","features":[{"type":"Feature","geometry":{"type":"Point","coordinates":[37.828691,48.891744]},"properties":{"original":{"Date":"2026-10-09","Name":"09 OCT 2026","Faction":"Russia","Origin":"UAV","Latitude":"48.891744","Longitude":"37.828691","PlusCode":"8GWVVRRH+MF Pyskunivka, Donetsk Oblast, Ukraine","Description":"0:36 - Russian shelling","Source":"https://x.com/ZoamSc2/status/2108363575920398728, https://t.me/specnazahmat/2429","Geolocation":"https://x.com/ZoamSc2/status/2108363573613514817","Equipment":"","EquipmentItems":"D-30","Units":"","OrbatUnits":"204th Special Purpose Regiment “Akhmat”","Id":"c0070e5c-607b-4c8d-ab14-3e33023d8505","icon":"/api/icons/E00000/False/template/10.png"},"source":"geoconfirmed","source_name":"GeoConfirmed","source_url":"https://geoconfirmed.org/map/ukraine","id":"c0070e5c-607b-4c8d-ab14-3e33023d8505","date":"2026-10-09","link":"https://geoconfirmed.org/map/ukraine/c0070e5c-607b-4c8d-ab14-3e33023d8505","category":"Shelling by artillery or aerial bombings - Location of the shelling, colour of who is shelling; Brown = UXO","side":"Russia","color":"#E00000","description":"0:36 - Russian shelling","orbat":["204th Special Purpose Regiment “Akhmat”"],"geolocation":["https://x.com/ZoamSc2/status/2108363573613514817"],"sources":["https://x.com/ZoamSc2/status/2108363575920398728","https://t.me/specnazahmat/2429"]}},{"type":"Feature","geometry":{"type":"Point","coordinates":[36.973029,49.951608]},"properties":{"original":{"Date":"2026-10-09","Name":"09 OCT 2026","Faction":"Russia","Origin":"VID","Latitude":"49.951608","Longitude":"36.973029","PlusCode":"8GXRXX2F+J6 Martove, Kharkiv Oblast, Ukraine","Description":"Death cows reportedly a Russian attack on a farm killed over thirty cows.","Source":"https://x.com/99Dominik_/status/2108574226361807183, (1/6&2/6), https://t.me/gusarov_pechi/13221, , More information, https://www.ukrinform.net/rubric-ato/4172636-russian-forces-strike-farm-in-kharkiv-region-killing-more-than-30-cows.html","Geolocation":"https://x.com/99Dominik_/status/2108572409926226400, ","Equipment":"","EquipmentItems":"","Units":"","OrbatUnits":"","Id":"1c63bc7c-c5a4-4ed0-a6e3-5a38235ebf59","icon":"/api/icons/E00000/False/template/70.png"},"source":"geoconfirmed","source_name":"GeoConfirmed","source_url":"https://geoconfirmed.org/map/ukraine","id":"1c63bc7c-c5a4-4ed0-a6e3-5a38235ebf59","date":"2026-10-09","link":"https://geoconfirmed.org/map/ukraine/1c63bc7c-c5a4-4ed0-a6e3-5a38235ebf59","category":"Controlled Demolition OR explosion of unknown origin OR fire of unknown origin where no other icon fits","side":"Russia","color":"#E00000","description":"Death cows reportedly a Russian attack on a farm killed over thirty cows.","orbat":[],"geolocation":["https://x.com/99Dominik_/status/2108572409926226400"],"sources":["https://x.com/99Dominik_/status/2108574226361807183","https://t.me/gusarov_pechi/13221","https://www.ukrinform.net/rubric-ato/4172636-russian-forces-strike-farm-in-kharkiv-region-killing-more-than-30-cows.html"]}},{"type":"Feature","geometry":{"type":"Point","coordinates":[37.68736,48.538086]},"properties":{"original":{"Date":"2026-10-09","Name":"09 OCT 2026","Faction":"Russia","Origin":"UAV","Latitude":"48.538086","Longitude":"37.68736","PlusCode":"8GWVGMQP+6W Kostyantynivka, Donetsk Oblast, Ukraine","Description":"A reported Ukrainian UAV control center, located in Kostyantynivka, was hit by a drone from the 72nd Motorized Rifle Brigade. Explosion and fires visible.","Source":"https://x.com/moklasen/status/2108618447823495291, https://vk.ru/wall-121828295_118493","Geolocation":"https://x.com/moklasen/status/2108618442731610292","Equipment":"","EquipmentItems":"FPV (First Person View) OWAD (One Way Attack Drone)","Units":"","OrbatUnits":"72nd Motorized Rifle Brigade","Id":"c301fda7-76b4-40ec-8c4b-6498f2352b26","icon":"/api/icons/E00000/False/template/111.png"},"source":"geoconfirmed","source_name":"GeoConfirmed","source_url":"https://geoconfirmed.org/map/ukraine","id":"c301fda7-76b4-40ec-8c4b-6498f2352b26","date":"2026-10-09","link":"https://geoconfirmed.org/map/ukraine/c301fda7-76b4-40ec-8c4b-6498f2352b26","category":"Short Range (<50km) OWAD (One Way Attack Drone), mostly rotary wing, Flying OR Attacking a target without knowing the outcome: if something is damaged --> icon of the damaged equipment.","side":"Russia","color":"#E00000","description":"A reported Ukrainian UAV control center, located in Kostyantynivka, was hit by a drone from the 72nd Motorized Rifle Brigade. Explosion and fires visible.","orbat":["72nd Motorized Rifle Brigade"],"geolocation":["https://x.com/moklasen/status/2108618442731610292"],"sources":["https://x.com/moklasen/status/2108618447823495291","https://vk.ru/wall-121828295_118493"]}},{"type":"Feature","geometry":{"type":"Point","coordinates":[37.686958,48.534506]},"properties":{"original":{"Date":"2026-10-09","Name":"09 OCT 2026","Faction":"Ukraine","Origin":"UAV","Latitude":"48.534506","Longitude":"37.686958","PlusCode":"8GWVGMMP+RQ Kostyantynivka, Donetsk Oblast, Ukraine","Description":"0:34-0:42 - Claimed Russian shelter hit by drone from 210th Assault Regiment.(3)","Source":"https://x.com/Zeldamices/status/2108779331266949517, https://t.me/polk_210/7304","Geolocation":"https://x.com/richardzai38580/status/2108736395464564836","Equipment":"","EquipmentItems":"Fixed Wing OWAD (One Way Attack Drone)","Units":"","OrbatUnits":"210th Assault Regiment \"Berlingo\"","Id":"dc8a7723-d1e6-49d0-a2d9-6f90c12640cf","icon":"/api/icons/0051CA/False/template/181.png"},"source":"geoconfirmed","source_name":"GeoConfirmed","source_url":"https://geoconfirmed.org/map/ukraine","id":"dc8a7723-d1e6-49d0-a2d9-6f90c12640cf","date":"2026-10-09","link":"https://geoconfirmed.org/map/ukraine/dc8a7723-d1e6-49d0-a2d9-6f90c12640cf","category":"Longe Range (>50km) OWAD (One Way Attack Drone) or Loitering munition, mostly fixed wing, Flying OR Attacking a target without knowing the outcome: if something is damaged --> icon of the damaged equipment.","side":"Ukraine","color":"#0051CA","description":"0:34-0:42 - Claimed Russian shelter hit by drone from 210th Assault Regiment.(3)","orbat":["210th Assault Regiment \"Berlingo\""],"geolocation":["https://x.com/richardzai38580/status/2108736395464564836"],"sources":["https://x.com/Zeldamices/status/2108779331266949517","https://t.me/polk_210/7304"]}},{"type":"Feature","geometry":{"type":"Point","coordinates":[36.587916,50.597673]},"properties":{"original":{"Date":"2026-10-09","Name":"09 OCT 2026","Faction":"Russia","Origin":"VID","Latitude":"50.597673","Longitude":"36.587916","PlusCode":"9G2RHHXQ+35 Belgorod, Belgorod Oblast, Russia","Description":"Damaged building of Ministry of Internal Affairs office in Belgorod following a reported Ukrainian drone attack damaged.","Source":"https://x.com/Magyargeo56/status/2108507646936728042, , More information, https://ua.news/en/war-vs-rf/u-bielgorodi-droni-atakuvali-magazin-i-budivliu-umvs","Geolocation":"https://x.com/Magyargeo56/status/2108507643824492710","Equipment":"","EquipmentItems":"","Units":"","OrbatUnits":"","Id":"dead15b4-31d3-4415-809f-c80f3b8aa746","icon":"/api/icons/E00000/False/template/192.png"},"source":"geoconfirmed","source_name":"GeoConfirmed","source_url":"https://geoconfirmed.org/map/ukraine","id":"dead15b4-31d3-4415-809f-c80f3b8aa746","date":"2026-10-09","link":"https://geoconfirmed.org/map/ukraine/dead15b4-31d3-4415-809f-c80f3b8aa746","category":"Recently destroyed/Damaged[Visible in footage] or still burning infrastucture","side":"Russia","color":"#E00000","description":"Damaged building of Ministry of Internal Affairs office in Belgorod following a reported Ukrainian drone attack damaged.","orbat":[],"geolocation":["https://x.com/Magyargeo56/status/2108507643824492710"],"sources":["https://x.com/Magyargeo56/status/2108507646936728042","https://ua.news/en/war-vs-rf/u-bielgorodi-droni-atakuvali-magazin-i-budivliu-umvs"]}},{"type":"Feature","geometry":{"type":"Point","coordinates":[37.646665,49.651232]},"properties":{"original":{"Date":"2026-10-09","Name":"09 OCT 2026","Faction":"Ukraine","Origin":"UAV","Latitude":"49.651232","Longitude":"37.646665","PlusCode":"8GXVMJ2W+FM Kup'yans'k-Vuzlovyi, Kharkiv Oblast, Ukraine","Description":"0:31 - 424th UAS Battalion \"Svarog\" hits Russian soldier in Kupiansk-Vuzlovyi, Kharkiv Oblast","Source":"https://x.com/Bielitzling/status/2108259369834229939, https://t.me/svarog_usf/1036, , https://x.com/Bielitzling/status/2108259369834229939, reference (1:06) https://www.youtube.com/watch?v=oZcS4rZmU-Q","Geolocation":"https://x.com/Bielitzling/status/2108259364926550505","Equipment":"","EquipmentItems":"FPV (First Person View) OWAD (One Way Attack Drone)","Units":"","OrbatUnits":"424th Unmanned Systems Battalion \"SVAROG\"","Id":"dc8cafaf-cc94-4942-b998-d26fc2cd4145","icon":"/api/icons/0051CA/False/template/111.png"},"source":"geoconfirmed","source_name":"GeoConfirmed","source_url":"https://geoconfirmed.org/map/ukraine","id":"dc8cafaf-cc94-4942-b998-d26fc2cd4145","date":"2026-10-09","link":"https://geoconfirmed.org/map/ukraine/dc8cafaf-cc94-4942-b998-d26fc2cd4145","category":"Short Range (<50km) OWAD (One Way Attack Drone), mostly rotary wing, Flying OR Attacking a target without knowing the outcome: if something is damaged --> icon of the damaged equipment.","side":"Ukraine","color":"#0051CA","description":"0:31 - 424th UAS Battalion \"Svarog\" hits Russian soldier in Kupiansk-Vuzlovyi, Kharkiv Oblast","orbat":["424th Unmanned Systems Battalion \"SVAROG\""],"geolocation":["https://x.com/Bielitzling/status/2108259364926550505"],"sources":["https://x.com/Bielitzling/status/2108259369834229939","https://t.me/svarog_usf/1036","https://x.com/Bielitzling/status/2108259369834229939","https://www.youtube.com/watch?v=oZcS4rZmU-Q"]}},{"type":"Feature","geometry":{"type":"Point","coordinates":[37.874243,49.007154]},"properties":{"original":{"Date":"2026-10-09","Name":"09 OCT 2026","Faction":"Russia","Origin":"UAV","Latitude":"49.007154","Longitude":"37.874243","PlusCode":"8GXV2V4F+VM Zarichne, Donetsk Oblast, Ukraine","Description":"1:03 - RU 37th Motorized Rifle Regiment attacks UA Infantry with FPV drone","Source":"https://t.me/BV25org/3719, https://x.com/ZoamSc2/status/2108333728795967830","Geolocation":"https://x.com/ZoamSc2/status/2108333726564593762","Equipment":"","EquipmentItems":"","Units":"","OrbatUnits":"37th Motorized Rifle Regiment","Id":"30fa9822-669d-4cd6-982a-f2e811113bd6","icon":"/api/icons/E00000/False/template/111.png"},"source":"geoconfirmed","source_name":"GeoConfirmed","source_url":"https://geoconfirmed.org/map/ukraine","id":"30fa9822-669d-4cd6-982a-f2e811113bd6","date":"2026-10-09","link":"https://geoconfirmed.org/map/ukraine/30fa9822-669d-4cd6-982a-f2e811113bd6","category":"Short Range (<50km) OWAD (One Way Attack Drone), mostly rotary wing, Flying OR Attacking a target without knowing the outcome: if something is damaged --> icon of the damaged equipment.","side":"Russia","color":"#E00000","description":"1:03 - RU 37th Motorized Rifle Regiment attacks UA Infantry with FPV drone","orbat":["37th Motorized Rifle Regiment"],"geolocation":["https://x.com/ZoamSc2/status/2108333726564593762"],"sources":["https://t.me/BV25org/3719","https://x.com/ZoamSc2/status/2108333728795967830"]}},{"type":"Feature","geometry":{"type":"Point","coordinates":[37.645885,49.680105]},"properties":{"original":{"Date":"2026-10-09","Name":"09 OCT 2026","Faction":"Ukraine","Origin":"UAV","Latitude":"49.680105","Longitude":"37.645885","PlusCode":"8GXVMJJW+29 Kup'yans'k-Vuzlovyi, Kharkiv Oblast, Ukraine","Description":"0:23-0:33 - The Ukrainian \"Caucasus Legion\" drops explosives from a drone onto a warehouse of the Kupyansk Carriage Depot (VCHD-12) of the Southern Railway in Kupyansk.","Source":"https://x.com/Bielitzling/status/2108569629022929356, https://t.me/caucasusLegion/1895","Geolocation":"https://x.com/Bielitzling/status/2108569624908337405","Equipment":"","EquipmentItems":"(Multi-Purpose) Bomber UAV","Units":"","OrbatUnits":"Caucasus Legion","Id":"ba5ac316-d83c-40f2-8727-fbeca1f4d2a1","icon":"/api/icons/0051CA/False/template/110.png"},"source":"geoconfirmed","source_name":"GeoConfirmed","source_url":"https://geoconfirmed.org/map/ukraine","id":"ba5ac316-d83c-40f2-8727-fbeca1f4d2a1","date":"2026-10-09","link":"https://geoconfirmed.org/map/ukraine/ba5ac316-d83c-40f2-8727-fbeca1f4d2a1","category":"Multipurpose Bomber Drone, Flying OR Dropping OR bombing a target without knowing the outcome: if something is damaged --> icon of the damaged equipment.","side":"Ukraine","color":"#0051CA","description":"0:23-0:33 - The Ukrainian \"Caucasus Legion\" drops explosives from a drone onto a warehouse of the Kupyansk Carriage Depot (VCHD-12) of the Southern Railway in Kupyansk.","orbat":["Caucasus Legion"],"geolocation":["https://x.com/Bielitzling/status/2108569624908337405"],"sources":["https://x.com/Bielitzling/status/2108569629022929356","https://t.me/caucasusLegion/1895"]}}]}