{"type":"FeatureCollection","features":[{"type":"Feature","geometry":null,"properties":{"source":"ua_mod","source_name":"Ministry of Defence of Ukraine","group":"official_ua","id":16260,"posted_utc":"2026-09-28T08:38:14+00:00","link":"https://t.me/ministry_of_defense_ua/16260","text":"Швидше постачання озброєння та розвиток спільного виробництва — ключові теми переговорів України з міжнародними партнерами на конференції OFDeF.\nКонференція Operational Force Development Framework зібрала близько 100 генералів армій країн НАТО та Перської затоки, а також високопосадовців держав-партнерів.\nЗаступник Міністра оборони України Сергій Боєв представив партнерам план війни.\nСеред головних питань:\n▪️ прискорення ухвалення рішень і постачання озброєння;\n▪️ своєчасне забезпечення України засобами ППО напередодні зими;\n▪️ залучення інвестицій та створення спільних виробництв у сфері оборонних технологій.","links":[]}},{"type":"Feature","geometry":null,"properties":{"source":"ua_mod","source_name":"Ministry of Defence of Ukraine","group":"official_ua","id":16263,"posted_utc":"2026-09-28T11:48:04+00:00","link":"https://t.me/ministry_of_defense_ua/16263","text":"❗️Виплати родинам зниклих безвісти військових не можна припиняти лише на підставі документів про впізнання тіла.\nМіноборони зобов’язало військові частини продовжувати виплати, доки не з’явиться визначена законом підстава для їх припинення:\n⓵ рішення суду про визнання військовослужбовця безвісно відсутнім, яке набрало законної сили;\n⓶ актовий запис про смерть.\nРаніше в окремих частинах виплати могли призупиняти одразу після появи документів про впізнання тіла. Через це родини залишалися без коштів ще до офіційного встановлення смерті.\nМіноборони окремим дорученням заборонило таку практику для всіх військових частин.\nНаступним кроком стануть зміни в нормативних актах, які мають чітко закріпити цей порядок.\n🔗 Докладніше про це","links":["https://mod.gov.ua/news/minoborony-usuvaie-praktyku-peredchasnoho-prypynennia-vyplat-rodynam-znyklykh-bezvisty?utm_source=mod-telegram&utm_medium=social"]}},{"type":"Feature","geometry":null,"properties":{"source":"ua_mod","source_name":"Ministry of Defence of Ukraine","group":"official_ua","id":16264,"posted_utc":"2026-09-28T13:52:49+00:00","link":"https://t.me/ministry_of_defense_ua/16264","text":"✍️ Оборонні підприємства зі статусом резидентів Defence City зможуть орендувати державне та комунальне майно без аукціону за спрощеними умовами.\nКабмін за пропозицією Міноборони розширив можливості оренди для оборонних підприємств:\n▪️ Більше підприємств можуть орендувати майно без аукціону. До переліку додали виробників безпілотних систем, засобів радіоелектронної боротьби та пасивної протидії технічним розвідкам.\n▪️ Не лише державне, а й комунальне майно. Місцевим органам влади рекомендовано встановлювати орендну плату на рівні 8% оціночної вартості на рік.\n▪️ Достатньо одного з чотирьох критеріїв для отримання права на оренду без аукціону. Серед них — статус критично важливого підприємства, включення до реєстру виконавців держконтрактів, відповідність визначеним виробничим критеріям або статус резидента Defence City.\nДопомагаємо підприємствам ОПК масштабувати виробництво.","links":[]}},{"type":"Feature","geometry":null,"properties":{"source":"ua_mod","source_name":"Ministry of Defence of Ukraine","group":"official_ua","id":16265,"posted_utc":"2026-09-28T18:04:02+00:00","link":"https://t.me/ministry_of_defense_ua/16265","text":"🤝Пріоритетні оборонні потреби та додаткове фінансування: Євгеній Хмара під час засідання Ради ЄС звернувся до міністрів оборони країн Євросоюзу\nМіністр оборони України Євгеній Хмара поінформував партнерів про ситуацію на фронті та ключові оборонні потреби.\nНаша держава шукає дешеві та ефективні рішення для протидії реактивним «Шахедам». Такі цілі вже збиваються, зокрема, ракетами-перехоплювачами. Українські виробники також пропонують власні рішення, і вони дають позитивні результати. Однак для побудови ефективної системи протидії потрібен час.\nЄвгеній Хмара закликав ЄС долучитися до фінансування цього напрямку, щоб перехоплювачі якнайшвидше надійшли до Сил оборони в достатній кількості.\nОкремо Міністр наголосив партнерам на важливості передачі Україні ракет «повітря-повітря», ПЗРК та боєприпасів для F-16.\nУ питанні протидії балістиці запит України залишається незмінним – потрібні ракети до Patriot. Міністр оборони звернувся до країн-членів ЄС із запитом передати частину ракет із власних запасів в обмін на ті, які Україна отримає пізніше за укладеними контрактами.\n🔗 Докладніше","links":["https://mod.gov.ua/news/prioritetni-oboronni-potrebi-ta-dodatkove-finansuvannya-yevgenij-hmara-zvernuvsya-do-ministriv-oboroni-krayin-ye-s?utm_source=mod-telegram&utm_medium=social"]}}]}