{"type":"FeatureCollection","features":[{"type":"Feature","geometry":{"type":"MultiPolygon","coordinates":[[[[37.9236,48.78056],[37.92103,48.79504],[37.93437,48.7966],[37.9312,48.81295],[37.93764,48.81337],[37.94326,48.81046],[37.94893,48.81071],[37.94995,48.8097],[37.95139,48.80674],[37.95213,48.80078],[37.95703,48.79734],[37.9551,48.78803],[37.95033,48.78099],[37.94604,48.7798],[37.93257,48.77446],[37.9236,48.78056]]],[[[37.80958,48.71169],[37.8075,48.71578],[37.79959,48.72027],[37.79761,48.72273],[37.8176,48.72025],[37.81137,48.71084],[37.80958,48.71169]]],[[[37.63355,48.47776],[37.62677,48.48177],[37.6217,48.48626],[37.61681,48.48763],[37.61132,48.49258],[37.61261,48.49474],[37.6302,48.49639],[37.62837,48.5067],[37.64252,48.50776],[37.64368,48.50287],[37.66187,48.50463],[37.6652,48.50351],[37.66417,48.50201],[37.66416,48.50202],[37.66045,48.4967],[37.66047,48.49669],[37.65932,48.49507],[37.66122,48.49008],[37.65918,48.49021],[37.65597,48.48976],[37.6547,48.48976],[37.65233,48.48754],[37.6524,48.4867],[37.65238,48.4867],[37.65257,48.48392],[37.65257,48.4833],[37.65259,48.4833],[37.65259,48.47548],[37.64775,48.4682],[37.64745,48.45796],[37.63944,48.45776],[37.63834,48.45761],[37.63355,48.47776]]],[[[37.38061,48.49678],[37.3853,48.49682],[37.41055,48.49405],[37.41564,48.49342],[37.43616,48.48918],[37.43892,48.48991],[37.44118,48.48711],[37.44628,48.48516],[37.45686,48.48241],[37.45961,48.47792],[37.46313,48.47115],[37.46422,48.46642],[37.47141,48.4659],[37.47385,48.4651],[37.47226,48.46227],[37.47247,48.4609],[37.46972,48.46286],[37.46552,48.46386],[37.46343,48.46406],[37.45777,48.46432],[37.45729,48.46497],[37.45667,48.4653],[37.45644,48.46706],[37.45599,48.46759],[37.45459,48.46811],[37.45431,48.46854],[37.45369,48.46871],[37.45281,48.46864],[37.45191,48.46908],[37.45039,48.47038],[37.44977,48.47367],[37.44965,48.47429],[37.44494,48.48087],[37.40746,48.48626],[37.39133,48.48781],[37.38876,48.49133],[37.38386,48.49179],[37.38047,48.4929],[37.37942,48.49403],[37.37764,48.49464],[37.38061,48.49678]]],[[[37.22361,48.41961],[37.21987,48.42936],[37.21987,48.4323],[37.2294,48.43742],[37.22824,48.44317],[37.24067,48.44429],[37.24222,48.43335],[37.24271,48.43018],[37.2444,48.42661],[37.23019,48.42587],[37.22363,48.4255],[37.22516,48.41979],[37.22361,48.41961]]],[[[37.18049,48.35268],[37.18566,48.3609],[37.19342,48.36166],[37.19432,48.35746],[37.19702,48.35483],[37.19904,48.35344],[37.20103,48.35364],[37.202,48.34958],[37.20109,48.3494],[37.19974,48.34905],[37.19871,48.34878],[37.19755,48.34789],[37.18552,48.34683],[37.18421,48.353],[37.18049,48.35268]]],[[[36.16409,47.69024],[36.16102,47.69316],[36.15355,47.69759],[36.14287,47.70086],[36.14021,47.70401],[36.13911,47.70646],[36.13604,47.71358],[36.14507,47.71828],[36.14703,47.72315],[36.14873,47.72364],[36.16368,47.72763],[36.17008,47.71917],[36.18046,47.72139],[36.18286,47.71887],[36.1684,47.71443],[36.15673,47.71155],[36.15647,47.70721],[36.15338,47.70329],[36.15484,47.70155],[36.15943,47.7021],[36.1681,47.68922],[36.16409,47.69024]]],[[[35.39767,50.74164],[35.39363,50.75245],[35.39137,50.75494],[35.39148,50.7568],[35.39328,50.76695],[35.39453,50.78303],[35.40474,50.77767],[35.4135,50.76882],[35.41952,50.75918],[35.41935,50.75057],[35.42094,50.74071],[35.41142,50.74071],[35.40893,50.73897],[35.40464,50.7381],[35.39767,50.74164]]]]},"properties":{"source":"ukrdaily","source_name":"UkrDailyUpdate","source_url":"https://map.ukrdailyupdate.com/","category":"gained","category_label":"Russian advance: became occupied","period":"7d","compared_with":"2026-08-18","snapshot_time":"2026-08-25","area_km2_approx":40.2}},{"type":"Feature","geometry":{"type":"MultiPolygon","coordinates":[[[[37.87763,48.90426],[37.86798,48.90676],[37.86818,48.91599],[37.8672,48.92493],[37.86264,48.93046],[37.86833,48.93294],[37.87353,48.93412],[37.8841,48.92794],[37.88201,48.9266],[37.88435,48.92489],[37.88687,48.92365],[37.88856,48.9219],[37.88854,48.91827],[37.88615,48.90383],[37.87763,48.90426]]],[[[37.61095,49.8289],[37.61212,49.82921],[37.61463,49.83085],[37.61756,49.83149],[37.62101,49.83266],[37.62321,49.83421],[37.62641,49.83749],[37.62271,49.84213],[37.62562,49.8444],[37.62858,49.84472],[37.62965,49.84929],[37.63316,49.85578],[37.63442,49.85758],[37.6444,49.85503],[37.64513,49.85082],[37.64552,49.84855],[37.65127,49.84241],[37.65153,49.84108],[37.64637,49.83221],[37.62938,49.82691],[37.62428,49.82704],[37.61601,49.82774],[37.61095,49.8289]]]]},"properties":{"source":"ukrdaily","source_name":"UkrDailyUpdate","source_url":"https://map.ukrdailyupdate.com/","category":"lost","category_label":"Ukrainian advance: became Ukrainian-held","period":"7d","compared_with":"2026-08-18","snapshot_time":"2026-08-25","area_km2_approx":9.1}},{"type":"Feature","geometry":{"type":"MultiPolygon","coordinates":[[[[37.62422,49.82705],[37.62938,49.82691],[37.64637,49.83221],[37.65153,49.84108],[37.65127,49.84241],[37.64552,49.84855],[37.64513,49.85082],[37.64983,49.85262],[37.66051,49.85096],[37.6645,49.84708],[37.66751,49.84196],[37.66911,49.83989],[37.64868,49.83032],[37.63242,49.82342],[37.62237,49.82441],[37.62444,49.82558],[37.62422,49.82705]]],[[[36.76046,48.02624],[36.7612,48.0312],[36.76305,48.04516],[36.78159,48.0499],[36.78571,48.05305],[36.79404,48.05007],[36.78204,48.03647],[36.77932,48.03355],[36.77271,48.02818],[36.76998,48.01095],[36.76046,48.02624]]]]},"properties":{"source":"ukrdaily","source_name":"UkrDailyUpdate","source_url":"https://map.ukrdailyupdate.com/","category":"occupied_to_contested","category_label":"Occupied became contested","period":"7d","compared_with":"2026-08-18","snapshot_time":"2026-08-25","area_km2_approx":7.7}},{"type":"Feature","geometry":{"type":"MultiPolygon","coordinates":[[[[37.82403,48.77803],[37.83545,48.7787],[37.84168,48.77771],[37.8485,48.77519],[37.85517,48.77135],[37.84719,48.76643],[37.82991,48.76594],[37.82599,48.76352],[37.81924,48.76073],[37.81014,48.75736],[37.80617,48.75976],[37.81381,48.76887],[37.8118,48.7728],[37.81888,48.77996],[37.82403,48.77803]]],[[[37.78908,48.82922],[37.79165,48.83487],[37.79886,48.83521],[37.81484,48.83662],[37.82003,48.83516],[37.82365,48.83259],[37.81765,48.8292],[37.81628,48.8279],[37.82183,48.82456],[37.82282,48.82169],[37.82287,48.81731],[37.78908,48.82922]]],[[[37.78276,48.72342],[37.77906,48.73289],[37.79966,48.73479],[37.80462,48.73428],[37.81009,48.73199],[37.8133,48.72431],[37.79735,48.72333],[37.79335,48.72319],[37.78276,48.72342]]],[[[37.79343,48.75261],[37.79453,48.75772],[37.79237,48.76306],[37.79344,48.76685],[37.80384,48.77307],[37.79913,48.77864],[37.7872,48.7822],[37.7745,48.78322],[37.76282,48.77875],[37.75724,48.77621],[37.749,48.77423],[37.746,48.7779],[37.75767,48.78294],[37.76402,48.78367],[37.77038,48.78667],[37.77699,48.79029],[37.78428,48.79057],[37.78814,48.78984],[37.78909,48.78814],[37.79407,48.78757],[37.79741,48.78678],[37.80145,48.78203],[37.80725,48.77707],[37.80605,48.77617],[37.80781,48.77308],[37.80752,48.77213],[37.80684,48.77123],[37.79644,48.7647],[37.7959,48.76399],[37.79598,48.76318],[37.79689,48.76224],[37.80479,48.75513],[37.80458,48.75308],[37.80205,48.7468],[37.79343,48.75261]]],[[[37.59136,48.46785],[37.59429,48.47357],[37.5962,48.48172],[37.59569,48.48411],[37.5962,48.48798],[37.59723,48.49173],[37.59903,48.4948],[37.60204,48.49614],[37.60414,48.4842],[37.60125,48.4824],[37.59824,48.47647],[37.59834,48.47493],[37.60532,48.4678],[37.60513,48.46545],[37.60351,48.4635],[37.60376,48.46153],[37.60001,48.46104],[37.58813,48.46184],[37.58311,48.46147],[37.58208,48.4652],[37.59136,48.46785]]],[[[37.3853,48.49682],[37.3891,48.50501],[37.39558,48.51556],[37.41547,48.51208],[37.42284,48.50677],[37.42369,48.50306],[37.42917,48.49971],[37.42329,48.49948],[37.41827,48.5013],[37.41492,48.50145],[37.41055,48.49405],[37.3853,48.49682]]],[[[36.99397,50.2851],[36.99964,50.27676],[37.00376,50.27325],[36.99277,50.26233],[36.97175,50.2688],[36.96691,50.26939],[36.96196,50.26972],[36.96806,50.27307],[36.97172,50.27687],[36.98383,50.27928],[36.98377,50.28612],[36.99239,50.29234],[36.99397,50.2851]]],[[[35.82867,47.48882],[35.83515,47.49234],[35.84267,47.49275],[35.85181,47.49266],[35.85347,47.49266],[35.86519,47.49596],[35.85952,47.48375],[35.85531,47.47979],[35.85087,47.47991],[35.84845,47.48247],[35.84518,47.48345],[35.844,47.48371],[35.84332,47.48615],[35.83874,47.48594],[35.83899,47.48478],[35.8384,47.48441],[35.83,47.48347],[35.82934,47.48571],[35.82585,47.48752],[35.82867,47.48882]]]]},"properties":{"source":"ukrdaily","source_name":"UkrDailyUpdate","source_url":"https://map.ukrdailyupdate.com/","category":"ukrainian_to_contested","category_label":"Ukrainian-held became contested","period":"7d","compared_with":"2026-08-18","snapshot_time":"2026-08-25","area_km2_approx":28.3}}]}