{"type":"FeatureCollection","features":[{"type":"Feature","geometry":{"type":"MultiPolygon","coordinates":[[[[37.38061,48.49678],[37.3853,48.49682],[37.41564,48.49342],[37.43616,48.48918],[37.43892,48.48991],[37.44118,48.48711],[37.44628,48.48516],[37.45686,48.48241],[37.45961,48.47792],[37.46313,48.47115],[37.46422,48.46642],[37.47141,48.4659],[37.47385,48.4651],[37.47226,48.46227],[37.47247,48.4609],[37.46972,48.46286],[37.46552,48.46386],[37.45777,48.46432],[37.45729,48.46497],[37.45667,48.4653],[37.45644,48.46706],[37.45599,48.46759],[37.45459,48.46811],[37.45431,48.46854],[37.45369,48.46871],[37.45281,48.46864],[37.45191,48.46908],[37.45039,48.47038],[37.44965,48.47429],[37.44494,48.48087],[37.40746,48.48626],[37.39133,48.48781],[37.38876,48.49133],[37.38386,48.49179],[37.38047,48.4929],[37.37942,48.49403],[37.37774,48.49461],[37.38061,48.49678]]],[[[37.22361,48.41961],[37.21987,48.42936],[37.21987,48.4323],[37.2294,48.43742],[37.22824,48.44317],[37.24069,48.44428],[37.24271,48.43018],[37.2444,48.42661],[37.22363,48.4255],[37.22516,48.41979],[37.22361,48.41961]]],[[[37.18566,48.3609],[37.19342,48.36166],[37.19432,48.35746],[37.19702,48.35483],[37.19904,48.35344],[37.20103,48.35364],[37.202,48.34958],[37.19871,48.34878],[37.19755,48.34789],[37.18552,48.34683],[37.18421,48.353],[37.1805,48.35268],[37.18566,48.3609]]]]},"properties":{"source":"ukrdaily","source_name":"UkrDailyUpdate","source_url":"https://map.ukrdailyupdate.com/","category":"gained","category_label":"Newly Russian-occupied","period":"1d","compared_with":"2026-08-24","snapshot_time":"2026-08-25","area_km2_approx":10.2}},{"type":"Feature","geometry":{"type":"Polygon","coordinates":[[[37.62444,49.82558],[37.62411,49.82778],[37.6277,49.82942],[37.63,49.83148],[37.6411,49.8326],[37.63902,49.83446],[37.6348,49.83476],[37.63607,49.84008],[37.63619,49.84747],[37.63309,49.85021],[37.63581,49.85195],[37.64271,49.84989],[37.64983,49.85262],[37.66051,49.85096],[37.6645,49.84708],[37.66751,49.84196],[37.66916,49.83991],[37.64868,49.83032],[37.63242,49.82342],[37.62237,49.82441],[37.62444,49.82558]]]},"properties":{"source":"ukrdaily","source_name":"UkrDailyUpdate","source_url":"https://map.ukrdailyupdate.com/","category":"lost","category_label":"No longer Russian-occupied","period":"1d","compared_with":"2026-08-24","snapshot_time":"2026-08-25","area_km2_approx":5.3}}]}