{"type":"FeatureCollection","features":[{"type":"Feature","geometry":{"type":"Point","coordinates":[38.35574,49.24528]},"properties":{"original":{"id":46933,"type":"Anti-aircraft systems","model":"9A316 TEL (for 9K317 'Buk-M2')","status":"Damaged","lost_by":"Russia","date":"2026-09-02","nearest_location":"Baranykivka, Svatove raion","geo":"49.245280,38.355740","unit":null,"tags":null},"source":"warspotting","source_name":"WarSpotting","source_url":"https://ukr.warspotting.net/","id":46933,"date":"2026-09-02","link":"https://ukr.warspotting.net/view/46933/","category":"Anti-aircraft systems","side":"Lost by Russia","color":"#E00000","description":"9A316 TEL (for 9K317 'Buk-M2') · Damaged · near Baranykivka, Svatove raion","orbat":[]}},{"type":"Feature","geometry":{"type":"Point","coordinates":[36.07905,47.66856]},"properties":{"original":{"id":47010,"type":"Infantry fighting vehicles","model":"BMP-1 or -2","status":"Destroyed","lost_by":"Russia","date":"2026-09-02","nearest_location":"Hirke, Polohy raion","geo":"47.66856,36.07905","unit":null,"tags":"Cope cage, Expanded cabin, Additional armour, Removed turret, Hedgehog"},"source":"warspotting","source_name":"WarSpotting","source_url":"https://ukr.warspotting.net/","id":47010,"date":"2026-09-02","link":"https://ukr.warspotting.net/view/47010/","category":"Infantry fighting vehicles","side":"Lost by Russia","color":"#E00000","description":"BMP-1 or -2 · Destroyed · near Hirke, Polohy raion · tags: Cope cage, Expanded cabin, Additional armour, Removed turret, Hedgehog","orbat":[]}}]}