{"type":"FeatureCollection","features":[{"type":"Feature","geometry":{"type":"Polygon","coordinates":[[[37.93454,49.21167],[37.9282,49.21948],[37.92713,49.22217],[37.92476,49.22328],[37.92235,49.22547],[37.92179,49.22658],[37.92535,49.22819],[37.92634,49.23144],[37.92986,49.23088],[37.93357,49.22397],[37.93701,49.22073],[37.94157,49.21867],[37.95211,49.21108],[37.94035,49.20682],[37.93514,49.20325],[37.93454,49.21167]]]},"properties":{"source":"ukrdaily","source_name":"UkrDailyUpdate","source_url":"https://map.ukrdailyupdate.com/","category":"lost","category_label":"No longer Russian-occupied","period":"1d","compared_with":"2026-09-26","snapshot_time":"2026-09-27","area_km2_approx":2.2}}]}