{"type":"FeatureCollection","features":[{"type":"Feature","geometry":null,"properties":{"source":"ua_mod","source_name":"Ministry of Defence of Ukraine","group":"official_ua","id":15952,"posted_utc":"2026-07-28T06:56:55+00:00","link":"https://t.me/ministry_of_defense_ua/15952","text":"У ніч із 28 липня 2022 року у фільтраційному таборі «Оленівка» росіяни вбили щонайменше 53 полонених оборонців «Азовсталі». Вони перебували під захистом міжнародного гуманітарного права, але держава-агресор не виконала обов’язку зберегти їхні життя.\nТепер щорічно в цей день ми вшановуємо українців та українок, військових і цивільних, які були закатовані або страчені в полоні. Схиляємо голови перед їхньою стійкістю. Поділяємо біль родин.\nРідні мають право знати правду про долю своїх близьких, повернути тіла та побачити винних на лаві підсудних. Поки хоча б одна родина чекає на відповідь, наша робота не завершена. Пам’ятаємо кожного. За всіх помстимося.","links":[],"original_html":"У ніч із 28 липня 2022 року у фільтраційному таборі «Оленівка» росіяни вбили щонайменше 53 полонених оборонців «Азовсталі». Вони перебували під захистом міжнародного гуманітарного права, але держава-агресор не виконала обов’язку зберегти їхні життя. <br/><br/>Тепер щорічно в цей день ми вшановуємо українців та українок, військових і цивільних, які були закатовані або страчені в полоні. Схиляємо голови перед їхньою стійкістю. Поділяємо біль родин. <br/><br/>Рідні мають право знати правду про долю своїх близьких, повернути тіла та побачити винних на лаві підсудних. Поки хоча б одна родина чекає на відповідь, наша робота не завершена. Пам’ятаємо кожного. За всіх помстимося."}},{"type":"Feature","geometry":null,"properties":{"source":"ua_mod","source_name":"Ministry of Defence of Ukraine","group":"official_ua","id":15953,"posted_utc":"2026-07-28T07:11:52+00:00","link":"https://t.me/ministry_of_defense_ua/15953","text":"Євгеній Хмара:\nНалаштовані на взаємовигідну оборонну співпрацю з Німеччиною.\nНімеччина є найбільшим партнером України за обсягами безпекової допомоги. Водночас Україна має те, що потрібно всім сильним арміям майбутнього, – реальний досвід сучасної війни та технології, що допомагають виконувати завдання та зберігати життя воїнів.\nГотові ділитися цим досвідом із партнерами. Не на один рік, а в межах співпраці на десятиріччя вперед.\nПро це говорили під час зустрічі з Послом Німеччини в Україні Гайко Томсом.","links":[],"original_html":"<b>Євгеній Хмара:</b><br/><br/>Налаштовані на взаємовигідну оборонну співпрацю з Німеччиною.<br/><br/>Німеччина є найбільшим партнером України за обсягами безпекової допомоги. Водночас Україна має те, що потрібно всім сильним арміям майбутнього, – реальний досвід сучасної війни та технології, що допомагають виконувати завдання та зберігати життя воїнів.<br/><br/>Готові ділитися цим досвідом із партнерами. Не на один рік, а в межах співпраці на десятиріччя вперед.<br/><br/>Про це говорили під час зустрічі з Послом Німеччини в Україні Гайко Томсом."}},{"type":"Feature","geometry":null,"properties":{"source":"ua_mod","source_name":"Ministry of Defence of Ukraine","group":"official_ua","id":15954,"posted_utc":"2026-07-28T07:12:02+00:00","link":"https://t.me/ministry_of_defense_ua/15954","text":"Євгеній Хмара:\nРозповів про наші потреби та кроки у війні – як симетричні, так і асиметричні. Україна готує нові сильні відповіді російському ворогу. Для цього нам потрібні швидкість та підтримка партнерів.\nКритичною залишається потреба в захисті неба. У цьому питанні роль і лідерство Німеччини мають велике значення. Запросив пришвидшення постачання ракет-перехоплювачів, здатних протидіяти балістиці. Розраховуємо на різні механізми, які дозволять швидше закрити цю потребу.\nВчасна допомога – це збережені життя українців, захищена критична інфраструктура та підприємства оборонної промисловості.\nВід імені українських воїнів подякував Німеччині та особисто пану Томсу за послідовну підтримку України.","links":[],"original_html":"<b>Євгеній Хмара:</b><br/><br/>Розповів про наші потреби та кроки у війні – як симетричні, так і асиметричні. Україна готує нові сильні відповіді російському ворогу. Для цього нам потрібні швидкість та підтримка партнерів.<br/><br/>Критичною залишається потреба в захисті неба. У цьому питанні роль і лідерство Німеччини мають велике значення. Запросив пришвидшення постачання ракет-перехоплювачів, здатних протидіяти балістиці. Розраховуємо на різні механізми, які дозволять швидше закрити цю потребу.<br/><br/>Вчасна допомога – це збережені життя українців, захищена критична інфраструктура та підприємства оборонної промисловості.<br/><br/>Від імені українських воїнів подякував Німеччині та особисто пану Томсу за послідовну підтримку України."}},{"type":"Feature","geometry":null,"properties":{"source":"ua_mod","source_name":"Ministry of Defence of Ukraine","group":"official_ua","id":15955,"posted_utc":"2026-07-28T11:29:52+00:00","link":"https://t.me/ministry_of_defense_ua/15955","text":"❗️ На 5 млрд грн у червні – українські військові замовили через Brave1 Market дрони, наземні роботи та засоби РЕБ і РЕР на рекордну суму.\n✅ Це найбільша сума замовлень за один місяць протягом всього періоду існування програми «єБали».\n✅ Техніка доставляється підрозділам у середньому за 8 днів.\n✅ На маркетплейсі вже доступно понад 1000 моделей дронів, наземних роботів і засобів РЕБ/РЕР.\n✅ Виробники бачать статистику: наскільки популярні їх моделі, скільки місій виконують, які підрозділи найбільше використовують.\nДопомагаємо військовим швидше отримувати потрібну техніку, а виробникам — вдосконалювати її за результатами реального використання.","links":[],"original_html":"<i class=\"emoji\" style=\"background-image:url('//telegram.org/img/emoji/40/E29D97.png')\"><b>❗️</b></i> На 5 млрд грн у червні – українські військові замовили через Brave1 Market дрони, наземні роботи та засоби РЕБ і РЕР на рекордну суму.<br/> <br/><i class=\"emoji\" style=\"background-image:url('//telegram.org/img/emoji/40/E29C85.png')\"><b>✅</b></i> Це найбільша сума замовлень за один місяць протягом всього періоду існування програми «єБали».<br/><i class=\"emoji\" style=\"background-image:url('//telegram.org/img/emoji/40/E29C85.png')\"><b>✅</b></i> Техніка доставляється підрозділам у середньому за 8 днів.<br/><i class=\"emoji\" style=\"background-image:url('//telegram.org/img/emoji/40/E29C85.png')\"><b>✅</b></i> На маркетплейсі вже доступно понад 1000 моделей дронів, наземних роботів і засобів РЕБ/РЕР.<br/><i class=\"emoji\" style=\"background-image:url('//telegram.org/img/emoji/40/E29C85.png')\"><b>✅</b></i> Виробники бачать статистику: наскільки популярні їх моделі, скільки місій виконують, які підрозділи найбільше використовують. <br/> <br/>Допомагаємо військовим швидше отримувати потрібну техніку, а виробникам — вдосконалювати її за результатами реального використання."}},{"type":"Feature","geometry":null,"properties":{"source":"ua_mod","source_name":"Ministry of Defence of Ukraine","group":"official_ua","id":15956,"posted_utc":"2026-07-28T13:32:58+00:00","link":"https://t.me/ministry_of_defense_ua/15956","text":"❗️ Попередня служба впливає на тривалість відстрочки, яку військовий отримує після завершення нового контракту.\nЧим довше ви служили до підписання нового контракту, тим довшою може бути відстрочка. Її тривалість також залежить від виду контракту і часу виконання бойових завдань.\nНаприклад: військовий служить із 2022 року, в 2026 році він підписує 10-місячний піхотно-штурмовий контракт і 5 місяців виконує бойові завдання.\nПісля завершення контракту він отримає 3 роки 9 місяців відстрочки, яка нараховується таким чином:\n☑️ 6 місяців — базова відстрочка по завершенні контракту;\n☑️ 24 місяці — по 6 місяців за кожен рік служби з 2022 до 2026-го;\n☑️ 15 місяців — по 3 місяці за кожен місяць виконання бойових завдань.\nРазом: 6 + 24 + 15 = 45 місяців, тобто 3 роки 9 місяців відстрочки.\n🔗 Інші приклади розрахунків тривалості відстрочки за новими мотиваційними контрактами: https://bit.ly/chas-perekhodu-na-novyi-kontrakt\nЗ питань нових контрактів діє гаряча лінія Міністерства оборони України – 1519.","links":["https://bit.ly/chas-perekhodu-na-novyi-kontrakt"],"original_html":"<div class=\"tgme_widget_message_text js-message_text\" dir=\"auto\"><i class=\"emoji\" style=\"background-image:url('//telegram.org/img/emoji/40/E29D97.png')\"><b>❗️</b></i> Попередня служба впливає на тривалість відстрочки, яку військовий отримує після завершення нового контракту.<br/> <br/>Чим довше ви служили до підписання нового контракту, тим довшою може бути відстрочка. Її тривалість також залежить від виду контракту і часу виконання бойових завдань.<br/> <br/>Наприклад: військовий служить із 2022 року, в 2026 році він підписує 10-місячний піхотно-штурмовий контракт і 5 місяців виконує бойові завдання.<br/> <br/>Після завершення контракту він отримає<b> 3 роки 9 місяців відстрочки</b>, яка нараховується таким чином:<br/> <br/><i class=\"emoji\" style=\"background-image:url('//telegram.org/img/emoji/40/E29891.png')\"><b>☑️</b></i> 6 місяців — базова відстрочка по завершенні контракту;<br/><i class=\"emoji\" style=\"background-image:url('//telegram.org/img/emoji/40/E29891.png')\"><b>☑️</b></i> 24 місяці — по 6 місяців за кожен рік служби з 2022 до 2026-го;<br/><i class=\"emoji\" style=\"background-image:url('//telegram.org/img/emoji/40/E29891.png')\"><b>☑️</b></i> 15 місяців — по 3 місяці за кожен місяць виконання бойових завдань.<br/> <br/>Разом: 6 + 24 + 15 = 45 місяців, тобто 3 роки 9 місяців відстрочки.<br/> <br/><i class=\"emoji\" style=\"background-image:url('//telegram.org/img/emoji/40/F09F9497.png')\"><b>🔗</b></i> Інші приклади розрахунків тривалості відстрочки за новими мотиваційними контрактами: <a href=\"https://bit.ly/chas-perekhodu-na-novyi-kontrakt\" target=\"_blank\" rel=\"noopener\">https://bit.ly/chas-perekhodu-na-novyi-kontrakt</a><br/> <br/>З питань нових контрактів діє гаряча лінія Міністерства оборони України – 1519."}},{"type":"Feature","geometry":null,"properties":{"source":"ua_mod","source_name":"Ministry of Defence of Ukraine","group":"official_ua","id":15961,"posted_utc":"2026-07-28T15:02:26+00:00","link":"https://t.me/ministry_of_defense_ua/15961","text":"📌 Brave1 і НАТО приймають заявки на першу спільну грантову програму UNITE – Brave NATO.\nПрограма UNITE – Brave NATO допомагає довести успішні прототипи оборонних технологій до серійного виробництва та застосування на полі бою.\n• До участі в конкурсі допускаються спільні команди: українська компанія + компанія з країни НАТО.\n• Конкурс присвячений розвитку дронових спроможностей України, захисту від ворожих дронів і посиленню ППО.\n• Переможці зможуть отримати на розробку спільних рішень, залежно від типу технології, до 250 тисяч або до 500 тисяч євро для кожної сторони.\n• Заявки на перший етап приймають до 3 серпня 2026 року.\n🔗 Ознайомитися з детальними умовами участі та подати запит можна за посиланням.","links":["https://prozorro.gov.ua/uk/framework/UA-F-2026-07-28-000001"],"original_html":"<b><i class=\"emoji\" style=\"background-image:url('//telegram.org/img/emoji/40/F09F938C.png')\"><b>📌</b></i></b> <b>Brave1 і НАТО приймають заявки на першу спільну грантову програму UNITE – Brave NATO.<br/></b> <br/>Програма UNITE – Brave NATO допомагає довести успішні прототипи оборонних технологій до серійного виробництва та застосування на полі бою.<br/> <br/>• До участі в конкурсі допускаються спільні команди: українська компанія + компанія з країни НАТО.<br/>• Конкурс присвячений розвитку дронових спроможностей України, захисту від ворожих дронів і посиленню ППО.<br/>• Переможці зможуть отримати на розробку спільних рішень, залежно від типу технології, до 250 тисяч або до 500 тисяч євро для кожної сторони.<br/>• Заявки на перший етап приймають до 3 серпня 2026 року.<br/> <br/><i><i class=\"emoji\" style=\"background-image:url('//telegram.org/img/emoji/40/F09F9497.png')\"><b>🔗</b></i> Ознайомитися з детальними умовами участі та подати запит можна </i><a href=\"https://prozorro.gov.ua/uk/framework/UA-F-2026-07-28-000001\" target=\"_blank\" rel=\"noopener\" onclick=\"return confirm('Open this link?\\n\\n'+this.href);\"><i>за посиланням</i></a><i>.</i>"}}]}