{"type":"FeatureCollection","features":[{"type":"Feature","geometry":null,"properties":{"source":"ru_mod","source_name":"Ministry of Defence of Russia","group":"official_ru","id":68004,"posted_utc":"2026-10-07T02:07:02+00:00","link":"https://t.me/mod_russia/68004","text":"⚔️ Артиллеристы дают жару\nРасчеты гаубиц Д-30 группировки «Север» уничтожили пункт управления БПЛА и живую силу подразделений ВСУ в Харьковской области.\n🔹 Канал Минобороны России в MAКС – боевая работа 24/7","links":["https://max.ru/morf"],"original_html":"<tg-emoji emoji-id=\"5355272791555862549\"><i class=\"emoji\" style=\"background-image:url('//telegram.org/img/emoji/40/E29A94.png')\"><b>⚔️</b></i></tg-emoji> <b>Артиллеристы дают жару</b><br/><br/>Расчеты гаубиц Д-30 группировки «Север» <b>уничтожили пункт управления БПЛА и живую силу подразделений ВСУ</b> в Харьковской области.<br/><br/><tg-emoji emoji-id=\"5269510734265483362\"><i class=\"emoji\" style=\"background-image:url('//telegram.org/img/emoji/40/F09F94B9.png')\"><b>🔹</b></i></tg-emoji> <a href=\"https://max.ru/morf\" target=\"_blank\" rel=\"noopener\" onclick=\"return confirm('Open this link?\\n\\n'+this.href);\">Канал Минобороны России в MAКС – боевая работа 24/7</a>"}},{"type":"Feature","geometry":null,"properties":{"source":"ru_mod","source_name":"Ministry of Defence of Russia","group":"official_ru","id":68005,"posted_utc":"2026-10-07T03:43:01+00:00","link":"https://t.me/mod_russia/68005","text":"💥 Атака из засады: расчеты ударных дронов группировки «Север» настигли солдат ВСУ в Харьковской области.\nНедолгая выдалась прогулка.\n#ВойскаБПС\n🔹 Курс на MAКС!","links":["https://max.ru/morf"],"original_html":"<tg-emoji emoji-id=\"5449682610877918293\"><i class=\"emoji\" style=\"background-image:url('//telegram.org/img/emoji/40/F09F92A5.png')\"><b>💥</b></i></tg-emoji> <b>Атака из засады:</b> расчеты ударных дронов группировки «Север» настигли солдат ВСУ в Харьковской области. <br/><br/>Недолгая выдалась прогулка.<br/><br/><a href=\"?q=%23%D0%92%D0%BE%D0%B9%D1%81%D0%BA%D0%B0%D0%91%D0%9F%D0%A1\">#ВойскаБПС</a><br/><tg-emoji emoji-id=\"5269510734265483362\"><i class=\"emoji\" style=\"background-image:url('//telegram.org/img/emoji/40/F09F94B9.png')\"><b>🔹</b></i></tg-emoji> <a href=\"https://max.ru/morf\" target=\"_blank\" rel=\"noopener\" onclick=\"return confirm('Open this link?\\n\\n'+this.href);\">Курс на MAКС&#33;</a>"}},{"type":"Feature","geometry":null,"properties":{"source":"ru_mod","source_name":"Ministry of Defence of Russia","group":"official_ru","id":68006,"posted_utc":"2026-10-07T05:09:15+00:00","link":"https://t.me/mod_russia/68006","text":"❗️ Сегодня ночью Вооруженными Силами Российской Федерации в результате массированного удара высокоточным оружием наземного, морского и воздушного базирования, беспилотными летательными аппаратами поражены предприятия военно-промышленного комплекса Украины, задействованные в интересах компании «Файер Пойнт» для производства и хранения крылатых ракет «Фламинго» и беспилотных летательных аппаратов большой и средней дальности в Киеве, Киевской, Черниговской, Кировоградской, Днепропетровской, Полтавской и Харьковской областях, а также объекты портовой и судоремонтной инфраструктуры в Одесской области, морские суда, задействованные в интересах ВСУ.\n🔹 Минобороны России","links":["https://max.ru/morf"],"original_html":"<tg-emoji emoji-id=\"5447116342148753425\"><i class=\"emoji\" style=\"background-image:url('//telegram.org/img/emoji/40/E29D97.png')\"><b>❗️</b></i></tg-emoji> Сегодня ночью Вооруженными Силами Российской Федерации в результате массированного удара высокоточным оружием наземного, морского и воздушного базирования, беспилотными летательными аппаратами <b>поражены предприятия военно-промышленного комплекса Украины, задействованные в интересах компании «Файер Пойнт»</b> для производства и хранения <b>крылатых ракет «Фламинго» и беспилотных летательных аппаратов большой и средней дальности</b> в <b>Киеве, Киевской, Черниговской, Кировоградской, Днепропетровской, Полтавской и Харьковской областях,</b> а также <b>объекты портовой и судоремонтной инфраструктуры</b> в <b>Одесской области</b>, <b>морские суда, задействованные в интересах ВСУ</b>.<br/><br/><tg-emoji emoji-id=\"5269510734265483362\"><i class=\"emoji\" style=\"background-image:url('//telegram.org/img/emoji/40/F09F94B9.png')\"><b>🔹</b></i></tg-emoji> <a href=\"https://max.ru/morf\" target=\"_blank\" rel=\"noopener\" onclick=\"return confirm('Open this link?\\n\\n'+this.href);\">Минобороны России</a>"}},{"type":"Feature","geometry":null,"properties":{"source":"ru_mod","source_name":"Ministry of Defence of Russia","group":"official_ru","id":68007,"posted_utc":"2026-10-07T05:42:22+00:00","link":"https://t.me/mod_russia/68007","text":"⚡️ В течение прошедшей ночи дежурными силами ПВО перехвачены и уничтожены 311 украинских беспилотных летательных аппаратов самолетного типа над территориями Белгородской, Брянской, Курской, Тульской, Орловской, Липецкой, Воронежской, Смоленской, Тамбовской, Калужской, Саратовской, Самарской, Пензенской, Ростовской, Волгоградской областей, Пермского края, Республики Крым и над акваториями Черного и Азовского морей.\n🔹 Курс на MAКС!","links":["https://max.ru/morf"],"original_html":"<tg-emoji emoji-id=\"5449911936361724483\"><i class=\"emoji\" style=\"background-image:url('//telegram.org/img/emoji/40/E29AA1.png')\"><b>⚡️</b></i></tg-emoji> В течение прошедшей ночи дежурными силами ПВО <b>перехвачены и уничтожены 311 украинских беспилотных летательных аппаратов самолетного типа</b> над территориями Белгородской, Брянской, Курской, Тульской, Орловской, Липецкой, Воронежской, Смоленской, Тамбовской, Калужской, Саратовской, Самарской, Пензенской, Ростовской, Волгоградской областей, Пермского края, Республики Крым и над акваториями Черного и Азовского морей.<br/><br/><tg-emoji emoji-id=\"5269510734265483362\"><i class=\"emoji\" style=\"background-image:url('//telegram.org/img/emoji/40/F09F94B9.png')\"><b>🔹</b></i></tg-emoji> <a href=\"https://max.ru/morf\" target=\"_blank\" rel=\"noopener\" onclick=\"return confirm('Open this link?\\n\\n'+this.href);\">Курс на MAКС&#33;</a>"}},{"type":"Feature","geometry":null,"properties":{"source":"ru_mod","source_name":"Ministry of Defence of Russia","group":"official_ru","id":68008,"posted_utc":"2026-10-07T05:44:52+00:00","link":"https://t.me/mod_russia/68008","text":"💥 Разобрали «гнездо» вражеских дронов\nРасчёт самоходной гаубицы «Мста-С» группировки войск «Запад» разнес вражеский пункт управления БПЛА на Харьковском направлении. Цель в работу артиллеристам передали расчеты разведывательных дронов.\n▫️ Канал Минобороны России в MAКС – источник мощных новостей","links":["https://max.ru/morf"],"original_html":"<tg-emoji emoji-id=\"5449682610877918293\"><i class=\"emoji\" style=\"background-image:url('//telegram.org/img/emoji/40/F09F92A5.png')\"><b>💥</b></i></tg-emoji> <b>Разобрали «гнездо» вражеских дронов</b><br/><br/>Расчёт самоходной гаубицы «Мста-С» группировки войск «Запад» <b>разнес вражеский пункт управления БПЛА</b> на Харьковском направлении. Цель в работу артиллеристам передали расчеты разведывательных дронов.<br/><br/><tg-emoji emoji-id=\"5352532894478793783\"><i class=\"emoji\" style=\"background-image:url('//telegram.org/img/emoji/40/E296AB.png')\"><b>▫️</b></i></tg-emoji> <a href=\"https://max.ru/morf\" target=\"_blank\" rel=\"noopener\" onclick=\"return confirm('Open this link?\\n\\n'+this.href);\">Канал Минобороны России в MAКС – источник мощных новостей</a>"}},{"type":"Feature","geometry":null,"properties":{"source":"ru_mod","source_name":"Ministry of Defence of Russia","group":"official_ru","id":68009,"posted_utc":"2026-10-07T06:22:24+00:00","link":"https://t.me/mod_russia/68009","text":"Был сухогруз, стал – водовоз\nРасчеты «Герань-4 Сикер» ударили по сухогрузу, который использовался для доставки военных грузов ВСУ.\n📍 порт Южный, Одесская область\n#ВойскаБПС\n🔹 Канал Минобороны России в MAКС – боевая работа 24/7","links":["https://max.ru/morf"],"original_html":"<b>Был сухогруз, стал – водовоз</b><br/><br/>Расчеты «Герань-4 Сикер» ударили по сухогрузу, который использовался для доставки военных грузов ВСУ.<br/><br/><tg-emoji emoji-id=\"5469680584198483528\"><i class=\"emoji\" style=\"background-image:url('//telegram.org/img/emoji/40/F09F938D.png')\"><b>📍</b></i></tg-emoji> <i>порт&nbsp;Южный, Одесская область</i><br/><br/><a href=\"?q=%23%D0%92%D0%BE%D0%B9%D1%81%D0%BA%D0%B0%D0%91%D0%9F%D0%A1\">#ВойскаБПС</a><br/><tg-emoji emoji-id=\"5269510734265483362\"><i class=\"emoji\" style=\"background-image:url('//telegram.org/img/emoji/40/F09F94B9.png')\"><b>🔹</b></i></tg-emoji> <a href=\"https://max.ru/morf\" target=\"_blank\" rel=\"noopener\" onclick=\"return confirm('Open this link?\\n\\n'+this.href);\">Канал Минобороны России в MAКС – боевая работа 24/7</a>"}},{"type":"Feature","geometry":null,"properties":{"source":"ru_mod","source_name":"Ministry of Defence of Russia","group":"official_ru","id":68010,"posted_utc":"2026-10-07T06:38:39+00:00","link":"https://t.me/mod_russia/68010","text":"⬆️ Герань опять на высоте: поражено хранилище горюче-смазочных материалов в порту Черноморск в Одесской области.\n#ВойскаБПС\n▫️ Канал Минобороны России в MAКС – источник мощных новостей","links":["https://t.me/mod_russia/68009","https://max.ru/morf"],"original_html":"<tg-emoji emoji-id=\"5469871229206816979\"><i class=\"emoji\" style=\"background-image:url('//telegram.org/img/emoji/40/E2AC86.png')\"><b>⬆️</b></i></tg-emoji> <b>Герань </b><a href=\"https://t.me/mod_russia/68009\" target=\"_blank\" rel=\"noopener\" onclick=\"return confirm('Open this link?\\n\\n'+this.href);\"><b>опять</b></a><b> на высоте: </b>поражено хранилище горюче-смазочных материалов в порту Черноморск в Одесской области.<br/><br/><a href=\"?q=%23%D0%92%D0%BE%D0%B9%D1%81%D0%BA%D0%B0%D0%91%D0%9F%D0%A1\">#ВойскаБПС</a><br/><tg-emoji emoji-id=\"5352532894478793783\"><i class=\"emoji\" style=\"background-image:url('//telegram.org/img/emoji/40/E296AB.png')\"><b>▫️</b></i></tg-emoji> <a href=\"https://max.ru/morf\" target=\"_blank\" rel=\"noopener\" onclick=\"return confirm('Open this link?\\n\\n'+this.href);\">Канал Минобороны России в MAКС – источник мощных новостей</a>"}},{"type":"Feature","geometry":null,"properties":{"source":"ru_mod","source_name":"Ministry of Defence of Russia","group":"official_ru","id":68011,"posted_utc":"2026-10-07T06:55:31+00:00","link":"https://t.me/mod_russia/68011","text":"❗️ Сегодня ночью Вооруженными Силами Российской Федерации в результате массированного удара высокоточным оружием наземного, морского и воздушного базирования, беспилотными летательными аппаратами нанесены удары по предприятиям военно-промышленного комплекса Украины в Киеве, Киевской, Черниговской, Кировоградской, Днепропетровской, Полтавской и Харьковской областях, а также объектам портовой и судоремонтной инфраструктуры в Одесской области, морским судам, задействованным в интересах ВСУ.\n💥  В результате удара поражены:\n📍 в городе Киеве и Киевской области:\n▫️ промышленное предприятие (ООО «Умные боеприпасы») в Киеве, осуществляющее сборку и хранение крылатых ракет FP-5 «Фламинго», оперативно-тактических ракет FP-9, а также комплектующих к ним;\n▫️ цех сборки и место хранения беспилотных летательных аппаратов (ЧАО «Фанплит») в Киеве, на базе которого осуществляется производство комплектующих для крылатых ракет FP-5 «Фламинго», и также БпЛА большой и средней дальности FP-1, FP-2;\n▫️ завод (ПАО «Киевский картонно-бумажный комбинат») в н.п. Обухов Киевской области, на базе которого организовано производство и хранение крылатых ракет FP-5 «Фламинго», а также комплектующих к ним;\n📍 в Черниговской области:\n▫️ промышленное предприятие (ТД «Пластмасс-Прилуки») в н.п. Прилуки, осуществляющее производство и хранение комплектующих для крылатых ракет FP-5 «Фламинго»;\n📍 в Кировоградской области:\n▫️ цех «Группы промышленных предприятий «Александрия» в н.п. Александрия по производству комплектующих для беспилотных летательных аппаратов большой и средней дальности, в том числе самолетного типа;\n📍 в Днепропетровской области:\n▫️ предприятие ракетно-космической промышленности (ГППО «Южный машиностроительный завод имени О.Макарова») в Днепре, осуществляющее производство, хранение и поставку ВСУ крылатых ракет FP-5 «Фламинго», а также БпЛА большой и средней дальности FP-1, FP-2;\n📍 в Полтавской области:\n▫️ производственное предприятие (ПАО «Автокраз») в н.п. Кременчуг, осуществляющее производство и хранение специализированных шасси для пусковых установок крылатых ракет FP-5 «Фламинго»;\n▫️ табачная фабрика «JTI Украина» в н.п. Кременчуг, на производственных мощностях предприятия организован выпуск боеприпасов для стрелкового оружия, предназначенных для обеспечения потребностей ВСУ;\n📍 в Харьковской области:\n▫️ механический завод в н.п. Лозовая, осуществляющий сборку и хранение крылатых ракет FP-5 «Фламинго», а также комплектующих к ним;\n📍 в Одесской области:\n▫️ завод «Дунай судоремонт» в порту Измаил, осуществляющий производство и хранение безэкипажных катеров и комплектующих к ним;\n📍 в порту Одесса морское судно типа «сухогруз», доставлявшее грузы военного и двойного назначения для обеспечения ВСУ.\n🔹 Минобороны России","links":["https://max.ru/morf"],"original_html":"<tg-emoji emoji-id=\"5447116342148753425\"><i class=\"emoji\" style=\"background-image:url('//telegram.org/img/emoji/40/E29D97.png')\"><b>❗️</b></i></tg-emoji> Сегодня ночью <b>Вооруженными Силами Российской Федерации в результате массированного удара высокоточным оружием наземного, морского и воздушного базирования, беспилотными летательными аппаратами нанесены удары</b> по предприятиям военно-промышленного комплекса Украины в Киеве, Киевской, Черниговской, Кировоградской, Днепропетровской, Полтавской и Харьковской областях, а также объектам портовой и судоремонтной инфраструктуры в Одесской области, морским судам, задействованным в интересах ВСУ.<br/><br/><tg-emoji emoji-id=\"5449682610877918293\"><i class=\"emoji\" style=\"background-image:url('//telegram.org/img/emoji/40/F09F92A5.png')\"><b>💥</b></i></tg-emoji>  <b>В результате удара поражены</b>:<br/><br/><tg-emoji emoji-id=\"5449396879588614682\"><i class=\"emoji\" style=\"background-image:url('//telegram.org/img/emoji/40/F09F938D.png')\"><b>📍</b></i></tg-emoji> <b>в городе Киеве и Киевской области:</b><br/><tg-emoji emoji-id=\"5469903849483431273\"><i class=\"emoji\" style=\"background-image:url('//telegram.org/img/emoji/40/E296AB.png')\"><b>▫️</b></i></tg-emoji> <b>промышленное предприятие (ООО «Умные боеприпасы»)</b> в Киеве, осуществляющее сборку и хранение крылатых ракет FP-5 «Фламинго», оперативно-тактических ракет FP-9, а также комплектующих к ним;<br/><br/><tg-emoji emoji-id=\"5469903849483431273\"><i class=\"emoji\" style=\"background-image:url('//telegram.org/img/emoji/40/E296AB.png')\"><b>▫️</b></i></tg-emoji> <b>цех сборки и место хранения беспилотных летательных аппаратов (ЧАО «Фанплит»)</b> в Киеве, на базе которого осуществляется производство комплектующих для крылатых ракет FP-5 «Фламинго», и также БпЛА большой и средней дальности FP-1, FP-2;<br/><br/><tg-emoji emoji-id=\"5469903849483431273\"><i class=\"emoji\" style=\"background-image:url('//telegram.org/img/emoji/40/E296AB.png')\"><b>▫️</b></i></tg-emoji> <b>завод (ПАО «Киевский картонно-бумажный комбинат»)</b> в н.п. Обухов Киевской области, на базе которого организовано производство и хранение крылатых ракет FP-5 «Фламинго», а также комплектующих к ним;<br/><br/><tg-emoji emoji-id=\"5449396879588614682\"><i class=\"emoji\" style=\"background-image:url('//telegram.org/img/emoji/40/F09F938D.png')\"><b>📍</b></i></tg-emoji> <b>в Черниговской области:</b><br/><tg-emoji emoji-id=\"5469903849483431273\"><i class=\"emoji\" style=\"background-image:url('//telegram.org/img/emoji/40/E296AB.png')\"><b>▫️</b></i></tg-emoji> <b>промышленное предприятие (ТД «Пластмасс-Прилуки»)</b> в н.п. Прилуки, осуществляющее производство и хранение комплектующих для крылатых ракет FP-5 «Фламинго»;<br/><br/><tg-emoji emoji-id=\"5449396879588614682\"><i class=\"emoji\" style=\"background-image:url('//telegram.org/img/emoji/40/F09F938D.png')\"><b>📍</b></i></tg-emoji> <b>в Кировоградской области:</b><br/><tg-emoji emoji-id=\"5469903849483431273\"><i class=\"emoji\" style=\"background-image:url('//telegram.org/img/emoji/40/E296AB.png')\"><b>▫️</b></i></tg-emoji> <b>цех «Группы промышленных предприятий «Александрия»</b> в н.п. Александрия по производству комплектующих для беспилотных летательных аппаратов большой и средней дальности, в том числе самолетного типа;<br/><br/><tg-emoji emoji-id=\"5449396879588614682\"><i class=\"emoji\" style=\"background-image:url('//telegram.org/img/emoji/40/F09F938D.png')\"><b>📍</b></i></tg-emoji> <b>в Днепропетровской области:</b><br/><tg-emoji emoji-id=\"5469903849483431273\"><i class=\"emoji\" style=\"background-image:url('//telegram.org/img/emoji/40/E296AB.png')\"><b>▫️</b></i></tg-emoji> <b>предприятие ракетно-космической промышленности (ГППО «Южный машиностроительный завод имени О.Макарова»)</b> в Днепре, осуществляющее производство, хранение и поставку ВСУ крылатых ракет FP-5 «Фламинго», а также БпЛА большой и средней дальности FP-1, FP-2;<br/><br/><tg-emoji emoji-id=\"5449396879588614682\"><i class=\"emoji\" style=\"background-image:url('//telegram.org/img/emoji/40/F09F938D.png')\"><b>📍</b></i></tg-emoji> <b>в Полтавской области:</b><br/><tg-emoji emoji-id=\"5469903849483431273\"><i class=\"emoji\" style=\"background-image:url('//telegram.org/img/emoji/40/E296AB.png')\"><b>▫️</b></i></tg-emoji> <b>производственное предприятие (ПАО «Автокраз»)</b> в н.п. Кременчуг, осуществляющее производство и хранение специализированных шасси для пусковых установок крылатых ракет FP-5 «Фламинго»;<br/><br/><tg-emoji emoji-id=\"5469903849483431273\"><i class=\"emoji\" style=\"background-image:url('//telegram.org/img/emoji/40/E296AB.png')\"><b>▫️</b></i></tg-emoji> <b>табачная фабрика «JTI Украина»</b> в н.п. Кременчуг, на производственных мощностях предприятия организован выпуск боеприпасов для стрелкового оружия, предназначенных для обеспечения потребностей ВСУ;<br/><br/><tg-emoji emoji-id=\"5449396879588614682\"><i class=\"emoji\" style=\"background-image:url('//telegram.org/img/emoji/40/F09F938D.png')\"><b>📍</b></i></tg-emoji> <b>в Харьковской области:</b><br/><tg-emoji emoji-id=\"5469903849483431273\"><i class=\"emoji\" style=\"background-image:url('//telegram.org/img/emoji/40/E296AB.png')\"><b>▫️</b></i></tg-emoji> <b>механический завод</b> в н.п. Лозовая, осуществляющий сборку и хранение крылатых ракет FP-5 «Фламинго», а также комплектующих к ним;<br/><br/><tg-emoji emoji-id=\"5449396879588614682\"><i class=\"emoji\" style=\"background-image:url('//telegram.org/img/emoji/40/F09F938D.png')\"><b>📍</b></i></tg-emoji><b> в Одесской области:</b><br/><tg-emoji emoji-id=\"5469903849483431273\"><i class=\"emoji\" style=\"background-image:url('//telegram.org/img/emoji/40/E296AB.png')\"><b>▫️</b></i></tg-emoji> <b>завод «Дунай судоремонт»</b> в порту Измаил, осуществляющий производство и хранение безэкипажных катеров и комплектующих к ним;<br/><br/><tg-emoji emoji-id=\"5449396879588614682\"><i class=\"emoji\" style=\"background-image:url('//telegram.org/img/emoji/40/F09F938D.png')\"><b>📍</b></i></tg-emoji> в порту Одесса <b>морское судно типа «сухогруз»</b>, доставлявшее грузы военного и двойного назначения для обеспечения ВСУ.<br/><br/><tg-emoji emoji-id=\"5269510734265483362\"><i class=\"emoji\" style=\"background-image:url('//telegram.org/img/emoji/40/F09F94B9.png')\"><b>🔹</b></i></tg-emoji> <a href=\"https://max.ru/morf\" target=\"_blank\" rel=\"noopener\" onclick=\"return confirm('Open this link?\\n\\n'+this.href);\">Минобороны России</a>"}},{"type":"Feature","geometry":null,"properties":{"source":"ru_mod","source_name":"Ministry of Defence of Russia","group":"official_ru","id":68012,"posted_utc":"2026-10-07T06:56:28+00:00","link":"https://t.me/mod_russia/68012","text":"❗️ Сегодня ночью Вооруженными Силами Российской Федерации в результате массированного удара высокоточным оружием наземного, морского и воздушного базирования, беспилотными летательными аппаратами нанесены удары по предприятиям военно-промышленного комплекса…","links":[],"original_html":"<tg-emoji emoji-id=\"5447116342148753425\"><i class=\"emoji\" style=\"background-image:url('//telegram.org/img/emoji/40/E29D97.png')\"><b>❗️</b></i></tg-emoji> Сегодня ночью Вооруженными Силами Российской Федерации в результате массированного удара высокоточным оружием наземного, морского и воздушного базирования, беспилотными летательными аппаратами нанесены удары по предприятиям военно-промышленного комплекса…"}},{"type":"Feature","geometry":null,"properties":{"source":"ru_mod","source_name":"Ministry of Defence of Russia","group":"official_ru","id":68014,"posted_utc":"2026-10-07T08:34:42+00:00","link":"https://t.me/mod_russia/68014","text":"💥 ФАБы заходят без стука\nЭкипажи ВКС России отработали авиабомбами ФАБ-500 и ФАБ-3000 по вражеским пунктам временной дислокации.\n📍 Районы ударов: населенные пункты Красный Молочар в ДНР и Орехов в Запорожской области.\n▫️ Канал Минобороны России в MAКС – источник мощных новостей","links":["https://max.ru/morf"],"original_html":"<tg-emoji emoji-id=\"5449682610877918293\"><i class=\"emoji\" style=\"background-image:url('//telegram.org/img/emoji/40/F09F92A5.png')\"><b>💥</b></i></tg-emoji> <b>ФАБы заходят без стука</b><br/><br/><b>Экипажи ВКС России отработали авиабомбами ФАБ-500 и ФАБ-3000</b> по вражеским пунктам временной дислокации. <br/><br/><tg-emoji emoji-id=\"5449396879588614682\"><i class=\"emoji\" style=\"background-image:url('//telegram.org/img/emoji/40/F09F938D.png')\"><b>📍</b></i></tg-emoji> <b>Районы ударов</b>: населенные пункты Красный Молочар в ДНР и Орехов в Запорожской области. <br/><br/><tg-emoji emoji-id=\"5352532894478793783\"><i class=\"emoji\" style=\"background-image:url('//telegram.org/img/emoji/40/E296AB.png')\"><b>▫️</b></i></tg-emoji> <a href=\"https://max.ru/morf\" target=\"_blank\" rel=\"noopener\" onclick=\"return confirm('Open this link?\\n\\n'+this.href);\">Канал Минобороны России в MAКС – источник мощных новостей</a>"}},{"type":"Feature","geometry":null,"properties":{"source":"ru_mod","source_name":"Ministry of Defence of Russia","group":"official_ru","id":68015,"posted_utc":"2026-10-07T09:22:47+00:00","link":"https://t.me/mod_russia/68015","text":"📍 Подразделения группировки войск «Север» в Харьковской области продолжают сжимать кольцо окружения и расширять внешнюю зону контроля. В кольце окружения ведутся бои за освобождение населенных пунктов Николаевка, Варваровка, Резниково, Нефедовка и Лобановка Харьковской области.\n💥 Нанесено поражение формированиям противника в районах населенных пунктов Купино и Черное Харьковской области.\nПодробнее о ходе проведения специальной военной операции ➡️ в MAКС","links":["https://max.ru/morf/AaEVqaDeHgU"],"original_html":"<tg-emoji emoji-id=\"5449396879588614682\"><i class=\"emoji\" style=\"background-image:url('//telegram.org/img/emoji/40/F09F938D.png')\"><b>📍</b></i></tg-emoji> <b>Подразделения группировки войск «Север» в Харьковской области продолжают сжимать кольцо окружения и расширять внешнюю зону контроля.</b> В кольце окружения ведутся бои за освобождение населенных пунктов Николаевка, Варваровка, Резниково, Нефедовка и Лобановка Харьковской области.<br/>&nbsp;<br/><tg-emoji emoji-id=\"5449682610877918293\"><i class=\"emoji\" style=\"background-image:url('//telegram.org/img/emoji/40/F09F92A5.png')\"><b>💥</b></i></tg-emoji> <b>Нанесено поражение</b> формированиям противника в районах населенных пунктов Купино и Черное Харьковской области.<br/><br/>Подробнее о ходе проведения специальной военной операции <tg-emoji emoji-id=\"5469902676957357453\"><i class=\"emoji\" style=\"background-image:url('//telegram.org/img/emoji/40/E29EA1.png')\"><b>➡️</b></i></tg-emoji> <a href=\"https://max.ru/morf/AaEVqaDeHgU\" target=\"_blank\" rel=\"noopener\" onclick=\"return confirm('Open this link?\\n\\n'+this.href);\">в MAКС</a>"}},{"type":"Feature","geometry":null,"properties":{"source":"ru_mod","source_name":"Ministry of Defence of Russia","group":"official_ru","id":68016,"posted_utc":"2026-10-07T10:17:24+00:00","link":"https://t.me/mod_russia/68016","text":"🔥 Плохая крыша: операторы ударных дронов «Южной» группировки войск уничтожили пункт управления БПЛА в Семёновке на Краматорском направлении.\nУкраинские солдаты проявили фантазию и спрятались под грудой шифера и бревен, полагая, что такие места российские дроны не посещают. Посещают. 👊\n#ВойскаБПС\n🎮 Канал Минобороны России в MAКС – боевая работа 24/7. Присоединяйся!","links":["https://max.ru/morf"],"original_html":"<tg-emoji emoji-id=\"5449590921916082144\"><i class=\"emoji\" style=\"background-image:url('//telegram.org/img/emoji/40/F09F94A5.png')\"><b>🔥</b></i></tg-emoji><b> Плохая крыша</b>: операторы ударных дронов «Южной» группировки войск <b>уничтожили пункт управления БПЛА</b> в Семёновке на Краматорском направлении. <br/><br/>Украинские солдаты проявили фантазию и спрятались под грудой шифера и бревен, полагая, что такие места российские дроны не посещают. Посещают. <i class=\"emoji\" style=\"background-image:url('//telegram.org/img/emoji/40/F09F918A.png')\"><b>👊</b></i><br/><br/><a href=\"?q=%23%D0%92%D0%BE%D0%B9%D1%81%D0%BA%D0%B0%D0%91%D0%9F%D0%A1\">#ВойскаБПС</a><br/><tg-emoji emoji-id=\"5449767024165154360\"><i class=\"emoji\" style=\"background-image:url('//telegram.org/img/emoji/40/F09F8EAE.png')\"><b>🎮</b></i></tg-emoji> <a href=\"https://max.ru/morf\" target=\"_blank\" rel=\"noopener\" onclick=\"return confirm('Open this link?\\n\\n'+this.href);\">Канал Минобороны России в MAКС – боевая работа 24/7. Присоединяйся&#33;</a>"}},{"type":"Feature","geometry":null,"properties":{"source":"ru_mod","source_name":"Ministry of Defence of Russia","group":"official_ru","id":68017,"posted_utc":"2026-10-07T10:50:26+00:00","link":"https://t.me/mod_russia/68017","text":"«У нас много комплексов».\nИменно поэтому Ми-35 — это лучшая боевая машина, — считает летчик-оператор по имени Александр. Его отец служил на Ми-8, и наш герой, продолжая династию военных летчиков, тоже поступил в Сызранское высшее военное вертолетное училище.\nАлександр благодарен за помощь и поддержку командиру экипажа, инженерному составу, а особенно бортовым техникам. И конечно, тылу, который морально всегда рядом с летчиками — любимым женам и мамам, за то, что они любят, верят и ждут.\nРассказываем о бойцах в 📲 MAX,  📱 ВКонтакте и в 📱 Дзен","links":["https://max.ru/heroesofZ","https://vk.com/heroes0fz","http://dzen.ru/heroesofz"],"original_html":"<i>«У нас много комплексов».</i><br/><br/>Именно поэтому Ми-35 — это лучшая боевая машина, — считает <b>летчик-оператор по имени Александр</b>. Его отец служил на Ми-8, и наш герой, продолжая династию военных летчиков, тоже поступил в Сызранское высшее военное вертолетное училище. <br/><br/>Александр благодарен за помощь и поддержку командиру экипажа, инженерному составу, а особенно бортовым техникам. И конечно, тылу, который морально всегда рядом с летчиками — любимым женам и мамам, за то, что они любят, верят и ждут.<br/><br/><i>Рассказываем о бойцах в </i><i><tg-emoji emoji-id=\"5449407131675558756\"><i class=\"emoji\" style=\"background-image:url('//telegram.org/img/emoji/40/F09F93B2.png')\"><b>📲</b></i></tg-emoji></i><i> </i><a href=\"https://max.ru/heroesofZ\" target=\"_blank\" rel=\"noopener\" onclick=\"return confirm('Open this link?\\n\\n'+this.href);\"><i>MAX</i></a>,<i>  </i><i><tg-emoji emoji-id=\"5334853932915114338\"><i class=\"emoji\" style=\"background-image:url('//telegram.org/img/emoji/40/F09F93B1.png')\"><b>📱</b></i></tg-emoji></i><i> </i><a href=\"https://vk.com/heroes0fz\" target=\"_blank\" rel=\"noopener\" onclick=\"return confirm('Open this link?\\n\\n'+this.href);\"><i>ВКонтакте</i></a> <i>и в </i><i><tg-emoji emoji-id=\"5321533581472842536\"><i class=\"emoji\" style=\"background-image:url('//telegram.org/img/emoji/40/F09F93B1.png')\"><b>📱</b></i></tg-emoji></i><i> </i><a href=\"http://dzen.ru/heroesofz\" target=\"_blank\" rel=\"noopener\" onclick=\"return confirm('Open this link?\\n\\n'+this.href);\"><i>Дзен</i></a>"}},{"type":"Feature","geometry":null,"properties":{"source":"ru_mod","source_name":"Ministry of Defence of Russia","group":"official_ru","id":68018,"posted_utc":"2026-10-07T11:24:51+00:00","link":"https://t.me/mod_russia/68018","text":"👊 У Голубково пробились сквозь минный заслон\n💬 Боец 36-й отдельной мотострелковой бригады 29-й общевойсковой армии рассказал, как освобождали Голубково в Запорожской области:\n«Противник забросал всё вокруг минами и заграждениями, в том числе сбрасывал их с \"Бабы-яги\". Передвигаться приходилось аккуратно, постоянно смотреть под ноги. Из-за этого продвижение замедлялось».\nНо это не остановило наших штурмовиков. В ходе освобождения Голубково противник потерял:\n▫️ до роты живой силы,\n▫️ 2 боевые бронированные машины,\n▫️ 8 автомобилей,\n▫️ 12 единиц мототехники,\n▫️ 16 наземных роботизированных комплексов,\n▫️ более 30 тяжёлых гексакоптеров типа «Баба-Яга».\n🔹 Канал Минобороны России в MAКС – только для своих!","links":["https://t.me/mod_russia/67981","https://max.ru/morf"],"original_html":"<i class=\"emoji\" style=\"background-image:url('//telegram.org/img/emoji/40/F09F918A.png')\"><b>👊</b></i> <b>У Голубково пробились сквозь минный заслон</b><br/><br/><tg-emoji emoji-id=\"5447486370761176298\"><i class=\"emoji\" style=\"background-image:url('//telegram.org/img/emoji/40/F09F92AC.png')\"><b>💬</b></i></tg-emoji> Боец 36-й отдельной мотострелковой бригады 29-й общевойсковой армии рассказал, как освобождали <a href=\"https://t.me/mod_russia/67981\" target=\"_blank\" rel=\"noopener\" onclick=\"return confirm('Open this link?\\n\\n'+this.href);\">Голубково</a> в Запорожской области:<br/><br/><blockquote>«Противник забросал всё вокруг минами и заграждениями, в том числе сбрасывал их с &quot;Бабы-яги&quot;. Передвигаться приходилось аккуратно, постоянно смотреть под ноги. Из-за этого продвижение замедлялось».</blockquote><br/><br/>Но это не остановило наших штурмовиков. В ходе освобождения Голубково<b> противник потерял</b>:<br/><br/><tg-emoji emoji-id=\"5469903849483431273\"><i class=\"emoji\" style=\"background-image:url('//telegram.org/img/emoji/40/E296AB.png')\"><b>▫️</b></i></tg-emoji> до роты живой силы, <br/><tg-emoji emoji-id=\"5469903849483431273\"><i class=\"emoji\" style=\"background-image:url('//telegram.org/img/emoji/40/E296AB.png')\"><b>▫️</b></i></tg-emoji> 2 боевые бронированные машины, <br/><tg-emoji emoji-id=\"5469903849483431273\"><i class=\"emoji\" style=\"background-image:url('//telegram.org/img/emoji/40/E296AB.png')\"><b>▫️</b></i></tg-emoji> 8 автомобилей, <br/><tg-emoji emoji-id=\"5469903849483431273\"><i class=\"emoji\" style=\"background-image:url('//telegram.org/img/emoji/40/E296AB.png')\"><b>▫️</b></i></tg-emoji> 12 единиц мототехники, <br/><tg-emoji emoji-id=\"5469903849483431273\"><i class=\"emoji\" style=\"background-image:url('//telegram.org/img/emoji/40/E296AB.png')\"><b>▫️</b></i></tg-emoji> 16 наземных роботизированных комплексов,<br/><tg-emoji emoji-id=\"5469903849483431273\"><i class=\"emoji\" style=\"background-image:url('//telegram.org/img/emoji/40/E296AB.png')\"><b>▫️</b></i></tg-emoji> более 30 тяжёлых гексакоптеров типа «Баба-Яга».<br/><br/><tg-emoji emoji-id=\"5269510734265483362\"><i class=\"emoji\" style=\"background-image:url('//telegram.org/img/emoji/40/F09F94B9.png')\"><b>🔹</b></i></tg-emoji> <a href=\"https://max.ru/morf\" target=\"_blank\" rel=\"noopener\" onclick=\"return confirm('Open this link?\\n\\n'+this.href);\">Канал Минобороны России в MAКС – только для своих&#33;</a>"}},{"type":"Feature","geometry":null,"properties":{"source":"ru_mod","source_name":"Ministry of Defence of Russia","group":"official_ru","id":68019,"posted_utc":"2026-10-07T12:34:39+00:00","link":"https://t.me/mod_russia/68019","text":"Взрывная работа. Парни, спасибо!\n▫️ Сапёры 12-й отдельной гвардейской инженерной бригады группировки «Центр» обнаружили и обезвредили скрытый схрон с самодельными боеприпасами ВСУ в одной из многоэтажек освобождённого Красноармейска.\n🔹 Минобороны России","links":["https://max.ru/morf"],"original_html":"<b>Взрывная работа. Парни, спасибо&#33;</b><br/><br/><tg-emoji emoji-id=\"5249179106410525413\"><i class=\"emoji\" style=\"background-image:url('//telegram.org/img/emoji/40/E296AB.png')\"><b>▫️</b></i></tg-emoji> Сапёры 12-й отдельной гвардейской инженерной бригады группировки «Центр» <b>обнаружили и обезвредили скрытый схрон с самодельными боеприпасами ВСУ</b> в одной из многоэтажек освобождённого Красноармейска.<br/><br/><tg-emoji emoji-id=\"5269510734265483362\"><i class=\"emoji\" style=\"background-image:url('//telegram.org/img/emoji/40/F09F94B9.png')\"><b>🔹</b></i></tg-emoji> <a href=\"https://max.ru/morf\" target=\"_blank\" rel=\"noopener\" onclick=\"return confirm('Open this link?\\n\\n'+this.href);\">Минобороны России</a>"}},{"type":"Feature","geometry":null,"properties":{"source":"ru_mod","source_name":"Ministry of Defence of Russia","group":"official_ru","id":68020,"posted_utc":"2026-10-07T12:54:35+00:00","link":"https://t.me/mod_russia/68020","text":"Мосты под ударом\n💥 Расчеты отдельной бригады «Варяг» совместно с ВКС России поразили вантовый мост в Запорожской области. Точные удары ФАБов с УМПБ перекрыли логистический коридор, который ВСУ использовали для переброски военных грузов.\n🔹 Канал Минобороны России в MAКС – боевая работа 24/7","links":["https://max.ru/morf"],"original_html":"<b>Мосты под ударом</b><br/><br/><tg-emoji emoji-id=\"5449682610877918293\"><i class=\"emoji\" style=\"background-image:url('//telegram.org/img/emoji/40/F09F92A5.png')\"><b>💥</b></i></tg-emoji> Расчеты отдельной бригады «Варяг» совместно с ВКС России <b>поразили вантовый мост</b> в Запорожской области. Точные удары ФАБов с УМПБ перекрыли логистический коридор, который ВСУ использовали для переброски военных грузов.<br/><br/><tg-emoji emoji-id=\"5269510734265483362\"><i class=\"emoji\" style=\"background-image:url('//telegram.org/img/emoji/40/F09F94B9.png')\"><b>🔹</b></i></tg-emoji> <a href=\"https://max.ru/morf\" target=\"_blank\" rel=\"noopener\" onclick=\"return confirm('Open this link?\\n\\n'+this.href);\">Канал Минобороны России в MAКС – боевая работа 24/7</a>"}},{"type":"Feature","geometry":null,"properties":{"source":"ru_mod","source_name":"Ministry of Defence of Russia","group":"official_ru","id":68021,"posted_utc":"2026-10-07T13:29:27+00:00","link":"https://t.me/mod_russia/68021","text":"Закрыли небо, зарыли в землю\n💥 Подразделения Псковского гвардейского соединения ВДВ группировки войск «Центр» громят живую силу и технику врага, параллельно выжигая пункты управления и места запуска беспилотников.\n#ВойскаБПС\n🎮 Курс на MAКС!","links":["https://max.ru/morf"],"original_html":"<b>Закрыли небо, зарыли в землю</b><br/><br/><tg-emoji emoji-id=\"5449682610877918293\"><i class=\"emoji\" style=\"background-image:url('//telegram.org/img/emoji/40/F09F92A5.png')\"><b>💥</b></i></tg-emoji> Подразделения Псковского гвардейского соединения ВДВ группировки войск «Центр» громят живую силу и технику врага, параллельно выжигая пункты управления и места запуска беспилотников.<br/><br/><a href=\"?q=%23%D0%92%D0%BE%D0%B9%D1%81%D0%BA%D0%B0%D0%91%D0%9F%D0%A1\">#ВойскаБПС</a><br/><tg-emoji emoji-id=\"5449767024165154360\"><i class=\"emoji\" style=\"background-image:url('//telegram.org/img/emoji/40/F09F8EAE.png')\"><b>🎮</b></i></tg-emoji> <a href=\"https://max.ru/morf\" target=\"_blank\" rel=\"noopener\" onclick=\"return confirm('Open this link?\\n\\n'+this.href);\">Курс на MAКС&#33;</a>"}},{"type":"Feature","geometry":null,"properties":{"source":"ru_mod","source_name":"Ministry of Defence of Russia","group":"official_ru","id":68022,"posted_utc":"2026-10-07T14:36:59+00:00","link":"https://t.me/mod_russia/68022","text":"Тылы не отстают. Работаем!\n⏩ Подразделения 9-й бригады группировки «Центр» обеспечивают непрерывное снабжение на Добропольском направлении.\n💬 Боец с позывным Фил рассказал, что на передовую завозят всё необходимое: от топлива для генераторов и газа до продовольствия и сигарет. Опасные участки логисты преодолевают на квадроциклах, а на самые ближние позиции грузы доставляют с помощью «птичек».\n🔹 MAКС – территория СВОих","links":["https://max.ru/morf"],"original_html":"<b>Тылы не отстают. Работаем&#33;</b><br/><br/><tg-emoji emoji-id=\"5470088953983955103\"><i class=\"emoji\" style=\"background-image:url('//telegram.org/img/emoji/40/E28FA9.png')\"><b>⏩</b></i></tg-emoji> Подразделения 9-й бригады группировки «Центр» обеспечивают непрерывное снабжение на Добропольском направлении. <br/><br/><tg-emoji emoji-id=\"5447486370761176298\"><i class=\"emoji\" style=\"background-image:url('//telegram.org/img/emoji/40/F09F92AC.png')\"><b>💬</b></i></tg-emoji> Боец с позывным Фил рассказал, что на передовую завозят всё необходимое: от топлива для генераторов и газа до продовольствия и сигарет. Опасные участки логисты преодолевают на квадроциклах, а на самые ближние позиции грузы доставляют с помощью «птичек».<br/><br/><tg-emoji emoji-id=\"5269510734265483362\"><i class=\"emoji\" style=\"background-image:url('//telegram.org/img/emoji/40/F09F94B9.png')\"><b>🔹</b></i></tg-emoji> <a href=\"https://max.ru/morf\" target=\"_blank\" rel=\"noopener\" onclick=\"return confirm('Open this link?\\n\\n'+this.href);\">MAКС – территория СВОих</a>"}},{"type":"Feature","geometry":null,"properties":{"source":"ru_mod","source_name":"Ministry of Defence of Russia","group":"official_ru","id":68023,"posted_utc":"2026-10-07T15:11:10+00:00","link":"https://t.me/mod_russia/68023","text":"Штурм без пауз 💥\n👊 Подразделения войск БПС 51-й армии и морская пехота группировки «Центр» методично выбивают формирования ВСУ из Доброполья.\n▫️ Продвигаясь вглубь города, наши бойцы уже овладели территорией парковой зоны, домом культуры и двумя производственными сооружениями шахты «Добропольская».\n#ВойскаБПС\n🔹 Канал Минобороны России в MAКС – источник мощных новостей","links":["https://max.ru/morf"],"original_html":"<b>Штурм без пауз</b> <tg-emoji emoji-id=\"5449682610877918293\"><i class=\"emoji\" style=\"background-image:url('//telegram.org/img/emoji/40/F09F92A5.png')\"><b>💥</b></i></tg-emoji><br/><br/><i class=\"emoji\" style=\"background-image:url('//telegram.org/img/emoji/40/F09F918A.png')\"><b>👊</b></i> Подразделения войск БПС 51-й армии и морская пехота группировки «Центр» <b>методично выбивают формирования ВСУ</b> из Доброполья. <br/><br/><tg-emoji emoji-id=\"5352532894478793783\"><i class=\"emoji\" style=\"background-image:url('//telegram.org/img/emoji/40/E296AB.png')\"><b>▫️</b></i></tg-emoji> Продвигаясь вглубь города, наши бойцы уже овладели территорией парковой зоны, домом культуры и двумя производственными сооружениями шахты «Добропольская».<br/><br/><a href=\"?q=%23%D0%92%D0%BE%D0%B9%D1%81%D0%BA%D0%B0%D0%91%D0%9F%D0%A1\">#ВойскаБПС</a><br/><tg-emoji emoji-id=\"5269510734265483362\"><i class=\"emoji\" style=\"background-image:url('//telegram.org/img/emoji/40/F09F94B9.png')\"><b>🔹</b></i></tg-emoji> <a href=\"https://max.ru/morf\" target=\"_blank\" rel=\"noopener\" onclick=\"return confirm('Open this link?\\n\\n'+this.href);\">Канал Минобороны России в MAКС – источник мощных новостей</a>"}},{"type":"Feature","geometry":null,"properties":{"source":"ru_mod","source_name":"Ministry of Defence of Russia","group":"official_ru","id":68024,"posted_utc":"2026-10-07T15:59:07+00:00","link":"https://t.me/mod_russia/68024","text":"«Все, что видим, – уничтожаем»: «Алтай» о тотальном разгроме логистики ВСУ\nДроноводы из спецназа «Южной» группировки выносят противника в населенных пунктах Славянско-Краматорской агломерации.\nОператоры БПЛА молниеносно реагируют на все попытки противника сменить или обезопасить свои маршруты. Результат – огромное количество сожженной техники и нарушенная логистика подразделений ВСУ.\n💬  Подробности боевой работы рассказал заместитель командира группы 58-го отдельного батальона специального назначения с позывным «Алтай»:\n«Несем дежурство на их логистических маршрутах. Как дронами-«ждунами», так и просто в свободном поиске. Противник пытается как-то изменять маршруты логистики, пытается изменять время. Мы все эти изменения сразу фиксируем, начинаем уничтожать на новых маршрутах. Из уничтоженного западного много, конечно же. Начиная от каких-то грузовиков Volvo до американских САУ Paladin, банально «Хаммеров» каких-нибудь. Все, что видим, все уничтожаем».\n#ВойскаБПС\n🔹 Канал Минобороны России в MAКС – боевая работа 24/7. Присоединяйся!","links":["https://max.ru/morf"],"original_html":"<b>«Все, что видим, – уничтожаем»: «Алтай» о тотальном разгроме логистики ВСУ</b><br/><br/><i>Дроноводы из спецназа «Южной» группировки выносят противника в населенных пунктах Славянско-Краматорской агломерации.</i><br/><br/>Операторы БПЛА молниеносно реагируют на все попытки противника сменить или обезопасить свои маршруты. <b>Результат – огромное количество сожженной техники и нарушенная логистика подразделений ВСУ. <br/></b><br/><tg-emoji emoji-id=\"5447486370761176298\"><i class=\"emoji\" style=\"background-image:url('//telegram.org/img/emoji/40/F09F92AC.png')\"><b>💬</b></i></tg-emoji>  <b>Подробности боевой работы</b> рассказал заместитель командира группы 58-го отдельного батальона специального назначения с позывным «Алтай»:<br/><br/><blockquote>«Несем дежурство на их логистических маршрутах. Как дронами-«ждунами», так и просто в свободном поиске. Противник пытается как-то изменять маршруты логистики, пытается изменять время. Мы все эти изменения сразу фиксируем, начинаем уничтожать на новых маршрутах. Из уничтоженного западного много, конечно же. Начиная от каких-то грузовиков Volvo до американских САУ Paladin, банально «Хаммеров» каких-нибудь. Все, что видим, все уничтожаем». </blockquote><br/><br/><a href=\"?q=%23%D0%92%D0%BE%D0%B9%D1%81%D0%BA%D0%B0%D0%91%D0%9F%D0%A1\">#ВойскаБПС</a><br/><tg-emoji emoji-id=\"5269510734265483362\"><i class=\"emoji\" style=\"background-image:url('//telegram.org/img/emoji/40/F09F94B9.png')\"><b>🔹</b></i></tg-emoji> <a href=\"https://max.ru/morf\" target=\"_blank\" rel=\"noopener\" onclick=\"return confirm('Open this link?\\n\\n'+this.href);\">Канал Минобороны России в MAКС – боевая работа 24/7. Присоединяйся&#33;</a>"}},{"type":"Feature","geometry":null,"properties":{"source":"ru_mod","source_name":"Ministry of Defence of Russia","group":"official_ru","id":68025,"posted_utc":"2026-10-07T16:43:57+00:00","link":"https://t.me/mod_russia/68025","text":"💥 Доминация и в воздухе, и на земле: дроноводы «Рубикона» продолжают уничтожать цели в зоне спецоперации.\nПод удар попали👇\n▫️ автомобильная техника,\n▫️ наземные робототехнические комплексы,\n▫️ элементы системы связи,\n▫️ пункты управления БПЛА и временной дислокации личного состава,  полевые пункты хранения ГСМ и материальных средств,\n▫️ БПЛА противника различного типа.\n#ВойскаБПС\n🎮 Курс на MAКС!","links":["https://max.ru/morf"],"original_html":"<tg-emoji emoji-id=\"5449682610877918293\"><i class=\"emoji\" style=\"background-image:url('//telegram.org/img/emoji/40/F09F92A5.png')\"><b>💥</b></i></tg-emoji> <b>Доминация и в воздухе, и на земле: дроноводы «Рубикона» продолжают уничтожать цели в зоне спецоперации.</b><br/><br/>Под удар попали<i class=\"emoji\" style=\"background-image:url('//telegram.org/img/emoji/40/F09F9187.png')\"><b>👇</b></i><br/><br/><tg-emoji emoji-id=\"5469903849483431273\"><i class=\"emoji\" style=\"background-image:url('//telegram.org/img/emoji/40/E296AB.png')\"><b>▫️</b></i></tg-emoji> автомобильная техника,<br/><tg-emoji emoji-id=\"5469903849483431273\"><i class=\"emoji\" style=\"background-image:url('//telegram.org/img/emoji/40/E296AB.png')\"><b>▫️</b></i></tg-emoji> наземные робототехнические комплексы,<br/><tg-emoji emoji-id=\"5469903849483431273\"><i class=\"emoji\" style=\"background-image:url('//telegram.org/img/emoji/40/E296AB.png')\"><b>▫️</b></i></tg-emoji> элементы системы связи, <br/><tg-emoji emoji-id=\"5469903849483431273\"><i class=\"emoji\" style=\"background-image:url('//telegram.org/img/emoji/40/E296AB.png')\"><b>▫️</b></i></tg-emoji> пункты управления БПЛА и временной дислокации личного состава,  полевые пункты хранения ГСМ и материальных средств, <br/><tg-emoji emoji-id=\"5469903849483431273\"><i class=\"emoji\" style=\"background-image:url('//telegram.org/img/emoji/40/E296AB.png')\"><b>▫️</b></i></tg-emoji> БПЛА противника различного типа.<br/><br/><a href=\"?q=%23%D0%92%D0%BE%D0%B9%D1%81%D0%BA%D0%B0%D0%91%D0%9F%D0%A1\">#ВойскаБПС</a><br/><tg-emoji emoji-id=\"5449767024165154360\"><i class=\"emoji\" style=\"background-image:url('//telegram.org/img/emoji/40/F09F8EAE.png')\"><b>🎮</b></i></tg-emoji> <a href=\"https://max.ru/morf\" target=\"_blank\" rel=\"noopener\" onclick=\"return confirm('Open this link?\\n\\n'+this.href);\">Курс на MAКС&#33;</a>"}},{"type":"Feature","geometry":null,"properties":{"source":"ru_mod","source_name":"Ministry of Defence of Russia","group":"official_ru","id":68026,"posted_utc":"2026-10-07T17:51:22+00:00","link":"https://t.me/mod_russia/68026","text":"⚡️ В течение дня, с 8.00 до 20.00 мск, дежурными силами ПВО перехвачены и уничтожены 59 украинских беспилотных летательных аппаратов самолетного типа над территориями Белгородской, Брянской, Калужской, Курской, Ростовской, Смоленской, Тверской, Тульской областей, Республики Крым и над акваторией Черного моря.\n🔹 Минобороны России","links":["https://max.ru/morf"],"original_html":"<i class=\"emoji\" style=\"background-image:url('//telegram.org/img/emoji/40/E29AA1.png')\"><b>⚡️</b></i> В течение дня, с 8.00 до 20.00 мск, дежурными силами ПВО <b>перехвачены и уничтожены 59 украинских беспилотных летательных аппаратов самолетного типа</b> над территориями Белгородской, Брянской, Калужской, Курской, Ростовской, Смоленской, Тверской, Тульской областей, Республики Крым и над акваторией Черного моря.<br/><br/><tg-emoji emoji-id=\"5269510734265483362\"><i class=\"emoji\" style=\"background-image:url('//telegram.org/img/emoji/40/F09F94B9.png')\"><b>🔹</b></i></tg-emoji> <a href=\"https://max.ru/morf\" target=\"_blank\" rel=\"noopener\" onclick=\"return confirm('Open this link?\\n\\n'+this.href);\">Минобороны России</a>"}},{"type":"Feature","geometry":null,"properties":{"source":"ru_mod","source_name":"Ministry of Defence of Russia","group":"official_ru","id":68027,"posted_utc":"2026-10-07T18:03:21+00:00","link":"https://t.me/mod_russia/68027","text":"Трансляция прервется через три...\n🎮 Операторы БПЛА отдельной бригады «Варяг» отрабатывают по технике, военным объектам, а также высотным беспилотникам ВСУ.\n🔹 Канал Минобороны России в MAКС – боевая работа 24/7","links":["https://max.ru/morf"],"original_html":"<b>Трансляция прервется через три...</b><br/><br/><i class=\"emoji\" style=\"background-image:url('//telegram.org/img/emoji/40/F09F8EAE.png')\"><b>🎮</b></i> Операторы БПЛА отдельной бригады «Варяг» отрабатывают по технике, военным объектам, а также высотным беспилотникам ВСУ.<br/><br/><tg-emoji emoji-id=\"5269510734265483362\"><i class=\"emoji\" style=\"background-image:url('//telegram.org/img/emoji/40/F09F94B9.png')\"><b>🔹</b></i></tg-emoji> <a href=\"https://max.ru/morf\" target=\"_blank\" rel=\"noopener\" onclick=\"return confirm('Open this link?\\n\\n'+this.href);\">Канал Минобороны России в MAКС – боевая работа 24/7</a>"}},{"type":"Feature","geometry":null,"properties":{"source":"ru_mod","source_name":"Ministry of Defence of Russia","group":"official_ru","id":68028,"posted_utc":"2026-10-07T18:32:14+00:00","link":"https://t.me/mod_russia/68028","text":"📆 Главное за день\n💥 Звучит ракетная сюита: нанесли удары по предприятиям ВПК Украины в Киеве, Киевской, Черниговской, Кировоградской, Днепропетровской, Полтавской и Харьковской областях, а также объектам портовой и судоремонтной инфраструктуры в Одесской области, морским судам, задействованным в интересах ВСУ.\n▫️ Закручиваем гайки: в Харьковской области подразделения группировки «Север» продолжают сжимать кольцо окружения и расширять внешнюю зону контроля.\n🎯 Мосты под ударом: расчеты отдельной бригады «Варяг» совместно с ВКС России поразили вантовый мост в Запорожской области.\n🔥 ФАБы заходят без стука: экипажи ВКС отработали по вражеским пунктам временной дислокации в районах населенных пунктов Красный Молочар в ДНР и Орехов в Запорожской области.\n⬆️ «Герань» на высоте: в порту Южный в Одесской области ударили по сухогрузу, который использовался для доставки военных грузов ВСУ. Также поразили хранилище ГСМ в порту Черноморск в Одесской области.\n👊 Пробились сквозь минный заслон: боец 36-й отдельной мотострелковой бригады рассказал, как освобождали Голубково в Запорожской области.\nНа пути к Победе!\n#ИтогиДня\n🔹 Минобороны России","links":["https://t.me/mod_russia/68012","https://t.me/mod_russia/68011","https://t.me/mod_russia/68015","https://t.me/mod_russia/68020","https://t.me/mod_russia/68014","https://t.me/mod_russia/68009","https://t.me/mod_russia/68010","https://t.me/mod_russia/68018","https://max.ru/morf"],"original_html":"<tg-emoji emoji-id=\"5472282252048104170\"><i class=\"emoji\" style=\"background-image:url('//telegram.org/img/emoji/40/F09F9386.png')\"><b>📆</b></i></tg-emoji><b> Главное за день</b><br/><br/><tg-emoji emoji-id=\"5449682610877918293\"><i class=\"emoji\" style=\"background-image:url('//telegram.org/img/emoji/40/F09F92A5.png')\"><b>💥</b></i></tg-emoji> <a href=\"https://t.me/mod_russia/68012\" target=\"_blank\" rel=\"noopener\" onclick=\"return confirm('Open this link?\\n\\n'+this.href);\"><b>Звучит ракетная сюита</b></a>: <a href=\"https://t.me/mod_russia/68011\" target=\"_blank\" rel=\"noopener\" onclick=\"return confirm('Open this link?\\n\\n'+this.href);\">нанесли удары</a> по предприятиям ВПК Украины в Киеве, Киевской, Черниговской, Кировоградской, Днепропетровской, Полтавской и Харьковской областях, а также объектам портовой и судоремонтной инфраструктуры в Одесской области, морским судам, задействованным в интересах ВСУ.<br/><br/><tg-emoji emoji-id=\"5352532894478793783\"><i class=\"emoji\" style=\"background-image:url('//telegram.org/img/emoji/40/E296AB.png')\"><b>▫️</b></i></tg-emoji> <b>Закручиваем гайки</b>: в Харьковской области подразделения группировки «Север» <a href=\"https://t.me/mod_russia/68015\" target=\"_blank\" rel=\"noopener\" onclick=\"return confirm('Open this link?\\n\\n'+this.href);\">продолжают сжимать кольцо окружения</a> и расширять внешнюю зону контроля.<br/><br/><tg-emoji emoji-id=\"5467558728620341717\"><i class=\"emoji\" style=\"background-image:url('//telegram.org/img/emoji/40/F09F8EAF.png')\"><b>🎯</b></i></tg-emoji><b> Мосты под ударом</b>: расчеты отдельной бригады «Варяг» совместно с ВКС России <a href=\"https://t.me/mod_russia/68020\" target=\"_blank\" rel=\"noopener\" onclick=\"return confirm('Open this link?\\n\\n'+this.href);\">поразили</a> вантовый мост в Запорожской области.<br/><br/><tg-emoji emoji-id=\"5449590921916082144\"><i class=\"emoji\" style=\"background-image:url('//telegram.org/img/emoji/40/F09F94A5.png')\"><b>🔥</b></i></tg-emoji> <b>ФАБы заходят без стука</b>: экипажи ВКС <a href=\"https://t.me/mod_russia/68014\" target=\"_blank\" rel=\"noopener\" onclick=\"return confirm('Open this link?\\n\\n'+this.href);\">отработали</a> по вражеским пунктам временной дислокации в районах населенных пунктов Красный Молочар в ДНР и Орехов в Запорожской области.<br/><br/><tg-emoji emoji-id=\"5469871229206816979\"><i class=\"emoji\" style=\"background-image:url('//telegram.org/img/emoji/40/E2AC86.png')\"><b>⬆️</b></i></tg-emoji> <b>«Герань» на высоте</b>: в порту&nbsp;Южный в Одесской области <a href=\"https://t.me/mod_russia/68009\" target=\"_blank\" rel=\"noopener\" onclick=\"return confirm('Open this link?\\n\\n'+this.href);\">ударили</a> по сухогрузу, который использовался для доставки военных грузов ВСУ. Также <a href=\"https://t.me/mod_russia/68010\" target=\"_blank\" rel=\"noopener\" onclick=\"return confirm('Open this link?\\n\\n'+this.href);\">поразили</a> хранилище ГСМ в порту Черноморск в Одесской области.<br/><br/><i class=\"emoji\" style=\"background-image:url('//telegram.org/img/emoji/40/F09F918A.png')\"><b>👊</b></i><b> Пробились сквозь минный заслон</b>: боец 36-й отдельной мотострелковой бригады <a href=\"https://t.me/mod_russia/68018\" target=\"_blank\" rel=\"noopener\" onclick=\"return confirm('Open this link?\\n\\n'+this.href);\">рассказал</a>, как освобождали Голубково в Запорожской области.<br/><br/><b>На пути к Победе&#33;</b><br/><br/><a href=\"?q=%23%D0%98%D1%82%D0%BE%D0%B3%D0%B8%D0%94%D0%BD%D1%8F\">#ИтогиДня</a><br/><tg-emoji emoji-id=\"5269510734265483362\"><i class=\"emoji\" style=\"background-image:url('//telegram.org/img/emoji/40/F09F94B9.png')\"><b>🔹</b></i></tg-emoji> <a href=\"https://max.ru/morf\" target=\"_blank\" rel=\"noopener\" onclick=\"return confirm('Open this link?\\n\\n'+this.href);\">Минобороны России</a>"}},{"type":"Feature","geometry":null,"properties":{"source":"ru_mod","source_name":"Ministry of Defence of Russia","group":"official_ru","id":68029,"posted_utc":"2026-10-07T19:05:23+00:00","link":"https://t.me/mod_russia/68029","text":"Непрерывным натиском\nСминаем 👊\n🔹 Канал Минобороны России в MAКС – боевая работа 24/7","links":["https://max.ru/morf"],"original_html":"Непрерывным натиском<br/>Сминаем <i class=\"emoji\" style=\"background-image:url('//telegram.org/img/emoji/40/F09F918A.png')\"><b>👊</b></i><br/><br/><tg-emoji emoji-id=\"5269510734265483362\"><i class=\"emoji\" style=\"background-image:url('//telegram.org/img/emoji/40/F09F94B9.png')\"><b>🔹</b></i></tg-emoji> <a href=\"https://max.ru/morf\" target=\"_blank\" rel=\"noopener\" onclick=\"return confirm('Open this link?\\n\\n'+this.href);\">Канал Минобороны России в MAКС – боевая работа 24/7</a>"}},{"type":"Feature","geometry":null,"properties":{"source":"ru_mod","source_name":"Ministry of Defence of Russia","group":"official_ru","id":68030,"posted_utc":"2026-10-07T19:08:58+00:00","link":"https://t.me/mod_russia/68030","text":"❗️ Сегодня днем Вооруженными Силами Российской Федерации продолжено нанесение ударов беспилотными летательными аппаратами по портовой инфраструктуре Украины и морским судам, задействованным в доставке военных грузов на Украину.\n💥 В результате ударов на переходе морем поражено морское судно типа «сухогруз», доставлявшее в порт Одесса грузы, предназначенные для обеспечения ВСУ.\n🔹 Минобороны России","links":["https://max.ru/morf"],"original_html":"<tg-emoji emoji-id=\"5447116342148753425\"><i class=\"emoji\" style=\"background-image:url('//telegram.org/img/emoji/40/E29D97.png')\"><b>❗️</b></i></tg-emoji> Сегодня днем Вооруженными Силами Российской Федерации <b>продолжено нанесение ударов беспилотными летательными аппаратами по портовой инфраструктуре Украины и морским судам</b>, задействованным в доставке военных грузов на Украину.<br/><br/><tg-emoji emoji-id=\"5449682610877918293\"><i class=\"emoji\" style=\"background-image:url('//telegram.org/img/emoji/40/F09F92A5.png')\"><b>💥</b></i></tg-emoji> В результате ударов на переходе морем <b>поражено морское судно типа «сухогруз»</b>, доставлявшее в порт Одесса грузы, предназначенные для обеспечения ВСУ.<br/><br/><tg-emoji emoji-id=\"5269510734265483362\"><i class=\"emoji\" style=\"background-image:url('//telegram.org/img/emoji/40/F09F94B9.png')\"><b>🔹</b></i></tg-emoji> <a href=\"https://max.ru/morf\" target=\"_blank\" rel=\"noopener\" onclick=\"return confirm('Open this link?\\n\\n'+this.href);\">Минобороны России</a>"}},{"type":"Feature","geometry":null,"properties":{"source":"ru_mod","source_name":"Ministry of Defence of Russia","group":"official_ru","id":68031,"posted_utc":"2026-10-07T21:01:01+00:00","link":"https://t.me/mod_russia/68031","text":"🫡 Командир корабля – особая миссия и высокая честь!\n⚓️ #ВэтотДень отмечается День командира надводного, подводного и воздушного корабля ВМФ России.\n🤝 Главнокомандующий Военно-Морским Флотом адмирал флота Александр Моисеев поздравил командиров Северного, Тихоокеанского, Черноморского, Балтийского флотов и Каспийской флотилии.\n«Ваша компетентность, выдержка и способность принимать взвешенные решения в сложных условиях – залог безопасности и успешного выполнения поставленных задач. Ответственность, которую вы несете, требует исключительных лидерских качеств – и вы неизменно демонстрируете их в своей службе», – отметил адмирал флота Александр Моисеев.\n🔹 MAКС – территория СВОих","links":["https://max.ru/morf"],"original_html":"<i class=\"emoji\" style=\"background-image:url('//telegram.org/img/emoji/40/F09FABA1.png')\"><b>🫡</b></i> <b>Командир корабля – особая миссия и высокая честь&#33;</b><br/><br/><tg-emoji emoji-id=\"5469905455801198241\"><i class=\"emoji\" style=\"background-image:url('//telegram.org/img/emoji/40/E29A93.png')\"><b>⚓️</b></i></tg-emoji> <a href=\"?q=%23%D0%92%D1%8D%D1%82%D0%BE%D1%82%D0%94%D0%B5%D0%BD%D1%8C\"><i>#ВэтотДень</i></a><i> отмечается День командира надводного, подводного и воздушного корабля ВМФ России.</i><br/><br/><tg-emoji emoji-id=\"5447324252925620983\"><i class=\"emoji\" style=\"background-image:url('//telegram.org/img/emoji/40/F09FA49D.png')\"><b>🤝</b></i></tg-emoji> Главнокомандующий Военно-Морским Флотом адмирал флота Александр Моисеев поздравил командиров Северного, Тихоокеанского, Черноморского, Балтийского флотов и Каспийской флотилии.<br/><br/><blockquote>«Ваша компетентность, выдержка и способность принимать взвешенные решения в сложных условиях – залог безопасности и успешного выполнения поставленных задач. Ответственность, которую вы несете, требует исключительных лидерских качеств – и вы неизменно демонстрируете их в своей службе», – отметил адмирал флота Александр Моисеев.</blockquote><br/><br/><tg-emoji emoji-id=\"5269510734265483362\"><i class=\"emoji\" style=\"background-image:url('//telegram.org/img/emoji/40/F09F94B9.png')\"><b>🔹</b></i></tg-emoji> <a href=\"https://max.ru/morf\" target=\"_blank\" rel=\"noopener\" onclick=\"return confirm('Open this link?\\n\\n'+this.href);\">MAКС – территория СВОих</a>"}}]}