{"type":"FeatureCollection","features":[{"type":"Feature","geometry":null,"properties":{"source":"ua_mod","source_name":"Ministry of Defence of Ukraine","group":"official_ua","id":16278,"posted_utc":"2026-09-30T08:19:07+00:00","link":"https://t.me/ministry_of_defense_ua/16278","text":"✅ Законтрактовано 99,5% потреби Збройних Сил України та Державної спеціальної служби транспорту в зимовому одязі й спорядженні на сезон 2026–2027 років.\nЗакупівельний цикл Агенція оборонних закупівель ДОТ розпочала ще наприкінці 2025 року. Це дозволило завчасно оголосити тендери за основними позиціями та почати постачання до настання холодів.\nУсі закупівлі йшли через тендери – економія склала понад 611 млн грн.\nДля ЗСУ потреби охоплюють 24 позиції, для ДССТ – 8. Серед основного: спеціальні й маскувальні костюми, берці, куртки та штани, шапки, шарфи-труби, рукавички, а також білизна для холодної погоди.\nПостачання триває за графіками. Частина предметів уже повністю відвантажена військовим і готова до видачі.","links":[]}}]}