{"type":"FeatureCollection","features":[{"type":"Feature","geometry":{"type":"Polygon","coordinates":[[[37.70345,49.07935],[37.69171,49.08149],[37.6782,49.08838],[37.68223,49.09403],[37.69025,49.09307],[37.7003,49.09706],[37.70395,49.09825],[37.70156,49.10006],[37.69609,49.099],[37.69312,49.09826],[37.68972,49.09679],[37.68328,49.09987],[37.67313,49.10141],[37.67296,49.10578],[37.67435,49.10739],[37.66919,49.11371],[37.66856,49.11912],[37.66595,49.11971],[37.66626,49.12063],[37.65788,49.12186],[37.65835,49.12327],[37.65439,49.12419],[37.64637,49.12567],[37.64751,49.12886],[37.6492,49.13279],[37.65332,49.13262],[37.65933,49.13357],[37.66156,49.13183],[37.67427,49.12678],[37.67942,49.12599],[37.6837,49.12688],[37.68473,49.12952],[37.68892,49.13223],[37.69952,49.13535],[37.70897,49.13507],[37.71285,49.13235],[37.71587,49.13119],[37.71119,49.11742],[37.71149,49.1033],[37.71519,49.09046],[37.70697,49.07794],[37.70345,49.07935]]]},"properties":{"source":"ukrdaily","source_name":"UkrDailyUpdate","source_url":"https://map.ukrdailyupdate.com/","category":"lost","category_label":"Ukrainian advance: became Ukrainian-held","period":"1d","compared_with":"2026-09-14","snapshot_time":"2026-09-15","area_km2_approx":16.3}},{"type":"Feature","geometry":{"type":"MultiPolygon","coordinates":[[[[36.28425,47.80804],[36.29124,47.80946],[36.3005,47.81328],[36.30273,47.81841],[36.32196,47.82058],[36.32513,47.80988],[36.33011,47.81083],[36.33767,47.81017],[36.34868,47.80334],[36.27841,47.79683],[36.27684,47.80085],[36.28425,47.80804]]],[[[36.03216,47.65078],[36.03431,47.6409],[36.00976,47.63824],[36.00676,47.65316],[36.02718,47.65501],[36.0283,47.65047],[36.03216,47.65078]]]]},"properties":{"source":"ukrdaily","source_name":"UkrDailyUpdate","source_url":"https://map.ukrdailyupdate.com/","category":"ukrainian_to_contested","category_label":"Ukrainian-held became contested","period":"1d","compared_with":"2026-09-14","snapshot_time":"2026-09-15","area_km2_approx":10.0}}]}