{"type":"FeatureCollection","features":[{"type":"Feature","geometry":{"type":"MultiPolygon","coordinates":[[[[37.91637,48.81015],[37.91443,48.81359],[37.90959,48.83394],[37.91092,48.83561],[37.92071,48.84021],[37.92885,48.84052],[37.93253,48.81976],[37.93017,48.81688],[37.9312,48.81295],[37.93153,48.81126],[37.91637,48.81015]]],[[[37.82523,48.75642],[37.81845,48.76191],[37.83591,48.77845],[37.83682,48.77825],[37.83574,48.77661],[37.84282,48.76968],[37.84716,48.76724],[37.84636,48.76167],[37.8419,48.76326],[37.83769,48.76383],[37.83335,48.76157],[37.83141,48.76001],[37.83453,48.75175],[37.82523,48.75642]]],[[[37.80315,48.56586],[37.80281,48.56976],[37.80319,48.57236],[37.80772,48.57297],[37.81141,48.5729],[37.81942,48.57537],[37.82127,48.57304],[37.81667,48.57154],[37.81456,48.56953],[37.81277,48.56732],[37.81094,48.5646],[37.80345,48.56437],[37.80315,48.56586]]],[[[37.78567,48.6562],[37.78344,48.66596],[37.78224,48.67338],[37.785,48.67492],[37.79571,48.67999],[37.79708,48.67849],[37.80854,48.68064],[37.80874,48.6792],[37.81091,48.66559],[37.79862,48.66385],[37.79672,48.66126],[37.79492,48.66044],[37.79414,48.65911],[37.79178,48.6581],[37.78719,48.655],[37.78567,48.6562]]],[[[37.79632,48.558],[37.79369,48.55914],[37.7894,48.5586],[37.78679,48.55898],[37.78706,48.56012],[37.78807,48.56073],[37.78942,48.56118],[37.79044,48.56176],[37.79029,48.56242],[37.79216,48.56282],[37.79176,48.56389],[37.79581,48.56412],[37.7964,48.56012],[37.79632,48.558]]],[[[37.61311,48.49609],[37.62108,48.49972],[37.62207,48.51033],[37.62271,48.51866],[37.62405,48.52419],[37.63671,48.52569],[37.64568,48.52481],[37.64929,48.5106],[37.66187,48.50463],[37.64368,48.50287],[37.64252,48.50776],[37.62837,48.5067],[37.6302,48.49639],[37.61261,48.49474],[37.61311,48.49609]]],[[[37.60541,48.45234],[37.60683,48.45673],[37.6091,48.45721],[37.61,48.45919],[37.61125,48.45932],[37.61541,48.45727],[37.62318,48.45815],[37.62373,48.46028],[37.62416,48.46191],[37.62712,48.46384],[37.62858,48.46677],[37.6268,48.47672],[37.61681,48.48763],[37.6217,48.48626],[37.62677,48.48177],[37.63355,48.47776],[37.63834,48.45761],[37.63937,48.45358],[37.63787,48.45315],[37.61597,48.44565],[37.613,48.45128],[37.60588,48.45079],[37.60348,48.45133],[37.60541,48.45234]]],[[[37.605,50.25353],[37.61307,50.25561],[37.62612,50.25575],[37.6264,50.23882],[37.60908,50.24051],[37.59706,50.24594],[37.5914,50.25094],[37.605,50.25353]]],[[[37.24547,48.4597],[37.26452,48.46448],[37.27512,48.46974],[37.28096,48.4723],[37.2934,48.4758],[37.29984,48.47643],[37.30203,48.47609],[37.30237,48.47674],[37.30383,48.47734],[37.30636,48.47586],[37.31194,48.47424],[37.31782,48.47454],[37.30967,48.46928],[37.2947,48.4683],[37.27673,48.46738],[37.27126,48.46059],[37.26367,48.45749],[37.24425,48.45557],[37.24547,48.4597]]],[[[37.213,48.39606],[37.21839,48.40581],[37.20263,48.40506],[37.19962,48.40612],[37.19515,48.40479],[37.18845,48.41024],[37.18998,48.41406],[37.22282,48.41698],[37.22361,48.41961],[37.22516,48.41979],[37.23339,48.41903],[37.23559,48.41166],[37.24174,48.41143],[37.24226,48.40754],[37.2432,48.39972],[37.22928,48.39794],[37.213,48.39606]]],[[[37.03405,48.25961],[37.03622,48.25584],[37.04611,48.25121],[37.04626,48.24972],[37.03959,48.2464],[37.03471,48.24523],[37.02736,48.244],[37.01594,48.24258],[37.01211,48.25939],[37.01177,48.26197],[37.03405,48.25961]]],[[[36.20784,50.34212],[36.19805,50.33431],[36.19365,50.33327],[36.19003,50.33538],[36.18984,50.33902],[36.19411,50.34519],[36.20732,50.35729],[36.22126,50.36785],[36.21933,50.36412],[36.22237,50.35963],[36.22748,50.3572],[36.20784,50.34212]]]]},"properties":{"source":"ukrdaily","source_name":"UkrDailyUpdate","source_url":"https://map.ukrdailyupdate.com/","category":"gained","category_label":"Russian advance: became occupied","period":"7d","compared_with":"2026-09-08","snapshot_time":"2026-09-15","area_km2_approx":40.9}},{"type":"Feature","geometry":{"type":"MultiPolygon","coordinates":[[[[37.70345,49.07935],[37.69171,49.08149],[37.6782,49.08838],[37.68223,49.09403],[37.69025,49.09307],[37.7003,49.09706],[37.70395,49.09825],[37.70156,49.10006],[37.69609,49.099],[37.69312,49.09826],[37.68972,49.09679],[37.68328,49.09987],[37.67313,49.10141],[37.67296,49.10578],[37.67435,49.10739],[37.66996,49.11267],[37.66919,49.11371],[37.66856,49.11912],[37.66595,49.11971],[37.66626,49.12063],[37.65788,49.12186],[37.65835,49.12327],[37.65397,49.12433],[37.64637,49.12567],[37.64751,49.12886],[37.6492,49.13279],[37.65332,49.13262],[37.65933,49.13357],[37.66156,49.13183],[37.67427,49.12678],[37.67942,49.12599],[37.6837,49.12688],[37.68473,49.12952],[37.68892,49.13223],[37.69952,49.13535],[37.70897,49.13507],[37.71285,49.13235],[37.71587,49.13119],[37.71119,49.11742],[37.71149,49.1033],[37.71519,49.09046],[37.70697,49.07794],[37.70345,49.07935]]],[[[36.67631,47.96356],[36.69747,47.97538],[36.71292,47.97975],[36.71217,47.97191],[36.7119,47.97131],[36.70293,47.97004],[36.70422,47.96468],[36.69289,47.96304],[36.66879,47.95975],[36.66876,47.95987],[36.67631,47.96356]]]]},"properties":{"source":"ukrdaily","source_name":"UkrDailyUpdate","source_url":"https://map.ukrdailyupdate.com/","category":"lost","category_label":"Ukrainian advance: became Ukrainian-held","period":"7d","compared_with":"2026-09-08","snapshot_time":"2026-09-15","area_km2_approx":18.9}},{"type":"Feature","geometry":{"type":"Polygon","coordinates":[[[36.69288,47.96304],[36.70422,47.96468],[36.70293,47.97004],[36.7119,47.97131],[36.71221,47.97198],[36.72694,47.97377],[36.73686,47.97607],[36.73534,47.98958],[36.73744,47.99432],[36.73974,47.99381],[36.74075,47.9906],[36.74198,47.98934],[36.74231,47.98823],[36.74149,47.98598],[36.74202,47.98395],[36.74191,47.97896],[36.74122,47.97678],[36.74,47.97605],[36.73951,47.97553],[36.73495,47.96881],[36.7195,47.96674],[36.72226,47.95585],[36.68971,47.95097],[36.69288,47.96304]]]},"properties":{"source":"ukrdaily","source_name":"UkrDailyUpdate","source_url":"https://map.ukrdailyupdate.com/","category":"occupied_to_contested","category_label":"Occupied became contested","period":"7d","compared_with":"2026-09-08","snapshot_time":"2026-09-15","area_km2_approx":5.3}},{"type":"Feature","geometry":{"type":"MultiPolygon","coordinates":[[[[37.75949,48.66488],[37.76293,48.6659],[37.77203,48.67214],[37.77246,48.68676],[37.77846,48.68798],[37.78112,48.68232],[37.78541,48.67733],[37.78499,48.67492],[37.78224,48.67338],[37.78344,48.66596],[37.77546,48.66409],[37.75434,48.66131],[37.75949,48.66488]]],[[[37.69257,48.53443],[37.69343,48.53404],[37.69408,48.53466],[37.6947,48.53532],[37.69782,48.53382],[37.69558,48.53175],[37.69391,48.53248],[37.6908,48.53399],[37.69257,48.53443]]],[[[37.67731,49.62725],[37.67424,49.62742],[37.6707,49.62854],[37.67156,49.6311],[37.67716,49.63142],[37.67848,49.63256],[37.68252,49.63708],[37.68822,49.64142],[37.68681,49.636],[37.68603,49.63411],[37.68389,49.63308],[37.68582,49.62924],[37.68524,49.62716],[37.68365,49.6251],[37.67731,49.62725]]],[[[37.61583,48.53008],[37.61789,48.53361],[37.61854,48.53742],[37.62047,48.54253],[37.62167,48.54614],[37.62394,48.5496],[37.62394,48.5529],[37.62982,48.55512],[37.63622,48.55531],[37.64077,48.55227],[37.63965,48.55009],[37.64068,48.5481],[37.64377,48.54668],[37.6514,48.54785],[37.65504,48.54994],[37.6644,48.54608],[37.67025,48.54302],[37.67017,48.5428],[37.66688,48.5436],[37.6654,48.54416],[37.65757,48.54768],[37.65384,48.54461],[37.65288,48.54226],[37.64988,48.54167],[37.64749,48.53937],[37.64535,48.54037],[37.64258,48.53767],[37.63951,48.53389],[37.61642,48.52682],[37.61376,48.5233],[37.61367,48.52334],[37.61583,48.53008]]],[[[36.87314,48.18381],[36.87039,48.18439],[36.86811,48.18893],[36.87558,48.19388],[36.87833,48.19952],[36.87721,48.20622],[36.88245,48.20716],[36.88442,48.20873],[36.90176,48.2105],[36.91709,48.20809],[36.91873,48.20515],[36.91719,48.1943],[36.91046,48.19347],[36.90595,48.19018],[36.90713,48.18358],[36.90714,48.18039],[36.88968,48.17326],[36.88308,48.16764],[36.87683,48.16649],[36.87314,48.18381]]],[[[36.62002,47.94799],[36.61969,47.95374],[36.6684,47.9597],[36.67143,47.94813],[36.65436,47.94607],[36.60711,47.94078],[36.60548,47.9462],[36.62002,47.94799]]],[[[36.28425,47.80804],[36.29124,47.80946],[36.3005,47.81328],[36.30273,47.81841],[36.32196,47.82058],[36.32513,47.80988],[36.33011,47.81083],[36.33767,47.81017],[36.34868,47.80334],[36.27841,47.79683],[36.27684,47.80085],[36.28425,47.80804]]],[[[36.29679,50.28304],[36.28623,50.27967],[36.277,50.28063],[36.27664,50.29354],[36.28569,50.29112],[36.29708,50.29204],[36.29679,50.28304]]],[[[36.19003,50.33538],[36.19365,50.33327],[36.19805,50.33431],[36.20789,50.34216],[36.21256,50.34254],[36.2307,50.35171],[36.24223,50.35395],[36.24946,50.35082],[36.24776,50.34268],[36.25107,50.33847],[36.24259,50.33864],[36.21421,50.33224],[36.20644,50.31997],[36.19794,50.31684],[36.18786,50.3115],[36.17782,50.31202],[36.17945,50.31695],[36.17473,50.31843],[36.16385,50.32428],[36.16301,50.32909],[36.16649,50.33417],[36.17271,50.34272],[36.17173,50.34742],[36.18449,50.35419],[36.19319,50.35405],[36.18495,50.34447],[36.18607,50.34195],[36.18984,50.33902],[36.19003,50.33538]]],[[[36.03216,47.65078],[36.03431,47.6409],[36.00976,47.63824],[36.00676,47.65316],[36.02718,47.65501],[36.0283,47.65047],[36.03216,47.65078]]],[[[35.89536,47.53249],[35.89639,47.52835],[35.86344,47.53768],[35.86546,47.54573],[35.88181,47.5488],[35.89499,47.54498],[35.91317,47.54162],[35.93429,47.53714],[35.93425,47.53681],[35.93088,47.5369],[35.92564,47.53703],[35.91715,47.5377],[35.91461,47.53507],[35.90716,47.53693],[35.90521,47.53527],[35.90429,47.53364],[35.89802,47.53484],[35.89536,47.53249],[35.89536,47.53249]]],[[[35.81572,47.5609],[35.82803,47.56344],[35.8298,47.56421],[35.83277,47.56399],[35.84505,47.56104],[35.84033,47.5531],[35.83006,47.54421],[35.82491,47.54967],[35.81495,47.55571],[35.80042,47.56316],[35.80046,47.56327],[35.81572,47.5609]]],[[[34.90926,51.10905],[34.90683,51.10086],[34.88885,51.09992],[34.87903,51.09995],[34.87413,51.10423],[34.87458,51.11677],[34.91083,51.10961],[34.90926,51.10905]]]]},"properties":{"source":"ukrdaily","source_name":"UkrDailyUpdate","source_url":"https://map.ukrdailyupdate.com/","category":"ukrainian_to_contested","category_label":"Ukrainian-held became contested","period":"7d","compared_with":"2026-09-08","snapshot_time":"2026-09-15","area_km2_approx":62.1}}]}