{"type":"FeatureCollection","features":[{"type":"Feature","geometry":{"type":"Point","coordinates":[30.152959,50.649273]},"properties":{"original":{"id":47161,"type":"Engineering","model":"IMR-2(M) combat engineering vehicle","status":"Captured","lost_by":"Russia","date":"2022-03-31","nearest_location":"Lubianka, Bucha raion","geo":"50.649273,30.152959","unit":null,"tags":"V"},"source":"warspotting","source_name":"WarSpotting","source_url":"https://ukr.warspotting.net/","id":47161,"date":"2022-03-31","link":"https://ukr.warspotting.net/view/47161/","category":"Engineering","side":"Lost by Russia","color":"#E00000","description":"IMR-2(M) combat engineering vehicle · Captured · near Lubianka, Bucha raion · tags: V","orbat":[]}}]}