{"type":"FeatureCollection","features":[{"type":"Feature","geometry":{"type":"MultiPolygon","coordinates":[[[[37.80346,48.56432],[37.80315,48.56586],[37.80281,48.56976],[37.80319,48.57236],[37.80772,48.57297],[37.81141,48.5729],[37.81942,48.57537],[37.82127,48.57304],[37.81667,48.57154],[37.81456,48.56953],[37.81277,48.56732],[37.81094,48.5646],[37.80346,48.56432]]],[[[36.20784,50.34212],[36.19805,50.33431],[36.19365,50.33327],[36.19003,50.33538],[36.18984,50.33902],[36.19411,50.34519],[36.20732,50.35729],[36.22126,50.36785],[36.21933,50.36412],[36.22237,50.35963],[36.22748,50.3572],[36.20784,50.34212]]]]},"properties":{"source":"ukrdaily","source_name":"UkrDailyUpdate","source_url":"https://map.ukrdailyupdate.com/","category":"gained","category_label":"Russian advance: became occupied","period":"1d","compared_with":"2026-09-11","snapshot_time":"2026-09-12","area_km2_approx":4.5}},{"type":"Feature","geometry":{"type":"MultiPolygon","coordinates":[[[[37.67731,49.62725],[37.67424,49.62742],[37.6707,49.62854],[37.67156,49.6311],[37.67716,49.63142],[37.67722,49.63022],[37.68216,49.63187],[37.68389,49.63308],[37.68582,49.62924],[37.68524,49.62716],[37.68365,49.6251],[37.67731,49.62725]]],[[[36.29679,50.28304],[36.28623,50.27967],[36.277,50.28063],[36.27664,50.29354],[36.28569,50.29112],[36.29708,50.29204],[36.29679,50.28304]]],[[[36.19003,50.33538],[36.19365,50.33327],[36.19805,50.33431],[36.20788,50.34216],[36.21256,50.34254],[36.2307,50.35171],[36.24223,50.35395],[36.24946,50.35082],[36.24776,50.34268],[36.25107,50.33847],[36.24259,50.33864],[36.21421,50.33224],[36.20644,50.31997],[36.19794,50.31684],[36.18786,50.3115],[36.17782,50.31202],[36.17945,50.31695],[36.17473,50.31843],[36.16385,50.32428],[36.16301,50.32909],[36.16649,50.33417],[36.17271,50.34272],[36.17173,50.34742],[36.18449,50.35419],[36.19319,50.35405],[36.18495,50.34447],[36.18607,50.34195],[36.18984,50.33902],[36.19003,50.33538]]],[[[34.90926,51.10905],[34.90683,51.10086],[34.88885,51.09992],[34.87903,51.09995],[34.87413,51.10423],[34.87458,51.11677],[34.91083,51.10961],[34.90926,51.10905]]]]},"properties":{"source":"ukrdaily","source_name":"UkrDailyUpdate","source_url":"https://map.ukrdailyupdate.com/","category":"ukrainian_to_contested","category_label":"Ukrainian-held became contested","period":"1d","compared_with":"2026-09-11","snapshot_time":"2026-09-12","area_km2_approx":19.1}}]}