{"type":"FeatureCollection","features":[{"type":"Feature","geometry":{"type":"MultiPolygon","coordinates":[[[[37.82523,48.75642],[37.81845,48.76191],[37.83591,48.77845],[37.83682,48.77825],[37.84235,48.77777],[37.84849,48.77511],[37.87119,48.77641],[37.87226,48.78197],[37.88029,48.76967],[37.87951,48.76552],[37.8631,48.76199],[37.84636,48.76167],[37.8419,48.76326],[37.83769,48.76383],[37.83335,48.76157],[37.83141,48.76001],[37.83448,48.75188],[37.82523,48.75642]]],[[[37.80345,48.56436],[37.80315,48.56586],[37.80281,48.56976],[37.80319,48.57236],[37.80772,48.57297],[37.81141,48.5729],[37.81942,48.57537],[37.82127,48.57304],[37.81667,48.57154],[37.81456,48.56953],[37.81277,48.56732],[37.81094,48.5646],[37.80345,48.56436]]],[[[37.78567,48.6562],[37.78344,48.66596],[37.78224,48.67338],[37.785,48.67492],[37.79571,48.67999],[37.79708,48.67849],[37.80854,48.68064],[37.81091,48.66559],[37.79862,48.66385],[37.79672,48.66126],[37.79492,48.66044],[37.79414,48.65911],[37.79178,48.6581],[37.78719,48.655],[37.78567,48.6562]]],[[[37.79633,48.558],[37.79369,48.55914],[37.7894,48.5586],[37.78679,48.55898],[37.78706,48.56012],[37.78807,48.56073],[37.78942,48.56118],[37.79044,48.56176],[37.79029,48.56242],[37.79216,48.56282],[37.79176,48.56389],[37.79582,48.56406],[37.7964,48.56012],[37.79633,48.558]]],[[[37.61311,48.49609],[37.62108,48.49972],[37.62271,48.51866],[37.62405,48.52419],[37.63671,48.52569],[37.64568,48.52481],[37.64929,48.5106],[37.66187,48.50463],[37.64368,48.50287],[37.64252,48.50776],[37.62837,48.5067],[37.6302,48.49639],[37.61261,48.49474],[37.61311,48.49609]]],[[[37.60541,48.45234],[37.60683,48.45673],[37.6091,48.45721],[37.61,48.45919],[37.61125,48.45932],[37.61541,48.45727],[37.62318,48.45815],[37.62416,48.46191],[37.62712,48.46384],[37.62858,48.46677],[37.6268,48.47672],[37.61681,48.48763],[37.6217,48.48626],[37.62677,48.48177],[37.63355,48.47776],[37.63937,48.45358],[37.61597,48.44565],[37.613,48.45128],[37.60588,48.45079],[37.60348,48.45133],[37.60541,48.45234]]],[[[37.605,50.25353],[37.61307,50.25561],[37.62612,50.25575],[37.6264,50.23882],[37.60908,50.24051],[37.59706,50.24594],[37.5914,50.25094],[37.605,50.25353]]],[[[37.10671,48.37868],[37.10946,48.38139],[37.11126,48.38219],[37.1201,48.37737],[37.12237,48.37013],[37.12852,48.3653],[37.15944,48.36613],[37.167,48.3657],[37.1664,48.37224],[37.16769,48.37379],[37.17005,48.37965],[37.17653,48.37861],[37.17739,48.37411],[37.18344,48.37228],[37.18341,48.36136],[37.17118,48.36079],[37.16221,48.36384],[37.14651,48.3643],[37.10449,48.35968],[37.10325,48.36532],[37.10671,48.37868]]],[[[37.06078,48.31323],[37.06308,48.31791],[37.06523,48.31666],[37.09644,48.30781],[37.10531,48.30203],[37.113,48.29675],[37.11412,48.28725],[37.10579,48.28586],[37.06613,48.28157],[37.06078,48.31323]]],[[[37.03405,48.25961],[37.03622,48.25584],[37.04611,48.25121],[37.04626,48.24972],[37.03959,48.2464],[37.03471,48.24523],[37.02736,48.244],[37.01594,48.24258],[37.01211,48.25939],[37.01177,48.26197],[37.03405,48.25961]]],[[[36.20784,50.34212],[36.19805,50.33431],[36.19365,50.33327],[36.19003,50.33538],[36.18984,50.33902],[36.19411,50.34519],[36.20732,50.35729],[36.22126,50.36785],[36.21933,50.36412],[36.22237,50.35963],[36.22748,50.3572],[36.20784,50.34212]]]]},"properties":{"source":"ukrdaily","source_name":"UkrDailyUpdate","source_url":"https://map.ukrdailyupdate.com/","category":"gained","category_label":"Newly Russian-occupied","period":"7d","compared_with":"2026-09-05","snapshot_time":"2026-09-12","area_km2_approx":47.2}},{"type":"Feature","geometry":{"type":"MultiPolygon","coordinates":[[[[37.93288,49.1948],[37.93403,49.19576],[37.9352,49.19214],[37.93288,49.1948]]],[[[37.88976,49.09296],[37.88293,49.09133],[37.86653,49.08643],[37.8628,49.07863],[37.84028,49.07851],[37.83014,49.07502],[37.82507,49.07109],[37.82369,49.07021],[37.82189,49.06986],[37.81956,49.07006],[37.81776,49.07108],[37.81712,49.07242],[37.81497,49.07243],[37.80392,49.07022],[37.79726,49.07165],[37.78727,49.07434],[37.78019,49.07024],[37.77431,49.07209],[37.76646,49.06804],[37.75826,49.06858],[37.74981,49.06637],[37.74498,49.06376],[37.73125,49.06568],[37.72838,49.06544],[37.7193,49.0669],[37.71239,49.06623],[37.71123,49.07355],[37.71237,49.07796],[37.71691,49.0801],[37.71923,49.08439],[37.71046,49.08443],[37.70323,49.08628],[37.70342,49.09011],[37.7076,49.09678],[37.70836,49.10134],[37.70089,49.10569],[37.69313,49.10605],[37.6844,49.10526],[37.67729,49.10689],[37.67798,49.11086],[37.68618,49.12618],[37.68994,49.12864],[37.70065,49.13082],[37.71544,49.12902],[37.71522,49.12527],[37.71844,49.12208],[37.72228,49.12023],[37.7308,49.11784],[37.73686,49.11576],[37.74148,49.11574],[37.74492,49.11753],[37.74822,49.12064],[37.75444,49.12554],[37.75383,49.13674],[37.74971,49.14068],[37.74607,49.14234],[37.74552,49.14435],[37.7466,49.14516],[37.75007,49.14592],[37.75417,49.15006],[37.76063,49.14721],[37.76302,49.1445],[37.76469,49.14383],[37.77615,49.14019],[37.78384,49.13253],[37.79059,49.12735],[37.7948,49.12573],[37.80025,49.12439],[37.80413,49.12414],[37.82045,49.12425],[37.8338,49.11798],[37.84522,49.11161],[37.851,49.11127],[37.86193,49.10941],[37.88782,49.10542],[37.89565,49.10675],[37.8994,49.10251],[37.89454,49.09228],[37.88976,49.09296]]],[[[36.69353,47.96554],[36.70251,47.96667],[36.70141,47.97055],[36.72694,47.97377],[36.73686,47.97607],[36.73534,47.98958],[36.73744,47.99432],[36.73972,47.99387],[36.74075,47.9906],[36.74198,47.98934],[36.74231,47.98823],[36.74149,47.98598],[36.74202,47.98395],[36.74191,47.97896],[36.74122,47.97678],[36.74,47.97605],[36.73951,47.97553],[36.73495,47.96881],[36.7195,47.96674],[36.72226,47.95585],[36.68971,47.95097],[36.69353,47.96554]]]]},"properties":{"source":"ukrdaily","source_name":"UkrDailyUpdate","source_url":"https://map.ukrdailyupdate.com/","category":"lost","category_label":"No longer Russian-occupied","period":"7d","compared_with":"2026-09-05","snapshot_time":"2026-09-12","area_km2_approx":82.8}}]}