{"type":"FeatureCollection","features":[{"type":"Feature","geometry":{"type":"Point","coordinates":[37.08304,48.48521]},"properties":{"source":"lost_warinua","source_name":"lost_warinua (Telegram)","source_url":"https://t.me/s/lost_warinua","id":140920,"date":"2026-08-30","date_note":null,"posted_utc":"2026-09-23T13:37:55+00:00","link":"https://t.me/lost_warinua/140920","category":"Telegram post","side":"Claimed loss: Ukraine (ВСУ)","color":"#0051CA","description":"Уничтоженный бронеавтомобиль UAT-D TISA с мангалом ВСУ в г. Доброполье Донецкой области.","orbat":[],"sources":["https://x.com/RubizhBrigade/status/2094138828793733459"],"original_html":"<div class=\"tgme_widget_message_text js-message_text\" dir=\"auto\">30.08.2026<br/>Уничтоженный бронеавтомобиль UAT-D TISA с мангалом ВСУ в г. Доброполье Донецкой области.<br/>(<code>48.48521, 37.08304</code>)<br/><a href=\"https://x.com/RubizhBrigade/status/2094138828793733459\" target=\"_blank\" rel=\"noopener\" onclick=\"return confirm('Open this link?\\n\\n'+this.href);\">Источник</a>"}}]}