{"type":"FeatureCollection","features":[{"type":"Feature","geometry":{"type":"MultiPolygon","coordinates":[[[[37.90042,48.77406],[37.91345,48.78343],[37.92267,48.78527],[37.92041,48.79508],[37.92941,48.79792],[37.93738,48.79601],[37.94044,48.79842],[37.93561,48.80185],[37.92891,48.81154],[37.92994,48.81732],[37.93166,48.81278],[37.94025,48.81327],[37.94236,48.81105],[37.94903,48.80984],[37.95352,48.80023],[37.95676,48.79745],[37.95105,48.7814],[37.93022,48.77464],[37.92135,48.76929],[37.89956,48.77134],[37.89171,48.77778],[37.89183,48.77796],[37.90042,48.77406]]],[[[37.89255,48.85171],[37.88858,48.85857],[37.89205,48.86483],[37.90241,48.86573],[37.90779,48.87007],[37.89871,48.87537],[37.90121,48.87802],[37.90646,48.87774],[37.91037,48.87969],[37.91635,48.87961],[37.92534,48.88456],[37.92553,48.88429],[37.91494,48.87565],[37.91655,48.87193],[37.91012,48.86597],[37.90838,48.86255],[37.91042,48.85914],[37.90702,48.85286],[37.89555,48.85143],[37.88459,48.84881],[37.88445,48.84931],[37.89255,48.85171]]],[[[37.80865,48.71044],[37.80747,48.71517],[37.79867,48.71989],[37.79846,48.72189],[37.81589,48.72193],[37.80975,48.73286],[37.81715,48.73709],[37.80814,48.74032],[37.81095,48.74373],[37.82033,48.74055],[37.82707,48.74687],[37.83181,48.74572],[37.8347,48.75206],[37.83833,48.75064],[37.84873,48.75044],[37.85453,48.75142],[37.85896,48.75398],[37.86272,48.75225],[37.851,48.74796],[37.84752,48.7453],[37.85106,48.74243],[37.85151,48.73719],[37.84537,48.73603],[37.84788,48.73437],[37.84337,48.73125],[37.8205,48.73975],[37.82147,48.73779],[37.83119,48.73412],[37.83344,48.73133],[37.83063,48.72826],[37.83046,48.72356],[37.83535,48.7215],[37.8393,48.71773],[37.85157,48.71118],[37.8589,48.7056],[37.85225,48.70082],[37.84416,48.70445],[37.83395,48.7064],[37.82516,48.70542],[37.81542,48.70932],[37.81928,48.71842],[37.81712,48.71914],[37.81037,48.70897],[37.80537,48.70202],[37.80514,48.70215],[37.80865,48.71044]]],[[[37.8347,48.75206],[37.83834,48.75767],[37.82501,48.75655],[37.81858,48.76232],[37.83502,48.77946],[37.84205,48.78353],[37.84788,48.77545],[37.87053,48.77563],[37.87139,48.77989],[37.88083,48.77925],[37.89466,48.77177],[37.89041,48.76137],[37.87998,48.75773],[37.86912,48.7594],[37.86359,48.75909],[37.85854,48.75655],[37.85156,48.75819],[37.83897,48.76487],[37.83207,48.76554],[37.83326,48.76266],[37.83685,48.76226],[37.84443,48.75444],[37.8347,48.75206]]],[[[37.79683,48.5491],[37.7981,48.55698],[37.79379,48.55941],[37.78792,48.55863],[37.78729,48.56035],[37.79048,48.56062],[37.79215,48.56285],[37.79198,48.56395],[37.79565,48.56424],[37.81298,48.56464],[37.81391,48.56694],[37.81937,48.57173],[37.81583,48.5755],[37.81963,48.58246],[37.81441,48.58816],[37.81814,48.59059],[37.82111,48.58816],[37.82066,48.58473],[37.82467,48.58157],[37.82868,48.57718],[37.83037,48.57154],[37.82237,48.56485],[37.82884,48.56166],[37.83615,48.55242],[37.82243,48.54611],[37.79442,48.53862],[37.77026,48.5436],[37.79683,48.5491]]],[[[37.79071,48.64597],[37.78449,48.65666],[37.78182,48.67337],[37.79317,48.67884],[37.78719,48.68968],[37.78741,48.68983],[37.79663,48.67942],[37.80546,48.68008],[37.81171,48.66552],[37.81649,48.663],[37.79797,48.65768],[37.80067,48.64387],[37.78467,48.63351],[37.79071,48.64597]]],[[[37.7286,48.49526],[37.74068,48.49541],[37.74654,48.48638],[37.76195,48.48311],[37.74852,48.47794],[37.74268,48.48121],[37.72649,48.47945],[37.71615,48.48442],[37.7286,48.49526]]],[[[37.72506,49.64215],[37.70832,49.64209],[37.70798,49.64874],[37.71674,49.654],[37.71726,49.65637],[37.71375,49.65868],[37.7123,49.66544],[37.73985,49.66835],[37.73066,49.65744],[37.72429,49.65415],[37.72858,49.65144],[37.72506,49.64215]]],[[[37.60757,48.45797],[37.61994,48.45962],[37.62839,48.46541],[37.62216,48.48564],[37.61511,48.49355],[37.62035,48.49756],[37.62395,48.52551],[37.63977,48.52626],[37.64949,48.50816],[37.66469,48.50368],[37.65949,48.49519],[37.64717,48.49383],[37.63768,48.49591],[37.63676,48.49423],[37.64816,48.48974],[37.65056,48.47572],[37.64721,48.47034],[37.64808,48.45764],[37.63852,48.45482],[37.63848,48.45063],[37.61203,48.4434],[37.60452,48.44228],[37.60757,48.45797]]],[[[37.6269,50.2405],[37.60019,50.24053],[37.5886,50.2456],[37.59496,50.25079],[37.61076,50.2558],[37.62681,50.25479],[37.6256,50.24552],[37.6269,50.2405]]],[[[37.54578,50.22673],[37.52772,50.22076],[37.52236,50.22905],[37.52845,50.2362],[37.52743,50.24315],[37.54237,50.24416],[37.56886,50.23713],[37.56882,50.23687],[37.53979,50.23788],[37.53875,50.23587],[37.54458,50.23409],[37.56879,50.22991],[37.56878,50.22975],[37.54578,50.22673]]],[[[37.38679,48.49337],[37.39242,48.49678],[37.41674,48.4949],[37.43708,48.48813],[37.44617,48.49068],[37.44463,48.48472],[37.41897,48.48329],[37.39569,48.48586],[37.38833,48.49133],[37.38145,48.49317],[37.38147,48.49339],[37.38679,48.49337]]],[[[37.22514,48.41616],[37.21902,48.42985],[37.23085,48.43943],[37.23722,48.44842],[37.24049,48.44834],[37.23956,48.45435],[37.26369,48.45654],[37.26375,48.45607],[37.24883,48.45344],[37.25002,48.44264],[37.24657,48.43822],[37.24397,48.43759],[37.24442,48.43392],[37.24207,48.43376],[37.2427,48.42682],[37.23579,48.42621],[37.2245,48.42468],[37.22632,48.42091],[37.23672,48.41941],[37.23265,48.41675],[37.22514,48.41616]]],[[[37.07913,48.35621],[37.08589,48.3578],[37.08477,48.36258],[37.10284,48.36528],[37.10765,48.37903],[37.11658,48.37973],[37.13237,48.36795],[37.15145,48.36863],[37.15679,48.36617],[37.16466,48.36998],[37.17039,48.37909],[37.1781,48.37906],[37.18572,48.38035],[37.18673,48.39364],[37.20468,48.39768],[37.21319,48.40149],[37.24056,48.40383],[37.24026,48.40645],[37.24071,48.40652],[37.2423,48.39904],[37.23609,48.39807],[37.22768,48.39767],[37.2156,48.39146],[37.21035,48.39198],[37.19119,48.38121],[37.18678,48.37367],[37.18947,48.37186],[37.1894,48.36903],[37.19376,48.36777],[37.19391,48.36059],[37.20187,48.35596],[37.20219,48.35379],[37.18283,48.35341],[37.16139,48.35141],[37.1568,48.34807],[37.1433,48.35293],[37.12363,48.34884],[37.10515,48.34737],[37.10614,48.33993],[37.08623,48.34685],[37.07295,48.34857],[37.07069,48.35179],[37.07913,48.35621]]],[[[37.14511,50.33534],[37.14336,50.34586],[37.16296,50.35194],[37.18034,50.36317],[37.18828,50.35397],[37.16136,50.34378],[37.15765,50.33507],[37.14511,50.33534]]],[[[37.06506,48.28316],[37.06102,48.30629],[37.06233,48.31776],[37.08621,48.31258],[37.08787,48.30245],[37.10235,48.29584],[37.10351,48.28705],[37.05894,48.28128],[37.05886,48.28173],[37.06506,48.28316]]],[[[37.03353,48.25878],[37.04557,48.2538],[37.05072,48.25503],[37.05077,48.2549],[37.04609,48.25208],[37.04633,48.24976],[37.04049,48.24664],[37.03835,48.24438],[37.01808,48.24175],[37.01252,48.25993],[37.03353,48.25878]]],[[[36.16457,47.65167],[36.17061,47.65487],[36.16026,47.66886],[36.16607,47.67461],[36.17244,47.68045],[36.1671,47.69232],[36.14226,47.70203],[36.1352,47.71367],[36.14772,47.72357],[36.16435,47.72631],[36.16346,47.74594],[36.17493,47.7546],[36.19196,47.75773],[36.19505,47.75346],[36.19896,47.72874],[36.19007,47.71985],[36.17568,47.7143],[36.15288,47.71101],[36.15822,47.70111],[36.18501,47.69755],[36.1913,47.69579],[36.20094,47.68472],[36.19783,47.67797],[36.17193,47.66943],[36.17988,47.65799],[36.19555,47.65776],[36.20232,47.64835],[36.20386,47.64355],[36.19482,47.63712],[36.18279,47.63314],[36.17729,47.64322],[36.17195,47.64508],[36.15978,47.65279],[36.15984,47.65292],[36.16457,47.65167]]],[[[36.10581,47.60224],[36.09738,47.62622],[36.10508,47.63136],[36.14208,47.64064],[36.15418,47.65087],[36.1589,47.64249],[36.14036,47.63325],[36.12809,47.62141],[36.12399,47.61129],[36.12959,47.60294],[36.12392,47.59188],[36.10852,47.58992],[36.1085,47.58709],[36.10814,47.58706],[36.10581,47.60224]]],[[[36.06809,47.59032],[36.07329,47.59496],[36.10704,47.5852],[36.10698,47.5849],[36.0944,47.58593],[36.08967,47.58198],[36.06809,47.59032]]],[[[36.05615,47.53356],[36.06382,47.55287],[36.07253,47.55055],[36.06525,47.52684],[36.03239,47.52614],[36.03235,47.52633],[36.05615,47.53356]]],[[[35.53519,47.54982],[35.56335,47.55818],[35.58307,47.55375],[35.59699,47.54082],[35.5903,47.52837],[35.57191,47.53857],[35.55494,47.54451],[35.53725,47.54368],[35.53618,47.54622],[35.53519,47.54982]]]]},"properties":{"source":"deepstate","source_name":"DeepStateMap","source_url":"https://deepstatemap.live/en","category":"gained","category_label":"Newly Russian-occupied","period":"30d","compared_with":"2026-08-12","snapshot_time":"2026-09-11","area_km2_approx":181.0}},{"type":"Feature","geometry":{"type":"Polygon","coordinates":[[[37.60525,49.80215],[37.60013,49.80926],[37.60051,49.81177],[37.60976,49.81587],[37.61571,49.82345],[37.61708,49.82479],[37.62823,49.82806],[37.62943,49.83053],[37.63339,49.84098],[37.63229,49.85088],[37.63414,49.85167],[37.64791,49.85135],[37.64791,49.85795],[37.63646,49.86277],[37.63775,49.86466],[37.65537,49.86166],[37.66748,49.85373],[37.66298,49.84968],[37.66628,49.84612],[37.66687,49.83877],[37.66888,49.82655],[37.67596,49.81892],[37.66995,49.81202],[37.66051,49.80922],[37.63853,49.81798],[37.63424,49.82411],[37.61965,49.82324],[37.61705,49.81665],[37.62463,49.81448],[37.61859,49.80455],[37.61177,49.80177],[37.6057,49.79574],[37.60525,49.80215]]]},"properties":{"source":"deepstate","source_name":"DeepStateMap","source_url":"https://deepstatemap.live/en","category":"lost","category_label":"No longer Russian-occupied","period":"30d","compared_with":"2026-08-12","snapshot_time":"2026-09-11","area_km2_approx":15.4}}]}