{"type":"FeatureCollection","features":[{"type":"Feature","geometry":{"type":"MultiPolygon","coordinates":[[[[37.72705,48.47954],[37.74269,48.4809],[37.74795,48.47871],[37.75456,48.47979],[37.76086,48.48208],[37.76197,48.48336],[37.76946,48.47002],[37.76517,48.46941],[37.76264,48.47045],[37.75912,48.47223],[37.74243,48.47267],[37.72048,48.47133],[37.72005,48.4745],[37.71795,48.48402],[37.72705,48.47954]]],[[[37.58796,50.23172],[37.58745,50.22986],[37.59534,50.22799],[37.5956,50.22415],[37.5811,50.22816],[37.57105,50.22997],[37.55904,50.23217],[37.54766,50.23313],[37.54148,50.2345],[37.53767,50.23653],[37.54277,50.24002],[37.54668,50.23955],[37.54947,50.2367],[37.5656,50.23601],[37.57204,50.23648],[37.57792,50.2336],[37.58796,50.23172]]],[[[37.24422,48.4376],[37.24719,48.43794],[37.2504,48.44246],[37.24914,48.45077],[37.24953,48.45282],[37.25255,48.45288],[37.27126,48.46059],[37.27673,48.46738],[37.2947,48.4683],[37.30967,48.46928],[37.31782,48.47454],[37.33167,48.47275],[37.33728,48.47388],[37.34086,48.47457],[37.35043,48.47488],[37.35156,48.47474],[37.36526,48.47299],[37.3653,48.47174],[37.36381,48.47177],[37.35757,48.47239],[37.35598,48.47149],[37.35334,48.46701],[37.35066,48.46297],[37.3471,48.46102],[37.33858,48.45977],[37.331,48.45821],[37.32577,48.4627],[37.32036,48.4656],[37.31264,48.46532],[37.30594,48.46392],[37.29609,48.46222],[37.28907,48.46316],[37.28661,48.45986],[37.28566,48.45852],[37.28139,48.45271],[37.27798,48.44921],[37.27003,48.44697],[37.25924,48.44277],[37.25379,48.43855],[37.24222,48.43335],[37.24422,48.4376]]],[[[37.19012,48.36986],[37.19061,48.37121],[37.19304,48.37409],[37.20038,48.37213],[37.20495,48.38062],[37.23192,48.38147],[37.23198,48.38008],[37.22585,48.37623],[37.22074,48.37586],[37.22005,48.36811],[37.20752,48.36623],[37.2029,48.3693],[37.19896,48.3689],[37.19488,48.36505],[37.19012,48.36986]]],[[[36.15456,47.65097],[36.1586,47.65375],[36.17265,47.64516],[36.17598,47.64499],[36.18471,47.63477],[36.19587,47.63743],[36.19579,47.63372],[36.18659,47.63021],[36.18174,47.63441],[36.17405,47.63157],[36.1631,47.64173],[36.15456,47.65097]]],[[[36.19243,50.39096],[36.18824,50.39027],[36.18815,50.39088],[36.18883,50.39125],[36.18972,50.39132],[36.1904,50.39147],[36.1905,50.39167],[36.19176,50.39222],[36.19219,50.39226],[36.19493,50.39114],[36.19243,50.39096]]]]},"properties":{"source":"ukrdaily","source_name":"UkrDailyUpdate","source_url":"https://map.ukrdailyupdate.com/","category":"gained","category_label":"Russian advance: became occupied","period":"7d","compared_with":"2026-07-30","snapshot_time":"2026-08-06","area_km2_approx":20.7}},{"type":"Feature","geometry":{"type":"Polygon","coordinates":[[[37.86951,48.93528],[37.87143,48.9359],[37.87198,48.93681],[37.87053,48.9376],[37.86961,48.9391],[37.86732,48.94558],[37.86751,48.94567],[37.87032,48.94159],[37.87265,48.93995],[37.8753,48.93752],[37.87353,48.93412],[37.86833,48.93294],[37.86951,48.93528]]]},"properties":{"source":"ukrdaily","source_name":"UkrDailyUpdate","source_url":"https://map.ukrdailyupdate.com/","category":"lost","category_label":"Ukrainian advance: became Ukrainian-held","period":"7d","compared_with":"2026-07-30","snapshot_time":"2026-08-06","area_km2_approx":0.3}},{"type":"Feature","geometry":{"type":"Polygon","coordinates":[[[36.70906,48.00764],[36.71057,48.01151],[36.70747,48.02434],[36.71572,48.03664],[36.72,48.04059],[36.72179,48.0401],[36.73551,48.0392],[36.73352,48.03567],[36.73346,48.03139],[36.73264,48.02658],[36.73197,48.02224],[36.75702,48.01108],[36.76475,48.00625],[36.7691,48.00208],[36.76785,47.98897],[36.75377,47.98989],[36.75124,47.99063],[36.75025,47.99138],[36.74605,47.99954],[36.73425,48.00417],[36.70647,48.00275],[36.70906,48.00764]]]},"properties":{"source":"ukrdaily","source_name":"UkrDailyUpdate","source_url":"https://map.ukrdailyupdate.com/","category":"occupied_to_contested","category_label":"Occupied became contested","period":"7d","compared_with":"2026-07-30","snapshot_time":"2026-08-06","area_km2_approx":12.2}},{"type":"Feature","geometry":{"type":"MultiPolygon","coordinates":[[[[37.8017,48.55638],[37.79941,48.5583],[37.79835,48.55864],[37.79707,48.56405],[37.80105,48.56448],[37.80288,48.56643],[37.80838,48.56788],[37.81199,48.56964],[37.81362,48.56875],[37.8153,48.56854],[37.81365,48.56742],[37.81399,48.56631],[37.81165,48.56356],[37.81284,48.55431],[37.80953,48.55218],[37.80573,48.55066],[37.8017,48.55638]]],[[[37.68706,48.55742],[37.68659,48.56694],[37.68494,48.57044],[37.68946,48.57662],[37.69835,48.5798],[37.71075,48.57932],[37.71442,48.57977],[37.72084,48.58175],[37.72558,48.58343],[37.72946,48.58341],[37.73723,48.57889],[37.74418,48.57443],[37.7468,48.56566],[37.76225,48.55845],[37.76688,48.55583],[37.77616,48.54645],[37.76891,48.54805],[37.76443,48.54927],[37.75829,48.54891],[37.74579,48.55833],[37.73708,48.56022],[37.73431,48.56343],[37.72896,48.56371],[37.72458,48.56272],[37.71864,48.56252],[37.71391,48.56184],[37.71084,48.56037],[37.70535,48.55768],[37.70483,48.55307],[37.68706,48.55742]]],[[[37.33602,48.47878],[37.3384,48.48275],[37.34248,48.48736],[37.35089,48.49248],[37.35065,48.49816],[37.35116,48.50629],[37.35018,48.5078],[37.35378,48.5097],[37.35932,48.51095],[37.36571,48.51271],[37.37095,48.51397],[37.37859,48.51704],[37.39107,48.5188],[37.39558,48.51556],[37.3891,48.50501],[37.3853,48.49682],[37.38035,48.50115],[37.3664,48.50297],[37.36262,48.5014],[37.35786,48.48767],[37.35252,48.47876],[37.35155,48.47474],[37.35043,48.47488],[37.34086,48.47457],[37.33728,48.47388],[37.33093,48.47884],[37.33602,48.47878]]],[[[37.18819,48.3971],[37.19223,48.39756],[37.19132,48.40213],[37.18559,48.40159],[37.18446,48.40613],[37.18699,48.40742],[37.18523,48.40891],[37.18592,48.40928],[37.18614,48.41187],[37.19176,48.41204],[37.19927,48.41128],[37.19983,48.40647],[37.19941,48.40395],[37.20091,48.39432],[37.18889,48.39327],[37.18819,48.3971]]],[[[37.1782,50.33093],[37.17575,50.32927],[37.175,50.32709],[37.17055,50.32423],[37.16755,50.32402],[37.16622,50.32339],[37.16618,50.32344],[37.16804,50.32537],[37.16992,50.32871],[37.17439,50.3323],[37.17949,50.33567],[37.1782,50.33093]]]]},"properties":{"source":"ukrdaily","source_name":"UkrDailyUpdate","source_url":"https://map.ukrdailyupdate.com/","category":"ukrainian_to_contested","category_label":"Ukrainian-held became contested","period":"7d","compared_with":"2026-07-30","snapshot_time":"2026-08-06","area_km2_approx":22.7}}]}