{"type":"FeatureCollection","features":[{"type":"Feature","geometry":{"type":"MultiPolygon","coordinates":[[[[37.93184,49.24305],[37.95266,49.24993],[37.95656,49.24829],[37.95003,49.24791],[37.95003,49.24668],[37.95382,49.24544],[37.95026,49.24415],[37.94917,49.24172],[37.95649,49.24029],[37.95101,49.23638],[37.93556,49.23931],[37.92944,49.2418],[37.93184,49.24305]]],[[[37.89339,48.78456],[37.88994,48.79496],[37.87937,48.79684],[37.88133,48.80302],[37.89038,48.80795],[37.89249,48.81586],[37.89699,48.81911],[37.89035,48.82677],[37.90716,48.83304],[37.91665,48.83982],[37.92794,48.83903],[37.93255,48.81936],[37.92994,48.81732],[37.92891,48.81154],[37.93561,48.80185],[37.94044,48.79842],[37.93738,48.79601],[37.92941,48.79792],[37.92041,48.79508],[37.92267,48.78527],[37.91345,48.78343],[37.90042,48.77406],[37.89109,48.77829],[37.89339,48.78456]]],[[[37.89255,48.85171],[37.88858,48.85857],[37.89205,48.86483],[37.89484,48.86269],[37.90838,48.86255],[37.91042,48.85914],[37.90702,48.85286],[37.89555,48.85143],[37.88455,48.8488],[37.88442,48.8493],[37.89255,48.85171]]],[[[37.83834,48.75767],[37.82501,48.75655],[37.81858,48.76232],[37.81225,48.76962],[37.826,48.78223],[37.84205,48.78353],[37.84788,48.77545],[37.87053,48.77563],[37.87139,48.77989],[37.88083,48.77925],[37.88728,48.76974],[37.88436,48.76645],[37.86489,48.76165],[37.85104,48.76079],[37.83897,48.76487],[37.83207,48.76554],[37.83326,48.76266],[37.83685,48.76226],[37.84443,48.75444],[37.8347,48.75206],[37.83834,48.75767]]],[[[37.80337,48.56441],[37.80335,48.57228],[37.81583,48.5755],[37.81937,48.57173],[37.81391,48.56694],[37.81298,48.56464],[37.80337,48.56441]]],[[[37.7944,49.06859],[37.79184,49.07079],[37.81455,49.07006],[37.81455,49.06958],[37.7944,49.06859]]],[[[37.78175,48.6279],[37.77869,48.64432],[37.77048,48.65276],[37.75973,48.65433],[37.75483,48.65608],[37.75173,48.66089],[37.75394,48.66448],[37.78182,48.67337],[37.79317,48.67884],[37.78719,48.68968],[37.78741,48.68984],[37.79663,48.67942],[37.80546,48.68008],[37.81171,48.66552],[37.80027,48.66385],[37.78724,48.65643],[37.79071,48.64597],[37.78467,48.63351],[37.788,48.62353],[37.78175,48.6279]]],[[[37.79593,48.54892],[37.79597,48.54703],[37.77708,48.54451],[37.777,48.54499],[37.79593,48.54892]]],[[[37.79379,48.55941],[37.78792,48.55863],[37.78729,48.56035],[37.79048,48.56062],[37.79215,48.56285],[37.79198,48.56395],[37.79565,48.56424],[37.79576,48.5583],[37.79379,48.55941]]],[[[37.7286,48.49526],[37.74068,48.49541],[37.74654,48.48638],[37.76195,48.48311],[37.74852,48.47794],[37.74268,48.48121],[37.72649,48.47945],[37.71615,48.48442],[37.7286,48.49526]]],[[[37.62395,48.52551],[37.63977,48.52626],[37.64949,48.50816],[37.66469,48.50368],[37.64657,48.5002],[37.64252,48.50773],[37.62842,48.50675],[37.62035,48.49756],[37.62395,48.52551]]],[[[37.60757,48.45797],[37.61994,48.45962],[37.62839,48.46541],[37.62216,48.48564],[37.63337,48.47508],[37.63848,48.45063],[37.61203,48.4434],[37.60452,48.44228],[37.60757,48.45797]]],[[[37.61537,48.48823],[37.61181,48.49237],[37.61357,48.4944],[37.6192,48.49703],[37.61934,48.49679],[37.61511,48.49355],[37.62216,48.48564],[37.61537,48.48823]]],[[[37.24994,48.45529],[37.24667,48.45979],[37.27444,48.46839],[37.28121,48.47303],[37.29887,48.47602],[37.30784,48.47472],[37.29578,48.46988],[37.28533,48.46848],[37.27719,48.46406],[37.26933,48.45705],[37.24994,48.45529]]],[[[37.04431,48.35651],[37.04205,48.36105],[37.05001,48.36868],[37.10022,48.39029],[37.09743,48.39635],[37.10001,48.39779],[37.10576,48.39494],[37.11252,48.38806],[37.12401,48.3831],[37.13538,48.37576],[37.14724,48.37222],[37.15207,48.37758],[37.15736,48.3815],[37.1679,48.38621],[37.17432,48.39103],[37.17212,48.40083],[37.19362,48.40242],[37.18939,48.40997],[37.18932,48.41589],[37.20126,48.41477],[37.22362,48.41956],[37.22514,48.41616],[37.23265,48.41675],[37.23748,48.41507],[37.23461,48.41115],[37.23973,48.41116],[37.24056,48.40383],[37.21319,48.40149],[37.20468,48.39768],[37.18673,48.39364],[37.18572,48.38035],[37.1781,48.37906],[37.17923,48.37481],[37.18947,48.37186],[37.1834,48.36173],[37.16604,48.3603],[37.14662,48.36549],[37.10328,48.36302],[37.10284,48.36528],[37.08477,48.36258],[37.08589,48.3578],[37.07913,48.35621],[37.07069,48.35179],[37.06842,48.35137],[37.0675,48.34277],[37.06285,48.34002],[37.04084,48.34923],[37.04431,48.35651]]],[[[37.21609,48.43253],[37.21668,48.4445],[37.22417,48.44745],[37.23002,48.44856],[37.23399,48.45321],[37.2396,48.4541],[37.24049,48.44834],[37.23722,48.44842],[37.23085,48.43943],[37.21902,48.42985],[37.21609,48.43253]]],[[[37.13721,50.33183],[37.13025,50.33444],[37.12535,50.3412],[37.13478,50.3475],[37.13838,50.36095],[37.14336,50.34586],[37.14511,50.33534],[37.15578,50.33511],[37.1558,50.33478],[37.13721,50.33183]]],[[[37.06506,48.28316],[37.06102,48.30629],[37.06233,48.31776],[37.08621,48.31258],[37.08787,48.30245],[37.10235,48.29584],[37.10351,48.28705],[37.05892,48.28128],[37.05884,48.28173],[37.06506,48.28316]]],[[[36.9909,48.26865],[36.99904,48.26908],[37.012,48.26787],[37.01027,48.27906],[37.0272,48.2746],[37.04407,48.28015],[37.05438,48.28069],[37.05763,48.26376],[37.05032,48.26163],[37.05117,48.25514],[37.04609,48.25208],[37.04633,48.24976],[37.04049,48.24664],[37.03835,48.24438],[37.01808,48.24175],[37.01252,48.25993],[37.01045,48.25978],[37.00882,48.26105],[37.00307,48.26091],[36.99545,48.2634],[36.98834,48.26291],[36.9909,48.26865]]],[[[36.14878,47.66127],[36.14606,47.66863],[36.13929,47.69001],[36.14226,47.70203],[36.1671,47.69232],[36.17244,47.68045],[36.16607,47.67461],[36.16026,47.66886],[36.17061,47.65487],[36.16457,47.65167],[36.15938,47.65304],[36.14878,47.66127]]],[[[36.13365,47.71954],[36.13012,47.72098],[36.13437,47.72395],[36.1298,47.72497],[36.13175,47.72738],[36.14947,47.72803],[36.15895,47.7318],[36.1634,47.74575],[36.16347,47.74574],[36.16435,47.72631],[36.14772,47.72357],[36.1352,47.71367],[36.13365,47.71954]]]]},"properties":{"source":"deepstate","source_name":"DeepStateMap","source_url":"https://deepstatemap.live/en","category":"gained","category_label":"Russian advance: became occupied","period":"30d","compared_with":"2026-09-04","snapshot_time":"2026-10-04","area_km2_approx":126.9}},{"type":"Feature","geometry":{"type":"MultiPolygon","coordinates":[[[[37.7453,49.17076],[37.74676,49.17881],[37.75407,49.18246],[37.75985,49.18666],[37.77694,49.1837],[37.78341,49.18882],[37.79626,49.18604],[37.79597,49.18417],[37.8057,49.18175],[37.81229,49.18647],[37.80058,49.19477],[37.77132,49.20398],[37.77901,49.21082],[37.80627,49.20398],[37.83697,49.20173],[37.85176,49.19749],[37.86599,49.19814],[37.88366,49.19609],[37.88411,49.20115],[37.87487,49.20524],[37.87835,49.21235],[37.88091,49.21741],[37.87531,49.22135],[37.87403,49.22731],[37.88615,49.23082],[37.91384,49.2286],[37.91138,49.24432],[37.92603,49.22445],[37.94152,49.21111],[37.92895,49.20468],[37.89476,49.19262],[37.8749,49.18847],[37.87115,49.17491],[37.84954,49.17199],[37.84865,49.16138],[37.84619,49.15426],[37.84201,49.15465],[37.81732,49.15917],[37.78859,49.1606],[37.78152,49.16313],[37.76123,49.16294],[37.7453,49.17076]]],[[[37.72834,49.1341],[37.72577,49.12976],[37.73058,49.12492],[37.72668,49.11905],[37.72502,49.10598],[37.73752,49.10095],[37.7465,49.1075],[37.75477,49.10896],[37.77208,49.10669],[37.78617,49.0991],[37.77073,49.09305],[37.77364,49.09],[37.78122,49.08906],[37.78557,49.08391],[37.78054,49.07676],[37.78943,49.06707],[37.80558,49.06651],[37.80557,49.06596],[37.78102,49.06594],[37.75634,49.06023],[37.72726,49.05867],[37.73158,49.05204],[37.7256,49.04833],[37.70539,49.05936],[37.7061,49.06825],[37.71306,49.07917],[37.71663,49.08715],[37.70954,49.08555],[37.68743,49.08744],[37.68088,49.09154],[37.6758,49.10077],[37.67295,49.11451],[37.68088,49.1271],[37.69865,49.13671],[37.71633,49.13088],[37.72264,49.13499],[37.72834,49.1341]],[[37.71468,49.08879],[37.72173,49.08838],[37.72174,49.08838],[37.71468,49.08879]]],[[[37.60902,49.81395],[37.5969,49.81659],[37.59285,49.82224],[37.59721,49.82649],[37.60639,49.82611],[37.61064,49.82416],[37.61528,49.82721],[37.62917,49.82618],[37.63732,49.8296],[37.64176,49.82498],[37.64702,49.81832],[37.63729,49.81701],[37.62805,49.81377],[37.62007,49.80679],[37.61574,49.80709],[37.60902,49.81395]]],[[[37.58909,49.78972],[37.59415,49.79745],[37.60043,49.80242],[37.61235,49.8038],[37.61129,49.79583],[37.62774,49.79254],[37.62373,49.79138],[37.61912,49.7918],[37.6129,49.77702],[37.58909,49.78972]]],[[[37.35919,48.53502],[37.38233,48.539],[37.39713,48.5306],[37.39703,48.53036],[37.39292,48.53159],[37.38717,48.51575],[37.37788,48.51183],[37.37135,48.51643],[37.34498,48.51717],[37.35919,48.53502]]],[[[36.08711,47.72077],[36.0898,47.71692],[36.07471,47.71354],[36.07466,47.71369],[36.08711,47.72077]]]]},"properties":{"source":"deepstate","source_name":"DeepStateMap","source_url":"https://deepstatemap.live/en","category":"lost","category_label":"Ukrainian advance: became Ukrainian-held","period":"30d","compared_with":"2026-09-04","snapshot_time":"2026-10-04","area_km2_approx":107.7}},{"type":"Feature","geometry":{"type":"MultiPolygon","coordinates":[[[[37.76149,49.16015],[37.76427,49.16297],[37.78152,49.16313],[37.78859,49.1606],[37.81732,49.15917],[37.84201,49.15465],[37.84619,49.15426],[37.84865,49.16138],[37.84954,49.17199],[37.87115,49.17491],[37.8749,49.18847],[37.89476,49.19262],[37.92895,49.20468],[37.94152,49.21111],[37.92603,49.22445],[37.9167,49.23711],[37.91559,49.24275],[37.91948,49.24585],[37.92944,49.2418],[37.92331,49.2386],[37.92886,49.22648],[37.94946,49.20977],[37.90699,49.19104],[37.87843,49.18761],[37.87772,49.17272],[37.85429,49.16928],[37.85072,49.15631],[37.84652,49.14853],[37.84332,49.14825],[37.84081,49.15234],[37.81659,49.15706],[37.78545,49.15829],[37.78102,49.1603],[37.76149,49.16015]]],[[[37.79576,48.5583],[37.7981,48.55698],[37.79683,48.5491],[37.79593,48.54892],[37.79576,48.5583]]],[[[37.78584,49.07099],[37.78054,49.07676],[37.78557,49.08391],[37.78122,49.08906],[37.77364,49.09],[37.77073,49.09305],[37.78617,49.0991],[37.77208,49.10669],[37.75477,49.10896],[37.7465,49.1075],[37.73752,49.10095],[37.72502,49.10598],[37.72668,49.11905],[37.73058,49.12492],[37.72577,49.12976],[37.72753,49.13274],[37.7473,49.12972],[37.73095,49.11945],[37.72882,49.10849],[37.73666,49.10383],[37.7417,49.10796],[37.75293,49.11119],[37.77348,49.10778],[37.79007,49.09939],[37.77272,49.09231],[37.77481,49.09116],[37.78257,49.09091],[37.78847,49.08418],[37.78398,49.07756],[37.79184,49.07079],[37.78584,49.07099]]],[[[37.61456,49.80291],[37.61859,49.80455],[37.61996,49.8068],[37.62007,49.80679],[37.62805,49.81377],[37.63729,49.81701],[37.64005,49.81738],[37.64762,49.81436],[37.64743,49.81385],[37.64343,49.81527],[37.63699,49.80987],[37.63133,49.80181],[37.62847,49.80817],[37.62463,49.80695],[37.62674,49.80062],[37.61503,49.80282],[37.61527,49.80017],[37.6217,49.79765],[37.62938,49.79698],[37.63612,49.79469],[37.62936,49.78972],[37.62687,49.7829],[37.62327,49.77672],[37.61491,49.78179],[37.61912,49.7918],[37.62373,49.79138],[37.62774,49.79254],[37.61129,49.79583],[37.6121,49.8019],[37.61456,49.80291],[37.61456,49.80291]]]]},"properties":{"source":"deepstate","source_name":"DeepStateMap","source_url":"https://deepstatemap.live/en","category":"occupied_to_contested","category_label":"Occupied became contested","period":"30d","compared_with":"2026-09-04","snapshot_time":"2026-10-04","area_km2_approx":14.9}},{"type":"Feature","geometry":{"type":"MultiPolygon","coordinates":[[[[37.91992,49.25659],[37.94337,49.2568],[37.96865,49.25111],[37.96862,49.25086],[37.94354,49.25053],[37.93486,49.24617],[37.91803,49.2489],[37.91992,49.25659]]],[[[37.84222,48.86047],[37.82301,48.86371],[37.82362,48.87638],[37.83284,48.88531],[37.83744,48.87695],[37.85769,48.86541],[37.86918,48.85499],[37.87115,48.84655],[37.84359,48.84262],[37.83546,48.84921],[37.84222,48.86047]]],[[[37.81824,48.78373],[37.8324,48.78807],[37.84245,48.78631],[37.83523,48.78298],[37.826,48.78223],[37.81337,48.77064],[37.81249,48.77242],[37.81896,48.77902],[37.81747,48.78113],[37.81215,48.77725],[37.8119,48.77755],[37.81824,48.78373]]],[[[37.79827,48.85351],[37.80184,48.8585],[37.81296,48.8575],[37.81821,48.8402],[37.82321,48.83963],[37.82321,48.83936],[37.81458,48.83843],[37.81447,48.83563],[37.79827,48.85351]]],[[[37.79296,48.57562],[37.80192,48.57617],[37.80068,48.57249],[37.79169,48.57054],[37.79296,48.57562]]],[[[37.77917,48.73402],[37.79425,48.73568],[37.78939,48.72388],[37.77917,48.73402]]],[[[37.77712,48.56706],[37.78785,48.56693],[37.78914,48.56258],[37.78848,48.56045],[37.78729,48.56035],[37.78792,48.55865],[37.78664,48.55453],[37.77381,48.55156],[37.76997,48.56266],[37.77712,48.56706]]],[[[37.76614,48.62931],[37.77051,48.63512],[37.75371,48.6536],[37.74103,48.65438],[37.7356,48.65692],[37.7294,48.6653],[37.71853,48.66744],[37.71848,48.66857],[37.73537,48.66935],[37.76173,48.67019],[37.77945,48.67763],[37.78091,48.68788],[37.7879,48.6763],[37.78182,48.67337],[37.75394,48.66448],[37.75173,48.66089],[37.75483,48.65608],[37.75699,48.65531],[37.75706,48.65371],[37.77547,48.64254],[37.77419,48.63322],[37.78261,48.62655],[37.77858,48.62358],[37.77099,48.62299],[37.76614,48.62931]]],[[[37.60823,48.53887],[37.62138,48.5512],[37.61563,48.55671],[37.62777,48.56311],[37.64094,48.55736],[37.64042,48.5481],[37.65311,48.54169],[37.64318,48.53904],[37.64086,48.53251],[37.62359,48.52745],[37.60645,48.51663],[37.60823,48.53887]]],[[[37.57411,50.19301],[37.54132,50.19],[37.53289,50.18657],[37.50663,50.18783],[37.50783,50.20788],[37.52396,50.20442],[37.5298,50.20591],[37.5614,50.22296],[37.57634,50.21586],[37.58562,50.20338],[37.57411,50.19301]]],[[[37.10612,48.40277],[37.11161,48.39894],[37.11957,48.40071],[37.12903,48.40727],[37.12749,48.4081],[37.13016,48.4103],[37.13211,48.40951],[37.13492,48.41253],[37.13496,48.41813],[37.13842,48.42297],[37.14341,48.42283],[37.15063,48.42361],[37.15531,48.42698],[37.16607,48.42855],[37.16309,48.44521],[37.16406,48.44655],[37.17424,48.44433],[37.19009,48.46351],[37.20016,48.46976],[37.21714,48.47217],[37.2179,48.46335],[37.22147,48.45769],[37.20756,48.44289],[37.2029,48.44164],[37.2017,48.4374],[37.19182,48.43845],[37.19026,48.43646],[37.19264,48.42246],[37.18744,48.42202],[37.18678,48.4148],[37.17117,48.41501],[37.17109,48.41118],[37.18869,48.40974],[37.18983,48.40366],[37.17547,48.40307],[37.17052,48.40465],[37.17261,48.39592],[37.16347,48.38828],[37.16163,48.38341],[37.15736,48.3815],[37.15207,48.37758],[37.14836,48.37346],[37.12518,48.38234],[37.12401,48.3831],[37.1132,48.38777],[37.10908,48.39156],[37.10576,48.39494],[37.10502,48.39531],[37.10302,48.39715],[37.09197,48.40379],[37.10612,48.40277]]],[[[37.04388,48.41915],[37.04414,48.42444],[37.05251,48.43165],[37.05876,48.42932],[37.06295,48.42028],[37.08132,48.41691],[37.09197,48.40379],[37.07669,48.41024],[37.05263,48.41437],[37.03727,48.40506],[37.04388,48.41915]]],[[[37.02924,48.32868],[37.03028,48.34094],[37.03525,48.33165],[37.04606,48.32054],[37.04601,48.32047],[37.02924,48.32868]]],[[[36.08056,47.73013],[36.09108,47.74303],[36.09774,47.74312],[36.0997,47.72794],[36.08711,47.72077],[36.08056,47.73013]]],[[[36.06275,47.71087],[36.07367,47.71331],[36.07373,47.71316],[36.06323,47.70719],[36.06275,47.71087]]],[[[35.83203,47.49702],[35.84925,47.49611],[35.85164,47.49357],[35.86967,47.49277],[35.86966,47.49222],[35.83189,47.49264],[35.82707,47.48613],[35.81246,47.48496],[35.79942,47.48026],[35.79748,47.49119],[35.8068,47.50671],[35.80929,47.52546],[35.83079,47.52637],[35.83827,47.51303],[35.83203,47.49702]]]]},"properties":{"source":"deepstate","source_name":"DeepStateMap","source_url":"https://deepstatemap.live/en","category":"ukrainian_to_contested","category_label":"Ukrainian-held became contested","period":"30d","compared_with":"2026-09-04","snapshot_time":"2026-10-04","area_km2_approx":94.6}}]}