{"type":"FeatureCollection","features":[{"type":"Feature","geometry":{"type":"Polygon","coordinates":[[[36.13365,47.71954],[36.13012,47.72098],[36.13437,47.72395],[36.1298,47.72497],[36.13175,47.72738],[36.14947,47.72803],[36.15895,47.7318],[36.1634,47.74575],[36.16347,47.74574],[36.16435,47.72631],[36.14772,47.72357],[36.1352,47.71367],[36.13365,47.71954]]]},"properties":{"source":"deepstate","source_name":"DeepStateMap","source_url":"https://deepstatemap.live/en","category":"gained","category_label":"Russian advance: became occupied","period":"1d","compared_with":"2026-10-03","snapshot_time":"2026-10-04","area_km2_approx":2.3}},{"type":"Feature","geometry":{"type":"Polygon","coordinates":[[[36.08711,47.72077],[36.0898,47.71692],[36.07471,47.71354],[36.07466,47.71369],[36.08711,47.72077]]]},"properties":{"source":"deepstate","source_name":"DeepStateMap","source_url":"https://deepstatemap.live/en","category":"lost","category_label":"Ukrainian advance: became Ukrainian-held","period":"1d","compared_with":"2026-10-03","snapshot_time":"2026-10-04","area_km2_approx":0.3}},{"type":"Feature","geometry":{"type":"MultiPolygon","coordinates":[[[[37.17424,48.44433],[37.19009,48.46351],[37.20016,48.46976],[37.21714,48.47217],[37.21704,48.46813],[37.20531,48.4668],[37.18854,48.43891],[37.16919,48.44495],[37.16931,48.4454],[37.17424,48.44433]]],[[[36.08056,47.73013],[36.09108,47.74303],[36.09774,47.74312],[36.0997,47.72794],[36.08711,47.72077],[36.08056,47.73013]]],[[[36.06275,47.71087],[36.07367,47.71331],[36.07373,47.71316],[36.06323,47.70719],[36.06275,47.71087]]]]},"properties":{"source":"deepstate","source_name":"DeepStateMap","source_url":"https://deepstatemap.live/en","category":"ukrainian_to_contested","category_label":"Ukrainian-held became contested","period":"1d","compared_with":"2026-10-03","snapshot_time":"2026-10-04","area_km2_approx":6.2}}]}