{"type":"FeatureCollection","features":[{"type":"Feature","geometry":{"type":"MultiPolygon","coordinates":[[[[37.17212,48.40083],[37.19362,48.40242],[37.17432,48.39103],[37.17212,48.40083]]],[[[37.04431,48.35651],[37.04205,48.36105],[37.05001,48.36868],[37.10022,48.39029],[37.09743,48.39635],[37.10001,48.39779],[37.10576,48.39494],[37.11252,48.38806],[37.12401,48.3831],[37.13538,48.37576],[37.12907,48.37427],[37.11658,48.37973],[37.10765,48.37903],[37.10284,48.36528],[37.08477,48.36258],[37.06992,48.36156],[37.04792,48.35725],[37.04128,48.34973],[37.04113,48.34983],[37.04431,48.35651]]],[[[36.9909,48.26865],[36.99904,48.26908],[37.012,48.26787],[37.01027,48.27906],[37.0272,48.2746],[37.04407,48.28015],[37.05438,48.28069],[37.05694,48.2701],[37.04603,48.27117],[37.04507,48.2688],[37.02986,48.26768],[37.03147,48.2593],[37.01252,48.25993],[37.01045,48.25978],[37.00882,48.26105],[37.00307,48.26091],[36.99545,48.2634],[36.98834,48.26291],[36.9909,48.26865]]],[[[36.14878,47.66127],[36.14606,47.66863],[36.13929,47.69001],[36.14226,47.70203],[36.1671,47.69232],[36.17244,47.68045],[36.16607,47.67461],[36.16026,47.66886],[36.17061,47.65487],[36.16457,47.65167],[36.15938,47.65304],[36.14878,47.66127]]]]},"properties":{"source":"deepstate","source_name":"DeepStateMap","source_url":"https://deepstatemap.live/en","category":"gained","category_label":"Newly Russian-occupied","period":"7d","compared_with":"2026-09-27","snapshot_time":"2026-10-04","area_km2_approx":26.1}},{"type":"Feature","geometry":{"type":"Polygon","coordinates":[[[37.61481,49.8001],[37.61492,49.80031],[37.6217,49.79765],[37.62938,49.79698],[37.63612,49.79469],[37.62936,49.78972],[37.61481,49.8001]]]},"properties":{"source":"deepstate","source_name":"DeepStateMap","source_url":"https://deepstatemap.live/en","category":"lost","category_label":"No longer Russian-occupied","period":"7d","compared_with":"2026-09-27","snapshot_time":"2026-10-04","area_km2_approx":0.6}}]}