{"type":"FeatureCollection","features":[{"type":"Feature","geometry":null,"properties":{"source":"ua_mod","source_name":"Ministry of Defence of Ukraine","group":"official_ua","id":16339,"posted_utc":"2026-10-07T08:38:13+00:00","link":"https://t.me/ministry_of_defense_ua/16339","text":"✅ 40 000 тактичних навушників: Агенція оборонних закупівель ДОТ повністю законтрактувала потребу ЗСУ на 2026 рік.\nТактичні навушники мають одночасно захищати слух від пострілів і вибухів та дозволяти військовому чути команди, сигнали й навколишні звуки.\nДля закупівель встановили посилені вимоги:\n• шумозахист SNR – не менше 28 дБ;\n• відповідність військовим стандартам MIL-STD-810H та MIL-STD-461G;\n• робота за температури від -20 °C до +50 °C;\n• матеріали не підтримують горіння;\n• сумісність із бойовими балістичними шоломами;\n• регулювання гучності та функція економії заряду.\nЗакупівлі такого спорядження за стандартами НАТО вперше оголосили минулого року. Тоді ж розробили технічну специфікацію з підвищеними вимогами до захисту слуху, функціональності та надійності.","links":[],"original_html":"<i class=\"emoji\" style=\"background-image:url('//telegram.org/img/emoji/40/E29C85.png')\"><b>✅</b></i> <b>40 000 тактичних навушників: Агенція оборонних закупівель ДОТ повністю законтрактувала потребу ЗСУ на 2026 рік.</b><br/><br/>Тактичні навушники мають одночасно захищати слух від пострілів і вибухів та дозволяти військовому чути команди, сигнали й навколишні звуки.<br/><br/>Для закупівель встановили посилені вимоги:<br/>• шумозахист SNR – не менше 28 дБ;<br/>• відповідність військовим стандартам MIL-STD-810H та MIL-STD-461G;<br/>• робота за температури від -20 °C до +50 °C;<br/>• матеріали не підтримують горіння;<br/>• сумісність із бойовими балістичними шоломами;<br/>• регулювання гучності та функція економії заряду.<br/><br/>Закупівлі такого спорядження за стандартами НАТО вперше оголосили минулого року. Тоді ж розробили технічну специфікацію з підвищеними вимогами до захисту слуху, функціональності та надійності."}},{"type":"Feature","geometry":null,"properties":{"source":"ua_mod","source_name":"Ministry of Defence of Ukraine","group":"official_ua","id":16340,"posted_utc":"2026-10-07T11:38:14+00:00","link":"https://t.me/ministry_of_defense_ua/16340","text":"🤝 Ще €1,24 млрд від ЄС: на дрони, перехоплювачі, боєприпаси до БпЛА та ракети українського виробництва.\nУкраїна отримала новий транш у межах оборонної частини програми Ukraine Support Loan. Це не лише посилить наші спроможності на полі бою, а й створить додаткові замовлення для української промисловості.\nПрограма загалом передбачає підтримку України обсягом до €90 млрд у 2026–2027 роках. Майже €60 млрд із цієї суми призначено для оборонних потреб.\nУ 2026 році на розвиток військового потенціалу України заплановано виділити €28,3 млрд. З урахуванням нового траншу отримано майже €13 млрд.\nМіноборони дякує Президентці Європейської комісії Урсулі фон дер Ляєн, Єврокомісару з питань оборони та космосу Андрюсу Кубілюсу та державам-членам ЄС за послідовну підтримку України.","links":[],"original_html":"<i class=\"emoji\" style=\"background-image:url('//telegram.org/img/emoji/40/F09FA49D.png')\"><b>🤝</b></i> <b>Ще €1,24 млрд від ЄС: на дрони, перехоплювачі, боєприпаси до БпЛА та ракети українського виробництва.</b><br/><br/>Україна отримала новий транш у межах оборонної частини програми Ukraine Support Loan. Це не лише посилить наші спроможності на полі бою, а й створить додаткові замовлення для української промисловості.<br/><br/>Програма загалом передбачає підтримку України обсягом до €90 млрд у 2026–2027 роках. Майже €60 млрд із цієї суми призначено для оборонних потреб.&nbsp;<br/><br/>У 2026 році на розвиток військового потенціалу України заплановано виділити €28,3 млрд. З урахуванням нового траншу отримано майже €13 млрд.<br/><br/><i>Міноборони дякує Президентці Європейської комісії Урсулі фон дер Ляєн, Єврокомісару з питань оборони та космосу Андрюсу Кубілюсу та державам-членам ЄС за послідовну підтримку України.</i>"}}]}