{"type":"FeatureCollection","features":[{"type":"Feature","geometry":null,"properties":{"source":"ua_mod","source_name":"Ministry of Defence of Ukraine","group":"official_ua","id":16083,"posted_utc":"2026-08-24T06:21:47+00:00","link":"https://t.me/ministry_of_defense_ua/16083","text":"Євгеній Хмара:\n35 років тому Україна проголосила свою Незалежність!\nМи відновили право жити у власній державі, говорити своєю мовою, берегти свою культуру та самим визначати своє майбутнє.\nСаме нам, а не ворогу, вирішувати, якою буде Україна завтра. За це ми сьогодні боремося. За свій дім, рідних і близьких, наших дітей та наступні покоління. За наші цінності. За можливість жити у вільній Україні.\nДякую нашим воїнам. Усім, хто сьогодні в строю, тримає фронт, тримає позиції та проводить бойові операції. Пам’ятаємо: завдання мають бути успішно виконані, а наші воїни повернутися додому живими.\nросія принесла війну на нашу землю. Тому її військова машина, її військові об’єкти, усі об’єкти, які забезпечують агресію, і надалі будуть під нашими ударами.\nДякую всім, хто на своєму місці робить Україну сильнішою.\nСхиляємо голови перед кожним, хто віддав життя за Україну, і будемо гідні їхньої пам’яті.\nРобимо все, щоб наша Держава завжди залишалася вільною.\nЗ Днем Незалежності України!","links":[],"original_html":"<b>Євгеній Хмара:</b><br/><br/>35 років тому Україна проголосила свою Незалежність&#33;<br/><br/>Ми відновили право жити у власній державі, говорити своєю мовою, берегти свою культуру та самим визначати своє майбутнє.<br/><br/>Саме нам, а не ворогу, вирішувати, якою буде Україна завтра. За це ми сьогодні боремося. За свій дім, рідних і близьких, наших дітей та наступні покоління. За наші цінності. За можливість жити у вільній Україні.<br/><br/>Дякую нашим воїнам. Усім, хто сьогодні в строю, тримає фронт, тримає позиції та проводить бойові операції. Пам’ятаємо: завдання мають бути успішно виконані, а наші воїни повернутися додому живими.<br/><br/>росія принесла війну на нашу землю. Тому її військова машина, її військові об’єкти, усі об’єкти, які забезпечують агресію, і надалі будуть під нашими ударами.<br/><br/>Дякую всім, хто на своєму місці робить Україну сильнішою.<br/><br/>Схиляємо голови перед кожним, хто віддав життя за Україну, і будемо гідні їхньої пам’яті.<br/><br/>Робимо все, щоб наша Держава завжди залишалася вільною.<br/><br/>З Днем Незалежності України&#33;"}},{"type":"Feature","geometry":null,"properties":{"source":"ua_mod","source_name":"Ministry of Defence of Ukraine","group":"official_ua","id":16084,"posted_utc":"2026-08-24T07:43:48+00:00","link":"https://t.me/ministry_of_defense_ua/16084","text":"❗️Євгеній Хмара:\nЗустрівся з генералом Ейріком Крістофферсеном, Головнокомандувачем Збройних сил Норвегії.\nПоінформував про наші пріоритети та потреби.\nРеактивні «шахеди» — серйозний виклик. Україна розвиває засоби протидії, але нам потрібна підтримка партнерів для швидкого масштабування цих рішень.\nТакож критичною залишається допомога з ракетами-перехоплювачами проти російської балістики.\nВодночас Україна розвиває застосування асиметричних рішень. За останні дні є важливі ураження. росія буде втрачати здатність виробляти та запускати ракети по Україні.\nОбговорили, як розвивати наші взаємовигідні відносини — усе, що може посилювати і Україну, і наших партнерів.\nГотуємо Drone Deal між нашими країнами і розраховуємо на його підписання. Готові ділитися й іншими українськими рішеннями.\nВдячний Норвегії за цінну та критично важливу підтримку.","links":[],"original_html":"<div class=\"tgme_widget_message_text js-message_text\" dir=\"auto\"><i class=\"emoji\" style=\"background-image:url('//telegram.org/img/emoji/40/E29D97.png')\"><b>❗️</b></i><b>Євгеній Хмара:</b><br/><br/>Зустрівся з генералом Ейріком Крістофферсеном, Головнокомандувачем Збройних сил Норвегії.<br/><br/>Поінформував про наші пріоритети та потреби. <br/><br/>Реактивні «шахеди» — серйозний виклик. Україна розвиває засоби протидії, але нам потрібна підтримка партнерів для швидкого масштабування цих рішень.<br/><br/>Також критичною залишається допомога з ракетами-перехоплювачами проти російської балістики. <br/><br/>Водночас Україна розвиває застосування асиметричних рішень. За останні дні є важливі ураження. росія буде втрачати здатність виробляти та запускати ракети по Україні.<br/><br/>Обговорили, як розвивати наші взаємовигідні відносини — усе, що може посилювати і Україну, і наших партнерів.<br/><br/>Готуємо Drone Deal між нашими країнами і розраховуємо на його підписання. Готові ділитися й іншими українськими рішеннями.<br/><br/>Вдячний Норвегії за цінну та критично важливу підтримку."}},{"type":"Feature","geometry":null,"properties":{"source":"ua_mod","source_name":"Ministry of Defence of Ukraine","group":"official_ua","id":16087,"posted_utc":"2026-08-24T12:34:15+00:00","link":"https://t.me/ministry_of_defense_ua/16087","text":"Кількість місій НРК у липні зросла до майже 20 тисяч – із 7,5 тисячі у січні.\nЗ початку року наземні роботи виконали понад 100 тисяч місій. Вони доставляли боєприпаси, воду, їжу та евакуювали поранених.\nБільше місій – більша потреба у наземних роботизованих комплексах. Міноборони це враховує, а тому вже законтрактувало понад 22 тисячі НРК.\nЗагалом з початку 2026 року військові лише через маркетплейс Brave1 Market замовили наземних роботів на майже 1,9 млрд гривень.\nТехнології потрібні, щоб зводити ризик для українських захисників до мінімуму. Життя і здоров’я воїнів – наша безумовна цінність.","links":["https://mod.gov.ua/news/nrk-vykonaly-ponad-100-000-zavdan-zamist-ukrainskykh-viiskovykh-na-fronti-z-pochatku-roku?utm_source=mod-telegram&utm_medium=social"],"original_html":"<b>Кількість місій НРК у липні зросла до майже 20 тисяч – із 7,5 тисячі у січні.</b><br/><b><br/></b>З початку року наземні роботи виконали <a href=\"https://mod.gov.ua/news/nrk-vykonaly-ponad-100-000-zavdan-zamist-ukrainskykh-viiskovykh-na-fronti-z-pochatku-roku?utm_source=mod-telegram&amp;amp;utm_medium=social\" target=\"_blank\" rel=\"noopener\" onclick=\"return confirm('Open this link?\\n\\n'+this.href);\">понад 100 тисяч місій</a>. Вони доставляли боєприпаси, воду, їжу та евакуювали поранених.<br/><br/>Більше місій – більша потреба у наземних роботизованих комплексах. Міноборони це враховує, а тому вже законтрактувало понад 22 тисячі НРК.<br/><br/>Загалом з початку 2026 року військові лише через маркетплейс Brave1 Market замовили наземних роботів на майже 1,9 млрд гривень.<br/><br/>Технології потрібні, щоб зводити ризик для українських захисників до мінімуму. Життя і здоров’я воїнів – наша безумовна цінність."}}]}