{"type":"FeatureCollection","features":[{"type":"Feature","geometry":{"type":"Point","coordinates":[32.670873,46.6808]},"properties":{"original":{"Date":"2026-09-07","Name":"07 SEP 2026","Faction":"Unknown","Origin":"UAV","Latitude":"46.6808","Longitude":"32.670873","PlusCode":"8GRJMMJC+88 Antonivka, Kherson Oblast, Ukraine","Description":"A Russian drone dropped a grenade on a person.","Source":"https://x.com/99Dominik_/status/2096903732575248721, https://t.me/zona_Red/1283","Geolocation":"https://x.com/99Dominik_/status/2096903457231806515","Equipment":"","EquipmentItems":"(Multi-Purpose) Bomber UAV","Units":"","OrbatUnits":"18th Combined Arms Army","Id":"a5cc0894-14b7-4dc0-99a8-067542b42ef7","icon":"/api/icons/666666/False/template/92.png"},"source":"geoconfirmed","source_name":"GeoConfirmed","source_url":"https://geoconfirmed.org/map/ukraine","id":"a5cc0894-14b7-4dc0-99a8-067542b42ef7","date":"2026-09-07","link":"https://geoconfirmed.org/map/ukraine/a5cc0894-14b7-4dc0-99a8-067542b42ef7","category":"WIA/KIA Soldier/Militant","side":"Unknown","color":"#666666","description":"A Russian drone dropped a grenade on a person.","orbat":["18th Combined Arms Army"],"geolocation":["https://x.com/99Dominik_/status/2096903457231806515"],"sources":["https://x.com/99Dominik_/status/2096903732575248721","https://t.me/zona_Red/1283"]}},{"type":"Feature","geometry":{"type":"Point","coordinates":[37.77848,48.39529]},"properties":{"original":{"Date":"2026-09-07","Name":"07 SEP 2026","Faction":"Ukraine","Origin":"UAV","Latitude":"48.39529","Longitude":"37.77848","PlusCode":"8GWV9QWH+49 Shcherbynivka, Donetsk Oblast, Ukraine","Description":"0:31 - UA 5th Detachment of “Omega” of the National Guard hits claimed RU howitzer with Bumblebee drones. ","Source":"https://x.com/meowqai/status/2097086260267376687, https://t.me/Centr_omega_NGU/10565","Geolocation":"https://x.com/meowqai/status/2097100075717521601","Equipment":"","EquipmentItems":"Fixed Wing OWAD (One Way Attack Drone)","Units":"","OrbatUnits":"5th Special Purpose Detachment 'Omega 5\"","Id":"5c25ba6b-dffe-4cdc-85c5-0bd31f089a9d","icon":"/api/icons/0051CA/False/template/111.png"},"source":"geoconfirmed","source_name":"GeoConfirmed","source_url":"https://geoconfirmed.org/map/ukraine","id":"5c25ba6b-dffe-4cdc-85c5-0bd31f089a9d","date":"2026-09-07","link":"https://geoconfirmed.org/map/ukraine/5c25ba6b-dffe-4cdc-85c5-0bd31f089a9d","category":"Short Range (<50km) OWAD (One Way Attack Drone), mostly rotary wing, Flying OR Attacking a target without knowing the outcome: if something is damaged --> icon of the damaged equipment.","side":"Ukraine","color":"#0051CA","description":"0:31 - UA 5th Detachment of “Omega” of the National Guard hits claimed RU howitzer with Bumblebee drones.","orbat":["5th Special Purpose Detachment 'Omega 5\""],"geolocation":["https://x.com/meowqai/status/2097100075717521601"],"sources":["https://x.com/meowqai/status/2097086260267376687","https://t.me/Centr_omega_NGU/10565"]}},{"type":"Feature","geometry":{"type":"Point","coordinates":[37.61184,48.41965]},"properties":{"original":{"Date":"2026-09-07","Name":"07 SEP 2026","Faction":"Ukraine","Origin":"UAV","Latitude":"48.41965","Longitude":"37.61184","PlusCode":"8GWVCJ96+VP Yablunivka, Donetsk Oblast, Ukraine","Description":"0:20 - UA 5th Detachment of “Omega” of the National Guard hits claimed RU howitzer with Bumblebee drones. ","Source":"https://x.com/meowqai/status/2097086260267376687, https://t.me/Centr_omega_NGU/10565","Geolocation":"https://x.com/meowqai/status/2097086464127328525","Equipment":"","EquipmentItems":"Fixed Wing OWAD (One Way Attack Drone)","Units":"","OrbatUnits":"5th Special Purpose Detachment 'Omega 5\"","Id":"fe6bd709-f3c9-4b58-a6ad-103ba1ebf8cf","icon":"/api/icons/0051CA/False/template/111.png"},"source":"geoconfirmed","source_name":"GeoConfirmed","source_url":"https://geoconfirmed.org/map/ukraine","id":"fe6bd709-f3c9-4b58-a6ad-103ba1ebf8cf","date":"2026-09-07","link":"https://geoconfirmed.org/map/ukraine/fe6bd709-f3c9-4b58-a6ad-103ba1ebf8cf","category":"Short Range (<50km) OWAD (One Way Attack Drone), mostly rotary wing, Flying OR Attacking a target without knowing the outcome: if something is damaged --> icon of the damaged equipment.","side":"Ukraine","color":"#0051CA","description":"0:20 - UA 5th Detachment of “Omega” of the National Guard hits claimed RU howitzer with Bumblebee drones.","orbat":["5th Special Purpose Detachment 'Omega 5\""],"geolocation":["https://x.com/meowqai/status/2097086464127328525"],"sources":["https://x.com/meowqai/status/2097086260267376687","https://t.me/Centr_omega_NGU/10565"]}},{"type":"Feature","geometry":{"type":"Point","coordinates":[37.01025,48.36887]},"properties":{"original":{"Date":"2026-09-07","Name":"07 SEP 2026","Faction":"Ukraine","Origin":"UAV","Latitude":"48.36887","Longitude":"37.01025","PlusCode":"8GWV9296+G3 Myrne, Donetsk Oblast, Ukraine","Description":"0:47-0:49 - Rough location - 147th Artillery Brigade hits a claimed Russian position in Myrne, Donetska Region, Ukraine.","Source":"https://x.com/meowqai/status/2096993895720579459","Geolocation":"https://x.com/meowqai/status/2097014569365275117","Equipment":"","EquipmentItems":"Artillery","Units":"","OrbatUnits":"147th Separate Artillery Brigade","Id":"8832344c-69a9-4d2c-8657-1056a0ea8f1a","icon":"/api/icons/0051CA/False/template/10.png"},"source":"geoconfirmed","source_name":"GeoConfirmed","source_url":"https://geoconfirmed.org/map/ukraine","id":"8832344c-69a9-4d2c-8657-1056a0ea8f1a","date":"2026-09-07","link":"https://geoconfirmed.org/map/ukraine/8832344c-69a9-4d2c-8657-1056a0ea8f1a","category":"Shelling by artillery or aerial bombings - Location of the shelling, colour of who is shelling; Brown = UXO","side":"Ukraine","color":"#0051CA","description":"0:47-0:49 - Rough location - 147th Artillery Brigade hits a claimed Russian position in Myrne, Donetska Region, Ukraine.","orbat":["147th Separate Artillery Brigade"],"geolocation":["https://x.com/meowqai/status/2097014569365275117"],"sources":["https://x.com/meowqai/status/2096993895720579459"]}},{"type":"Feature","geometry":{"type":"Point","coordinates":[39.564313,48.33055]},"properties":{"original":{"Date":"2026-09-07","Name":"07 SEP 2026","Faction":"Russia","Origin":"UAV","Latitude":"48.33055","Longitude":"39.564313","PlusCode":"8GWX8HJ7+6P Simeikyne, Luhansk Oblast, Ukraine","Description":"0:12-0:20 - Area grid - A drone from Group \"Balista\" hit a warehouse, setting it on fire, which is claimed to be a Russian ammunition depot. Reportedly, the arsenal was located at a former poultry farm and supplied units of Russia's 8th Combined Arms Army.","Source":"https://x.com/SOF_UKR/status/2096876268377551346, https://x.com/NOELreports/status/2096922627231134147, https://t.me/ukr_sof/3355, ","Geolocation":"Based on https://x.com/carse_n/status/2097058108308586941","Equipment":"","EquipmentItems":"Fixed Wing OWAD (One Way Attack Drone)","Units":"","OrbatUnits":"Group \"Balista\"'","Id":"18e12fb3-229e-485b-83fc-1c953640f983","icon":"/api/icons/E00000/False/template/192.png"},"source":"geoconfirmed","source_name":"GeoConfirmed","source_url":"https://geoconfirmed.org/map/ukraine","id":"18e12fb3-229e-485b-83fc-1c953640f983","date":"2026-09-07","link":"https://geoconfirmed.org/map/ukraine/18e12fb3-229e-485b-83fc-1c953640f983","category":"Recently destroyed/Damaged[Visible in footage] or still burning infrastucture","side":"Russia","color":"#E00000","description":"0:12-0:20 - Area grid - A drone from Group \"Balista\" hit a warehouse, setting it on fire, which is claimed to be a Russian ammunition depot. Reportedly, the arsenal was located at a former poultry farm and supplied units of Russia's 8th Combined Arms Army.","orbat":["Group \"Balista\"'"],"geolocation":["https://x.com/carse_n/status/2097058108308586941"],"sources":["https://x.com/SOF_UKR/status/2096876268377551346","https://x.com/NOELreports/status/2096922627231134147","https://t.me/ukr_sof/3355"]}},{"type":"Feature","geometry":{"type":"Point","coordinates":[36.179887,50.32795]},"properties":{"original":{"Date":"2026-09-07","Name":"07 SEP 2026","Faction":"Russia","Origin":"UAV","Latitude":"50.32795","Longitude":"36.179887","PlusCode":"9G2R85HJ+52 Kozacha Lopan', Kharkiv Oblast, Ukraine","Description":"Area grid: the Vakha Battalion of the Akhmat Special Forces destroyed a claimed Ukrainian position in Kozacha Lopan using drones.","Source":"https://x.com/jimmhelloman555/status/2097030390087090415, https://t.me/akhmat_spn_bat_vaha/1769, ","Geolocation":"https://x.com/jimmhelloman555/status/2097030678881714211","Equipment":"","EquipmentItems":"FPV (First Person View) OWAD (One Way Attack Drone)","Units":"","OrbatUnits":"Center for Advanced Unmanned Aerial Technologies \"Rubicon\" | 245th Motorized Rifle Regiment | Battalion \"Vakha\" / \"Ваха\"","Id":"c0e49dac-4706-4e2c-88f2-2877dab185fe","icon":"/api/icons/E00000/False/template/111.png"},"source":"geoconfirmed","source_name":"GeoConfirmed","source_url":"https://geoconfirmed.org/map/ukraine","id":"c0e49dac-4706-4e2c-88f2-2877dab185fe","date":"2026-09-07","link":"https://geoconfirmed.org/map/ukraine/c0e49dac-4706-4e2c-88f2-2877dab185fe","category":"Short Range (<50km) OWAD (One Way Attack Drone), mostly rotary wing, Flying OR Attacking a target without knowing the outcome: if something is damaged --> icon of the damaged equipment.","side":"Russia","color":"#E00000","description":"Area grid: the Vakha Battalion of the Akhmat Special Forces destroyed a claimed Ukrainian position in Kozacha Lopan using drones.","orbat":["Center for Advanced Unmanned Aerial Technologies \"Rubicon\"","245th Motorized Rifle Regiment","Battalion \"Vakha\" / \"Ваха\""],"geolocation":["https://x.com/jimmhelloman555/status/2097030678881714211"],"sources":["https://x.com/jimmhelloman555/status/2097030390087090415","https://t.me/akhmat_spn_bat_vaha/1769"]}},{"type":"Feature","geometry":{"type":"Point","coordinates":[37.978997,47.104034]},"properties":{"original":{"Date":"2026-09-07","Name":"07 SEP 2026","Faction":"Russia","Origin":"VID","Latitude":"47.104034","Longitude":"37.978997","PlusCode":"8GVV4X3H+JH Samsonove, Donetsk Oblast, Ukraine","Description":"Burning fuel truck.","Source":"https://x.com/99Dominik_/status/2096984878101266552, https://t.me/dosye_shpiona/799, , reference (2:51:36) https://x.com/99Dominik_/status/2096984789454585880","Geolocation":"https://x.com/99Dominik_/status/2096984381323665592, https://x.com/99Dominik_/status/2096991192944713863","Equipment":"","EquipmentItems":"Fuel Tanker","Units":"","OrbatUnits":"","Id":"0191f225-6e8d-4523-9628-3d1776470311","icon":"/api/icons/E00000/False/template/62.png"},"source":"geoconfirmed","source_name":"GeoConfirmed","source_url":"https://geoconfirmed.org/map/ukraine","id":"0191f225-6e8d-4523-9628-3d1776470311","date":"2026-09-07","link":"https://geoconfirmed.org/map/ukraine/0191f225-6e8d-4523-9628-3d1776470311","category":"Recently Destroyed/Damaged[Visible in footage] Logistical Trucks (Soft skin OR armoured)","side":"Russia","color":"#E00000","description":"Burning fuel truck.","orbat":[],"geolocation":["https://x.com/99Dominik_/status/2096984381323665592","https://x.com/99Dominik_/status/2096991192944713863"],"sources":["https://x.com/99Dominik_/status/2096984878101266552","https://t.me/dosye_shpiona/799","https://x.com/99Dominik_/status/2096984789454585880"]}},{"type":"Feature","geometry":{"type":"Point","coordinates":[35.407207,47.590641]},"properties":{"original":{"Date":"2026-09-07","Name":"07 SEP 2026","Faction":"Russia","Origin":"UAV","Latitude":"47.590641","Longitude":"35.407207","PlusCode":"8GVQHCR4+7V Stepnohirs'k, Zaporizhia Oblast, Ukraine","Description":"0:20-0:24 - Sons of Khors of the 128th Mountain Brigade hit with FPV drone near Stepnohirsk solar power plant, Zaporizhzhia Oblast. Possibly the Russian soldier in previous scene. ","Source":"https://x.com/Bielitzling/status/2097060248049590455, https://www.instagram.com/sonsofkhors/reel/Dc_u8tGIKfe, ","Geolocation":"https://x.com/Bielitzling/status/2097060243599499742","Equipment":"","EquipmentItems":"FPV (First Person View) OWAD (One Way Attack Drone)","Units":"","OrbatUnits":"Drone Unit \"Sons of Hors\"","Id":"5c433eba-9227-4161-a567-3f33d1fd47df","icon":"/api/icons/E00000/False/template/111.png"},"source":"geoconfirmed","source_name":"GeoConfirmed","source_url":"https://geoconfirmed.org/map/ukraine","id":"5c433eba-9227-4161-a567-3f33d1fd47df","date":"2026-09-07","link":"https://geoconfirmed.org/map/ukraine/5c433eba-9227-4161-a567-3f33d1fd47df","category":"Short Range (<50km) OWAD (One Way Attack Drone), mostly rotary wing, Flying OR Attacking a target without knowing the outcome: if something is damaged --> icon of the damaged equipment.","side":"Russia","color":"#E00000","description":"0:20-0:24 - Sons of Khors of the 128th Mountain Brigade hit with FPV drone near Stepnohirsk solar power plant, Zaporizhzhia Oblast. Possibly the Russian soldier in previous scene.","orbat":["Drone Unit \"Sons of Hors\""],"geolocation":["https://x.com/Bielitzling/status/2097060243599499742"],"sources":["https://x.com/Bielitzling/status/2097060248049590455","https://www.instagram.com/sonsofkhors/reel/Dc_u8tGIKfe"]}},{"type":"Feature","geometry":{"type":"Point","coordinates":[37.36572,50.18175]},"properties":{"original":{"Date":"2026-09-07","Name":"07 SEP 2026","Faction":"Ukraine","Origin":"UAV","Latitude":"50.18175","Longitude":"37.36572","PlusCode":"9G2V59J8+M7 Hohyne, Kharkiv Oblast, Ukraine","Description":"0:02-0:04 -  Location of the presumed Ukrainian destroyed vehicle on the left - a pickup passes two destroyed uparmored vehicles.","Source":"https://bsky.app/profile/blinzka.bsky.social/post/3mwevqe7lbc2o, https://x.com/blinzka/status/2103625055200784758, https://www.facebook.com/reel/3276557749221244, https://www.instagram.com/120orp/reel/DdtuWF2MV9a/, https://www.tiktok.com/@120orp/video/7689486518360034568","Geolocation":"https://bsky.app/profile/blinzka.bsky.social/post/3mwf2s4ynn22b, https://x.com/blinzka/status/2103647819923861666","Equipment":"UNK (APC?)","EquipmentItems":"Pick-up","Units":"","OrbatUnits":"120th Reconnaissance Regiment","Id":"14504287-064d-4ffc-808d-3f7477a7645e","icon":"/api/icons/0051CA/False/template/63.png"},"source":"geoconfirmed","source_name":"GeoConfirmed","source_url":"https://geoconfirmed.org/map/ukraine","id":"14504287-064d-4ffc-808d-3f7477a7645e","date":"2026-09-07","link":"https://geoconfirmed.org/map/ukraine/14504287-064d-4ffc-808d-3f7477a7645e","category":"Older Destroyed/Damaged Logistical Trucks (Soft skin OR armoured)","side":"Ukraine","color":"#0051CA","description":"0:02-0:04 -  Location of the presumed Ukrainian destroyed vehicle on the left - a pickup passes two destroyed uparmored vehicles.","orbat":["120th Reconnaissance Regiment"],"geolocation":["https://bsky.app/profile/blinzka.bsky.social/post/3mwf2s4ynn22b","https://x.com/blinzka/status/2103647819923861666"],"sources":["https://bsky.app/profile/blinzka.bsky.social/post/3mwevqe7lbc2o","https://x.com/blinzka/status/2103625055200784758","https://www.facebook.com/reel/3276557749221244","https://www.instagram.com/120orp/reel/DdtuWF2MV9a/","https://www.tiktok.com/@120orp/video/7689486518360034568"]}},{"type":"Feature","geometry":{"type":"Point","coordinates":[32.570291,46.624123]},"properties":{"original":{"Date":"2026-09-07","Name":"07 SEP 2026","Faction":"Russia","Origin":"UAV","Latitude":"46.624123","Longitude":"32.570291","PlusCode":"8GRJJHFC+J4 Kherson, Kherson Oblast, Ukraine","Description":"A Russian drone dropped a grenade on two people.","Source":"https://x.com/99Dominik_/status/2096893333062770747, https://t.me/zona_Red/1291","Geolocation":"https://x.com/99Dominik_/status/2096893219657204131","Equipment":"","EquipmentItems":"(Multi-Purpose) Bomber UAV","Units":"","OrbatUnits":"18th Combined Arms Army","Id":"c224a11e-aeff-432d-bc38-4fe4d00493c9","icon":"/api/icons/E00000/False/template/110.png"},"source":"geoconfirmed","source_name":"GeoConfirmed","source_url":"https://geoconfirmed.org/map/ukraine","id":"c224a11e-aeff-432d-bc38-4fe4d00493c9","date":"2026-09-07","link":"https://geoconfirmed.org/map/ukraine/c224a11e-aeff-432d-bc38-4fe4d00493c9","category":"Multipurpose Bomber Drone, Flying OR Dropping OR bombing a target without knowing the outcome: if something is damaged --> icon of the damaged equipment.","side":"Russia","color":"#E00000","description":"A Russian drone dropped a grenade on two people.","orbat":["18th Combined Arms Army"],"geolocation":["https://x.com/99Dominik_/status/2096893219657204131"],"sources":["https://x.com/99Dominik_/status/2096893333062770747","https://t.me/zona_Red/1291"]}},{"type":"Feature","geometry":{"type":"Point","coordinates":[35.771536,47.589582]},"properties":{"original":{"Date":"2026-09-07","Name":"07 SEP 2026","Faction":"Russia","Origin":"UAV","Latitude":"47.589582","Longitude":"35.771536","PlusCode":"8GVQHQQC+RJ Preobrazhenka, Zaporizhia Oblast, Ukraine","Description":"0:50-0:55 - Caimed Ukrainian position hit by a Russian Molniya drone of the 291st Motorized Rifle Regiment","Source":"https://x.com/RedHibana/status/2096935027216929130, https://t.me/polk1430_1429/8423","Geolocation":"https://x.com/richardzai38580/status/2096860601536672033","Equipment":"","EquipmentItems":"Molniya","Units":"","OrbatUnits":"291st Motorized Rifle Regiment","Id":"75b32fad-b835-4582-ae90-561a7bb08668","icon":"/api/icons/E00000/False/template/111.png"},"source":"geoconfirmed","source_name":"GeoConfirmed","source_url":"https://geoconfirmed.org/map/ukraine","id":"75b32fad-b835-4582-ae90-561a7bb08668","date":"2026-09-07","link":"https://geoconfirmed.org/map/ukraine/75b32fad-b835-4582-ae90-561a7bb08668","category":"Short Range (<50km) OWAD (One Way Attack Drone), mostly rotary wing, Flying OR Attacking a target without knowing the outcome: if something is damaged --> icon of the damaged equipment.","side":"Russia","color":"#E00000","description":"0:50-0:55 - Caimed Ukrainian position hit by a Russian Molniya drone of the 291st Motorized Rifle Regiment","orbat":["291st Motorized Rifle Regiment"],"geolocation":["https://x.com/richardzai38580/status/2096860601536672033"],"sources":["https://x.com/RedHibana/status/2096935027216929130","https://t.me/polk1430_1429/8423"]}},{"type":"Feature","geometry":{"type":"Point","coordinates":[39.5608,48.33026]},"properties":{"original":{"Date":"2026-09-07","Name":"07 SEP 2026","Faction":"Russia","Origin":"UAV","Latitude":"48.33026","Longitude":"39.5608","PlusCode":"8GWX8HJ6+48 Simeikyne, Luhansk Oblast, Ukraine","Description":"0:07-0:11 - A drone from Group \"Balista\" hit a warehouse, setting it on fire, which is claimed to be a Russian ammunition depot. Reportedly, the arsenal was located at a former poultry farm and supplied units of Russia's 8th Combined Arms Army.","Source":"https://x.com/SOF_UKR/status/2096876268377551346, https://x.com/NOELreports/status/2096922627231134147, https://t.me/ukr_sof/3355, ","Geolocation":"https://x.com/carse_n/status/2097058108308586941","Equipment":"","EquipmentItems":"Fixed Wing OWAD (One Way Attack Drone)","Units":"","OrbatUnits":"Group \"Balista\"'","Id":"94b7e39d-72f8-42d6-b91c-57a1d373468f","icon":"/api/icons/E00000/False/template/192.png"},"source":"geoconfirmed","source_name":"GeoConfirmed","source_url":"https://geoconfirmed.org/map/ukraine","id":"94b7e39d-72f8-42d6-b91c-57a1d373468f","date":"2026-09-07","link":"https://geoconfirmed.org/map/ukraine/94b7e39d-72f8-42d6-b91c-57a1d373468f","category":"Recently destroyed/Damaged[Visible in footage] or still burning infrastucture","side":"Russia","color":"#E00000","description":"0:07-0:11 - A drone from Group \"Balista\" hit a warehouse, setting it on fire, which is claimed to be a Russian ammunition depot. Reportedly, the arsenal was located at a former poultry farm and supplied units of Russia's 8th Combined Arms Army.","orbat":["Group \"Balista\"'"],"geolocation":["https://x.com/carse_n/status/2097058108308586941"],"sources":["https://x.com/SOF_UKR/status/2096876268377551346","https://x.com/NOELreports/status/2096922627231134147","https://t.me/ukr_sof/3355"]}},{"type":"Feature","geometry":{"type":"Point","coordinates":[37.36583,50.18181]},"properties":{"original":{"Date":"2026-09-07","Name":"07 SEP 2026","Faction":"Ukraine","Origin":"UAV","Latitude":"50.18181","Longitude":"37.36583","PlusCode":"9G2V59J8+P8 Hohyne, Kharkiv Oblast, Ukraine","Description":"0:02-0:04 - Location of the presumed Ukrainian destroyed vehicle on the right - a pickup passes two destroyed uparmored vehicles.","Source":"https://bsky.app/profile/blinzka.bsky.social/post/3mwevqe7lbc2o, https://x.com/blinzka/status/2103625055200784758, https://www.facebook.com/reel/3276557749221244, https://www.instagram.com/120orp/reel/DdtuWF2MV9a/, https://www.tiktok.com/@120orp/video/7689486518360034568","Geolocation":"https://bsky.app/profile/blinzka.bsky.social/post/3mwf2s4ynn22b, https://x.com/blinzka/status/2103647819923861666","Equipment":"UNK (Truck)","EquipmentItems":"Pick-up","Units":"","OrbatUnits":"120th Reconnaissance Regiment","Id":"c106af2d-0dff-4ada-bac1-5d83bc251f36","icon":"/api/icons/0051CA/False/template/63.png"},"source":"geoconfirmed","source_name":"GeoConfirmed","source_url":"https://geoconfirmed.org/map/ukraine","id":"c106af2d-0dff-4ada-bac1-5d83bc251f36","date":"2026-09-07","link":"https://geoconfirmed.org/map/ukraine/c106af2d-0dff-4ada-bac1-5d83bc251f36","category":"Older Destroyed/Damaged Logistical Trucks (Soft skin OR armoured)","side":"Ukraine","color":"#0051CA","description":"0:02-0:04 - Location of the presumed Ukrainian destroyed vehicle on the right - a pickup passes two destroyed uparmored vehicles.","orbat":["120th Reconnaissance Regiment"],"geolocation":["https://bsky.app/profile/blinzka.bsky.social/post/3mwf2s4ynn22b","https://x.com/blinzka/status/2103647819923861666"],"sources":["https://bsky.app/profile/blinzka.bsky.social/post/3mwevqe7lbc2o","https://x.com/blinzka/status/2103625055200784758","https://www.facebook.com/reel/3276557749221244","https://www.instagram.com/120orp/reel/DdtuWF2MV9a/","https://www.tiktok.com/@120orp/video/7689486518360034568"]}},{"type":"Feature","geometry":{"type":"Point","coordinates":[37.700555,48.594172]},"properties":{"original":{"Date":"2026-09-07","Name":"07 SEP 2026","Faction":"Ukraine","Origin":"UAV","Latitude":"48.594172","Longitude":"37.700555","PlusCode":"8GWVHPV2+M6 Popasne, Donetsk Oblast, Ukraine","Description":"0:47-0:51 - 24th Mechanized Brigade drops explosive on a claimed Russian position in Popasne, Donetsk Oblast. Explosion is visible.","Source":"https://x.com/Bielitzling/status/2096995062898909348, https://t.me/official24ombr/2623","Geolocation":"https://x.com/Bielitzling/status/2096995062898909348","Equipment":"","EquipmentItems":"(Multi-Purpose) Bomber UAV","Units":"","OrbatUnits":"24th Mechanized Brigade","Id":"18625338-90f2-4efa-97dd-649aa23b23f0","icon":"/api/icons/0051CA/False/template/110.png"},"source":"geoconfirmed","source_name":"GeoConfirmed","source_url":"https://geoconfirmed.org/map/ukraine","id":"18625338-90f2-4efa-97dd-649aa23b23f0","date":"2026-09-07","link":"https://geoconfirmed.org/map/ukraine/18625338-90f2-4efa-97dd-649aa23b23f0","category":"Multipurpose Bomber Drone, Flying OR Dropping OR bombing a target without knowing the outcome: if something is damaged --> icon of the damaged equipment.","side":"Ukraine","color":"#0051CA","description":"0:47-0:51 - 24th Mechanized Brigade drops explosive on a claimed Russian position in Popasne, Donetsk Oblast. Explosion is visible.","orbat":["24th Mechanized Brigade"],"geolocation":["https://x.com/Bielitzling/status/2096995062898909348"],"sources":["https://x.com/Bielitzling/status/2096995062898909348","https://t.me/official24ombr/2623"]}},{"type":"Feature","geometry":{"type":"Point","coordinates":[37.568756,49.031633]},"properties":{"original":{"Date":"2026-09-07","Name":"07 SEP 2026","Faction":"Ukraine","Origin":"UAV","Latitude":"49.031633","Longitude":"37.568756","PlusCode":"8GXV2HJ9+MG Svyatohirs'k, Donetsk Oblast, Ukraine","Description":"Andriy Biletskyi in Sviatohirsk. (area grid)","Source":"https://x.com/ab3army/status/2096867993032503424, https://t.me/ab3army/7443","Geolocation":"https://x.com/Magyargeo56/status/2096946975149105224","Equipment":"","EquipmentItems":"","Units":"","OrbatUnits":"","Id":"02367240-60f5-473c-980a-6ddbe35ec816","icon":"/api/icons/0051CA/False/template/100.png"},"source":"geoconfirmed","source_name":"GeoConfirmed","source_url":"https://geoconfirmed.org/map/ukraine","id":"02367240-60f5-473c-980a-6ddbe35ec816","date":"2026-09-07","link":"https://geoconfirmed.org/map/ukraine/02367240-60f5-473c-980a-6ddbe35ec816","category":"Civilian or Soldier or Militant (Depending on the colour)","side":"Ukraine","color":"#0051CA","description":"Andriy Biletskyi in Sviatohirsk. (area grid)","orbat":[],"geolocation":["https://x.com/Magyargeo56/status/2096946975149105224"],"sources":["https://x.com/ab3army/status/2096867993032503424","https://t.me/ab3army/7443"]}},{"type":"Feature","geometry":{"type":"Point","coordinates":[37.778952,48.409316]},"properties":{"original":{"Date":"2026-09-07","Name":"07 SEP 2026","Faction":"Ukraine","Origin":"UAV","Latitude":"48.409316","Longitude":"37.778952","PlusCode":"8GWVCQ5H+PH Shcherbynivka, Donetsk Oblast, Ukraine","Description":"0:06 - UA 5th Detachment of “Omega” of the National Guard hits claimed RU howitzer with Bumblebee drones. ","Source":"https://x.com/meowqai/status/2097086260267376687, https://t.me/Centr_omega_NGU/10565","Geolocation":"https://x.com/klinger66/status/2097148988688396524","Equipment":"","EquipmentItems":"Fixed Wing OWAD (One Way Attack Drone)","Units":"","OrbatUnits":"5th Special Purpose Detachment 'Omega 5\"","Id":"2bb0488c-f67d-4834-9e17-6e070b8cb1b2","icon":"/api/icons/0051CA/False/template/111.png"},"source":"geoconfirmed","source_name":"GeoConfirmed","source_url":"https://geoconfirmed.org/map/ukraine","id":"2bb0488c-f67d-4834-9e17-6e070b8cb1b2","date":"2026-09-07","link":"https://geoconfirmed.org/map/ukraine/2bb0488c-f67d-4834-9e17-6e070b8cb1b2","category":"Short Range (<50km) OWAD (One Way Attack Drone), mostly rotary wing, Flying OR Attacking a target without knowing the outcome: if something is damaged --> icon of the damaged equipment.","side":"Ukraine","color":"#0051CA","description":"0:06 - UA 5th Detachment of “Omega” of the National Guard hits claimed RU howitzer with Bumblebee drones.","orbat":["5th Special Purpose Detachment 'Omega 5\""],"geolocation":["https://x.com/klinger66/status/2097148988688396524"],"sources":["https://x.com/meowqai/status/2097086260267376687","https://t.me/Centr_omega_NGU/10565"]}},{"type":"Feature","geometry":{"type":"Point","coordinates":[37.04391,48.35279]},"properties":{"original":{"Date":"2026-09-07","Name":"07 SEP 2026","Faction":"Ukraine","Origin":"UAV","Latitude":"48.35279","Longitude":"37.04391","PlusCode":"8GWV923V+4H Vasylivka, Donetsk Oblast, Ukraine","Description":"1:00 -1:02 - Rough location - 147th Artillery Brigade hits a claimed Russian position in Vasylivka, Donetska Region, Ukraine.","Source":"https://x.com/meowqai/status/2096993895720579459","Geolocation":"https://x.com/meowqai/status/2096993895720579459","Equipment":"","EquipmentItems":"Artillery","Units":"","OrbatUnits":"147th Separate Artillery Brigade","Id":"8580aa1d-e929-4336-9e41-744d4626dbae","icon":"/api/icons/0051CA/False/template/10.png"},"source":"geoconfirmed","source_name":"GeoConfirmed","source_url":"https://geoconfirmed.org/map/ukraine","id":"8580aa1d-e929-4336-9e41-744d4626dbae","date":"2026-09-07","link":"https://geoconfirmed.org/map/ukraine/8580aa1d-e929-4336-9e41-744d4626dbae","category":"Shelling by artillery or aerial bombings - Location of the shelling, colour of who is shelling; Brown = UXO","side":"Ukraine","color":"#0051CA","description":"1:00 -1:02 - Rough location - 147th Artillery Brigade hits a claimed Russian position in Vasylivka, Donetska Region, Ukraine.","orbat":["147th Separate Artillery Brigade"],"geolocation":["https://x.com/meowqai/status/2096993895720579459"],"sources":["https://x.com/meowqai/status/2096993895720579459"]}},{"type":"Feature","geometry":{"type":"Point","coordinates":[38.2507,46.685274]},"properties":{"original":{"Date":"2026-09-07","Name":"07 SEP 2026","Faction":"Ukraine","Origin":"SAT","Latitude":"46.685274","Longitude":"38.2507","PlusCode":"8GRWM7P2+47 Yeysk, Krasnodar Krai, Russia","Description":"A dark mark is visible on the runway of Airbase Yeysk, likely following a reported Ukrainian drone strike on a Pantsir-S1 anti-aircraft missile and gun system, a Sopka-2 (12L6) radar station, and an aviation weapons depot in Yeysk, Krasnodar Krai.","Source":"https://x.com/GarbuzYe/status/2096873068480057828, , More information, https://www.ukrinform.net/rubric-ato/4159140-ukrainian-usf-destroy-five-russian-air-defense-assets-at-yeysk-and-millerovo-airfields.html","Geolocation":"https://maps.app.goo.gl/7689Eeq4EtaqSoVX8","Equipment":"","EquipmentItems":"","Units":"","OrbatUnits":"","Id":"2e4e44a0-20c3-41bf-be80-817cbcd19f69","icon":"/api/icons/0051CA/False/template/70.png"},"source":"geoconfirmed","source_name":"GeoConfirmed","source_url":"https://geoconfirmed.org/map/ukraine","id":"2e4e44a0-20c3-41bf-be80-817cbcd19f69","date":"2026-09-07","link":"https://geoconfirmed.org/map/ukraine/2e4e44a0-20c3-41bf-be80-817cbcd19f69","category":"Controlled Demolition OR explosion of unknown origin OR fire of unknown origin where no other icon fits","side":"Ukraine","color":"#0051CA","description":"A dark mark is visible on the runway of Airbase Yeysk, likely following a reported Ukrainian drone strike on a Pantsir-S1 anti-aircraft missile and gun system, a Sopka-2 (12L6) radar station, and an aviation weapons depot in Yeysk, Krasnodar Krai.","orbat":[],"geolocation":["https://maps.app.goo.gl/7689Eeq4EtaqSoVX8"],"sources":["https://x.com/GarbuzYe/status/2096873068480057828","https://www.ukrinform.net/rubric-ato/4159140-ukrainian-usf-destroy-five-russian-air-defense-assets-at-yeysk-and-millerovo-airfields.html"]}},{"type":"Feature","geometry":{"type":"Point","coordinates":[37.4835,48.37199]},"properties":{"original":{"Date":"2026-09-07","Name":"07 SEP 2026","Faction":"Ukraine","Origin":"UAV","Latitude":"48.37199","Longitude":"37.4835","PlusCode":"8GWV9FCM+Q9 Nova Poltavka, Donetsk Oblast, Ukraine","Description":"0:35-0:37 - Rough location - 147th Artillery Brigade HIMARS hits a presumed vehicle near Nova Poltavka, Donetska Region, Ukraine.","Source":"https://x.com/meowqai/status/2096993895720579459","Geolocation":"https://x.com/meowqai/status/2097008676842197010","Equipment":"","EquipmentItems":"M142 High Mobility Artillery Rocket System (HIMARS)","Units":"","OrbatUnits":"147th Separate Artillery Brigade","Id":"a9a902a8-99cf-407f-b18d-8216dba2a4eb","icon":"/api/icons/0051CA/False/template/10.png"},"source":"geoconfirmed","source_name":"GeoConfirmed","source_url":"https://geoconfirmed.org/map/ukraine","id":"a9a902a8-99cf-407f-b18d-8216dba2a4eb","date":"2026-09-07","link":"https://geoconfirmed.org/map/ukraine/a9a902a8-99cf-407f-b18d-8216dba2a4eb","category":"Shelling by artillery or aerial bombings - Location of the shelling, colour of who is shelling; Brown = UXO","side":"Ukraine","color":"#0051CA","description":"0:35-0:37 - Rough location - 147th Artillery Brigade HIMARS hits a presumed vehicle near Nova Poltavka, Donetska Region, Ukraine.","orbat":["147th Separate Artillery Brigade"],"geolocation":["https://x.com/meowqai/status/2097008676842197010"],"sources":["https://x.com/meowqai/status/2096993895720579459"]}},{"type":"Feature","geometry":{"type":"Point","coordinates":[36.009038,47.871196]},"properties":{"original":{"Date":"2026-09-07","Name":"07 SEP 2026","Faction":"Russia","Origin":"UAV","Latitude":"47.871196","Longitude":"36.009038","PlusCode":"8GVRV2C5+FJ Svitla Dolyna, Zaporizhia Oblast, Ukraine","Description":"0:06-0:10 - FPV from the 14th Spetsnaz Brigade hit a Ukrainian vehicle,  uniformed men running away.","Source":"https://x.com/juss_men/status/2097080716190163204, https://t.me/voin_dv/21005","Geolocation":"https://x.com/juss_men/status/2097080564679401752","Equipment":"4x4","EquipmentItems":"Car  | FPV (First Person View) OWAD (One Way Attack Drone)","Units":"","OrbatUnits":"14th Guards Spetsnaz Brigade","Id":"979cf748-3a87-4dc2-9c48-848418452bca","icon":"/api/icons/E00000/False/template/111.png"},"source":"geoconfirmed","source_name":"GeoConfirmed","source_url":"https://geoconfirmed.org/map/ukraine","id":"979cf748-3a87-4dc2-9c48-848418452bca","date":"2026-09-07","link":"https://geoconfirmed.org/map/ukraine/979cf748-3a87-4dc2-9c48-848418452bca","category":"Short Range (<50km) OWAD (One Way Attack Drone), mostly rotary wing, Flying OR Attacking a target without knowing the outcome: if something is damaged --> icon of the damaged equipment.","side":"Russia","color":"#E00000","description":"0:06-0:10 - FPV from the 14th Spetsnaz Brigade hit a Ukrainian vehicle,  uniformed men running away.","orbat":["14th Guards Spetsnaz Brigade"],"geolocation":["https://x.com/juss_men/status/2097080564679401752"],"sources":["https://x.com/juss_men/status/2097080716190163204","https://t.me/voin_dv/21005"]}},{"type":"Feature","geometry":{"type":"Point","coordinates":[37.700286,48.594123]},"properties":{"original":{"Date":"2026-09-07","Name":"07 SEP 2026","Faction":"Ukraine","Origin":"UAV","Latitude":"48.594123","Longitude":"37.700286","PlusCode":"8GWVHPV2+J4 Popasne, Donetsk Oblast, Ukraine","Description":"0:38-0:39 - 24th Mechanized Brigade drops explosive on a claimed Russian position in Popasne, Donetsk Oblast. Explosion is visible.","Source":"https://x.com/Bielitzling/status/2096995062898909348, https://t.me/official24ombr/2623","Geolocation":"https://x.com/Bielitzling/status/2096993620855259177","Equipment":"","EquipmentItems":"(Multi-Purpose) Bomber UAV","Units":"","OrbatUnits":"24th Mechanized Brigade","Id":"7d70ac41-0c28-4d7f-a3cb-8a1167dc694e","icon":"/api/icons/0051CA/False/template/110.png"},"source":"geoconfirmed","source_name":"GeoConfirmed","source_url":"https://geoconfirmed.org/map/ukraine","id":"7d70ac41-0c28-4d7f-a3cb-8a1167dc694e","date":"2026-09-07","link":"https://geoconfirmed.org/map/ukraine/7d70ac41-0c28-4d7f-a3cb-8a1167dc694e","category":"Multipurpose Bomber Drone, Flying OR Dropping OR bombing a target without knowing the outcome: if something is damaged --> icon of the damaged equipment.","side":"Ukraine","color":"#0051CA","description":"0:38-0:39 - 24th Mechanized Brigade drops explosive on a claimed Russian position in Popasne, Donetsk Oblast. Explosion is visible.","orbat":["24th Mechanized Brigade"],"geolocation":["https://x.com/Bielitzling/status/2096993620855259177"],"sources":["https://x.com/Bielitzling/status/2096995062898909348","https://t.me/official24ombr/2623"]}},{"type":"Feature","geometry":{"type":"Point","coordinates":[37.05643,48.33057]},"properties":{"original":{"Date":"2026-09-07","Name":"07 SEP 2026","Faction":"Ukraine","Origin":"UAV","Latitude":"48.33057","Longitude":"37.05643","PlusCode":"8GWV83J4+6H Hryshyne, Donetsk Oblast, Ukraine","Description":"0:58 - Rough location - 147th Artillery Brigade hits a claimed Russian position in Hryshyne, Donetska Region, Ukraine.","Source":"https://x.com/meowqai/status/2096993895720579459","Geolocation":"https://x.com/meowqai/status/2096993272845512766","Equipment":"","EquipmentItems":"Artillery","Units":"","OrbatUnits":"147th Separate Artillery Brigade","Id":"a793cda9-7a83-4c47-8922-997720508621","icon":"/api/icons/0051CA/False/template/10.png"},"source":"geoconfirmed","source_name":"GeoConfirmed","source_url":"https://geoconfirmed.org/map/ukraine","id":"a793cda9-7a83-4c47-8922-997720508621","date":"2026-09-07","link":"https://geoconfirmed.org/map/ukraine/a793cda9-7a83-4c47-8922-997720508621","category":"Shelling by artillery or aerial bombings - Location of the shelling, colour of who is shelling; Brown = UXO","side":"Ukraine","color":"#0051CA","description":"0:58 - Rough location - 147th Artillery Brigade hits a claimed Russian position in Hryshyne, Donetska Region, Ukraine.","orbat":["147th Separate Artillery Brigade"],"geolocation":["https://x.com/meowqai/status/2096993272845512766"],"sources":["https://x.com/meowqai/status/2096993895720579459"]}},{"type":"Feature","geometry":{"type":"Point","coordinates":[37.07169,48.33593]},"properties":{"original":{"Date":"2026-09-07","Name":"07 SEP 2026","Faction":"Ukraine","Origin":"UAV","Latitude":"48.33593","Longitude":"37.07169","PlusCode":"8GWV926F+W7 Myrne, Donetsk Oblast, Ukraine","Description":"1:06-1:10 - Rough location - 147th Artillery Brigade hits a claimed Russian ammunition depot  in Myrne, Donetska Region, Ukraine.","Source":"https://x.com/meowqai/status/2096993895720579459","Geolocation":"https://x.com/meowqai/status/2097012159301448018","Equipment":"","EquipmentItems":"Artillery","Units":"","OrbatUnits":"147th Separate Artillery Brigade","Id":"3783eca9-8812-4b1e-bb68-ad3c7158b3ce","icon":"/api/icons/0051CA/False/template/10.png"},"source":"geoconfirmed","source_name":"GeoConfirmed","source_url":"https://geoconfirmed.org/map/ukraine","id":"3783eca9-8812-4b1e-bb68-ad3c7158b3ce","date":"2026-09-07","link":"https://geoconfirmed.org/map/ukraine/3783eca9-8812-4b1e-bb68-ad3c7158b3ce","category":"Shelling by artillery or aerial bombings - Location of the shelling, colour of who is shelling; Brown = UXO","side":"Ukraine","color":"#0051CA","description":"1:06-1:10 - Rough location - 147th Artillery Brigade hits a claimed Russian ammunition depot  in Myrne, Donetska Region, Ukraine.","orbat":["147th Separate Artillery Brigade"],"geolocation":["https://x.com/meowqai/status/2097012159301448018"],"sources":["https://x.com/meowqai/status/2096993895720579459"]}},{"type":"Feature","geometry":{"type":"Point","coordinates":[37.02313,48.36229]},"properties":{"original":{"Date":"2026-09-07","Name":"07 SEP 2026","Faction":"Ukraine","Origin":"UAV","Latitude":"48.36229","Longitude":"37.02313","PlusCode":"8GWV926F+W7 Myrne, Donetsk Oblast, Ukraine","Description":"1:11- 1:13 - Rough location - 147th Artillery Brigade hits a claimed Russian ammunition depot  in Myrne, Donetska Region, Ukraine.","Source":"https://x.com/meowqai/status/2096993895720579459","Geolocation":"https://x.com/meowqai/status/2096998119955116525","Equipment":"","EquipmentItems":"Artillery","Units":"","OrbatUnits":"147th Separate Artillery Brigade","Id":"f801df74-5eb0-435b-9a81-c78ed9578dfe","icon":"/api/icons/0051CA/False/template/10.png"},"source":"geoconfirmed","source_name":"GeoConfirmed","source_url":"https://geoconfirmed.org/map/ukraine","id":"f801df74-5eb0-435b-9a81-c78ed9578dfe","date":"2026-09-07","link":"https://geoconfirmed.org/map/ukraine/f801df74-5eb0-435b-9a81-c78ed9578dfe","category":"Shelling by artillery or aerial bombings - Location of the shelling, colour of who is shelling; Brown = UXO","side":"Ukraine","color":"#0051CA","description":"1:11- 1:13 - Rough location - 147th Artillery Brigade hits a claimed Russian ammunition depot  in Myrne, Donetska Region, Ukraine.","orbat":["147th Separate Artillery Brigade"],"geolocation":["https://x.com/meowqai/status/2096998119955116525"],"sources":["https://x.com/meowqai/status/2096993895720579459"]}},{"type":"Feature","geometry":{"type":"Point","coordinates":[37.0671,48.32964]},"properties":{"original":{"Date":"2026-09-07","Name":"07 SEP 2026","Faction":"Ukraine","Origin":"UAV","Latitude":"48.32964","Longitude":"37.0671","PlusCode":"8GWV83H8+VR Hryshyne, Donetsk Oblast, Ukraine","Description":"0:55 - Rough location - 147th Artillery Brigade hits a claimed Russian position in Hryshyne, Donetska Region, Ukraine.","Source":"https://x.com/meowqai/status/2096993895720579459","Geolocation":"https://x.com/meowqai/status/2096993272845512766","Equipment":"","EquipmentItems":"Artillery","Units":"","OrbatUnits":"147th Separate Artillery Brigade","Id":"0d492c04-fccb-42f5-9afb-cbf558316100","icon":"/api/icons/0051CA/False/template/10.png"},"source":"geoconfirmed","source_name":"GeoConfirmed","source_url":"https://geoconfirmed.org/map/ukraine","id":"0d492c04-fccb-42f5-9afb-cbf558316100","date":"2026-09-07","link":"https://geoconfirmed.org/map/ukraine/0d492c04-fccb-42f5-9afb-cbf558316100","category":"Shelling by artillery or aerial bombings - Location of the shelling, colour of who is shelling; Brown = UXO","side":"Ukraine","color":"#0051CA","description":"0:55 - Rough location - 147th Artillery Brigade hits a claimed Russian position in Hryshyne, Donetska Region, Ukraine.","orbat":["147th Separate Artillery Brigade"],"geolocation":["https://x.com/meowqai/status/2096993272845512766"],"sources":["https://x.com/meowqai/status/2096993895720579459"]}},{"type":"Feature","geometry":{"type":"Point","coordinates":[37.594894,48.733531]},"properties":{"original":{"Date":"2026-09-07","Name":"07 SEP 2026","Faction":"Russia","Origin":"VID","Latitude":"48.733531","Longitude":"37.594894","PlusCode":"8GWVPHMV+CX Kramatorsk, Donetsk Oblast, Ukraine","Description":"0:00-0:20 - A severely injured or killed person is evacuated following a reported Russian FAB-250 airstrike on apartment buildings, which reportedly killed two people and injured four more.","Source":"Vid, https://x.com/CrimeanVoyager/status/2096922572193411133/, Pic, https://x.com/IuliiaMendel/status/2096986348540571720, https://bsky.app/profile/scaratlas.bsky.social/post/3muwnxmazzs2z, https://t.me/don_gunp/23421, , More information, https://www.pravda.com.ua/eng/news/2026/09/07/8052250/","Geolocation":"https://bsky.app/profile/scaratlas.bsky.social/post/3muwnxgslys2z, Repost on X, https://x.com/Zeldamices/status/2096999598032113788","Equipment":"","EquipmentItems":"FAB-250M-54","Units":"","OrbatUnits":"","Id":"3597f0ea-85a8-45bc-9f20-cd231e5ba619","icon":"/api/icons/E00000/False/template/50.png"},"source":"geoconfirmed","source_name":"GeoConfirmed","source_url":"https://geoconfirmed.org/map/ukraine","id":"3597f0ea-85a8-45bc-9f20-cd231e5ba619","date":"2026-09-07","link":"https://geoconfirmed.org/map/ukraine/3597f0ea-85a8-45bc-9f20-cd231e5ba619","category":"Killed or wounded civilian. Potential Warcrime. In the colour of who is assessed as doing the attack/killing.","side":"Russia","color":"#E00000","description":"0:00-0:20 - A severely injured or killed person is evacuated following a reported Russian FAB-250 airstrike on apartment buildings, which reportedly killed two people and injured four more.","orbat":[],"geolocation":["https://bsky.app/profile/scaratlas.bsky.social/post/3muwnxgslys2z","https://x.com/Zeldamices/status/2096999598032113788"],"sources":["https://x.com/CrimeanVoyager/status/2096922572193411133/","https://x.com/IuliiaMendel/status/2096986348540571720","https://bsky.app/profile/scaratlas.bsky.social/post/3muwnxmazzs2z","https://t.me/don_gunp/23421","https://www.pravda.com.ua/eng/news/2026/09/07/8052250/"]}},{"type":"Feature","geometry":{"type":"Point","coordinates":[37.9222,48.026074]},"properties":{"original":{"Date":"2026-09-07","Name":"07 SEP 2026","Faction":"Neutral","Origin":"VID","Latitude":"48.026074","Longitude":"37.9222","PlusCode":"8GWV2WGC+CV Makiivka, Donetsk Oblast, Ukraine","Description":"Damaged shopping center following a reported Ukrainian drone strike, listed in Wikimapia as 'PaLLet Supermarket'.","Source":"https://x.com/markito0171/status/2096516107037253998, https://t.me/VESTIDONETSK/22597, https://t.me/WarInMyEyes/13785, , More information, https://wikimapia.org/#lang=en&lat=48.026184&lon=37.922895&z=16&m=w","Geolocation":"https://x.com/MikiValbuena/status/2096954433938636827","Equipment":"","EquipmentItems":"","Units":"","OrbatUnits":"","Id":"123ffc3c-c67f-42dc-8071-d2e020140876","icon":"/api/icons/AC7339/False/template/192.png"},"source":"geoconfirmed","source_name":"GeoConfirmed","source_url":"https://geoconfirmed.org/map/ukraine","id":"123ffc3c-c67f-42dc-8071-d2e020140876","date":"2026-09-07","link":"https://geoconfirmed.org/map/ukraine/123ffc3c-c67f-42dc-8071-d2e020140876","category":"Recently destroyed/Damaged[Visible in footage] or still burning infrastucture","side":"Neutral","color":"#AC7339","description":"Damaged shopping center following a reported Ukrainian drone strike, listed in Wikimapia as 'PaLLet Supermarket'.","orbat":[],"geolocation":["https://x.com/MikiValbuena/status/2096954433938636827"],"sources":["https://x.com/markito0171/status/2096516107037253998","https://t.me/VESTIDONETSK/22597","https://t.me/WarInMyEyes/13785","https://wikimapia.org/#lang=en&lat=48.026184&lon=37.922895&z=16&m=w"]}},{"type":"Feature","geometry":{"type":"Point","coordinates":[37.644118,48.415971]},"properties":{"original":{"Date":"2026-09-07","Name":"07 SEP 2026","Faction":"Russia","Origin":"UAV","Latitude":"48.415971","Longitude":"37.644118","PlusCode":"8GWVCJ8V+9J Yablunivka, Donetsk Oblast, Ukraine","Description":"0:32 - 210th Assault Regiment \"Berlingo\" hits Russian biker after he ditched his ride south of Yablunivka, Donetsk Oblast, ","Source":"https://x.com/Bielitzling/status/2097082050578686277, https://t.me/polk_210/7230","Geolocation":"https://x.com/Bielitzling/status/2097082045201629526","Equipment":"","EquipmentItems":"FPV (First Person View) OWAD (One Way Attack Drone) | Motorcycle","Units":"","OrbatUnits":"210th Assault Regiment \"Berlingo\"","Id":"4103d7cf-41c8-4c1f-9703-d871c588dd54","icon":"/api/icons/E00000/False/template/nomoto.png"},"source":"geoconfirmed","source_name":"GeoConfirmed","source_url":"https://geoconfirmed.org/map/ukraine","id":"4103d7cf-41c8-4c1f-9703-d871c588dd54","date":"2026-09-07","link":"https://geoconfirmed.org/map/ukraine/4103d7cf-41c8-4c1f-9703-d871c588dd54","category":"Recently Destroyed/Damaged[Visible in footage] Moto OR Quad","side":"Russia","color":"#E00000","description":"0:32 - 210th Assault Regiment \"Berlingo\" hits Russian biker after he ditched his ride south of Yablunivka, Donetsk Oblast,","orbat":["210th Assault Regiment \"Berlingo\""],"geolocation":["https://x.com/Bielitzling/status/2097082045201629526"],"sources":["https://x.com/Bielitzling/status/2097082050578686277","https://t.me/polk_210/7230"]}},{"type":"Feature","geometry":{"type":"Point","coordinates":[32.386514,50.60616]},"properties":{"original":{"Date":"2026-09-07","Name":"07 SEP 2026","Faction":"Neutral","Origin":"PIC","Latitude":"50.60616","Longitude":"32.386514","PlusCode":"9G2JJ94P+FJ Pryluky, Chernihiv Oblast, Ukraine","Description":"A Russian strike has hit British American Tobacco’s factory in Pryluky, Ukraine, today.","Source":"https://x.com/zarGEOINT/status/2097011092039864578, , More information, https://www.gbnews.com/news/vladimir-putins-missiles-british-factory, https://newsukraine.rbc.ua/news/russia-strikes-british-american-tobacco-factory-1788782015.html, https://suspilne.media/chernihiv/1397400-vnaslidok-ataki-rf-stalasa-pozeza-na-tutunovij-fabrici-u-prilukah/","Geolocation":"https://x.com/UkrReview/status/2096924245435510868","Equipment":"","EquipmentItems":"","Units":"","OrbatUnits":"","Id":"805fba9e-252d-493e-a90a-f67738609440","icon":"/api/icons/AC7339/False/template/192.png"},"source":"geoconfirmed","source_name":"GeoConfirmed","source_url":"https://geoconfirmed.org/map/ukraine","id":"805fba9e-252d-493e-a90a-f67738609440","date":"2026-09-07","link":"https://geoconfirmed.org/map/ukraine/805fba9e-252d-493e-a90a-f67738609440","category":"Recently destroyed/Damaged[Visible in footage] or still burning infrastucture","side":"Neutral","color":"#AC7339","description":"A Russian strike has hit British American Tobacco’s factory in Pryluky, Ukraine, today.","orbat":[],"geolocation":["https://x.com/UkrReview/status/2096924245435510868"],"sources":["https://x.com/zarGEOINT/status/2097011092039864578","https://www.gbnews.com/news/vladimir-putins-missiles-british-factory","https://newsukraine.rbc.ua/news/russia-strikes-british-american-tobacco-factory-1788782015.html","https://suspilne.media/chernihiv/1397400-vnaslidok-ataki-rf-stalasa-pozeza-na-tutunovij-fabrici-u-prilukah/"]}},{"type":"Feature","geometry":{"type":"Point","coordinates":[37.01146,48.36456]},"properties":{"original":{"Date":"2026-09-07","Name":"07 SEP 2026","Faction":"Ukraine","Origin":"UAV","Latitude":"48.36456","Longitude":"37.01146","PlusCode":"8GWV9276+RH Myrne, Donetsk Oblast, Ukraine","Description":"1:03 -1:05 - Rough location - 147th Artillery Brigade hits a claimed Russian ammunition depot  in Myrne, Donetska Region, Ukraine.","Source":"https://x.com/meowqai/status/2096993895720579459","Geolocation":"https://x.com/meowqai/status/2096997112248463416","Equipment":"","EquipmentItems":"Artillery","Units":"","OrbatUnits":"147th Separate Artillery Brigade","Id":"148f2135-7b02-47c1-a247-fa53f248d898","icon":"/api/icons/0051CA/False/template/10.png"},"source":"geoconfirmed","source_name":"GeoConfirmed","source_url":"https://geoconfirmed.org/map/ukraine","id":"148f2135-7b02-47c1-a247-fa53f248d898","date":"2026-09-07","link":"https://geoconfirmed.org/map/ukraine/148f2135-7b02-47c1-a247-fa53f248d898","category":"Shelling by artillery or aerial bombings - Location of the shelling, colour of who is shelling; Brown = UXO","side":"Ukraine","color":"#0051CA","description":"1:03 -1:05 - Rough location - 147th Artillery Brigade hits a claimed Russian ammunition depot  in Myrne, Donetska Region, Ukraine.","orbat":["147th Separate Artillery Brigade"],"geolocation":["https://x.com/meowqai/status/2096997112248463416"],"sources":["https://x.com/meowqai/status/2096993895720579459"]}},{"type":"Feature","geometry":{"type":"Point","coordinates":[37.980642,47.103923]},"properties":{"original":{"Date":"2026-09-07","Name":"07 SEP 2026","Faction":"Unknown","Origin":"VID","Latitude":"47.103923","Longitude":"37.980642","PlusCode":"8GVV4X3J+H7 Samsonove, Donetsk Oblast, Ukraine","Description":"Fire, reportedly a fuel truck","Source":"https://x.com/99Dominik_/status/2096984878101266552, https://t.me/dosye_shpiona/799, , reference (2:51:36) https://x.com/99Dominik_/status/2096984789454585880","Geolocation":"https://x.com/99Dominik_/status/2096984381323665592, https://x.com/99Dominik_/status/2096991192944713863","Equipment":"","EquipmentItems":"","Units":"","OrbatUnits":"","Id":"f534a019-138b-4d8a-bb5c-faa8cce83328","icon":"/api/icons/666666/False/template/70.png"},"source":"geoconfirmed","source_name":"GeoConfirmed","source_url":"https://geoconfirmed.org/map/ukraine","id":"f534a019-138b-4d8a-bb5c-faa8cce83328","date":"2026-09-07","link":"https://geoconfirmed.org/map/ukraine/f534a019-138b-4d8a-bb5c-faa8cce83328","category":"Controlled Demolition OR explosion of unknown origin OR fire of unknown origin where no other icon fits","side":"Unknown","color":"#666666","description":"Fire, reportedly a fuel truck","orbat":[],"geolocation":["https://x.com/99Dominik_/status/2096984381323665592","https://x.com/99Dominik_/status/2096991192944713863"],"sources":["https://x.com/99Dominik_/status/2096984878101266552","https://t.me/dosye_shpiona/799","https://x.com/99Dominik_/status/2096984789454585880"]}},{"type":"Feature","geometry":{"type":"Point","coordinates":[37.48883,48.36905]},"properties":{"original":{"Date":"2026-09-07","Name":"07 SEP 2026","Faction":"Ukraine","Origin":"UAV","Latitude":"48.36905","Longitude":"37.48883","PlusCode":"8GWV9F9Q+JG Nova Poltavka, Donetsk Oblast, Ukraine","Description":"0:13 - UA 5th Detachment of “Omega” of the National Guard hits claimed RU howitzer with Bumblebee drones. ","Source":"https://x.com/meowqai/status/2097086260267376687, https://t.me/Centr_omega_NGU/10565","Geolocation":"https://x.com/meowqai/status/2097086260267376687","Equipment":"","EquipmentItems":"Fixed Wing OWAD (One Way Attack Drone)","Units":"","OrbatUnits":"5th Special Purpose Detachment 'Omega 5\"","Id":"64214bfa-296a-4171-8dfd-fe50c2d44e36","icon":"/api/icons/0051CA/False/template/111.png"},"source":"geoconfirmed","source_name":"GeoConfirmed","source_url":"https://geoconfirmed.org/map/ukraine","id":"64214bfa-296a-4171-8dfd-fe50c2d44e36","date":"2026-09-07","link":"https://geoconfirmed.org/map/ukraine/64214bfa-296a-4171-8dfd-fe50c2d44e36","category":"Short Range (<50km) OWAD (One Way Attack Drone), mostly rotary wing, Flying OR Attacking a target without knowing the outcome: if something is damaged --> icon of the damaged equipment.","side":"Ukraine","color":"#0051CA","description":"0:13 - UA 5th Detachment of “Omega” of the National Guard hits claimed RU howitzer with Bumblebee drones.","orbat":["5th Special Purpose Detachment 'Omega 5\""],"geolocation":["https://x.com/meowqai/status/2097086260267376687"],"sources":["https://x.com/meowqai/status/2097086260267376687","https://t.me/Centr_omega_NGU/10565"]}}]}