{"type":"FeatureCollection","features":[{"type":"Feature","geometry":null,"properties":{"source":"ua_mod","source_name":"Ministry of Defence of Ukraine","group":"official_ua","id":16343,"posted_utc":"2026-10-08T08:57:07+00:00","link":"https://t.me/ministry_of_defense_ua/16343","text":"🫂 Перехід від військової служби до цивільного життя не має означати втрату підтримки.\nМіноборони напрацьовує модель, за якою супровід військовослужбовця передаватиметься від частини фахівцю із супроводу ветеранів.\nУ частині перед звільненням військовому допомагають завершити юридичні та фінансові питання, також збирається інформація про його потреби. За згодою цю інформацію передадуть фахівцю із супроводу ветеранів.\nПісля звільнення військового цей фахівець стає координатором: допомагає ветерану знайти програми й послуги, координує взаємодію з установами, відповідальними за медичні та соціальні послуги, виплати та компенсації.\nМодель презентували під час зустрічі заступниці міністра оборони Любові Галан з представниками Посольства Канади. Канада бере участь у підготовці мультидонорського Фонду підтримки ветеранів, який має доповнювати державні програми.","links":["https://mod.gov.ua/news/vid-sluzhby-do-veteranskoho-zhyttia-yak-minoborony-proponuie-peredavaty-suprovid"],"original_html":"<div class=\"tgme_widget_message_text js-message_text\" dir=\"auto\"><b><i class=\"emoji\" style=\"background-image:url('//telegram.org/img/emoji/40/F09FAB82.png')\"><b>🫂</b></i></b> <b>Перехід від військової служби до цивільного життя не має означати втрату підтримки. <br/></b><br/>Міноборони напрацьовує модель, за якою супровід військовослужбовця передаватиметься від частини фахівцю із супроводу ветеранів.<br/><br/>У частині перед звільненням військовому допомагають завершити юридичні та фінансові питання, також збирається інформація про його потреби. За згодою цю інформацію передадуть фахівцю із супроводу ветеранів.<br/><br/>Після звільнення військового цей фахівець стає координатором: допомагає ветерану знайти програми й послуги, координує взаємодію з установами, відповідальними за медичні та соціальні послуги, виплати та компенсації.<br/><br/>Модель презентували <a href=\"https://mod.gov.ua/news/vid-sluzhby-do-veteranskoho-zhyttia-yak-minoborony-proponuie-peredavaty-suprovid\" target=\"_blank\" rel=\"noopener\" onclick=\"return confirm('Open this link?\\n\\n'+this.href);\">під час зустрічі заступниці міністра оборони Любові Галан з представниками Посольства Канади</a>. Канада бере участь у підготовці мультидонорського Фонду підтримки ветеранів, який має доповнювати державні програми."}},{"type":"Feature","geometry":null,"properties":{"source":"ua_mod","source_name":"Ministry of Defence of Ukraine","group":"official_ua","id":16346,"posted_utc":"2026-10-08T11:30:58+00:00","link":"https://t.me/ministry_of_defense_ua/16346","text":"❓ Штраф, гауптвахта чи дисциплінарне стягнення: від чого залежить відповідальність військовослужбовця за порушення\nДля військових діє особливий порядок. Більшість адміністративних порушень розглядаються за Дисциплінарним статутом, але закон передбачає винятки – зокрема 11 видів військових адміністративних правопорушень.\n🔗 Де проходить межа між дисциплінарною, адміністративною та кримінальною відповідальністю, хто складає протокол і коли рішення ухвалює суд — докладно пояснює Міноборони.","links":["https://mod.gov.ua/explanation/administratyvna-vidpovidalnist-viiskovosluzhbovtsiv-vydy-pravoporushen-i-sanktsii?utm_source=mod-telegram&utm_medium=social"],"original_html":"<div class=\"tgme_widget_message_text js-message_text\" dir=\"auto\"><b><i class=\"emoji\" style=\"background-image:url('//telegram.org/img/emoji/40/E29D93.png')\"><b>❓</b></i></b> <b>Штраф, гауптвахта чи дисциплінарне стягнення: від чого залежить відповідальність військовослужбовця за порушення<br/></b><br/>Для військових діє особливий порядок. Більшість адміністративних порушень розглядаються за Дисциплінарним статутом, але закон передбачає винятки – зокрема 11 видів військових адміністративних правопорушень.<br/><br/><i class=\"emoji\" style=\"background-image:url('//telegram.org/img/emoji/40/F09F9497.png')\"><b>🔗</b></i> Де проходить межа між дисциплінарною, адміністративною та кримінальною відповідальністю, хто складає протокол і коли рішення ухвалює суд — <a href=\"https://mod.gov.ua/explanation/administratyvna-vidpovidalnist-viiskovosluzhbovtsiv-vydy-pravoporushen-i-sanktsii?utm_source=mod-telegram&amp;amp;utm_medium=social\" target=\"_blank\" rel=\"noopener\" onclick=\"return confirm('Open this link?\\n\\n'+this.href);\">докладно пояснює Міноборони</a>."}}]}