{"type":"FeatureCollection","features":[{"type":"Feature","geometry":{"type":"Point","coordinates":[37.697418,48.516061]},"properties":{"original":{"Date":"2026-08-21","Name":"21 AUG 2026","Faction":"Ukraine","Origin":"UAV","Latitude":"48.516061","Longitude":"37.697418","PlusCode":"8GWVGM8W+CX Kostyantynivka, Donetsk Oblast, Ukraine","Description":"1:21-1:24 - UAV Unit \"Fenix Team\", 17th Special Purpose Center hits a Russian position in Kostyantynivka with a Heavy Bomber Drone Drop","Source":"https://x.com/AudaxonX/status/2093304972125319614, https://www.instagram.com/fenix.team.17csp/reel/DcS1TtcqYQx/","Geolocation":"https://x.com/AudaxonX/status/2093305002060128458","Equipment":"","EquipmentItems":"(Multi-Purpose) Bomber UAV","Units":"","OrbatUnits":"UAV Unit \"Fenix Team\"","Id":"2c22ceaa-4a3a-43ff-9a75-05398a2bd8ba","icon":"/api/icons/0051CA/False/template/110.png"},"source":"geoconfirmed","source_name":"GeoConfirmed","source_url":"https://geoconfirmed.org/map/ukraine","id":"2c22ceaa-4a3a-43ff-9a75-05398a2bd8ba","date":"2026-08-21","link":"https://geoconfirmed.org/map/ukraine/2c22ceaa-4a3a-43ff-9a75-05398a2bd8ba","category":"Multipurpose Bomber Drone, Flying OR Dropping OR bombing a target without knowing the outcome: if something is damaged --> icon of the damaged equipment.","side":"Ukraine","color":"#0051CA","description":"1:21-1:24 - UAV Unit \"Fenix Team\", 17th Special Purpose Center hits a Russian position in Kostyantynivka with a Heavy Bomber Drone Drop","orbat":["UAV Unit \"Fenix Team\""],"geolocation":["https://x.com/AudaxonX/status/2093305002060128458"],"sources":["https://x.com/AudaxonX/status/2093304972125319614","https://www.instagram.com/fenix.team.17csp/reel/DcS1TtcqYQx/"]}},{"type":"Feature","geometry":{"type":"Point","coordinates":[34.283163,51.509071]},"properties":{"original":{"Date":"2026-08-21","Name":"21 AUG 2026","Faction":"Ukraine","Origin":"UAV","Latitude":"51.509071","Longitude":"34.283163","PlusCode":"9G3PG75M+J7 Vovkivka, Sumy Oblast, Ukraine","Description":"Claimed Russian position shelled by Ukrainian 27th Artillery Brigade.","Source":"https://x.com/EndlessWint_r/status/2090820928477286893, https://t.me/shadow_strike_27/1335","Geolocation":"https://x.com/ne_kotletka/status/2090805092932821397","Equipment":"","EquipmentItems":"","Units":"","OrbatUnits":"27th Seperate Artillery Brigade","Id":"92f26c47-5806-4cee-af56-0ce5ff1ad11f","icon":"/api/icons/0051CA/False/template/10.png"},"source":"geoconfirmed","source_name":"GeoConfirmed","source_url":"https://geoconfirmed.org/map/ukraine","id":"92f26c47-5806-4cee-af56-0ce5ff1ad11f","date":"2026-08-21","link":"https://geoconfirmed.org/map/ukraine/92f26c47-5806-4cee-af56-0ce5ff1ad11f","category":"Shelling by artillery or aerial bombings - Location of the shelling, colour of who is shelling; Brown = UXO","side":"Ukraine","color":"#0051CA","description":"Claimed Russian position shelled by Ukrainian 27th Artillery Brigade.","orbat":["27th Seperate Artillery Brigade"],"geolocation":["https://x.com/ne_kotletka/status/2090805092932821397"],"sources":["https://x.com/EndlessWint_r/status/2090820928477286893","https://t.me/shadow_strike_27/1335"]}},{"type":"Feature","geometry":{"type":"Point","coordinates":[35.216917,47.779361]},"properties":{"original":{"Date":"2026-08-21","Name":"21 AUG 2026","Faction":"Russia","Origin":"UAV","Latitude":"47.779361","Longitude":"35.216917","PlusCode":"8GVQQ6H8+PQ Zaporizhzhia, Zaporizhia Oblast, Ukraine","Description":"A Russian FPV drone attacked a minibus, resulting in several visibly injured persons.","Source":"Vid1, https://x.com/99Dominik_/status/2090852309236355395, https://t.me/eyes_everywhere_ua/131062, Vid2, https://x.com/99Dominik_/status/2090852985915990446, https://x.com/99Dominik_/status/2090852985915990446","Geolocation":"https://x.com/99Dominik_/status/2090852093179384212","Equipment":"minibus","EquipmentItems":"FPV (First Person View) OWAD (One Way Attack Drone)","Units":"","OrbatUnits":"","Id":"8f79215e-5516-418e-8c22-17fb6732543b","icon":"/api/icons/E00000/False/template/50.png"},"source":"geoconfirmed","source_name":"GeoConfirmed","source_url":"https://geoconfirmed.org/map/ukraine","id":"8f79215e-5516-418e-8c22-17fb6732543b","date":"2026-08-21","link":"https://geoconfirmed.org/map/ukraine/8f79215e-5516-418e-8c22-17fb6732543b","category":"Killed or wounded civilian. Potential Warcrime. In the colour of who is assessed as doing the attack/killing.","side":"Russia","color":"#E00000","description":"A Russian FPV drone attacked a minibus, resulting in several visibly injured persons.","orbat":[],"geolocation":["https://x.com/99Dominik_/status/2090852093179384212"],"sources":["https://x.com/99Dominik_/status/2090852309236355395","https://t.me/eyes_everywhere_ua/131062","https://x.com/99Dominik_/status/2090852985915990446","https://x.com/99Dominik_/status/2090852985915990446"]}},{"type":"Feature","geometry":{"type":"Point","coordinates":[37.658521,48.536824]},"properties":{"original":{"Date":"2026-08-21","Name":"21 AUG 2026","Faction":"Russia","Origin":"UAV","Latitude":"48.536824","Longitude":"37.658521","PlusCode":"8GWVGMP5+PC Kostyantynivka, Donetsk Oblast, Ukraine","Description":"0:53-1:00 - UAS Company \"Hugin\", 4th Motorized Rifle Brigade targeted a Ukrainain soldier in Kostyantynivka with a FPV Drone","Source":"(2/2), https://x.com/AudaxonX/status/2093303590936859135, https://t.me/huginbps/250, ","Geolocation":"https://x.com/AudaxonX/status/2093303672461529419","Equipment":"","EquipmentItems":"FPV (First Person View) OWAD (One Way Attack Drone)","Units":"","OrbatUnits":"UAS Company \"Hugin\"","Id":"cc095421-34ae-4f93-b01a-18f605bfce1b","icon":"/api/icons/E00000/False/template/111.png"},"source":"geoconfirmed","source_name":"GeoConfirmed","source_url":"https://geoconfirmed.org/map/ukraine","id":"cc095421-34ae-4f93-b01a-18f605bfce1b","date":"2026-08-21","link":"https://geoconfirmed.org/map/ukraine/cc095421-34ae-4f93-b01a-18f605bfce1b","category":"Short Range (<50km) OWAD (One Way Attack Drone), mostly rotary wing, Flying OR Attacking a target without knowing the outcome: if something is damaged --> icon of the damaged equipment.","side":"Russia","color":"#E00000","description":"0:53-1:00 - UAS Company \"Hugin\", 4th Motorized Rifle Brigade targeted a Ukrainain soldier in Kostyantynivka with a FPV Drone","orbat":["UAS Company \"Hugin\""],"geolocation":["https://x.com/AudaxonX/status/2093303672461529419"],"sources":["https://x.com/AudaxonX/status/2093303590936859135","https://t.me/huginbps/250"]}},{"type":"Feature","geometry":{"type":"Point","coordinates":[37.690546,48.514355]},"properties":{"original":{"Date":"2026-08-21","Name":"21 AUG 2026","Faction":"Ukraine","Origin":"UAV","Latitude":"48.514355","Longitude":"37.690546","PlusCode":"8GWVGM7R+P6 Kostyantynivka, Donetsk Oblast, Ukraine","Description":"1:02-1:07 - UAV Unit \"Fenix Team\", 17th Special Purpose Center hits a Russian position in Kostyantynivka with a Heavy Bomber Drone Drop","Source":"https://x.com/AudaxonX/status/2093304972125319614, https://www.instagram.com/fenix.team.17csp/reel/DcS1TtcqYQx/","Geolocation":"https://x.com/AudaxonX/status/2093304992224485810","Equipment":"","EquipmentItems":"(Multi-Purpose) Bomber UAV","Units":"","OrbatUnits":"UAV Unit \"Fenix Team\"","Id":"eedd672e-8e81-4710-b169-3e1857a04d07","icon":"/api/icons/0051CA/False/template/110.png"},"source":"geoconfirmed","source_name":"GeoConfirmed","source_url":"https://geoconfirmed.org/map/ukraine","id":"eedd672e-8e81-4710-b169-3e1857a04d07","date":"2026-08-21","link":"https://geoconfirmed.org/map/ukraine/eedd672e-8e81-4710-b169-3e1857a04d07","category":"Multipurpose Bomber Drone, Flying OR Dropping OR bombing a target without knowing the outcome: if something is damaged --> icon of the damaged equipment.","side":"Ukraine","color":"#0051CA","description":"1:02-1:07 - UAV Unit \"Fenix Team\", 17th Special Purpose Center hits a Russian position in Kostyantynivka with a Heavy Bomber Drone Drop","orbat":["UAV Unit \"Fenix Team\""],"geolocation":["https://x.com/AudaxonX/status/2093304992224485810"],"sources":["https://x.com/AudaxonX/status/2093304972125319614","https://www.instagram.com/fenix.team.17csp/reel/DcS1TtcqYQx/"]}},{"type":"Feature","geometry":{"type":"Point","coordinates":[37.692574,48.510253]},"properties":{"original":{"Date":"2026-08-21","Name":"21 AUG 2026","Faction":"Ukraine","Origin":"UAV","Latitude":"48.510253","Longitude":"37.692574","PlusCode":"8GWVGM6V+42 Kostyantynivka, Donetsk Oblast, Ukraine","Description":"0:52-0:56 - UAV Unit \"Fenix Team\", 17th Special Purpose Center hits a Russian position in Kostyantynivka with a Heavy Bomber Drone Drop","Source":"https://x.com/AudaxonX/status/2093304972125319614, https://www.instagram.com/fenix.team.17csp/reel/DcS1TtcqYQx/","Geolocation":"https://x.com/AudaxonX/status/2093304982745252326","Equipment":"","EquipmentItems":"(Multi-Purpose) Bomber UAV","Units":"","OrbatUnits":"UAV Unit \"Fenix Team\"","Id":"a1a44f8e-c6b4-427b-9163-4191341c65b3","icon":"/api/icons/0051CA/False/template/110.png"},"source":"geoconfirmed","source_name":"GeoConfirmed","source_url":"https://geoconfirmed.org/map/ukraine","id":"a1a44f8e-c6b4-427b-9163-4191341c65b3","date":"2026-08-21","link":"https://geoconfirmed.org/map/ukraine/a1a44f8e-c6b4-427b-9163-4191341c65b3","category":"Multipurpose Bomber Drone, Flying OR Dropping OR bombing a target without knowing the outcome: if something is damaged --> icon of the damaged equipment.","side":"Ukraine","color":"#0051CA","description":"0:52-0:56 - UAV Unit \"Fenix Team\", 17th Special Purpose Center hits a Russian position in Kostyantynivka with a Heavy Bomber Drone Drop","orbat":["UAV Unit \"Fenix Team\""],"geolocation":["https://x.com/AudaxonX/status/2093304982745252326"],"sources":["https://x.com/AudaxonX/status/2093304972125319614","https://www.instagram.com/fenix.team.17csp/reel/DcS1TtcqYQx/"]}},{"type":"Feature","geometry":{"type":"Point","coordinates":[32.722904,46.626631]},"properties":{"original":{"Date":"2026-08-21","Name":"21 AUG 2026","Faction":"Ukraine","Origin":"UAV","Latitude":"46.626631","Longitude":"32.722904","PlusCode":"8GRJJPGF+M5 Oleshky, Kherson Oblast, Ukraine","Description":"The Ukrainian Air Force striked a claimed position of drone operators from the 331st Regiment of the 98th Airborne Division in Oleshky.","Source":"https://x.com/PuenteUribarri/status/2090751269329641597, https://t.me/forpost_34/388","Geolocation":"https://x.com/Kukulkan415/status/2090860409699917886/photo/1","Equipment":"","EquipmentItems":"","Units":"(claimed position of Russian)","OrbatUnits":"Ukrainian Air Force | 34th Marine Brigade | 331st Guards Airborne Regiment","Id":"f3d3aeff-a059-4cbc-9f0c-5629df333352","icon":"/api/icons/0051CA/False/template/10.png"},"source":"geoconfirmed","source_name":"GeoConfirmed","source_url":"https://geoconfirmed.org/map/ukraine","id":"f3d3aeff-a059-4cbc-9f0c-5629df333352","date":"2026-08-21","link":"https://geoconfirmed.org/map/ukraine/f3d3aeff-a059-4cbc-9f0c-5629df333352","category":"Shelling by artillery or aerial bombings - Location of the shelling, colour of who is shelling; Brown = UXO","side":"Ukraine","color":"#0051CA","description":"The Ukrainian Air Force striked a claimed position of drone operators from the 331st Regiment of the 98th Airborne Division in Oleshky.","orbat":["Ukrainian Air Force","34th Marine Brigade","331st Guards Airborne Regiment"],"geolocation":["https://x.com/Kukulkan415/status/2090860409699917886/photo/1"],"sources":["https://x.com/PuenteUribarri/status/2090751269329641597","https://t.me/forpost_34/388"]}},{"type":"Feature","geometry":{"type":"Point","coordinates":[36.742647,50.461501]},"properties":{"original":{"Date":"2026-08-21","Name":"21 AUG 2026","Faction":"Neutral","Origin":"PIC","Latitude":"50.461501","Longitude":"36.742647","PlusCode":"9G2RFP6V+J3 Maslova Pristan', Belgorod Oblast, Russia","Description":"The aftermath of a reported drone attack on a Rosneft gas station.","Source":"https://x.com/MikiValbuena/status/2093615510688596391, https://t.me/belpepel/24506","Geolocation":"https://x.com/MikiValbuena/status/2093615506750136530","Equipment":"","EquipmentItems":"Petrol/Gas station","Units":"","OrbatUnits":"","Id":"713843cd-5418-4160-b332-b54633e88594","icon":"/api/icons/AC7339/False/template/192.png"},"source":"geoconfirmed","source_name":"GeoConfirmed","source_url":"https://geoconfirmed.org/map/ukraine","id":"713843cd-5418-4160-b332-b54633e88594","date":"2026-08-21","link":"https://geoconfirmed.org/map/ukraine/713843cd-5418-4160-b332-b54633e88594","category":"Recently destroyed/Damaged[Visible in footage] or still burning infrastucture","side":"Neutral","color":"#AC7339","description":"The aftermath of a reported drone attack on a Rosneft gas station.","orbat":[],"geolocation":["https://x.com/MikiValbuena/status/2093615506750136530"],"sources":["https://x.com/MikiValbuena/status/2093615510688596391","https://t.me/belpepel/24506"]}},{"type":"Feature","geometry":{"type":"Point","coordinates":[36.719684,50.264347]},"properties":{"original":{"Date":"2026-08-21","Name":"21 AUG 2026","Faction":"Ukraine","Origin":"UAV","Latitude":"50.264347","Longitude":"36.719684","PlusCode":"9G2R7P79+PV Starytsya, Kharkiv Oblast, Ukraine","Description":"0:00-0:05 - A Ukrainian drone filmed a wood, presumably of the location of the following scenes.","Source":"https://x.com/PuenteUribarri/status/2090705497468871081, https://t.me/ombr72/12482","Geolocation":"https://x.com/giK1893/status/2091294881788420386","Equipment":"","EquipmentItems":"Reconnaissance UAV","Units":"","OrbatUnits":"72nd Mechanized Brigade","Id":"88f1aa54-df5f-4125-9f90-befc16f41080","icon":"/api/icons/0051CA/False/template/110.png"},"source":"geoconfirmed","source_name":"GeoConfirmed","source_url":"https://geoconfirmed.org/map/ukraine","id":"88f1aa54-df5f-4125-9f90-befc16f41080","date":"2026-08-21","link":"https://geoconfirmed.org/map/ukraine/88f1aa54-df5f-4125-9f90-befc16f41080","category":"Multipurpose Bomber Drone, Flying OR Dropping OR bombing a target without knowing the outcome: if something is damaged --> icon of the damaged equipment.","side":"Ukraine","color":"#0051CA","description":"0:00-0:05 - A Ukrainian drone filmed a wood, presumably of the location of the following scenes.","orbat":["72nd Mechanized Brigade"],"geolocation":["https://x.com/giK1893/status/2091294881788420386"],"sources":["https://x.com/PuenteUribarri/status/2090705497468871081","https://t.me/ombr72/12482"]}},{"type":"Feature","geometry":{"type":"Point","coordinates":[33.44073,47.94707]},"properties":{"original":{"Date":"2026-08-21","Name":"21 AUG 2026","Faction":"Neutral","Origin":"VID","Latitude":"47.94707","Longitude":"33.44073","PlusCode":"8GVMWCWR+R7 Kryvyi Rih, Dnipropetrovsk Oblast, Ukraine","Description":"A Russian drone strike hit the Sun Gallery Mall in Kryvyi Rih. A huge plume of smoke was already emanating from the Sun Gallery Mall shopping center in Kryvyi Rih, suggesting that a strike had been executed prior to this. , The strike reportedly killed six people and injured 103 others, including 11 children; twenty-seven people are in a serious condition.","Source":"Vid, Moment second attack, https://x.com/zarGEOINT/status/2090802076666183716, https://t.me/onekrua1/180611, https://t.me/voynareal/141851, Pic1, https://x.com/zarGEOINT/status/2090796382244241877, https://t.me/bayranews/92904, Pic2, https://x.com/Zeldamices/status/2090862708274897286, https://t.me/dnipropetrovskaODA/31518, More information, https://x.com/ZelenskyyUa/status/2090818251450089777, https://www.pravda.com.ua/eng/news/2026/08/21/8049713/, ","Geolocation":"Vid, https://x.com/zarGEOINT/status/2090827785010851959, Pic, https://x.com/zarGEOINT/status/2090798760020361349","Equipment":"","EquipmentItems":"Fixed Wing OWAD (One Way Attack Drone)","Units":"","OrbatUnits":"","Id":"34e8ce0d-bc69-4300-a852-c38e66de465b","icon":"/api/icons/AC7339/False/template/192.png"},"source":"geoconfirmed","source_name":"GeoConfirmed","source_url":"https://geoconfirmed.org/map/ukraine","id":"34e8ce0d-bc69-4300-a852-c38e66de465b","date":"2026-08-21","link":"https://geoconfirmed.org/map/ukraine/34e8ce0d-bc69-4300-a852-c38e66de465b","category":"Recently destroyed/Damaged[Visible in footage] or still burning infrastucture","side":"Neutral","color":"#AC7339","description":"A Russian drone strike hit the Sun Gallery Mall in Kryvyi Rih. A huge plume of smoke was already emanating from the Sun Gallery Mall shopping center in Kryvyi Rih, suggesting that a strike had been executed prior to this. , The strike reportedly killed six people and injured 103 others, including 11 children; twenty-seven people are in a serious condition.","orbat":[],"geolocation":["https://x.com/zarGEOINT/status/2090827785010851959","https://x.com/zarGEOINT/status/2090798760020361349"],"sources":["https://x.com/zarGEOINT/status/2090802076666183716","https://t.me/onekrua1/180611","https://t.me/voynareal/141851","https://x.com/zarGEOINT/status/2090796382244241877","https://t.me/bayranews/92904","https://x.com/Zeldamices/status/2090862708274897286","https://t.me/dnipropetrovskaODA/31518","https://x.com/ZelenskyyUa/status/2090818251450089777","https://www.pravda.com.ua/eng/news/2026/08/21/8049713/"]}},{"type":"Feature","geometry":{"type":"Point","coordinates":[35.454304,51.112449]},"properties":{"original":{"Date":"2026-08-21","Name":"21 AUG 2026","Faction":"Russia","Origin":"UAV","Latitude":"51.112449","Longitude":"35.454304","PlusCode":"9G3Q4F63+XP Nizhnemakhovo, Kursk Oblast, Russia","Description":"A Russian 2S5 Giatsint-S self-propelled gun was destroyed by Ukrainian FPV drones.","Source":"https://x.com/99Dominik_/status/2090703514410312160, https://t.me/uvkkursk/626","Geolocation":"https://x.com/99Dominik_/status/2090703239230488650","Equipment":"","EquipmentItems":"2S5 Giatsint-S | FPV (First Person View) OWAD (One Way Attack Drone)","Units":"\"Kursk Force Grouping\"","OrbatUnits":"","Id":"da0f59ee-779c-4db7-bf5c-ee2c2b609014","icon":"/api/icons/E00000/False/template/02.png"},"source":"geoconfirmed","source_name":"GeoConfirmed","source_url":"https://geoconfirmed.org/map/ukraine","id":"da0f59ee-779c-4db7-bf5c-ee2c2b609014","date":"2026-08-21","link":"https://geoconfirmed.org/map/ukraine/da0f59ee-779c-4db7-bf5c-ee2c2b609014","category":"Recently Destroyed/Damaged[Visible in footage] Artillery","side":"Russia","color":"#E00000","description":"A Russian 2S5 Giatsint-S self-propelled gun was destroyed by Ukrainian FPV drones.","orbat":["\"Kursk Force Grouping\""],"geolocation":["https://x.com/99Dominik_/status/2090703239230488650"],"sources":["https://x.com/99Dominik_/status/2090703514410312160","https://t.me/uvkkursk/626"]}}]}