{"type":"FeatureCollection","features":[{"type":"Feature","geometry":{"type":"MultiPolygon","coordinates":[[[[37.57792,50.2336],[37.58796,50.23172],[37.58745,50.22986],[37.59534,50.22799],[37.5956,50.22415],[37.5811,50.22816],[37.55904,50.23217],[37.54766,50.23313],[37.54148,50.2345],[37.53767,50.23653],[37.54277,50.24002],[37.54668,50.23955],[37.54947,50.2367],[37.5656,50.23601],[37.57204,50.23648],[37.57792,50.2336]]],[[[36.19243,50.39096],[36.18824,50.39027],[36.18815,50.39088],[36.18883,50.39125],[36.1904,50.39147],[36.1905,50.39167],[36.19176,50.39222],[36.19219,50.39226],[36.19493,50.39114],[36.19243,50.39096]]]]},"properties":{"source":"ukrdaily","source_name":"UkrDailyUpdate","source_url":"https://map.ukrdailyupdate.com/","category":"gained","category_label":"Russian advance: became occupied","period":"1d","compared_with":"2026-08-02","snapshot_time":"2026-08-03","area_km2_approx":2.2}},{"type":"Feature","geometry":{"type":"Polygon","coordinates":[[[36.70906,48.00764],[36.71057,48.01151],[36.70747,48.02434],[36.71572,48.03664],[36.72,48.04059],[36.72179,48.0401],[36.73551,48.0392],[36.73352,48.03567],[36.73346,48.03139],[36.73197,48.02224],[36.75702,48.01108],[36.76475,48.00625],[36.7691,48.00208],[36.76785,47.98897],[36.75377,47.98989],[36.75124,47.99063],[36.75025,47.99138],[36.74605,47.99954],[36.73425,48.00417],[36.70647,48.00275],[36.70906,48.00764]]]},"properties":{"source":"ukrdaily","source_name":"UkrDailyUpdate","source_url":"https://map.ukrdailyupdate.com/","category":"occupied_to_contested","category_label":"Occupied became contested","period":"1d","compared_with":"2026-08-02","snapshot_time":"2026-08-03","area_km2_approx":12.2}},{"type":"Feature","geometry":{"type":"Polygon","coordinates":[[[37.18819,48.3971],[37.19223,48.39756],[37.19132,48.40213],[37.18559,48.40159],[37.18446,48.40613],[37.18699,48.40742],[37.18523,48.40891],[37.18592,48.40928],[37.18614,48.41187],[37.19176,48.41204],[37.19927,48.41128],[37.19983,48.40647],[37.19941,48.40395],[37.20091,48.39432],[37.18889,48.39327],[37.18819,48.3971]]]},"properties":{"source":"ukrdaily","source_name":"UkrDailyUpdate","source_url":"https://map.ukrdailyupdate.com/","category":"ukrainian_to_contested","category_label":"Ukrainian-held became contested","period":"1d","compared_with":"2026-08-02","snapshot_time":"2026-08-03","area_km2_approx":1.8}}]}