{"type":"FeatureCollection","features":[{"type":"Feature","geometry":{"type":"MultiPolygon","coordinates":[[[[37.8623,48.82018],[37.85766,48.81964],[37.85788,48.82817],[37.86745,48.828],[37.87054,48.83221],[37.87144,48.83631],[37.87092,48.83868],[37.87426,48.84311],[37.87971,48.83922],[37.88297,48.8273],[37.86692,48.82334],[37.86701,48.82142],[37.8623,48.82018]]],[[[37.80855,48.68064],[37.79708,48.67849],[37.79571,48.67999],[37.79622,48.68852],[37.78648,48.68926],[37.78674,48.69113],[37.79498,48.69059],[37.79742,48.69308],[37.80359,48.69373],[37.80402,48.69223],[37.81011,48.68755],[37.80845,48.68638],[37.80824,48.68261],[37.80855,48.68064]]],[[[37.57792,50.2336],[37.58796,50.23172],[37.58745,50.22986],[37.59534,50.22799],[37.5956,50.22415],[37.5811,50.22816],[37.55904,50.23217],[37.54766,50.23313],[37.54148,50.2345],[37.53767,50.23653],[37.54277,50.24002],[37.54668,50.23955],[37.54947,50.2367],[37.5656,50.23601],[37.57204,50.23648],[37.57792,50.2336]]],[[[37.19012,48.36986],[37.19061,48.37121],[37.19304,48.37409],[37.20038,48.37213],[37.20495,48.38062],[37.23192,48.38147],[37.23198,48.38008],[37.22585,48.37623],[37.22074,48.37586],[37.22005,48.36811],[37.20752,48.36623],[37.2029,48.3693],[37.19896,48.3689],[37.19488,48.36505],[37.19012,48.36986]]],[[[37.16181,48.34473],[37.16073,48.35098],[37.18421,48.353],[37.18552,48.34683],[37.16181,48.34473]]],[[[36.15456,47.65097],[36.1586,47.65375],[36.17265,47.64516],[36.17598,47.64499],[36.18471,47.63477],[36.19587,47.63743],[36.19579,47.63372],[36.18659,47.63021],[36.18174,47.63441],[36.17405,47.63157],[36.1631,47.64173],[36.15456,47.65097]]],[[[36.19243,50.39096],[36.18824,50.39027],[36.18815,50.39088],[36.18883,50.39125],[36.1904,50.39147],[36.1905,50.39167],[36.19176,50.39222],[36.19219,50.39226],[36.19493,50.39114],[36.19243,50.39096]]]]},"properties":{"source":"ukrdaily","source_name":"UkrDailyUpdate","source_url":"https://map.ukrdailyupdate.com/","category":"gained","category_label":"Newly Russian-occupied","period":"7d","compared_with":"2026-07-27","snapshot_time":"2026-08-03","area_km2_approx":12.3}},{"type":"Feature","geometry":{"type":"Polygon","coordinates":[[[36.70906,48.00764],[36.71057,48.01151],[36.70747,48.02434],[36.71572,48.03664],[36.72,48.04059],[36.72179,48.0401],[36.73551,48.0392],[36.73352,48.03567],[36.73346,48.03139],[36.73197,48.02224],[36.75702,48.01108],[36.76475,48.00625],[36.7691,48.00208],[36.76785,47.98897],[36.75377,47.98989],[36.75124,47.99063],[36.75025,47.99138],[36.74605,47.99954],[36.73425,48.00417],[36.70647,48.00275],[36.70906,48.00764]]]},"properties":{"source":"ukrdaily","source_name":"UkrDailyUpdate","source_url":"https://map.ukrdailyupdate.com/","category":"lost","category_label":"No longer Russian-occupied","period":"7d","compared_with":"2026-07-27","snapshot_time":"2026-08-03","area_km2_approx":12.2}}]}