{"type":"FeatureCollection","features":[{"type":"Feature","geometry":{"type":"Point","coordinates":[37.782237,48.804875]},"properties":{"original":{"Date":"2026-07-29","Name":"29 JUL 2026","Faction":"Ukraine","Origin":"UAV","Latitude":"48.804875","Longitude":"37.782237","PlusCode":"8GWVRQ3J+WV Orikhuvatka, Donetsk Oblast, Ukraine","Description":"Static HMMWV hit by FPVs","Source":"https://x.com/TuiteroMartin/status/2082737245233025183, (longer) https://t.me/SouthernRepublic/35140","Geolocation":"https://x.com/TuiteroMartin/status/2082737245233025183, https://x.com/Kukulkan415/status/2082813547180863882","Equipment":"","EquipmentItems":"Humvee | Fiber Optic (FO) FPV (First Person View) OWAD (One Way Attack Drone)","Units":"","OrbatUnits":"","Id":"7f7aceb0-e808-4066-a88d-092a44d13b93","icon":"/api/icons/0051CA/False/template/172.png"},"source":"geoconfirmed","source_name":"GeoConfirmed","source_url":"https://geoconfirmed.org/map/ukraine","id":"7f7aceb0-e808-4066-a88d-092a44d13b93","date":"2026-07-29","link":"https://geoconfirmed.org/map/ukraine/7f7aceb0-e808-4066-a88d-092a44d13b93","category":"Recently Destroyed/Damaged APC OR IFV / TRACKED or WHEELED / ARMOURED - Including vehicles like HUMVEE and similar","side":"Ukraine","color":"#0051CA","description":"Static HMMWV hit by FPVs","orbat":[],"geolocation":["https://x.com/TuiteroMartin/status/2082737245233025183","https://x.com/Kukulkan415/status/2082813547180863882"],"sources":["https://x.com/TuiteroMartin/status/2082737245233025183","https://t.me/SouthernRepublic/35140"]}},{"type":"Feature","geometry":{"type":"Point","coordinates":[37.205239,48.435778]},"properties":{"original":{"Date":"2026-07-29","Name":"29 JUL 2026","Faction":"Russia","Origin":"UAV","Latitude":"48.435778","Longitude":"37.205239","PlusCode":"8GWVC6P4+83 Dorozhnje, Donetsk Oblast, Ukraine","Description":"Russian Molniya Drone attacks claimed Ukrainian infantry position northwest of Dotozhnie, Donetsk Oblast","Source":"https://x.com/Bielitzling/status/2082433052773347626, https://t.me/Don_Guards_51st/1398","Geolocation":"https://x.com/Bielitzling/status/2082433049531130123","Equipment":"","EquipmentItems":"","Units":"","OrbatUnits":"51st Guards Combined Arms Army ","Id":"8902aeec-9bf1-4f93-9aa4-0d8d011bc5f5","icon":"/api/icons/E00000/False/template/111.png"},"source":"geoconfirmed","source_name":"GeoConfirmed","source_url":"https://geoconfirmed.org/map/ukraine","id":"8902aeec-9bf1-4f93-9aa4-0d8d011bc5f5","date":"2026-07-29","link":"https://geoconfirmed.org/map/ukraine/8902aeec-9bf1-4f93-9aa4-0d8d011bc5f5","category":"Short Range (<50km) OWAD (One Way Attack Drone), mostly rotary wing, Flying OR Attacking a target without knowing the outcome: if something is damaged --> icon of the damaged equipment.","side":"Russia","color":"#E00000","description":"Russian Molniya Drone attacks claimed Ukrainian infantry position northwest of Dotozhnie, Donetsk Oblast","orbat":["51st Guards Combined Arms Army"],"geolocation":["https://x.com/Bielitzling/status/2082433049531130123"],"sources":["https://x.com/Bielitzling/status/2082433052773347626","https://t.me/Don_Guards_51st/1398"]}},{"type":"Feature","geometry":{"type":"Point","coordinates":[34.211264,44.925671]},"properties":{"original":{"Date":"2026-07-29","Name":"29 JUL 2026","Faction":"Ukraine","Origin":"UAV","Latitude":"44.925671","Longitude":"34.211264","PlusCode":"8GPPW6G6+7G","Description":"1:05 -1:14-  330/220/110/35 kV Simferopol substation targeted by a Ukrainian FP-2 drone of the 414th Strike UAS Brigade \"Birds of the Magyar\"","Source":"https://x.com/PuenteUribarri/status/2082442538103779638, https://t.me/robert_magyar/2672","Geolocation":"https://x.com/neonhandrail/status/2082448858286809392","Equipment":"","EquipmentItems":"FP-2","Units":"","OrbatUnits":"414th Separate Unmanned Systems Brigade \"Birds of the Magyar\"","Id":"0a0bb20c-31a5-4ad7-8ca6-0f6787a43cba","icon":"/api/icons/0051CA/False/template/181.png"},"source":"geoconfirmed","source_name":"GeoConfirmed","source_url":"https://geoconfirmed.org/map/ukraine","id":"0a0bb20c-31a5-4ad7-8ca6-0f6787a43cba","date":"2026-07-29","link":"https://geoconfirmed.org/map/ukraine/0a0bb20c-31a5-4ad7-8ca6-0f6787a43cba","category":"Longe Range (>50km) OWAD (One Way Attack Drone) or Loitering munition, mostly fixed wing, Flying OR Attacking a target without knowing the outcome: if something is damaged --> icon of the damaged equipment.","side":"Ukraine","color":"#0051CA","description":"1:05 -1:14-  330/220/110/35 kV Simferopol substation targeted by a Ukrainian FP-2 drone of the 414th Strike UAS Brigade \"Birds of the Magyar\"","orbat":["414th Separate Unmanned Systems Brigade \"Birds of the Magyar\""],"geolocation":["https://x.com/neonhandrail/status/2082448858286809392"],"sources":["https://x.com/PuenteUribarri/status/2082442538103779638","https://t.me/robert_magyar/2672"]}},{"type":"Feature","geometry":{"type":"Point","coordinates":[39.564717,54.679025]},"properties":{"original":{"Date":"2026-07-29","Name":"29 JUL 2026","Faction":"Neutral","Origin":"PIC","Latitude":"54.679025","Longitude":"39.564717","PlusCode":"9G6XMHH7+JV Sovkhoza Ryazanskii, Ryazan Oblast, Russia","Description":"A Wildberries warehouse in Ryazan has been struck by drones and is burning. ","Source":"https://x.com/Exilenova_plus/status/2082295053180154164, Pic1 https://t.me/exilenova_plus/27369, https://x.com/Grimm_Intel/status/2082305178535968811, Pic2 https://x.com/Osinttechnical/status/2082296973252563130, https://t.me/exilenova_plus/27370, Vid1 https://x.com/Exilenova_plus/status/2082322591457611824, https://x.com/JanR210/status/2082323866697834546, Vid2 https://x.com/auto_glam/status/2082330800087830997","Geolocation":"https://x.com/Grimm_Intel/status/2082305544262418899, https://x.com/neonhandrail/status/2082310058453741777, https://x.com/GeoCrow_/status/2082305349353152835, based on: https://x.com/Osinttechnical/status/2082298271460909407","Equipment":"","EquipmentItems":"Fixed Wing OWAD (One Way Attack Drone)","Units":"","OrbatUnits":"","Id":"4747cd25-51b1-4b54-b2c7-1c76369d461a","icon":"/api/icons/AC7339/False/template/192.png"},"source":"geoconfirmed","source_name":"GeoConfirmed","source_url":"https://geoconfirmed.org/map/ukraine","id":"4747cd25-51b1-4b54-b2c7-1c76369d461a","date":"2026-07-29","link":"https://geoconfirmed.org/map/ukraine/4747cd25-51b1-4b54-b2c7-1c76369d461a","category":"Recently destroyed/Damaged[Visible in footage] or still burning infrastucture","side":"Neutral","color":"#AC7339","description":"A Wildberries warehouse in Ryazan has been struck by drones and is burning.","orbat":[],"geolocation":["https://x.com/Grimm_Intel/status/2082305544262418899","https://x.com/neonhandrail/status/2082310058453741777","https://x.com/GeoCrow_/status/2082305349353152835","https://x.com/Osinttechnical/status/2082298271460909407"],"sources":["https://x.com/Exilenova_plus/status/2082295053180154164","https://t.me/exilenova_plus/27369","https://x.com/Grimm_Intel/status/2082305178535968811","https://x.com/Osinttechnical/status/2082296973252563130","https://t.me/exilenova_plus/27370","https://x.com/Exilenova_plus/status/2082322591457611824","https://x.com/JanR210/status/2082323866697834546","https://x.com/auto_glam/status/2082330800087830997"]}},{"type":"Feature","geometry":{"type":"Point","coordinates":[34.321201,44.836069]},"properties":{"original":{"Date":"2026-07-29","Name":"29 JUL 2026","Faction":"Ukraine","Origin":"UAV","Latitude":"44.836069","Longitude":"34.321201","PlusCode":"8GPPR8PC+CF v. Perevalne","Description":"3:30-3:36 - 110kv Pereval'ne Substation targeted by a Ukrainian FP-2 drone of the 9th Long-Range Strike Battalion \"Kairos\"","Source":"https://x.com/PuenteUribarri/status/2082442538103779638, https://t.me/robert_magyar/2672","Geolocation":"https://x.com/neonhandrail/status/2082553274088174024","Equipment":"","EquipmentItems":"FP-2 | Electrical Substation","Units":"","OrbatUnits":"9th Long-Range Strike Battalion \"Kairos\"","Id":"a5bb695c-6207-4677-8928-227d4382551d","icon":"/api/icons/0051CA/False/template/181.png"},"source":"geoconfirmed","source_name":"GeoConfirmed","source_url":"https://geoconfirmed.org/map/ukraine","id":"a5bb695c-6207-4677-8928-227d4382551d","date":"2026-07-29","link":"https://geoconfirmed.org/map/ukraine/a5bb695c-6207-4677-8928-227d4382551d","category":"Longe Range (>50km) OWAD (One Way Attack Drone) or Loitering munition, mostly fixed wing, Flying OR Attacking a target without knowing the outcome: if something is damaged --> icon of the damaged equipment.","side":"Ukraine","color":"#0051CA","description":"3:30-3:36 - 110kv Pereval'ne Substation targeted by a Ukrainian FP-2 drone of the 9th Long-Range Strike Battalion \"Kairos\"","orbat":["9th Long-Range Strike Battalion \"Kairos\""],"geolocation":["https://x.com/neonhandrail/status/2082553274088174024"],"sources":["https://x.com/PuenteUribarri/status/2082442538103779638","https://t.me/robert_magyar/2672"]}},{"type":"Feature","geometry":{"type":"Point","coordinates":[33.600659,46.289277]},"properties":{"original":{"Date":"2026-07-29","Name":"29 JUL 2026","Faction":"Neutral","Origin":"UAV","Latitude":"46.289277","Longitude":"33.600659","PlusCode":"8GRM7JQ2+P7 Kairka, Kherson Oblast, Ukraine","Description":"0:10-0:54 - Area grid - 220/154/35/10 kV Kairka Substation hit by Ukrainian FP-2 drones of the 414th Strike UAS Brigade \"Birds of the Magyar\"","Source":"https://x.com/PuenteUribarri/status/2082442538103779638, https://t.me/robert_magyar/2672","Geolocation":"https://x.com/neonhandrail/status/2082441123881156775","Equipment":"","EquipmentItems":"FP-2","Units":"","OrbatUnits":"414th Separate Unmanned Systems Brigade \"Birds of the Magyar\"","Id":"32855a87-f7e7-4aac-8409-24bd8521f541","icon":"/api/icons/AC7339/False/template/192.png"},"source":"geoconfirmed","source_name":"GeoConfirmed","source_url":"https://geoconfirmed.org/map/ukraine","id":"32855a87-f7e7-4aac-8409-24bd8521f541","date":"2026-07-29","link":"https://geoconfirmed.org/map/ukraine/32855a87-f7e7-4aac-8409-24bd8521f541","category":"Recently destroyed/Damaged[Visible in footage] or still burning infrastucture","side":"Neutral","color":"#AC7339","description":"0:10-0:54 - Area grid - 220/154/35/10 kV Kairka Substation hit by Ukrainian FP-2 drones of the 414th Strike UAS Brigade \"Birds of the Magyar\"","orbat":["414th Separate Unmanned Systems Brigade \"Birds of the Magyar\""],"geolocation":["https://x.com/neonhandrail/status/2082441123881156775"],"sources":["https://x.com/PuenteUribarri/status/2082442538103779638","https://t.me/robert_magyar/2672"]}},{"type":"Feature","geometry":{"type":"Point","coordinates":[34.307591,45.450841]},"properties":{"original":{"Date":"2026-07-29","Name":"29 JUL 2026","Faction":"Ukraine","Origin":"UAV","Latitude":"45.450841","Longitude":"34.307591","PlusCode":"8GQPF825+82 Mar'yanivka","Description":"1:54-2:03 - 220kv Mar'yanivka Substation targeted by a Ukrainian FP-2 drone of the 414th Strike UAS Brigade \"Birds of the Magyar\"","Source":"https://x.com/PuenteUribarri/status/2082442538103779638, https://t.me/robert_magyar/2672","Geolocation":"https://x.com/neonhandrail/status/2082498914272620839","Equipment":"","EquipmentItems":"FP-2 | Electrical Substation","Units":"","OrbatUnits":"1st Seperate SBS Center","Id":"6f295770-3307-4bb4-8cb1-2661443f11b4","icon":"/api/icons/0051CA/False/template/181.png"},"source":"geoconfirmed","source_name":"GeoConfirmed","source_url":"https://geoconfirmed.org/map/ukraine","id":"6f295770-3307-4bb4-8cb1-2661443f11b4","date":"2026-07-29","link":"https://geoconfirmed.org/map/ukraine/6f295770-3307-4bb4-8cb1-2661443f11b4","category":"Longe Range (>50km) OWAD (One Way Attack Drone) or Loitering munition, mostly fixed wing, Flying OR Attacking a target without knowing the outcome: if something is damaged --> icon of the damaged equipment.","side":"Ukraine","color":"#0051CA","description":"1:54-2:03 - 220kv Mar'yanivka Substation targeted by a Ukrainian FP-2 drone of the 414th Strike UAS Brigade \"Birds of the Magyar\"","orbat":["1st Seperate SBS Center"],"geolocation":["https://x.com/neonhandrail/status/2082498914272620839"],"sources":["https://x.com/PuenteUribarri/status/2082442538103779638","https://t.me/robert_magyar/2672"]}},{"type":"Feature","geometry":{"type":"Point","coordinates":[32.601992,46.648788]},"properties":{"original":{"Date":"2026-07-29","Name":"29 JUL 2026","Faction":"Russia","Origin":"VID","Latitude":"46.648788","Longitude":"32.601992","PlusCode":"8GRJJJX2+GQ Kherson, Kherson Oblast, Ukraine","Description":"Reported Russian FPV drone killed a man in a van delivering bread","Source":"https://x.com/99Dominik_/status/2082420210078769640, https://www.tiktok.com/@user4078139866147/video/7667858073150639367, , Pic2, https://x.com/99Dominik_/status/2082420280769610117, https://t.me/truexakhersonua/68511","Geolocation":"https://x.com/99Dominik_/status/2082420079912776181","Equipment":"","EquipmentItems":"FPV (First Person View) OWAD (One Way Attack Drone)","Units":"","OrbatUnits":"","Id":"6e004401-6ae5-431b-ae68-2748b3c3b3a1","icon":"/api/icons/E00000/False/template/50.png"},"source":"geoconfirmed","source_name":"GeoConfirmed","source_url":"https://geoconfirmed.org/map/ukraine","id":"6e004401-6ae5-431b-ae68-2748b3c3b3a1","date":"2026-07-29","link":"https://geoconfirmed.org/map/ukraine/6e004401-6ae5-431b-ae68-2748b3c3b3a1","category":"Killed or wounded civilian. Potential Warcrime. In the colour of who is assessed as doing the attack/killing.","side":"Russia","color":"#E00000","description":"Reported Russian FPV drone killed a man in a van delivering bread","orbat":[],"geolocation":["https://x.com/99Dominik_/status/2082420079912776181"],"sources":["https://x.com/99Dominik_/status/2082420210078769640","https://www.tiktok.com/@user4078139866147/video/7667858073150639367","https://x.com/99Dominik_/status/2082420280769610117","https://t.me/truexakhersonua/68511"]}},{"type":"Feature","geometry":{"type":"Point","coordinates":[34.972025,44.85734]},"properties":{"original":{"Date":"2026-07-29","Name":"29 JUL 2026","Faction":"Ukraine","Origin":"UAV","Latitude":"44.85734","Longitude":"34.972025","PlusCode":"8GPPVX4C+WR Sudak","Description":"3:37-3:45 - 110kv Sudak Substation targeted by a Ukrainian FP-2 drone of the 9th Long-Range Strike Battalion \"Kairos\"","Source":"https://x.com/PuenteUribarri/status/2082442538103779638, https://t.me/robert_magyar/2672","Geolocation":"https://x.com/neonhandrail/status/2082555093875122679","Equipment":"","EquipmentItems":"FP-2 | Electrical Substation","Units":"","OrbatUnits":"9th Long-Range Strike Battalion \"Kairos\"","Id":"ae57542c-2f86-4d4c-a759-2f39d1942019","icon":"/api/icons/0051CA/False/template/181.png"},"source":"geoconfirmed","source_name":"GeoConfirmed","source_url":"https://geoconfirmed.org/map/ukraine","id":"ae57542c-2f86-4d4c-a759-2f39d1942019","date":"2026-07-29","link":"https://geoconfirmed.org/map/ukraine/ae57542c-2f86-4d4c-a759-2f39d1942019","category":"Longe Range (>50km) OWAD (One Way Attack Drone) or Loitering munition, mostly fixed wing, Flying OR Attacking a target without knowing the outcome: if something is damaged --> icon of the damaged equipment.","side":"Ukraine","color":"#0051CA","description":"3:37-3:45 - 110kv Sudak Substation targeted by a Ukrainian FP-2 drone of the 9th Long-Range Strike Battalion \"Kairos\"","orbat":["9th Long-Range Strike Battalion \"Kairos\""],"geolocation":["https://x.com/neonhandrail/status/2082555093875122679"],"sources":["https://x.com/PuenteUribarri/status/2082442538103779638","https://t.me/robert_magyar/2672"]}},{"type":"Feature","geometry":{"type":"Point","coordinates":[37.645716,48.55859]},"properties":{"original":{"Date":"2026-07-29","Name":"29 JUL 2026","Faction":"Russia","Origin":"UAV","Latitude":"48.55859","Longitude":"37.645716","PlusCode":"8GWVHJ5W+C7 Kostyantynivka, Donetsk Oblast, Ukraine","Description":"0:38-end - Russian soldier from the 3rd Army Corps on the north-western outskirts of Kostyantynivka in the direction of Oleksijevo-Druzhkivka","Source":"https://x.com/richardzai38580/status/2082400194495406290, https://t.me/DobroKor/3514","Geolocation":"https://x.com/richardzai38580/status/2082399252605763775","Equipment":"","EquipmentItems":"","Units":"","OrbatUnits":"3rd Army Corps","Id":"29900145-18e0-46c7-bf7f-2fd9d9d349fe","icon":"/api/icons/E00000/False/template/100.png"},"source":"geoconfirmed","source_name":"GeoConfirmed","source_url":"https://geoconfirmed.org/map/ukraine","id":"29900145-18e0-46c7-bf7f-2fd9d9d349fe","date":"2026-07-29","link":"https://geoconfirmed.org/map/ukraine/29900145-18e0-46c7-bf7f-2fd9d9d349fe","category":"Civilian or Soldier or Militant (Depending on the colour)","side":"Russia","color":"#E00000","description":"0:38-end - Russian soldier from the 3rd Army Corps on the north-western outskirts of Kostyantynivka in the direction of Oleksijevo-Druzhkivka","orbat":["3rd Army Corps"],"geolocation":["https://x.com/richardzai38580/status/2082399252605763775"],"sources":["https://x.com/richardzai38580/status/2082400194495406290","https://t.me/DobroKor/3514"]}},{"type":"Feature","geometry":{"type":"Point","coordinates":[36.484562,45.380916]},"properties":{"original":{"Date":"2026-07-29","Name":"29 JUL 2026","Faction":"Ukraine","Origin":"UAV","Latitude":"45.380916","Longitude":"36.484562","PlusCode":"8GQR9FJM+9R Kerch","Description":"5:11-5:18 - 110kv Kerch Substation targeted by a Ukrainian FP-2 drone of the 1st Seperate SBS Center.","Source":"https://x.com/PuenteUribarri/status/2082442538103779638, https://t.me/robert_magyar/2672","Geolocation":"https://x.com/neonhandrail/status/2082586632398803304","Equipment":"","EquipmentItems":"FP-2 | Electrical Substation","Units":"","OrbatUnits":"1st Seperate SBS Center","Id":"f90eabd6-50d0-4f2c-985e-30b0b69d48c5","icon":"/api/icons/0051CA/False/template/181.png"},"source":"geoconfirmed","source_name":"GeoConfirmed","source_url":"https://geoconfirmed.org/map/ukraine","id":"f90eabd6-50d0-4f2c-985e-30b0b69d48c5","date":"2026-07-29","link":"https://geoconfirmed.org/map/ukraine/f90eabd6-50d0-4f2c-985e-30b0b69d48c5","category":"Longe Range (>50km) OWAD (One Way Attack Drone) or Loitering munition, mostly fixed wing, Flying OR Attacking a target without knowing the outcome: if something is damaged --> icon of the damaged equipment.","side":"Ukraine","color":"#0051CA","description":"5:11-5:18 - 110kv Kerch Substation targeted by a Ukrainian FP-2 drone of the 1st Seperate SBS Center.","orbat":["1st Seperate SBS Center"],"geolocation":["https://x.com/neonhandrail/status/2082586632398803304"],"sources":["https://x.com/PuenteUribarri/status/2082442538103779638","https://t.me/robert_magyar/2672"]}},{"type":"Feature","geometry":{"type":"Point","coordinates":[34.845672,45.096848]},"properties":{"original":{"Date":"2026-07-29","Name":"29 JUL 2026","Faction":"Ukraine","Origin":"UAV","Latitude":"45.096848","Longitude":"34.845672","PlusCode":"8GQP3RWW+P7 Muromske","Description":"2:21-2:45 - 110kv Muromske Substation targeted by a Ukrainian FP-2 drone of the 414th Strike UAS Brigade \"Birds of the Magyar\"","Source":"https://x.com/PuenteUribarri/status/2082442538103779638, https://t.me/robert_magyar/2672","Geolocation":"https://x.com/neonhandrail/status/2082505111725842938","Equipment":"","EquipmentItems":"FP-2 | Electrical Substation","Units":"","OrbatUnits":"414th Separate Unmanned Systems Brigade \"Birds of the Magyar\"","Id":"7948ad58-7c99-448a-8b65-38935e9115e3","icon":"/api/icons/0051CA/False/template/181.png"},"source":"geoconfirmed","source_name":"GeoConfirmed","source_url":"https://geoconfirmed.org/map/ukraine","id":"7948ad58-7c99-448a-8b65-38935e9115e3","date":"2026-07-29","link":"https://geoconfirmed.org/map/ukraine/7948ad58-7c99-448a-8b65-38935e9115e3","category":"Longe Range (>50km) OWAD (One Way Attack Drone) or Loitering munition, mostly fixed wing, Flying OR Attacking a target without knowing the outcome: if something is damaged --> icon of the damaged equipment.","side":"Ukraine","color":"#0051CA","description":"2:21-2:45 - 110kv Muromske Substation targeted by a Ukrainian FP-2 drone of the 414th Strike UAS Brigade \"Birds of the Magyar\"","orbat":["414th Separate Unmanned Systems Brigade \"Birds of the Magyar\""],"geolocation":["https://x.com/neonhandrail/status/2082505111725842938"],"sources":["https://x.com/PuenteUribarri/status/2082442538103779638","https://t.me/robert_magyar/2672"]}},{"type":"Feature","geometry":{"type":"Point","coordinates":[34.274132,44.546597]},"properties":{"original":{"Date":"2026-07-29","Name":"29 JUL 2026","Faction":"Ukraine","Origin":"SAT","Latitude":"44.546597","Longitude":"34.274132","PlusCode":"8GPPG7WF+JM Hurzuf","Description":"4:27-4:36 - Ukrainian FP-2 drone strike of the 414th Strike UAS Brigade \"Birds of the Magyar\" targeted the Gurzuf 110 kV electrical substation ","Source":"https://x.com/PuenteUribarri/status/2082422623808463057, https://t.me/robert_magyar/2672","Geolocation":"https://x.com/neonhandrail/status/2082661781072400642","Equipment":"","EquipmentItems":"FP-2","Units":"","OrbatUnits":"414th Separate Unmanned Systems Brigade \"Birds of the Magyar\"","Id":"e7a09c07-412a-4e11-872d-3d073d7fa42a","icon":"/api/icons/0051CA/False/template/181.png"},"source":"geoconfirmed","source_name":"GeoConfirmed","source_url":"https://geoconfirmed.org/map/ukraine","id":"e7a09c07-412a-4e11-872d-3d073d7fa42a","date":"2026-07-29","link":"https://geoconfirmed.org/map/ukraine/e7a09c07-412a-4e11-872d-3d073d7fa42a","category":"Longe Range (>50km) OWAD (One Way Attack Drone) or Loitering munition, mostly fixed wing, Flying OR Attacking a target without knowing the outcome: if something is damaged --> icon of the damaged equipment.","side":"Ukraine","color":"#0051CA","description":"4:27-4:36 - Ukrainian FP-2 drone strike of the 414th Strike UAS Brigade \"Birds of the Magyar\" targeted the Gurzuf 110 kV electrical substation","orbat":["414th Separate Unmanned Systems Brigade \"Birds of the Magyar\""],"geolocation":["https://x.com/neonhandrail/status/2082661781072400642"],"sources":["https://x.com/PuenteUribarri/status/2082422623808463057","https://t.me/robert_magyar/2672"]}},{"type":"Feature","geometry":{"type":"Point","coordinates":[33.140382,45.389782]},"properties":{"original":{"Date":"2026-07-29","Name":"29 JUL 2026","Faction":"Ukraine","Origin":"UAV","Latitude":"45.389782","Longitude":"33.140382","PlusCode":"8GQM94QR+W5","Description":"3:20-3:29 - 110kv Novoozerne Substation targeted by a Ukrainian FP-2 drone of the 413th Unmanned Systems Regiment \"RAID\" \"РЕЙД\"","Source":"https://x.com/PuenteUribarri/status/2082442538103779638, https://t.me/robert_magyar/2672","Geolocation":"https://x.com/neonhandrail/status/2082549495574020184","Equipment":"","EquipmentItems":"FP-2 | Electrical Substation","Units":"","OrbatUnits":"413th Unmanned Systems Regiment \"RAID\" \"РЕЙД\"","Id":"a869f25c-4468-4e48-9087-40cdeca4cc29","icon":"/api/icons/0051CA/False/template/181.png"},"source":"geoconfirmed","source_name":"GeoConfirmed","source_url":"https://geoconfirmed.org/map/ukraine","id":"a869f25c-4468-4e48-9087-40cdeca4cc29","date":"2026-07-29","link":"https://geoconfirmed.org/map/ukraine/a869f25c-4468-4e48-9087-40cdeca4cc29","category":"Longe Range (>50km) OWAD (One Way Attack Drone) or Loitering munition, mostly fixed wing, Flying OR Attacking a target without knowing the outcome: if something is damaged --> icon of the damaged equipment.","side":"Ukraine","color":"#0051CA","description":"3:20-3:29 - 110kv Novoozerne Substation targeted by a Ukrainian FP-2 drone of the 413th Unmanned Systems Regiment \"RAID\" \"РЕЙД\"","orbat":["413th Unmanned Systems Regiment \"RAID\" \"РЕЙД\""],"geolocation":["https://x.com/neonhandrail/status/2082549495574020184"],"sources":["https://x.com/PuenteUribarri/status/2082442538103779638","https://t.me/robert_magyar/2672"]}},{"type":"Feature","geometry":{"type":"Point","coordinates":[37.662127,48.533439]},"properties":{"original":{"Date":"2026-07-29","Name":"29 JUL 2026","Faction":"Russia","Origin":"UAV","Latitude":"48.533439","Longitude":"37.662127","PlusCode":"8GWVGMM6+9V Kostyantynivka, Donetsk Oblast, Ukraine","Description":"0:59 - Ukrainian drone dropped grenade","Source":"https://x.com/Mocca2X/status/2082095198562394212, https://www.instagram.com/fenix.team.17csp/reel/DbVa7jYsGHS/","Geolocation":"https://x.com/Mocca2X/status/2082098386979996062","Equipment":"","EquipmentItems":"(Multi-Purpose) Bomber UAV","Units":"","OrbatUnits":"UAV Unit \"Fenix Team\"","Id":"f956ecd5-fb8a-4494-87f8-538ca7acad40","icon":"/api/icons/E00000/False/template/110.png"},"source":"geoconfirmed","source_name":"GeoConfirmed","source_url":"https://geoconfirmed.org/map/ukraine","id":"f956ecd5-fb8a-4494-87f8-538ca7acad40","date":"2026-07-29","link":"https://geoconfirmed.org/map/ukraine/f956ecd5-fb8a-4494-87f8-538ca7acad40","category":"Multipurpose Bomber Drone, Flying OR Dropping OR bombing a target without knowing the outcome: if something is damaged --> icon of the damaged equipment.","side":"Russia","color":"#E00000","description":"0:59 - Ukrainian drone dropped grenade","orbat":["UAV Unit \"Fenix Team\""],"geolocation":["https://x.com/Mocca2X/status/2082098386979996062"],"sources":["https://x.com/Mocca2X/status/2082095198562394212","https://www.instagram.com/fenix.team.17csp/reel/DbVa7jYsGHS/"]}},{"type":"Feature","geometry":{"type":"Point","coordinates":[37.554868,47.118111]},"properties":{"original":{"Date":"2026-07-29","Name":"29 JUL 2026","Faction":"Neutral","Origin":"PIC","Latitude":"47.118111","Longitude":"37.554868","PlusCode":"8GVV4H93+6W Mariupol, Donetsk Oblast, Ukraine","Description":"Gas station damaged in Mariupol after a reported Ukrainian drone strike","Source":"https://x.com/hochu_dodomu/status/2082347996302188978","Geolocation":"https://x.com/MikiValbuena/status/2082460314075791784","Equipment":"","EquipmentItems":"","Units":"","OrbatUnits":"","Id":"acc7f70e-2f82-4b6d-8fdc-577252e54431","icon":"/api/icons/AC7339/False/template/192.png"},"source":"geoconfirmed","source_name":"GeoConfirmed","source_url":"https://geoconfirmed.org/map/ukraine","id":"acc7f70e-2f82-4b6d-8fdc-577252e54431","date":"2026-07-29","link":"https://geoconfirmed.org/map/ukraine/acc7f70e-2f82-4b6d-8fdc-577252e54431","category":"Recently destroyed/Damaged[Visible in footage] or still burning infrastucture","side":"Neutral","color":"#AC7339","description":"Gas station damaged in Mariupol after a reported Ukrainian drone strike","orbat":[],"geolocation":["https://x.com/MikiValbuena/status/2082460314075791784"],"sources":["https://x.com/hochu_dodomu/status/2082347996302188978"]}},{"type":"Feature","geometry":{"type":"Point","coordinates":[34.402129,44.6695]},"properties":{"original":{"Date":"2026-07-29","Name":"29 JUL 2026","Faction":"Ukraine","Origin":"UAV","Latitude":"44.6695","Longitude":"34.402129","PlusCode":"8GPPMC92+QV Alushta","Description":"4:18-4:26 - 110kv Alushta Substation targeted by a Ukrainian FP-2 drone of the 412th Unmanned Systems Brigade \"Nemesis\" ","Source":"https://x.com/PuenteUribarri/status/2082442538103779638, https://t.me/robert_magyar/2672","Geolocation":"https://x.com/neonhandrail/status/2082568783701663901","Equipment":"","EquipmentItems":"FP-2 | Electrical Substation","Units":"","OrbatUnits":"412th Unmanned Systems Brigade \"Nemesis\" ","Id":"39c60413-54d4-4a38-9d08-595b88eede1c","icon":"/api/icons/0051CA/False/template/181.png"},"source":"geoconfirmed","source_name":"GeoConfirmed","source_url":"https://geoconfirmed.org/map/ukraine","id":"39c60413-54d4-4a38-9d08-595b88eede1c","date":"2026-07-29","link":"https://geoconfirmed.org/map/ukraine/39c60413-54d4-4a38-9d08-595b88eede1c","category":"Longe Range (>50km) OWAD (One Way Attack Drone) or Loitering munition, mostly fixed wing, Flying OR Attacking a target without knowing the outcome: if something is damaged --> icon of the damaged equipment.","side":"Ukraine","color":"#0051CA","description":"4:18-4:26 - 110kv Alushta Substation targeted by a Ukrainian FP-2 drone of the 412th Unmanned Systems Brigade \"Nemesis\"","orbat":["412th Unmanned Systems Brigade \"Nemesis\""],"geolocation":["https://x.com/neonhandrail/status/2082568783701663901"],"sources":["https://x.com/PuenteUribarri/status/2082442538103779638","https://t.me/robert_magyar/2672"]}},{"type":"Feature","geometry":{"type":"Point","coordinates":[33.604039,46.289264]},"properties":{"original":{"Date":"2026-07-29","Name":"29 JUL 2026","Faction":"Neutral","Origin":"UAV","Latitude":"46.289264","Longitude":"33.604039","PlusCode":"8GRM7JQ2+P7 Kairka, Kherson Oblast, Ukraine","Description":"0:10-0:54 - Area grid - 330 kV Substation hit by Ukrainian FP-2 drones of the 414th Strike UAS Brigade \"Birds of the Magyar\"","Source":"https://x.com/PuenteUribarri/status/2082442538103779638, https://t.me/robert_magyar/2672","Geolocation":"https://x.com/neonhandrail/status/2082441123881156775","Equipment":"","EquipmentItems":"FP-2","Units":"","OrbatUnits":"414th Separate Unmanned Systems Brigade \"Birds of the Magyar\"","Id":"5e9c114e-2065-422d-83d5-725ff3a2046d","icon":"/api/icons/AC7339/False/template/192.png"},"source":"geoconfirmed","source_name":"GeoConfirmed","source_url":"https://geoconfirmed.org/map/ukraine","id":"5e9c114e-2065-422d-83d5-725ff3a2046d","date":"2026-07-29","link":"https://geoconfirmed.org/map/ukraine/5e9c114e-2065-422d-83d5-725ff3a2046d","category":"Recently destroyed/Damaged[Visible in footage] or still burning infrastucture","side":"Neutral","color":"#AC7339","description":"0:10-0:54 - Area grid - 330 kV Substation hit by Ukrainian FP-2 drones of the 414th Strike UAS Brigade \"Birds of the Magyar\"","orbat":["414th Separate Unmanned Systems Brigade \"Birds of the Magyar\""],"geolocation":["https://x.com/neonhandrail/status/2082441123881156775"],"sources":["https://x.com/PuenteUribarri/status/2082442538103779638","https://t.me/robert_magyar/2672"]}},{"type":"Feature","geometry":{"type":"Point","coordinates":[33.027218,46.320961]},"properties":{"original":{"Date":"2026-07-29","Name":"29 JUL 2026","Faction":"Ukraine","Origin":"UAV","Latitude":"46.320961","Longitude":"33.027218","PlusCode":"8GRM82CG+9V Tavriya, Kherson Oblast, Ukraine","Description":"5:26-5:32 - Tavriya Substation targeted by a Ukrainian drone of the 20th Unmanned Systems Brigade \"K-2\"","Source":"https://x.com/PuenteUribarri/status/2082442538103779638, https://t.me/robert_magyar/2672","Geolocation":"https://x.com/neonhandrail/status/2082592277105676407","Equipment":"","EquipmentItems":"Electrical Substation | Fixed Wing OWAD (One Way Attack Drone)","Units":"","OrbatUnits":"20th Unmanned Systems Brigade \"K-2\"","Id":"dd37dbdf-8fe8-4e92-9e13-73e195d85965","icon":"/api/icons/0051CA/False/template/181.png"},"source":"geoconfirmed","source_name":"GeoConfirmed","source_url":"https://geoconfirmed.org/map/ukraine","id":"dd37dbdf-8fe8-4e92-9e13-73e195d85965","date":"2026-07-29","link":"https://geoconfirmed.org/map/ukraine/dd37dbdf-8fe8-4e92-9e13-73e195d85965","category":"Longe Range (>50km) OWAD (One Way Attack Drone) or Loitering munition, mostly fixed wing, Flying OR Attacking a target without knowing the outcome: if something is damaged --> icon of the damaged equipment.","side":"Ukraine","color":"#0051CA","description":"5:26-5:32 - Tavriya Substation targeted by a Ukrainian drone of the 20th Unmanned Systems Brigade \"K-2\"","orbat":["20th Unmanned Systems Brigade \"K-2\""],"geolocation":["https://x.com/neonhandrail/status/2082592277105676407"],"sources":["https://x.com/PuenteUribarri/status/2082442538103779638","https://t.me/robert_magyar/2672"]}},{"type":"Feature","geometry":{"type":"Point","coordinates":[33.814632,46.555734]},"properties":{"original":{"Date":"2026-07-29","Name":"29 JUL 2026","Faction":"Ukraine","Origin":"UAV","Latitude":"46.555734","Longitude":"33.814632","PlusCode":"8GRMHR47+7V Tavrychanka, Kherson Oblast, Ukraine","Description":"5:33-5:39 - Tavrychanka Substation targeted by a Ukrainian drone of the 20th Unmanned Systems Brigade \"K-2\"","Source":"https://x.com/PuenteUribarri/status/2082442538103779638, https://t.me/robert_magyar/2672","Geolocation":"https://x.com/neonhandrail/status/2082593981108748462","Equipment":"","EquipmentItems":"Electrical Substation | Fixed Wing OWAD (One Way Attack Drone)","Units":"","OrbatUnits":"20th Unmanned Systems Brigade \"K-2\"","Id":"5b45e9c6-6385-4c2a-a91e-748183a026d2","icon":"/api/icons/0051CA/False/template/181.png"},"source":"geoconfirmed","source_name":"GeoConfirmed","source_url":"https://geoconfirmed.org/map/ukraine","id":"5b45e9c6-6385-4c2a-a91e-748183a026d2","date":"2026-07-29","link":"https://geoconfirmed.org/map/ukraine/5b45e9c6-6385-4c2a-a91e-748183a026d2","category":"Longe Range (>50km) OWAD (One Way Attack Drone) or Loitering munition, mostly fixed wing, Flying OR Attacking a target without knowing the outcome: if something is damaged --> icon of the damaged equipment.","side":"Ukraine","color":"#0051CA","description":"5:33-5:39 - Tavrychanka Substation targeted by a Ukrainian drone of the 20th Unmanned Systems Brigade \"K-2\"","orbat":["20th Unmanned Systems Brigade \"K-2\""],"geolocation":["https://x.com/neonhandrail/status/2082593981108748462"],"sources":["https://x.com/PuenteUribarri/status/2082442538103779638","https://t.me/robert_magyar/2672"]}},{"type":"Feature","geometry":{"type":"Point","coordinates":[38.007356,47.798645]},"properties":{"original":{"Date":"2026-07-29","Name":"29 JUL 2026","Faction":"Ukraine","Origin":"UAV","Latitude":"47.798645","Longitude":"38.007356","PlusCode":"8GVWQ2X4+FW Novyi Svit, Donetsk Oblast, Ukraine","Description":"5:41-5:46 - Novyi Svit Substation targeted by a Ukrainian drone of the Deep Strike Detachment \"13\" ▸ 414th Strike UAS Brigade \"Birds of the Magyar\"","Source":"https://x.com/PuenteUribarri/status/2082442538103779638, https://t.me/robert_magyar/2672","Geolocation":"https://x.com/neonhandrail/status/2082595937101414815","Equipment":"","EquipmentItems":"Electrical Substation | Fixed Wing OWAD (One Way Attack Drone)","Units":"","OrbatUnits":"Deep Strike Detachment \"13\"","Id":"157c9036-8aea-44fb-bcda-8d6a540d0415","icon":"/api/icons/0051CA/False/template/181.png"},"source":"geoconfirmed","source_name":"GeoConfirmed","source_url":"https://geoconfirmed.org/map/ukraine","id":"157c9036-8aea-44fb-bcda-8d6a540d0415","date":"2026-07-29","link":"https://geoconfirmed.org/map/ukraine/157c9036-8aea-44fb-bcda-8d6a540d0415","category":"Longe Range (>50km) OWAD (One Way Attack Drone) or Loitering munition, mostly fixed wing, Flying OR Attacking a target without knowing the outcome: if something is damaged --> icon of the damaged equipment.","side":"Ukraine","color":"#0051CA","description":"5:41-5:46 - Novyi Svit Substation targeted by a Ukrainian drone of the Deep Strike Detachment \"13\" ▸ 414th Strike UAS Brigade \"Birds of the Magyar\"","orbat":["Deep Strike Detachment \"13\""],"geolocation":["https://x.com/neonhandrail/status/2082595937101414815"],"sources":["https://x.com/PuenteUribarri/status/2082442538103779638","https://t.me/robert_magyar/2672"]}},{"type":"Feature","geometry":{"type":"Point","coordinates":[33.825915,45.07283]},"properties":{"original":{"Date":"2026-07-29","Name":"29 JUL 2026","Faction":"Ukraine","Origin":"UAV","Latitude":"45.07283","Longitude":"33.825915","PlusCode":"8GQM3RFG+49 Skvortsove","Description":"4:09-4:17 - 110kv Skvortsove Substation targeted by a Ukrainian FP-2 drone of the 413th Unmanned Systems Regiment \"RAID\" \"РЕЙД\"","Source":"https://x.com/PuenteUribarri/status/2082442538103779638, https://t.me/robert_magyar/2672","Geolocation":"https://x.com/neonhandrail/status/2082562630737367174","Equipment":"","EquipmentItems":"FP-2 | Electrical Substation","Units":"","OrbatUnits":"413th Unmanned Systems Regiment \"RAID\" \"РЕЙД\"","Id":"e044004e-4e82-4f8e-86f4-91158314c8ba","icon":"/api/icons/0051CA/False/template/181.png"},"source":"geoconfirmed","source_name":"GeoConfirmed","source_url":"https://geoconfirmed.org/map/ukraine","id":"e044004e-4e82-4f8e-86f4-91158314c8ba","date":"2026-07-29","link":"https://geoconfirmed.org/map/ukraine/e044004e-4e82-4f8e-86f4-91158314c8ba","category":"Longe Range (>50km) OWAD (One Way Attack Drone) or Loitering munition, mostly fixed wing, Flying OR Attacking a target without knowing the outcome: if something is damaged --> icon of the damaged equipment.","side":"Ukraine","color":"#0051CA","description":"4:09-4:17 - 110kv Skvortsove Substation targeted by a Ukrainian FP-2 drone of the 413th Unmanned Systems Regiment \"RAID\" \"РЕЙД\"","orbat":["413th Unmanned Systems Regiment \"RAID\" \"РЕЙД\""],"geolocation":["https://x.com/neonhandrail/status/2082562630737367174"],"sources":["https://x.com/PuenteUribarri/status/2082442538103779638","https://t.me/robert_magyar/2672"]}},{"type":"Feature","geometry":{"type":"Point","coordinates":[33.862855,44.755257]},"properties":{"original":{"Date":"2026-07-29","Name":"29 JUL 2026","Faction":"Neutral","Origin":"UAV","Latitude":"44.755257","Longitude":"33.862855","PlusCode":"8GPMQV47+44 Bakhchysarai","Description":"1:15-1:42 - 3220/110/35 kV Bakhchisarai substation targeted by Ukrainian FP-2 drones of the 1st Seperate SBS Center.","Source":"https://x.com/PuenteUribarri/status/2082442538103779638, https://t.me/robert_magyar/2672","Geolocation":"https://x.com/neonhandrail/status/2082451443190276399","Equipment":"","EquipmentItems":"FP-2 | Electrical Substation","Units":"","OrbatUnits":"1st Seperate SBS Center","Id":"94f94046-cd6a-404e-b245-997e9ee2286d","icon":"/api/icons/AC7339/False/template/192.png"},"source":"geoconfirmed","source_name":"GeoConfirmed","source_url":"https://geoconfirmed.org/map/ukraine","id":"94f94046-cd6a-404e-b245-997e9ee2286d","date":"2026-07-29","link":"https://geoconfirmed.org/map/ukraine/94f94046-cd6a-404e-b245-997e9ee2286d","category":"Recently destroyed/Damaged[Visible in footage] or still burning infrastucture","side":"Neutral","color":"#AC7339","description":"1:15-1:42 - 3220/110/35 kV Bakhchisarai substation targeted by Ukrainian FP-2 drones of the 1st Seperate SBS Center.","orbat":["1st Seperate SBS Center"],"geolocation":["https://x.com/neonhandrail/status/2082451443190276399"],"sources":["https://x.com/PuenteUribarri/status/2082442538103779638","https://t.me/robert_magyar/2672"]}},{"type":"Feature","geometry":{"type":"Point","coordinates":[37.678428,48.839738]},"properties":{"original":{"Date":"2026-07-29","Name":"29 JUL 2026","Faction":"Russia","Origin":"UAV","Latitude":"48.839738","Longitude":"37.678428","PlusCode":"8GWVRMQH+V9 Slovyansk, Donetsk Oblast, Ukraine","Description":"1:01 - FPV strike on a Humvee","Source":"https://x.com/AndrewPerpetua/status/2085598911771603122, https://t.me/knz_vandal_official/89","Geolocation":"https://x.com/ZoamSc2/status/2085863039841230978","Equipment":"","EquipmentItems":"Humvee | Fiber Optic (FO) FPV (First Person View) OWAD (One Way Attack Drone)","Units":"likely","OrbatUnits":"3rd Guards Combined Arms Army","Id":"a81917f3-8136-4776-8e76-a04e413551d2","icon":"/api/icons/E00000/False/template/111.png"},"source":"geoconfirmed","source_name":"GeoConfirmed","source_url":"https://geoconfirmed.org/map/ukraine","id":"a81917f3-8136-4776-8e76-a04e413551d2","date":"2026-07-29","link":"https://geoconfirmed.org/map/ukraine/a81917f3-8136-4776-8e76-a04e413551d2","category":"Short Range (<50km) OWAD (One Way Attack Drone), mostly rotary wing, Flying OR Attacking a target without knowing the outcome: if something is damaged --> icon of the damaged equipment.","side":"Russia","color":"#E00000","description":"1:01 - FPV strike on a Humvee","orbat":["3rd Guards Combined Arms Army"],"geolocation":["https://x.com/ZoamSc2/status/2085863039841230978"],"sources":["https://x.com/AndrewPerpetua/status/2085598911771603122","https://t.me/knz_vandal_official/89"]}},{"type":"Feature","geometry":{"type":"Point","coordinates":[35.400056,45.088949]},"properties":{"original":{"Date":"2026-07-29","Name":"29 JUL 2026","Faction":"Ukraine","Origin":"UAV","Latitude":"45.088949","Longitude":"35.400056","PlusCode":"8GQQ3CQ2+H2 Melioratoriv St, 4д, Feodosia","Description":"4:38-4:45 - 110kv Blyzhne Kamyshi Substation targeted by a Ukrainian FP-2 drone of the 412th Unmanned Systems Brigade \"Nemesis\" ","Source":"https://x.com/PuenteUribarri/status/2082442538103779638, https://t.me/robert_magyar/2672","Geolocation":"https://x.com/neonhandrail/status/2082579495454949763","Equipment":"","EquipmentItems":"FP-2 | Electrical Substation","Units":"","OrbatUnits":"412th Unmanned Systems Brigade \"Nemesis\" ","Id":"4bb890a0-fd93-49e2-b8d8-a0851eff403f","icon":"/api/icons/0051CA/False/template/181.png"},"source":"geoconfirmed","source_name":"GeoConfirmed","source_url":"https://geoconfirmed.org/map/ukraine","id":"4bb890a0-fd93-49e2-b8d8-a0851eff403f","date":"2026-07-29","link":"https://geoconfirmed.org/map/ukraine/4bb890a0-fd93-49e2-b8d8-a0851eff403f","category":"Longe Range (>50km) OWAD (One Way Attack Drone) or Loitering munition, mostly fixed wing, Flying OR Attacking a target without knowing the outcome: if something is damaged --> icon of the damaged equipment.","side":"Ukraine","color":"#0051CA","description":"4:38-4:45 - 110kv Blyzhne Kamyshi Substation targeted by a Ukrainian FP-2 drone of the 412th Unmanned Systems Brigade \"Nemesis\"","orbat":["412th Unmanned Systems Brigade \"Nemesis\""],"geolocation":["https://x.com/neonhandrail/status/2082579495454949763"],"sources":["https://x.com/PuenteUribarri/status/2082442538103779638","https://t.me/robert_magyar/2672"]}},{"type":"Feature","geometry":{"type":"Point","coordinates":[35.377557,45.025941]},"properties":{"original":{"Date":"2026-07-29","Name":"29 JUL 2026","Faction":"Ukraine","Origin":"UAV","Latitude":"45.025941","Longitude":"35.377557","PlusCode":"8GQQ29GH+92 Feodosia","Description":"1:43-1:49 - 110/35/6 kV Podgornaia substation targeted by a Ukrainian FP-2 drone of the 1st Seperate SBS Center","Source":"https://x.com/PuenteUribarri/status/2082442538103779638, https://t.me/robert_magyar/2672","Geolocation":"https://x.com/neonhandrail/status/2082453762929733877","Equipment":"","EquipmentItems":"FP-2 | Electrical Substation","Units":"","OrbatUnits":"414th Separate Unmanned Systems Brigade \"Birds of the Magyar\" | 1st Seperate SBS Center","Id":"694acbd9-57b8-4146-8ec8-a0ccecc226cb","icon":"/api/icons/0051CA/False/template/181.png"},"source":"geoconfirmed","source_name":"GeoConfirmed","source_url":"https://geoconfirmed.org/map/ukraine","id":"694acbd9-57b8-4146-8ec8-a0ccecc226cb","date":"2026-07-29","link":"https://geoconfirmed.org/map/ukraine/694acbd9-57b8-4146-8ec8-a0ccecc226cb","category":"Longe Range (>50km) OWAD (One Way Attack Drone) or Loitering munition, mostly fixed wing, Flying OR Attacking a target without knowing the outcome: if something is damaged --> icon of the damaged equipment.","side":"Ukraine","color":"#0051CA","description":"1:43-1:49 - 110/35/6 kV Podgornaia substation targeted by a Ukrainian FP-2 drone of the 1st Seperate SBS Center","orbat":["414th Separate Unmanned Systems Brigade \"Birds of the Magyar\"","1st Seperate SBS Center"],"geolocation":["https://x.com/neonhandrail/status/2082453762929733877"],"sources":["https://x.com/PuenteUribarri/status/2082442538103779638","https://t.me/robert_magyar/2672"]}},{"type":"Feature","geometry":{"type":"Point","coordinates":[36.439596,47.866493]},"properties":{"original":{"Date":"2026-07-29","Name":"29 JUL 2026","Faction":"Russia","Origin":"UAV","Latitude":"47.866493","Longitude":"36.439596","PlusCode":"8GVRVC8Q+HR Kalynivs'ke, Dnipropetrovsk Oblast, Ukraine","Description":"1:16-1:25 - Ukrainian FPV drone of the 67th Mechanized Brigade hit Russian soldier near Kalynivs'ke","Source":"https://x.com/richardzai38580/status/2082491697414779133, https://t.me/DeepStateUA/23691, ","Geolocation":"https://x.com/richardzai38580/status/2082491507047809125","Equipment":"","EquipmentItems":"FPV (First Person View) OWAD (One Way Attack Drone)","Units":"","OrbatUnits":"67th Mechanized Brigade","Id":"2019713e-b40e-49bd-a082-abc52f75abdd","icon":"/api/icons/E00000/False/template/92.png"},"source":"geoconfirmed","source_name":"GeoConfirmed","source_url":"https://geoconfirmed.org/map/ukraine","id":"2019713e-b40e-49bd-a082-abc52f75abdd","date":"2026-07-29","link":"https://geoconfirmed.org/map/ukraine/2019713e-b40e-49bd-a082-abc52f75abdd","category":"WIA/KIA Soldier/Militant","side":"Russia","color":"#E00000","description":"1:16-1:25 - Ukrainian FPV drone of the 67th Mechanized Brigade hit Russian soldier near Kalynivs'ke","orbat":["67th Mechanized Brigade"],"geolocation":["https://x.com/richardzai38580/status/2082491507047809125"],"sources":["https://x.com/richardzai38580/status/2082491697414779133","https://t.me/DeepStateUA/23691"]}},{"type":"Feature","geometry":{"type":"Point","coordinates":[37.6362,48.57078]},"properties":{"original":{"Date":"2026-07-29","Name":"29 JUL 2026","Faction":"Russia","Origin":"UAV","Latitude":"48.57078","Longitude":"37.6362","PlusCode":"8GWVHJCP+8F Oleksijevo-Druzhkivka, Donetsk Oblast, Ukraine","Description":"Russian soldier from the 3rd Army Corps reached the outskirts of Oleksiievo-Druzhkivka","Source":"https://x.com/richardzai38580/status/2082368224864440377, https://t.me/verumreactor/39865, ","Geolocation":"https://x.com/richardzai38580/status/2082367696805749211","Equipment":"","EquipmentItems":"","Units":"","OrbatUnits":"3rd Army Corps","Id":"17666af6-50ac-41a1-b549-ac56ff2190fd","icon":"/api/icons/E00000/False/template/100.png"},"source":"geoconfirmed","source_name":"GeoConfirmed","source_url":"https://geoconfirmed.org/map/ukraine","id":"17666af6-50ac-41a1-b549-ac56ff2190fd","date":"2026-07-29","link":"https://geoconfirmed.org/map/ukraine/17666af6-50ac-41a1-b549-ac56ff2190fd","category":"Civilian or Soldier or Militant (Depending on the colour)","side":"Russia","color":"#E00000","description":"Russian soldier from the 3rd Army Corps reached the outskirts of Oleksiievo-Druzhkivka","orbat":["3rd Army Corps"],"geolocation":["https://x.com/richardzai38580/status/2082367696805749211"],"sources":["https://x.com/richardzai38580/status/2082368224864440377","https://t.me/verumreactor/39865"]}},{"type":"Feature","geometry":{"type":"Point","coordinates":[36.737753,48.064155]},"properties":{"original":{"Date":"2026-07-29","Name":"29 JUL 2026","Faction":"Ukraine","Origin":"UAV","Latitude":"48.064155","Longitude":"36.737753","PlusCode":"8GWR3P7Q+M4 Yalta, Donetsk Oblast, Ukraine","Description":"0:08-0:12 - 37th Marine Brigade hits Russian position just NW of Yalta","Source":"https://x.com/PuenteUribarri/status/2082500057341821170, https://t.me/OBRMP37/330","Geolocation":"https://x.com/jimmhelloman555/status/2082648494116913163","Equipment":"","EquipmentItems":"","Units":"","OrbatUnits":"37th Marine Brigade","Id":"22c73973-6228-4044-9a85-b38ccf3abfd0","icon":"/api/icons/0051CA/False/template/10.png"},"source":"geoconfirmed","source_name":"GeoConfirmed","source_url":"https://geoconfirmed.org/map/ukraine","id":"22c73973-6228-4044-9a85-b38ccf3abfd0","date":"2026-07-29","link":"https://geoconfirmed.org/map/ukraine/22c73973-6228-4044-9a85-b38ccf3abfd0","category":"Shelling by artillery or aerial bombings - Location of the shelling, colour of who is shelling; Brown = UXO","side":"Ukraine","color":"#0051CA","description":"0:08-0:12 - 37th Marine Brigade hits Russian position just NW of Yalta","orbat":["37th Marine Brigade"],"geolocation":["https://x.com/jimmhelloman555/status/2082648494116913163"],"sources":["https://x.com/PuenteUribarri/status/2082500057341821170","https://t.me/OBRMP37/330"]}},{"type":"Feature","geometry":{"type":"Point","coordinates":[33.334729,45.198119]},"properties":{"original":{"Date":"2026-07-29","Name":"29 JUL 2026","Faction":"Ukraine","Origin":"UAV","Latitude":"45.198119","Longitude":"33.334729","PlusCode":"8GQM58XM+6V","Description":"5:00-5:10, drone 2 - 110kv Moynaky Substation targeted by two Ukrainian FP-2 drones of the 9th Long-Range Strike Battalion \"Kairos\"","Source":"https://x.com/PuenteUribarri/status/2082442538103779638, https://t.me/robert_magyar/2672","Geolocation":"https://x.com/neonhandrail/status/2082584698392555901","Equipment":"","EquipmentItems":"FP-2 | Electrical Substation","Units":"","OrbatUnits":"9th Long-Range Strike Battalion \"Kairos\"","Id":"76a63f68-8465-4538-bd48-cceb4c4c330d","icon":"/api/icons/0051CA/False/template/181.png"},"source":"geoconfirmed","source_name":"GeoConfirmed","source_url":"https://geoconfirmed.org/map/ukraine","id":"76a63f68-8465-4538-bd48-cceb4c4c330d","date":"2026-07-29","link":"https://geoconfirmed.org/map/ukraine/76a63f68-8465-4538-bd48-cceb4c4c330d","category":"Longe Range (>50km) OWAD (One Way Attack Drone) or Loitering munition, mostly fixed wing, Flying OR Attacking a target without knowing the outcome: if something is damaged --> icon of the damaged equipment.","side":"Ukraine","color":"#0051CA","description":"5:00-5:10, drone 2 - 110kv Moynaky Substation targeted by two Ukrainian FP-2 drones of the 9th Long-Range Strike Battalion \"Kairos\"","orbat":["9th Long-Range Strike Battalion \"Kairos\""],"geolocation":["https://x.com/neonhandrail/status/2082584698392555901"],"sources":["https://x.com/PuenteUribarri/status/2082442538103779638","https://t.me/robert_magyar/2672"]}},{"type":"Feature","geometry":{"type":"Point","coordinates":[37.691577,48.511663]},"properties":{"original":{"Date":"2026-07-29","Name":"29 JUL 2026","Faction":"Russia","Origin":"UAV","Latitude":"48.511663","Longitude":"37.691577","PlusCode":"8GWVGM6R+MJ Kostyantynivka, Donetsk Oblast, Ukraine","Description":"0:13 - Ukrainian drone dropped grenade","Source":"https://x.com/Mocca2X/status/2082095198562394212, https://www.instagram.com/fenix.team.17csp/reel/DbVa7jYsGHS/","Geolocation":"https://x.com/Mocca2X/status/2082094936175026265","Equipment":"","EquipmentItems":"(Multi-Purpose) Bomber UAV","Units":"","OrbatUnits":"UAV Unit \"Fenix Team\"","Id":"5e35ac83-6be5-463f-b783-dcb55bc6e214","icon":"/api/icons/E00000/False/template/110.png"},"source":"geoconfirmed","source_name":"GeoConfirmed","source_url":"https://geoconfirmed.org/map/ukraine","id":"5e35ac83-6be5-463f-b783-dcb55bc6e214","date":"2026-07-29","link":"https://geoconfirmed.org/map/ukraine/5e35ac83-6be5-463f-b783-dcb55bc6e214","category":"Multipurpose Bomber Drone, Flying OR Dropping OR bombing a target without knowing the outcome: if something is damaged --> icon of the damaged equipment.","side":"Russia","color":"#E00000","description":"0:13 - Ukrainian drone dropped grenade","orbat":["UAV Unit \"Fenix Team\""],"geolocation":["https://x.com/Mocca2X/status/2082094936175026265"],"sources":["https://x.com/Mocca2X/status/2082095198562394212","https://www.instagram.com/fenix.team.17csp/reel/DbVa7jYsGHS/"]}},{"type":"Feature","geometry":{"type":"Point","coordinates":[33.630534,46.246994]},"properties":{"original":{"Date":"2026-07-29","Name":"29 JUL 2026","Faction":"Ukraine","Origin":"UAV","Latitude":"46.246994","Longitude":"33.630534","PlusCode":"8GRM6JWJ+Q6 Pershokostyantynivka, Kherson Oblast, Ukraine","Description":"0:56-1:03 -  330 kV Substation targeted by a Ukrainian FP-2 drone of the 414th Strike UAS Brigade \"Birds of the Magyar\"","Source":"https://x.com/PuenteUribarri/status/2082442538103779638, https://t.me/robert_magyar/2672","Geolocation":"https://x.com/neonhandrail/status/2082446757884228052","Equipment":"","EquipmentItems":"FP-2","Units":"","OrbatUnits":"414th Separate Unmanned Systems Brigade \"Birds of the Magyar\"","Id":"d9ba5914-b28b-426b-92d0-df1840ba58cc","icon":"/api/icons/0051CA/False/template/181.png"},"source":"geoconfirmed","source_name":"GeoConfirmed","source_url":"https://geoconfirmed.org/map/ukraine","id":"d9ba5914-b28b-426b-92d0-df1840ba58cc","date":"2026-07-29","link":"https://geoconfirmed.org/map/ukraine/d9ba5914-b28b-426b-92d0-df1840ba58cc","category":"Longe Range (>50km) OWAD (One Way Attack Drone) or Loitering munition, mostly fixed wing, Flying OR Attacking a target without knowing the outcome: if something is damaged --> icon of the damaged equipment.","side":"Ukraine","color":"#0051CA","description":"0:56-1:03 -  330 kV Substation targeted by a Ukrainian FP-2 drone of the 414th Strike UAS Brigade \"Birds of the Magyar\"","orbat":["414th Separate Unmanned Systems Brigade \"Birds of the Magyar\""],"geolocation":["https://x.com/neonhandrail/status/2082446757884228052"],"sources":["https://x.com/PuenteUribarri/status/2082442538103779638","https://t.me/robert_magyar/2672"]}},{"type":"Feature","geometry":{"type":"Point","coordinates":[33.068434,45.538043]},"properties":{"original":{"Date":"2026-07-29","Name":"29 JUL 2026","Faction":"Ukraine","Origin":"UAV","Latitude":"45.538043","Longitude":"33.068434","PlusCode":"8GQMG3Q9+69 Kirovskoye","Description":"3:47-3:55 - 110kv Kirovskoy Substation targeted by a Ukrainian FP-2 drone of the 412th Unmanned Systems Brigade \"Nemesis\" ","Source":"https://x.com/PuenteUribarri/status/2082442538103779638, https://t.me/robert_magyar/2672","Geolocation":"https://x.com/neonhandrail/status/2082557861167857937","Equipment":"","EquipmentItems":"FP-2 | Electrical Substation","Units":"","OrbatUnits":"412th Unmanned Systems Brigade \"Nemesis\" ","Id":"f7eba7ca-5c79-466f-9d6f-ec5a301d984c","icon":"/api/icons/0051CA/False/template/181.png"},"source":"geoconfirmed","source_name":"GeoConfirmed","source_url":"https://geoconfirmed.org/map/ukraine","id":"f7eba7ca-5c79-466f-9d6f-ec5a301d984c","date":"2026-07-29","link":"https://geoconfirmed.org/map/ukraine/f7eba7ca-5c79-466f-9d6f-ec5a301d984c","category":"Longe Range (>50km) OWAD (One Way Attack Drone) or Loitering munition, mostly fixed wing, Flying OR Attacking a target without knowing the outcome: if something is damaged --> icon of the damaged equipment.","side":"Ukraine","color":"#0051CA","description":"3:47-3:55 - 110kv Kirovskoy Substation targeted by a Ukrainian FP-2 drone of the 412th Unmanned Systems Brigade \"Nemesis\"","orbat":["412th Unmanned Systems Brigade \"Nemesis\""],"geolocation":["https://x.com/neonhandrail/status/2082557861167857937"],"sources":["https://x.com/PuenteUribarri/status/2082442538103779638","https://t.me/robert_magyar/2672"]}},{"type":"Feature","geometry":{"type":"Point","coordinates":[33.334156,45.198305]},"properties":{"original":{"Date":"2026-07-29","Name":"29 JUL 2026","Faction":"Ukraine","Origin":"UAV","Latitude":"45.198305","Longitude":"33.334156","PlusCode":"8GQM58XM+8M","Description":"5:00-5:10, drone 1 - 110kv Moynaky Substation targeted by two Ukrainian FP-2 drones of the 9th Long-Range Strike Battalion \"Kairos\"","Source":"https://x.com/PuenteUribarri/status/2082442538103779638, https://t.me/robert_magyar/2672","Geolocation":"https://x.com/neonhandrail/status/2082584698392555901","Equipment":"","EquipmentItems":"FP-2 | Electrical Substation","Units":"","OrbatUnits":"9th Long-Range Strike Battalion \"Kairos\"","Id":"e21361f1-58f2-4164-bca4-eea94c133a5b","icon":"/api/icons/0051CA/False/template/181.png"},"source":"geoconfirmed","source_name":"GeoConfirmed","source_url":"https://geoconfirmed.org/map/ukraine","id":"e21361f1-58f2-4164-bca4-eea94c133a5b","date":"2026-07-29","link":"https://geoconfirmed.org/map/ukraine/e21361f1-58f2-4164-bca4-eea94c133a5b","category":"Longe Range (>50km) OWAD (One Way Attack Drone) or Loitering munition, mostly fixed wing, Flying OR Attacking a target without knowing the outcome: if something is damaged --> icon of the damaged equipment.","side":"Ukraine","color":"#0051CA","description":"5:00-5:10, drone 1 - 110kv Moynaky Substation targeted by two Ukrainian FP-2 drones of the 9th Long-Range Strike Battalion \"Kairos\"","orbat":["9th Long-Range Strike Battalion \"Kairos\""],"geolocation":["https://x.com/neonhandrail/status/2082584698392555901"],"sources":["https://x.com/PuenteUribarri/status/2082442538103779638","https://t.me/robert_magyar/2672"]}},{"type":"Feature","geometry":{"type":"Point","coordinates":[34.29481,44.55266]},"properties":{"original":{"Date":"2026-07-29","Name":"29 JUL 2026","Faction":"Ukraine","Origin":"UAV","Latitude":"44.55266","Longitude":"34.29481","PlusCode":"8GPPH73V+3W Hurzuf","Description":"4:27 - UA 412th Brigade FP strike on substation in Hurzuf, Crimea, Ukraine. ","Source":"https://x.com/PuenteUribarri/status/2082442538103779638, https://t.me/robert_magyar/2672","Geolocation":"https://x.com/meowqai/status/2086710608536141889","Equipment":"","EquipmentItems":"FP-2 | Electrical Substation","Units":"","OrbatUnits":"412th Unmanned Systems Brigade \"Nemesis\" ","Id":"3a251108-1165-40ef-b698-efb46bb1e561","icon":"/api/icons/0051CA/False/template/181.png"},"source":"geoconfirmed","source_name":"GeoConfirmed","source_url":"https://geoconfirmed.org/map/ukraine","id":"3a251108-1165-40ef-b698-efb46bb1e561","date":"2026-07-29","link":"https://geoconfirmed.org/map/ukraine/3a251108-1165-40ef-b698-efb46bb1e561","category":"Longe Range (>50km) OWAD (One Way Attack Drone) or Loitering munition, mostly fixed wing, Flying OR Attacking a target without knowing the outcome: if something is damaged --> icon of the damaged equipment.","side":"Ukraine","color":"#0051CA","description":"4:27 - UA 412th Brigade FP strike on substation in Hurzuf, Crimea, Ukraine.","orbat":["412th Unmanned Systems Brigade \"Nemesis\""],"geolocation":["https://x.com/meowqai/status/2086710608536141889"],"sources":["https://x.com/PuenteUribarri/status/2082442538103779638","https://t.me/robert_magyar/2672"]}},{"type":"Feature","geometry":{"type":"Point","coordinates":[38.95512,49.315721]},"properties":{"original":{"Date":"2026-07-29","Name":"29 JUL 2026","Faction":"Ukraine","Origin":"UAV","Latitude":"49.315721","Longitude":"38.95512","PlusCode":"8GXW8X84+72 Zaporiz'ke, Luhansk Oblast, Ukraine","Description":"5:47-5:57 - Zaporiz'ke Substation targeted by a Ukrainian drone of the 20th Unmanned Systems Brigade \"K-2\"","Source":"https://x.com/PuenteUribarri/status/2082442538103779638, https://t.me/robert_magyar/2672","Geolocation":"https://x.com/neonhandrail/status/2082597664945058205","Equipment":"","EquipmentItems":"Electrical Substation | Fixed Wing OWAD (One Way Attack Drone)","Units":"","OrbatUnits":"20th Unmanned Systems Brigade \"K-2\"","Id":"a1664bb8-da3e-4c40-a0f6-f8331f8fc5bf","icon":"/api/icons/0051CA/False/template/181.png"},"source":"geoconfirmed","source_name":"GeoConfirmed","source_url":"https://geoconfirmed.org/map/ukraine","id":"a1664bb8-da3e-4c40-a0f6-f8331f8fc5bf","date":"2026-07-29","link":"https://geoconfirmed.org/map/ukraine/a1664bb8-da3e-4c40-a0f6-f8331f8fc5bf","category":"Longe Range (>50km) OWAD (One Way Attack Drone) or Loitering munition, mostly fixed wing, Flying OR Attacking a target without knowing the outcome: if something is damaged --> icon of the damaged equipment.","side":"Ukraine","color":"#0051CA","description":"5:47-5:57 - Zaporiz'ke Substation targeted by a Ukrainian drone of the 20th Unmanned Systems Brigade \"K-2\"","orbat":["20th Unmanned Systems Brigade \"K-2\""],"geolocation":["https://x.com/neonhandrail/status/2082597664945058205"],"sources":["https://x.com/PuenteUribarri/status/2082442538103779638","https://t.me/robert_magyar/2672"]}},{"type":"Feature","geometry":{"type":"Point","coordinates":[38.166349,49.48038]},"properties":{"original":{"Date":"2026-07-29","Name":"29 JUL 2026","Faction":"Ukraine","Origin":"UAV","Latitude":"49.48038","Longitude":"38.166349","PlusCode":"8GXWF5J8+5G Honcharivka, Luhansk Oblast, Ukraine","Description":"5:18-5:26 - Honcharivka Substation targeted by a Ukrainian drone of the 20th Unmanned Systems Brigade \"K-2\"","Source":"https://x.com/PuenteUribarri/status/2082442538103779638, https://t.me/robert_magyar/2672","Geolocation":"https://x.com/neonhandrail/status/2082588680322257364","Equipment":"","EquipmentItems":"Electrical Substation | Fixed Wing OWAD (One Way Attack Drone)","Units":"","OrbatUnits":"20th Unmanned Systems Brigade \"K-2\"","Id":"dbee6244-2e4c-4254-9de3-fda5792e21e4","icon":"/api/icons/0051CA/False/template/181.png"},"source":"geoconfirmed","source_name":"GeoConfirmed","source_url":"https://geoconfirmed.org/map/ukraine","id":"dbee6244-2e4c-4254-9de3-fda5792e21e4","date":"2026-07-29","link":"https://geoconfirmed.org/map/ukraine/dbee6244-2e4c-4254-9de3-fda5792e21e4","category":"Longe Range (>50km) OWAD (One Way Attack Drone) or Loitering munition, mostly fixed wing, Flying OR Attacking a target without knowing the outcome: if something is damaged --> icon of the damaged equipment.","side":"Ukraine","color":"#0051CA","description":"5:18-5:26 - Honcharivka Substation targeted by a Ukrainian drone of the 20th Unmanned Systems Brigade \"K-2\"","orbat":["20th Unmanned Systems Brigade \"K-2\""],"geolocation":["https://x.com/neonhandrail/status/2082588680322257364"],"sources":["https://x.com/PuenteUribarri/status/2082442538103779638","https://t.me/robert_magyar/2672"]}}]}