{"type":"FeatureCollection","features":[{"type":"Feature","geometry":{"type":"Point","coordinates":[35.87213,48.52981]},"properties":{"original":{"Date":"2026-08-29","Name":"29 AUG 2026","Faction":"Neutral","Origin":"VID","Latitude":"48.52981","Longitude":"35.87213","PlusCode":"8GWQGVHC+WV Pavlohrad, Dnipropetrovsk Oblast, Ukraine","Description":"Huge fire at a \"33 Square Metres\" hardware store in Pavlohrad following a reported drone attack. ","Source":"https://x.com/zarGEOINT/status/2093816617041871310, https://t.me/truexadnepr/94587","Geolocation":"https://x.com/zarGEOINT/status/2093819911206314234","Equipment":"","EquipmentItems":"","Units":"","OrbatUnits":"","Id":"8865a07d-29e1-4b91-9258-1c8d2369e849","icon":"/api/icons/AC7339/False/template/192.png"},"source":"geoconfirmed","source_name":"GeoConfirmed","source_url":"https://geoconfirmed.org/map/ukraine","id":"8865a07d-29e1-4b91-9258-1c8d2369e849","date":"2026-08-29","link":"https://geoconfirmed.org/map/ukraine/8865a07d-29e1-4b91-9258-1c8d2369e849","category":"Recently destroyed/Damaged[Visible in footage] or still burning infrastucture","side":"Neutral","color":"#AC7339","description":"Huge fire at a \"33 Square Metres\" hardware store in Pavlohrad following a reported drone attack.","orbat":[],"geolocation":["https://x.com/zarGEOINT/status/2093819911206314234"],"sources":["https://x.com/zarGEOINT/status/2093816617041871310","https://t.me/truexadnepr/94587"]}},{"type":"Feature","geometry":{"type":"Point","coordinates":[30.50332,50.478438]},"properties":{"original":{"Date":"2026-08-29","Name":"29 AUG 2026","Faction":"Russia","Origin":"SAT","Latitude":"50.478438","Longitude":"30.50332","PlusCode":"9G2GFGH3+98 Kyiv, Kyiv city, Ukraine","Description":"Area grid - Smoke plume coming from the area of the Kyiv Shipbuilding and Ship-Repair Plant, JSC following a claimed Russian strike.","Source":"https://x.com/ne_kotletka/status/2093740972995653747, , More infprmation, https://breakingthenews.net/Article/Russia-says-it-struck-Kyiv-Mykolaiv-military-sites/67008834, https://t.me/lost_armour/11021","Geolocation":"https://maps.app.goo.gl/seze1UbyNg3n4aGb6","Equipment":"","EquipmentItems":"","Units":"","OrbatUnits":"","Id":"0937e24e-afc9-4ba5-a122-2f34132bd651","icon":"/api/icons/E00000/False/template/70.png"},"source":"geoconfirmed","source_name":"GeoConfirmed","source_url":"https://geoconfirmed.org/map/ukraine","id":"0937e24e-afc9-4ba5-a122-2f34132bd651","date":"2026-08-29","link":"https://geoconfirmed.org/map/ukraine/0937e24e-afc9-4ba5-a122-2f34132bd651","category":"Controlled Demolition OR explosion of unknown origin OR fire of unknown origin where no other icon fits","side":"Russia","color":"#E00000","description":"Area grid - Smoke plume coming from the area of the Kyiv Shipbuilding and Ship-Repair Plant, JSC following a claimed Russian strike.","orbat":[],"geolocation":["https://maps.app.goo.gl/seze1UbyNg3n4aGb6"],"sources":["https://x.com/ne_kotletka/status/2093740972995653747","https://breakingthenews.net/Article/Russia-says-it-struck-Kyiv-Mykolaiv-military-sites/67008834","https://t.me/lost_armour/11021"]}},{"type":"Feature","geometry":{"type":"Point","coordinates":[39.866268,47.111747]},"properties":{"original":{"Date":"2026-08-29","Name":"29 AUG 2026","Faction":"Ukraine","Origin":"PIC","Latitude":"47.111747","Longitude":"39.866268","PlusCode":"8GVX4V68+MG Lenina, Rostov Oblast, Russia","Description":"Point of view looking in a north direction - Smoke plume in a distance - Reportedly In the Lenin Khutor, Rostov region, a Chizhik distribution warehouse is purportedly burning following an attack ","Source":"https://x.com/Exilenova_plus/status/2093533645181247630","Geolocation":"https://x.com/neonhandrail/status/2093546109209870758","Equipment":"","EquipmentItems":"","Units":"","OrbatUnits":"","Id":"bbb20e91-bc52-49b7-acc9-4a823b0c74e9","icon":"/api/icons/0051CA/False/template/20.png"},"source":"geoconfirmed","source_name":"GeoConfirmed","source_url":"https://geoconfirmed.org/map/ukraine","id":"bbb20e91-bc52-49b7-acc9-4a823b0c74e9","date":"2026-08-29","link":"https://geoconfirmed.org/map/ukraine/bbb20e91-bc52-49b7-acc9-4a823b0c74e9","category":"Picture - Always Point of View in description - - In the colour of who is doing the attack or is responsable for the incident in the picture.","side":"Ukraine","color":"#0051CA","description":"Point of view looking in a north direction - Smoke plume in a distance - Reportedly In the Lenin Khutor, Rostov region, a Chizhik distribution warehouse is purportedly burning following an attack","orbat":[],"geolocation":["https://x.com/neonhandrail/status/2093546109209870758"],"sources":["https://x.com/Exilenova_plus/status/2093533645181247630"]}},{"type":"Feature","geometry":{"type":"Point","coordinates":[30.170981,50.437245]},"properties":{"original":{"Date":"2026-08-29","Name":"29 AUG 2026","Faction":"Russia","Origin":"PIC","Latitude":"50.437245","Longitude":"30.170981","PlusCode":"9G2GC5PC+V9 Myla, Kyiv Oblast, Ukraine","Description":"Two deceased persons were found in the aftermath of a Russian drone attack on an ammunition depot.","Source":"https://x.com/99Dominik_/status/2093796170644558254, (2/12&7/12&12/12), https://www.facebook.com/maryankushnyr/posts/pfbid02Fwrzy9qq3NeuZ3JMBfuTPzCLHp8izrqtXGjoiXdk95KS5Td1EC7UJewQaCP3ZTVGl, , More information, https://www.pravda.com.ua/eng/news/2026/08/29/8050968/, https://x.com/MamedovGyunduz/status/2093961132033593536, https://x.com/ZelenskyyUa/status/2093966472750026909, ","Geolocation":"https://x.com/99Dominik_/status/2093794081373659387","Equipment":"","EquipmentItems":"","Units":"","OrbatUnits":"","Id":"9be6398f-3551-44fc-8167-584ea664007d","icon":"/api/icons/E00000/False/template/50.png"},"source":"geoconfirmed","source_name":"GeoConfirmed","source_url":"https://geoconfirmed.org/map/ukraine","id":"9be6398f-3551-44fc-8167-584ea664007d","date":"2026-08-29","link":"https://geoconfirmed.org/map/ukraine/9be6398f-3551-44fc-8167-584ea664007d","category":"Killed or wounded civilian. Potential Warcrime. In the colour of who is assessed as doing the attack/killing.","side":"Russia","color":"#E00000","description":"Two deceased persons were found in the aftermath of a Russian drone attack on an ammunition depot.","orbat":[],"geolocation":["https://x.com/99Dominik_/status/2093794081373659387"],"sources":["https://x.com/99Dominik_/status/2093796170644558254","https://www.facebook.com/maryankushnyr/posts/pfbid02Fwrzy9qq3NeuZ3JMBfuTPzCLHp8izrqtXGjoiXdk95KS5Td1EC7UJewQaCP3ZTVGl","https://www.pravda.com.ua/eng/news/2026/08/29/8050968/","https://x.com/MamedovGyunduz/status/2093961132033593536","https://x.com/ZelenskyyUa/status/2093966472750026909"]}},{"type":"Feature","geometry":{"type":"Point","coordinates":[37.610802,48.490532]},"properties":{"original":{"Date":"2026-08-29","Name":"29 AUG 2026","Faction":"Russia","Origin":"UAV","Latitude":"48.490532","Longitude":"37.610802","PlusCode":"8GWVFJR6+68 Dovha Balka, Donetsk Oblast, Ukraine","Description":"0:38 - 210th Assault Regiment drone hits Russian soldier in Dovha Balka, Donetsk Oblast","Source":"https://x.com/Bielitzling/status/2097079558612660375, https://t.me/polk_210/7201","Geolocation":"https://x.com/Bielitzling/status/2097101777808085327","Equipment":"","EquipmentItems":"FPV (First Person View) OWAD (One Way Attack Drone)","Units":"","OrbatUnits":"210th Assault Regiment \"Berlingo\"","Id":"c3f2aad7-7f5b-4968-b1fe-64f411cbe440","icon":"/api/icons/E00000/False/template/92.png"},"source":"geoconfirmed","source_name":"GeoConfirmed","source_url":"https://geoconfirmed.org/map/ukraine","id":"c3f2aad7-7f5b-4968-b1fe-64f411cbe440","date":"2026-08-29","link":"https://geoconfirmed.org/map/ukraine/c3f2aad7-7f5b-4968-b1fe-64f411cbe440","category":"WIA/KIA Soldier/Militant","side":"Russia","color":"#E00000","description":"0:38 - 210th Assault Regiment drone hits Russian soldier in Dovha Balka, Donetsk Oblast","orbat":["210th Assault Regiment \"Berlingo\""],"geolocation":["https://x.com/Bielitzling/status/2097101777808085327"],"sources":["https://x.com/Bielitzling/status/2097079558612660375","https://t.me/polk_210/7201"]}},{"type":"Feature","geometry":{"type":"Point","coordinates":[35.883279,47.587437]},"properties":{"original":{"Date":"2026-08-29","Name":"29 AUG 2026","Faction":"Russia","Origin":"UAV","Latitude":"47.587437","Longitude":"35.883279","PlusCode":"8GVQHVPM+X8 Chervona Krynytsya, Zaporizhia Oblast, Ukraine","Description":"0:12-End, 3rd (4th) explosion - reportedly resulted from Russian airstrikes on a treeline next to a Ukrainian defensive trench position.","Source":"https://x.com/franfran2424/status/2093650538965417992, https://t.me/ZS42MSD/8866","Geolocation":"https://x.com/richardzai38580/status/2093616935254606018","Equipment":"(Reported)","EquipmentItems":"Fugasnaya Aviatsionnaya Bomba (FAB) | Reconnaissance UAV","Units":"","OrbatUnits":"Russian Aerospace Forces (VKS) | 42nd Guards Motorized Rifle Division","Id":"467dc186-38b8-4c8e-9684-6bc6f00b8f91","icon":"/api/icons/E00000/False/template/10.png"},"source":"geoconfirmed","source_name":"GeoConfirmed","source_url":"https://geoconfirmed.org/map/ukraine","id":"467dc186-38b8-4c8e-9684-6bc6f00b8f91","date":"2026-08-29","link":"https://geoconfirmed.org/map/ukraine/467dc186-38b8-4c8e-9684-6bc6f00b8f91","category":"Shelling by artillery or aerial bombings - Location of the shelling, colour of who is shelling; Brown = UXO","side":"Russia","color":"#E00000","description":"0:12-End, 3rd (4th) explosion - reportedly resulted from Russian airstrikes on a treeline next to a Ukrainian defensive trench position.","orbat":["Russian Aerospace Forces (VKS)","42nd Guards Motorized Rifle Division"],"geolocation":["https://x.com/richardzai38580/status/2093616935254606018"],"sources":["https://x.com/franfran2424/status/2093650538965417992","https://t.me/ZS42MSD/8866"]}},{"type":"Feature","geometry":{"type":"Point","coordinates":[30.305825,50.438493]},"properties":{"original":{"Date":"2026-08-29","Name":"29 AUG 2026","Faction":"Neutral","Origin":"SAT","Latitude":"50.438493","Longitude":"30.305825","PlusCode":"9G2GC8Q4+98 Chaiky, Kyiv Oblast, Ukraine","Description":"Area grid -  A smoke plume is coming from a warehouse of the Agromat Company (Seagulls) following a reported Russian attack, visible on low-resolution imagery.","Source":"SAT, https://x.com/aroslav24470/status/2093829439041802526, , , More information, https://www.pravda.com.ua/eng/news/2026/08/29/8050929/, https://www.facebook.com/agromat.ua/posts/pfbid0ETv2je8G1H7TwRAPD844L54EAoQRN7NgRzgs1FNqQJyCLdxprF5V4dtb8V4SqH2Ml?rdid=e9UtuHO2WiUsuO7D#","Geolocation":"https://x.com/aroslav24470/status/2093829439041802526","Equipment":"","EquipmentItems":"","Units":"","OrbatUnits":"","Id":"7e1d3480-0f4e-40eb-9dad-759054eee79e","icon":"/api/icons/AC7339/False/template/192.png"},"source":"geoconfirmed","source_name":"GeoConfirmed","source_url":"https://geoconfirmed.org/map/ukraine","id":"7e1d3480-0f4e-40eb-9dad-759054eee79e","date":"2026-08-29","link":"https://geoconfirmed.org/map/ukraine/7e1d3480-0f4e-40eb-9dad-759054eee79e","category":"Recently destroyed/Damaged[Visible in footage] or still burning infrastucture","side":"Neutral","color":"#AC7339","description":"Area grid -  A smoke plume is coming from a warehouse of the Agromat Company (Seagulls) following a reported Russian attack, visible on low-resolution imagery.","orbat":[],"geolocation":["https://x.com/aroslav24470/status/2093829439041802526"],"sources":["https://x.com/aroslav24470/status/2093829439041802526","https://www.pravda.com.ua/eng/news/2026/08/29/8050929/","https://www.facebook.com/agromat.ua/posts/pfbid0ETv2je8G1H7TwRAPD844L54EAoQRN7NgRzgs1FNqQJyCLdxprF5V4dtb8V4SqH2Ml?rdid=e9UtuHO2WiUsuO7D#"]}},{"type":"Feature","geometry":{"type":"Point","coordinates":[35.879846,47.586308]},"properties":{"original":{"Date":"2026-08-29","Name":"29 AUG 2026","Faction":"Russia","Origin":"UAV","Latitude":"47.586308","Longitude":"35.879846","PlusCode":"8GVQHVPH+GW Chervona Krynytsya, Zaporizhia Oblast, Ukraine","Description":"0:12-End, first (two) explosion - reportedly resulted from Russian airstrikes on a treeline next to a Ukrainian defensive trench position.","Source":"https://x.com/franfran2424/status/2093650538965417992, https://t.me/ZS42MSD/8866","Geolocation":"https://x.com/richardzai38580/status/2093616935254606018","Equipment":"(Reported)","EquipmentItems":"Fugasnaya Aviatsionnaya Bomba (FAB) | Reconnaissance UAV","Units":"","OrbatUnits":"Russian Aerospace Forces (VKS) | 42nd Guards Motorized Rifle Division","Id":"9a317ba7-da27-4680-9d5c-96ef3500d159","icon":"/api/icons/E00000/False/template/10.png"},"source":"geoconfirmed","source_name":"GeoConfirmed","source_url":"https://geoconfirmed.org/map/ukraine","id":"9a317ba7-da27-4680-9d5c-96ef3500d159","date":"2026-08-29","link":"https://geoconfirmed.org/map/ukraine/9a317ba7-da27-4680-9d5c-96ef3500d159","category":"Shelling by artillery or aerial bombings - Location of the shelling, colour of who is shelling; Brown = UXO","side":"Russia","color":"#E00000","description":"0:12-End, first (two) explosion - reportedly resulted from Russian airstrikes on a treeline next to a Ukrainian defensive trench position.","orbat":["Russian Aerospace Forces (VKS)","42nd Guards Motorized Rifle Division"],"geolocation":["https://x.com/richardzai38580/status/2093616935254606018"],"sources":["https://x.com/franfran2424/status/2093650538965417992","https://t.me/ZS42MSD/8866"]}},{"type":"Feature","geometry":{"type":"Point","coordinates":[34.77732,51.25844]},"properties":{"original":{"Date":"2026-08-29","Name":"29 AUG 2026","Faction":"Ukraine","Origin":"UAV","Latitude":"51.25844","Longitude":"34.77732","PlusCode":"9G3P7Q5G+9W Kul'baki, Kursk Oblast, Russia","Description":"0:32-0:35 - An antenna installed in a communications tower is hit with a drone by the Destruction Team unit of Ukraine.","Source":"(3/3), https://x.com/666_mancer/status/2093684762296619142, https://t.me/destruction_team/198","Geolocation":"https://x.com/blinzka/status/2093800100254343348","Equipment":"","EquipmentItems":"FPV (First Person View) OWAD (One Way Attack Drone)","Units":"\"DESTRUCTION TEAM\" unit of the Border Commandant's Rapid Response Unit of the 5th Border Detachment ","OrbatUnits":"","Id":"cc789ef2-675f-4f1a-83f3-98f5d7f05945","icon":"/api/icons/0051CA/False/template/111.png"},"source":"geoconfirmed","source_name":"GeoConfirmed","source_url":"https://geoconfirmed.org/map/ukraine","id":"cc789ef2-675f-4f1a-83f3-98f5d7f05945","date":"2026-08-29","link":"https://geoconfirmed.org/map/ukraine/cc789ef2-675f-4f1a-83f3-98f5d7f05945","category":"Short Range (<50km) OWAD (One Way Attack Drone), mostly rotary wing, Flying OR Attacking a target without knowing the outcome: if something is damaged --> icon of the damaged equipment.","side":"Ukraine","color":"#0051CA","description":"0:32-0:35 - An antenna installed in a communications tower is hit with a drone by the Destruction Team unit of Ukraine.","orbat":["\"DESTRUCTION TEAM\" unit of the Border Commandant's Rapid Response Unit of the 5th Border Detachment"],"geolocation":["https://x.com/blinzka/status/2093800100254343348"],"sources":["https://x.com/666_mancer/status/2093684762296619142","https://t.me/destruction_team/198"]}},{"type":"Feature","geometry":{"type":"Point","coordinates":[37.717739,48.494269]},"properties":{"original":{"Date":"2026-08-29","Name":"29 AUG 2026","Faction":"Ukraine","Origin":"UAV","Latitude":"48.494269","Longitude":"37.717739","PlusCode":"8GWVFPV9+P3 Kostyantynivka, Donetsk Oblast, Ukraine","Description":"0:11 210th Assault Regiment 'Berlingo' hits claimed Russian position in Kostiantynivka, Donetsk Oblast","Source":"https://x.com/Bielitzling/status/2097079558612660375, https://t.me/polk_210/7201","Geolocation":"https://x.com/Bielitzling/status/2097079553944354868","Equipment":"","EquipmentItems":"FPV (First Person View) OWAD (One Way Attack Drone)","Units":"","OrbatUnits":"210th Assault Regiment \"Berlingo\"","Id":"a10fa660-f81e-46ca-b1da-a7dda855a176","icon":"/api/icons/0051CA/False/template/111.png"},"source":"geoconfirmed","source_name":"GeoConfirmed","source_url":"https://geoconfirmed.org/map/ukraine","id":"a10fa660-f81e-46ca-b1da-a7dda855a176","date":"2026-08-29","link":"https://geoconfirmed.org/map/ukraine/a10fa660-f81e-46ca-b1da-a7dda855a176","category":"Short Range (<50km) OWAD (One Way Attack Drone), mostly rotary wing, Flying OR Attacking a target without knowing the outcome: if something is damaged --> icon of the damaged equipment.","side":"Ukraine","color":"#0051CA","description":"0:11 210th Assault Regiment 'Berlingo' hits claimed Russian position in Kostiantynivka, Donetsk Oblast","orbat":["210th Assault Regiment \"Berlingo\""],"geolocation":["https://x.com/Bielitzling/status/2097079553944354868"],"sources":["https://x.com/Bielitzling/status/2097079558612660375","https://t.me/polk_210/7201"]}},{"type":"Feature","geometry":{"type":"Point","coordinates":[37.72432,49.363687]},"properties":{"original":{"Date":"2026-08-29","Name":"29 AUG 2026","Faction":"Russia","Origin":"UAV","Latitude":"49.363687","Longitude":"37.72432","PlusCode":"8GXV9P7F+FP Shyikivka, Kharkiv Oblast, Ukraine","Description":"Russian drone drop from the 12th Tank Regiment (of 4th Tank Division) hit claimed Ukrainian position in Shikovka. ","Source":"https://x.com/franfran2424/status/2093851063853973648, https://t.me/msb_company/165","Geolocation":"https://x.com/richardzai38580/status/2093698705618591854","Equipment":"","EquipmentItems":"(Multi-Purpose) Bomber UAV","Units":"","OrbatUnits":"12th Guards Tank Regiment","Id":"1ffeeb67-5c59-4eb6-81ba-c2099ee7b4fc","icon":"/api/icons/E00000/False/template/110.png"},"source":"geoconfirmed","source_name":"GeoConfirmed","source_url":"https://geoconfirmed.org/map/ukraine","id":"1ffeeb67-5c59-4eb6-81ba-c2099ee7b4fc","date":"2026-08-29","link":"https://geoconfirmed.org/map/ukraine/1ffeeb67-5c59-4eb6-81ba-c2099ee7b4fc","category":"Multipurpose Bomber Drone, Flying OR Dropping OR bombing a target without knowing the outcome: if something is damaged --> icon of the damaged equipment.","side":"Russia","color":"#E00000","description":"Russian drone drop from the 12th Tank Regiment (of 4th Tank Division) hit claimed Ukrainian position in Shikovka.","orbat":["12th Guards Tank Regiment"],"geolocation":["https://x.com/richardzai38580/status/2093698705618591854"],"sources":["https://x.com/franfran2424/status/2093851063853973648","https://t.me/msb_company/165"]}},{"type":"Feature","geometry":{"type":"Point","coordinates":[28.865381,45.405429]},"properties":{"original":{"Date":"2026-08-29","Name":"29 AUG 2026","Faction":"Neutral","Origin":"VID","Latitude":"45.405429","Longitude":"28.865381","PlusCode":"8GQCCV48+55 Safiany, Odesa Oblast, Ukraine","Description":"0:23-end - Rough location -  A destroyed civilian grain truck  after a reported Russian 'Shaheed' strike. More damaged trucks in the vicinity.","Source":"Vid, https://x.com/giK1893/status/2093989020581630043, https://t.me/odessa_infonews/96772, ","Geolocation":"https://x.com/giK1893/status/2093989023324819594","Equipment":"(reported)","EquipmentItems":"Truck | Geran/Shahed UNK Type","Units":"","OrbatUnits":"","Id":"7160f3ba-4b5b-470b-acdd-c43a25d27e33","icon":"/api/icons/AC7339/False/template/62.png"},"source":"geoconfirmed","source_name":"GeoConfirmed","source_url":"https://geoconfirmed.org/map/ukraine","id":"7160f3ba-4b5b-470b-acdd-c43a25d27e33","date":"2026-08-29","link":"https://geoconfirmed.org/map/ukraine/7160f3ba-4b5b-470b-acdd-c43a25d27e33","category":"Recently Destroyed/Damaged[Visible in footage] Logistical Trucks (Soft skin OR armoured)","side":"Neutral","color":"#AC7339","description":"0:23-end - Rough location -  A destroyed civilian grain truck  after a reported Russian 'Shaheed' strike. More damaged trucks in the vicinity.","orbat":[],"geolocation":["https://x.com/giK1893/status/2093989023324819594"],"sources":["https://x.com/giK1893/status/2093989020581630043","https://t.me/odessa_infonews/96772"]}},{"type":"Feature","geometry":{"type":"Point","coordinates":[30.171251,50.436899]},"properties":{"original":{"Date":"2026-08-29","Name":"29 AUG 2026","Faction":"Russia","Origin":"VID","Latitude":"50.436899","Longitude":"30.171251","PlusCode":"9G2GC5PC+QG Myla, Kyiv Oblast, Ukraine","Description":"Damaged building of the private institution \"Dobry Dom\" - aftermath of a Russian drone attack on an ammunition depot, which reportedly resulted in the deaths of thirty-four care home residents; transportation of a body bag is visible.","Source":"Vid1, https://x.com/99Dominik_/status/2093710472126042298, https://t.me/FAKTY_ICTV/147938, Vid2, https://x.com/99Dominik_/status/2093710691588882712, https://t.me/u_now/210547, More information, https://www.pravda.com.ua/eng/news/2026/08/29/8050968/, https://x.com/MamedovGyunduz/status/2093961132033593536, https://x.com/ZelenskyyUa/status/2093966472750026909, https://www.dobriydim.com.ua/","Geolocation":"https://x.com/99Dominik_/status/2093709986849272120","Equipment":"","EquipmentItems":"","Units":"","OrbatUnits":"","Id":"da877154-4055-4499-a57c-c7b5904c3948","icon":"/api/icons/E00000/False/template/50.png"},"source":"geoconfirmed","source_name":"GeoConfirmed","source_url":"https://geoconfirmed.org/map/ukraine","id":"da877154-4055-4499-a57c-c7b5904c3948","date":"2026-08-29","link":"https://geoconfirmed.org/map/ukraine/da877154-4055-4499-a57c-c7b5904c3948","category":"Killed or wounded civilian. Potential Warcrime. In the colour of who is assessed as doing the attack/killing.","side":"Russia","color":"#E00000","description":"Damaged building of the private institution \"Dobry Dom\" - aftermath of a Russian drone attack on an ammunition depot, which reportedly resulted in the deaths of thirty-four care home residents; transportation of a body bag is visible.","orbat":[],"geolocation":["https://x.com/99Dominik_/status/2093709986849272120"],"sources":["https://x.com/99Dominik_/status/2093710472126042298","https://t.me/FAKTY_ICTV/147938","https://x.com/99Dominik_/status/2093710691588882712","https://t.me/u_now/210547","https://www.pravda.com.ua/eng/news/2026/08/29/8050968/","https://x.com/MamedovGyunduz/status/2093961132033593536","https://x.com/ZelenskyyUa/status/2093966472750026909","https://www.dobriydim.com.ua/"]}},{"type":"Feature","geometry":{"type":"Point","coordinates":[35.882077,47.586163]},"properties":{"original":{"Date":"2026-08-29","Name":"29 AUG 2026","Faction":"Russia","Origin":"UAV","Latitude":"47.586163","Longitude":"35.882077","PlusCode":"8GVQHVPH+GW Chervona Krynytsya, Zaporizhia Oblast, Ukraine","Description":"0:12-End, 2nd (3rd) explosion - reportedly resulted from Russian airstrikes on a treeline next to a Ukrainian defensive trench position.","Source":"https://x.com/franfran2424/status/2093650538965417992, https://t.me/ZS42MSD/8866","Geolocation":"https://x.com/richardzai38580/status/2093616935254606018","Equipment":"(Reported)","EquipmentItems":"Fugasnaya Aviatsionnaya Bomba (FAB) | Reconnaissance UAV","Units":"","OrbatUnits":"Russian Aerospace Forces (VKS) | 42nd Guards Motorized Rifle Division","Id":"bf60fa92-e59a-40fd-8740-cdfe25c9eb7d","icon":"/api/icons/E00000/False/template/10.png"},"source":"geoconfirmed","source_name":"GeoConfirmed","source_url":"https://geoconfirmed.org/map/ukraine","id":"bf60fa92-e59a-40fd-8740-cdfe25c9eb7d","date":"2026-08-29","link":"https://geoconfirmed.org/map/ukraine/bf60fa92-e59a-40fd-8740-cdfe25c9eb7d","category":"Shelling by artillery or aerial bombings - Location of the shelling, colour of who is shelling; Brown = UXO","side":"Russia","color":"#E00000","description":"0:12-End, 2nd (3rd) explosion - reportedly resulted from Russian airstrikes on a treeline next to a Ukrainian defensive trench position.","orbat":["Russian Aerospace Forces (VKS)","42nd Guards Motorized Rifle Division"],"geolocation":["https://x.com/richardzai38580/status/2093616935254606018"],"sources":["https://x.com/franfran2424/status/2093650538965417992","https://t.me/ZS42MSD/8866"]}},{"type":"Feature","geometry":{"type":"Point","coordinates":[28.864327,45.404065]},"properties":{"original":{"Date":"2026-08-29","Name":"29 AUG 2026","Faction":"Neutral","Origin":"VID","Latitude":"45.404065","Longitude":"28.864327","PlusCode":"8GQCCV37+JP Safiany, Odesa Oblast, Ukraine","Description":"0:00-0:04 - Rough location -  At least one destroyed civilian grain truck  after a reported Russian 'Shaheed' strike. More damaged trucks in the vicinity.","Source":"Vid, https://x.com/giK1893/status/2093989020581630043, https://t.me/odessa_infonews/96772, ","Geolocation":"https://x.com/giK1893/status/2093989023324819594","Equipment":"(reported)","EquipmentItems":"Truck | Geran/Shahed UNK Type","Units":"","OrbatUnits":"","Id":"657fbaf7-ee6f-486e-a327-fdd60096d34d","icon":"/api/icons/AC7339/False/template/62.png"},"source":"geoconfirmed","source_name":"GeoConfirmed","source_url":"https://geoconfirmed.org/map/ukraine","id":"657fbaf7-ee6f-486e-a327-fdd60096d34d","date":"2026-08-29","link":"https://geoconfirmed.org/map/ukraine/657fbaf7-ee6f-486e-a327-fdd60096d34d","category":"Recently Destroyed/Damaged[Visible in footage] Logistical Trucks (Soft skin OR armoured)","side":"Neutral","color":"#AC7339","description":"0:00-0:04 - Rough location -  At least one destroyed civilian grain truck  after a reported Russian 'Shaheed' strike. More damaged trucks in the vicinity.","orbat":[],"geolocation":["https://x.com/giK1893/status/2093989023324819594"],"sources":["https://x.com/giK1893/status/2093989020581630043","https://t.me/odessa_infonews/96772"]}}]}