{"type":"FeatureCollection","features":[{"type":"Feature","geometry":{"type":"MultiPolygon","coordinates":[[[[37.90924,48.80007],[37.9015,48.80534],[37.90326,48.81213],[37.89729,48.81575],[37.89699,48.81911],[37.89035,48.82677],[37.90716,48.83304],[37.91785,48.81009],[37.92891,48.81154],[37.93561,48.80185],[37.94044,48.79842],[37.93738,48.79601],[37.92941,48.79792],[37.92041,48.79508],[37.90924,48.80007]]],[[[37.81225,48.76962],[37.826,48.78223],[37.84205,48.78353],[37.83502,48.77946],[37.81858,48.76232],[37.81225,48.76962]]],[[[37.7944,49.06859],[37.79184,49.07079],[37.81453,49.07006],[37.81454,49.06958],[37.7944,49.06859]]],[[[37.78175,48.6279],[37.77869,48.64432],[37.77048,48.65276],[37.75973,48.65433],[37.75483,48.65608],[37.75173,48.66089],[37.75394,48.66448],[37.78182,48.67337],[37.78449,48.65666],[37.79071,48.64597],[37.78467,48.63351],[37.788,48.62353],[37.78175,48.6279]]],[[[37.04792,48.35725],[37.06992,48.36156],[37.08477,48.36258],[37.08589,48.3578],[37.07913,48.35621],[37.07069,48.35179],[37.06842,48.35137],[37.0675,48.34277],[37.06285,48.34002],[37.04084,48.34923],[37.04792,48.35725]]]]},"properties":{"source":"deepstate","source_name":"DeepStateMap","source_url":"https://deepstatemap.live/en","category":"gained","category_label":"Newly Russian-occupied","period":"7d","compared_with":"2026-09-18","snapshot_time":"2026-09-25","area_km2_approx":18.0}},{"type":"Feature","geometry":{"type":"MultiPolygon","coordinates":[[[[37.78359,49.07106],[37.74742,49.06316],[37.72204,49.06484],[37.71305,49.0691],[37.72074,49.08239],[37.72225,49.09333],[37.71411,49.10225],[37.71288,49.11284],[37.71739,49.12017],[37.72086,49.12788],[37.73232,49.12945],[37.7473,49.12972],[37.73095,49.11945],[37.72882,49.10849],[37.73666,49.10383],[37.7417,49.10796],[37.75293,49.11119],[37.77348,49.10778],[37.79007,49.09939],[37.77272,49.09231],[37.77481,49.09116],[37.78257,49.09091],[37.78847,49.08418],[37.78398,49.07756],[37.79184,49.07079],[37.78359,49.07106]]],[[[37.61125,49.78401],[37.6122,49.79171],[37.6057,49.79574],[37.61177,49.80177],[37.61499,49.80308],[37.61859,49.80455],[37.62463,49.81448],[37.61705,49.81665],[37.61965,49.82324],[37.63424,49.82411],[37.63853,49.81798],[37.64754,49.81439],[37.64735,49.81388],[37.64343,49.81527],[37.63699,49.80987],[37.63133,49.80181],[37.62847,49.80817],[37.62463,49.80695],[37.62674,49.80062],[37.61503,49.80282],[37.61557,49.79956],[37.62936,49.78972],[37.62712,49.78334],[37.62327,49.77672],[37.61125,49.78401]]]]},"properties":{"source":"deepstate","source_name":"DeepStateMap","source_url":"https://deepstatemap.live/en","category":"lost","category_label":"No longer Russian-occupied","period":"7d","compared_with":"2026-09-18","snapshot_time":"2026-09-25","area_km2_approx":31.0}}]}