{"type":"FeatureCollection","features":[{"type":"Feature","geometry":{"type":"Point","coordinates":[39.600556,48.773556]},"properties":{"original":{"id":47460,"type":"Transport","model":"Ural-4320","status":"Destroyed","lost_by":"Russia","date":"2026-10-07","nearest_location":"Stepove, Shchastia raion","geo":"48.773556,39.600556","unit":null,"tags":"Loitering"},"source":"warspotting","source_name":"WarSpotting","source_url":"https://ukr.warspotting.net/","id":47460,"date":"2026-10-07","link":"https://ukr.warspotting.net/view/47460/","category":"Transport","side":"Lost by Russia","color":"#E00000","description":"Ural-4320 · Destroyed · near Stepove, Shchastia raion · tags: Loitering","orbat":[]}},{"type":"Feature","geometry":{"type":"Point","coordinates":[39.623411,48.810556]},"properties":{"original":{"id":47462,"type":"Transport","model":"'Ulan-2' all-terrain vehicle","status":"Destroyed","lost_by":"Russia","date":"2026-10-07","nearest_location":"Shyrokyi, Shchastia raion","geo":"48.810556,39.623411","unit":null,"tags":"Loitering"},"source":"warspotting","source_name":"WarSpotting","source_url":"https://ukr.warspotting.net/","id":47462,"date":"2026-10-07","link":"https://ukr.warspotting.net/view/47462/","category":"Transport","side":"Lost by Russia","color":"#E00000","description":"'Ulan-2' all-terrain vehicle · Destroyed · near Shyrokyi, Shchastia raion · tags: Loitering","orbat":[]}}]}