{"type":"FeatureCollection","features":[{"type":"Feature","geometry":{"type":"Point","coordinates":[32.805482,46.611094]},"properties":{"source":"warspotting","source_name":"WarSpotting","source_url":"https://ukr.warspotting.net/","id":47310,"date":"2026-08-13","link":"https://ukr.warspotting.net/view/47310/","category":"Infantry mobility vehicles","side":"Lost by Russia","color":"#E00000","description":"AMN-233114 'Tigr-M' with 'Arbalet-DM' · Destroyed · near Sahy, Kherson raion · tags: Cope cage","orbat":[]}}]}