{"type":"FeatureCollection","features":[{"type":"Feature","geometry":{"type":"Point","coordinates":[38.21051,46.68037]},"properties":{"source":"warspotting","source_name":"WarSpotting","source_url":"https://ukr.warspotting.net/","id":47331,"date":"2026-08-30","link":"https://ukr.warspotting.net/view/47331/","category":"Airplanes","side":"Lost by Russia","color":"#E00000","description":"L-39 Albatros · Destroyed · near Yeysk airbase, Yeysk · tags: Loitering","orbat":["190th Training Composite Aviation Regiment"]}}]}