{"type":"FeatureCollection","features":[{"type":"Feature","geometry":{"type":"Polygon","coordinates":[[[37.78472,48.6217],[37.78528,48.62415],[37.78215,48.62721],[37.77919,48.64139],[37.77404,48.64749],[37.76848,48.65303],[37.76327,48.65421],[37.75918,48.65383],[37.75721,48.65441],[37.75161,48.65733],[37.75165,48.66264],[37.75388,48.66542],[37.76452,48.66704],[37.77713,48.67079],[37.77954,48.67467],[37.78585,48.67637],[37.78648,48.68926],[37.79622,48.68852],[37.79571,48.67999],[37.785,48.67492],[37.78224,48.67338],[37.78344,48.66596],[37.78567,48.6562],[37.78719,48.655],[37.78706,48.65284],[37.78642,48.65157],[37.7902,48.64363],[37.79191,48.64128],[37.79396,48.63926],[37.79981,48.63737],[37.80045,48.63065],[37.7924,48.62163],[37.7815,48.6205],[37.78143,48.62089],[37.78472,48.6217]]]},"properties":{"source":"ukrdaily","source_name":"UkrDailyUpdate","source_url":"https://map.ukrdailyupdate.com/","category":"gained","category_label":"Newly Russian-occupied","period":"1d","compared_with":"2026-09-21","snapshot_time":"2026-09-22","area_km2_approx":8.9}}]}