{"type":"FeatureCollection","features":[{"type":"Feature","geometry":{"type":"MultiPolygon","coordinates":[[[[37.78472,48.6217],[37.78528,48.62415],[37.78215,48.62721],[37.77919,48.64139],[37.77404,48.64749],[37.76848,48.65303],[37.76327,48.65421],[37.75918,48.65383],[37.75721,48.65441],[37.75161,48.65733],[37.75165,48.66264],[37.75388,48.66542],[37.76452,48.66704],[37.77713,48.67079],[37.77954,48.67467],[37.78585,48.67637],[37.78648,48.68926],[37.79622,48.68852],[37.79571,48.67999],[37.785,48.67492],[37.78224,48.67338],[37.78344,48.66596],[37.78567,48.6562],[37.78719,48.655],[37.78706,48.65284],[37.78642,48.65157],[37.7902,48.64363],[37.79191,48.64128],[37.79396,48.63926],[37.79981,48.63737],[37.80045,48.63065],[37.7924,48.62163],[37.7815,48.6205],[37.78143,48.62089],[37.78472,48.6217]]],[[[37.17003,48.37965],[37.17409,48.38983],[37.18527,48.39236],[37.18718,48.40053],[37.1955,48.40153],[37.19515,48.40479],[37.19962,48.40612],[37.20263,48.40506],[37.21839,48.40581],[37.213,48.39606],[37.18889,48.39327],[37.19134,48.38378],[37.18855,48.37978],[37.17653,48.37861],[37.17003,48.37965]]],[[[37.03055,48.26721],[37.05666,48.26961],[37.05687,48.26305],[37.05047,48.26165],[37.05236,48.25459],[37.05112,48.25392],[37.05113,48.2539],[37.04611,48.25121],[37.03622,48.25584],[37.03405,48.25961],[37.03209,48.25982],[37.03055,48.26721]]]]},"properties":{"source":"ukrdaily","source_name":"UkrDailyUpdate","source_url":"https://map.ukrdailyupdate.com/","category":"gained","category_label":"Newly Russian-occupied","period":"7d","compared_with":"2026-09-15","snapshot_time":"2026-09-22","area_km2_approx":15.5}},{"type":"Feature","geometry":{"type":"Polygon","coordinates":[[[37.61968,49.81595],[37.62118,49.82055],[37.62735,49.82058],[37.63014,49.82266],[37.63242,49.82342],[37.63415,49.82264],[37.62939,49.81656],[37.62461,49.81492],[37.61968,49.81595]]]},"properties":{"source":"ukrdaily","source_name":"UkrDailyUpdate","source_url":"https://map.ukrdailyupdate.com/","category":"lost","category_label":"No longer Russian-occupied","period":"7d","compared_with":"2026-09-15","snapshot_time":"2026-09-22","area_km2_approx":0.5}}]}