{"type":"FeatureCollection","features":[{"type":"Feature","geometry":null,"properties":{"source":"ua_mod","source_name":"Ministry of Defence of Ukraine","group":"official_ua","id":16073,"posted_utc":"2026-08-22T08:00:20+00:00","link":"https://t.me/ministry_of_defense_ua/16073","text":"❓ Мотиваційний контракт чи служба за мобілізацією?\n❗️ Головні відмінності:\n• Контракт має чіткий строк — 6, 10, 14 або 24 місяці, після якого гарантоване звільнення.\n• За контрактом можна обрати посаду й підрозділ, тоді як мобілізованого призначають відповідно до потреб армії.\n• За перший мотиваційний контракт передбачена одноразова виплата від 26 624 грн.\n• Після завершення контракту гарантована відстрочка від повторної мобілізації, тривалість якої залежить від попередньої служби та участі в боях.\n• Для чинних військових перехід на такий контракт оформлюється спрощено.\nУмови нових контрактів дивіться на сайті army.gov.ua або телефонуйте — 1519.\nБоронити державу – це обов’язок. Як виконувати обов’язок – це ваш вибір. 🫡","links":["http://army.gov.ua/"],"original_html":"<i class=\"emoji\" style=\"background-image:url('//telegram.org/img/emoji/40/E29D93.png')\"><b>❓</b></i> <b>Мотиваційний контракт чи служба за мобілізацією?</b><br/>&nbsp;<br/><i class=\"emoji\" style=\"background-image:url('//telegram.org/img/emoji/40/E29D97.png')\"><b>❗️</b></i> Головні відмінності:<br/>• Контракт має чіткий строк — 6, 10, 14 або 24 місяці, після якого гарантоване звільнення.<br/>• За контрактом можна обрати посаду й підрозділ, тоді як мобілізованого призначають відповідно до потреб армії.<br/>• За перший мотиваційний контракт передбачена одноразова виплата від 26 624 грн.<br/>• Після завершення контракту гарантована відстрочка від повторної мобілізації, тривалість якої залежить від попередньої служби та участі в боях.<br/>• Для чинних військових перехід на такий контракт оформлюється спрощено.<br/><br/>Умови нових контрактів дивіться на сайті <a href=\"http://army.gov.ua/\" target=\"_blank\" rel=\"noopener\" onclick=\"return confirm('Open this link?\\n\\n'+this.href);\"><u>army.gov.ua</u></a> або телефонуйте — 1519.<br/>&nbsp;<br/>Боронити державу – це обов’язок. Як виконувати обов’язок – це ваш вибір. <i class=\"emoji\" style=\"background-image:url('//telegram.org/img/emoji/40/F09FABA1.png')\"><b>🫡</b></i>"}},{"type":"Feature","geometry":null,"properties":{"source":"ua_mod","source_name":"Ministry of Defence of Ukraine","group":"official_ua","id":16074,"posted_utc":"2026-08-22T09:02:19+00:00","link":"https://t.me/ministry_of_defense_ua/16074","text":"⚙️ Увечері 22 серпня Армія+ та частина сервісів Резерв+ тимчасово не працюватимуть.\nСьогодні, 22 серпня, з 20:00 Мінцифри проводитиме технічні роботи в системі «Трембіта». На цей час буде тимчасово недоступна більшість державних цифрових сервісів.\nЩо це означає для користувачів сервісів Міноборони:\n❗️У Резерв+ можна буде переглянути лише раніше оновлений електронний військово-обліковий документ. Інші функції, які потребують обміну даними з реєстрами, тимчасово не працюватимуть.\n❗️Армія+ буде недоступна.\nТехнічні роботи заплановані з 20:00 до 22:00, однак відновлення всіх сервісів після їх завершення може потребувати додаткового часу.\nТому, якщо сьогодні ввечері вам можуть знадобитися документи, подбайте про це завчасно та за можливості майте із собою паперові документи.\nПро відновлення роботи сервісів повідомимо додатково.","links":[],"original_html":"<b><i class=\"emoji\" style=\"background-image:url('//telegram.org/img/emoji/40/E29A99.png')\"><b>⚙️</b></i> Увечері 22 серпня Армія+ та частина сервісів Резерв+ тимчасово не працюватимуть.</b><br/><br/>Сьогодні, <b>22 серпня, з 20:00</b> Мінцифри проводитиме технічні роботи в системі «Трембіта». На цей час буде тимчасово недоступна більшість державних цифрових сервісів.<br/><br/>Що це означає для користувачів сервісів Міноборони:<br/><br/><i class=\"emoji\" style=\"background-image:url('//telegram.org/img/emoji/40/E29D97.png')\"><b>❗️</b></i>У <b>Резерв+</b> можна буде переглянути лише <b>раніше оновлений електронний військово-обліковий документ</b>. Інші функції, які потребують обміну даними з реєстрами, тимчасово не працюватимуть.<br/><br/><i class=\"emoji\" style=\"background-image:url('//telegram.org/img/emoji/40/E29D97.png')\"><b>❗️</b></i><b>Армія+ буде недоступна.</b><br/><br/>Технічні роботи заплановані <b>з 20:00 до 22:00</b>, однак відновлення всіх сервісів після їх завершення може потребувати додаткового часу.<br/><br/>Тому, якщо сьогодні ввечері вам можуть знадобитися документи, <b>подбайте про це завчасно та за можливості майте із собою паперові документи</b>.<br/><br/>Про відновлення роботи сервісів повідомимо додатково."}},{"type":"Feature","geometry":null,"properties":{"source":"ua_mod","source_name":"Ministry of Defence of Ukraine","group":"official_ua","id":16075,"posted_utc":"2026-08-22T12:44:56+00:00","link":"https://t.me/ministry_of_defense_ua/16075","text":"🔥 Сили оборони відкрили рахунок знищеним логістичним хабам російської компанії Ozon.\nСистематичні удари по центрах зберігання товарів подвійного призначення ускладнюють логістику противника і негативно впливають на економіку рф загалом.\nПісля того як українські підрозділи уразили 15 найбільших логістичних хабів Wildberries, настала черга Ozon.\nНаші далекобійні санкції працюють — ефектно та ефективно.","links":[],"original_html":"<i class=\"emoji\" style=\"background-image:url('//telegram.org/img/emoji/40/F09F94A5.png')\"><b>🔥</b></i> <b>Сили оборони відкрили рахунок знищеним логістичним хабам російської компанії Ozon.</b><br/><br/>Систематичні удари по центрах зберігання товарів подвійного призначення ускладнюють логістику противника і негативно впливають на економіку рф загалом.<br/><br/>Після того як українські підрозділи уразили 15 найбільших логістичних хабів Wildberries, настала черга Ozon.<br/><br/>Наші далекобійні санкції працюють — ефектно та ефективно."}}]}