{"type":"FeatureCollection","features":[{"type":"Feature","geometry":{"type":"Polygon","coordinates":[[[37.80855,48.68064],[37.79708,48.67849],[37.79571,48.67999],[37.79622,48.68852],[37.78648,48.68926],[37.78674,48.69113],[37.79498,48.69059],[37.79742,48.69308],[37.80359,48.69373],[37.80402,48.69223],[37.81011,48.68755],[37.80845,48.68638],[37.80824,48.68261],[37.80855,48.68064]]]},"properties":{"source":"ukrdaily","source_name":"UkrDailyUpdate","source_url":"https://map.ukrdailyupdate.com/","category":"gained","category_label":"Newly Russian-occupied","period":"1d","compared_with":"2026-07-28","snapshot_time":"2026-07-29","area_km2_approx":1.5}}]}