{"type":"FeatureCollection","features":[{"type":"Feature","geometry":{"type":"Point","coordinates":[37.332857,48.325482]},"properties":{"original":{"id":47334,"type":"Infantry fighting vehicles","model":"MT-LB(V)","status":"Destroyed","lost_by":"Russia","date":"2026-09-24","nearest_location":"Novoekonomichne, Pokrovsk raion","geo":"48.325482,37.332857","unit":null,"tags":"Cope cage, Additional armour"},"source":"warspotting","source_name":"WarSpotting","source_url":"https://ukr.warspotting.net/","id":47334,"date":"2026-09-24","link":"https://ukr.warspotting.net/view/47334/","category":"Infantry fighting vehicles","side":"Lost by Russia","color":"#E00000","description":"MT-LB(V) · Destroyed · near Novoekonomichne, Pokrovsk raion · tags: Cope cage, Additional armour","orbat":[]}}]}