{"type":"FeatureCollection","features":[{"type":"Feature","geometry":{"type":"MultiPolygon","coordinates":[[[[37.09387,48.36543],[37.09322,48.37167],[37.10765,48.37903],[37.10284,48.36528],[37.08477,48.36258],[37.07496,48.36191],[37.07491,48.36237],[37.09387,48.36543]]],[[[37.10765,48.37903],[37.10456,48.38742],[37.11152,48.3883],[37.11864,48.3807],[37.1267,48.37573],[37.12652,48.37539],[37.11658,48.37973],[37.10765,48.37903]]],[[[37.04431,48.35651],[37.04205,48.36105],[37.05001,48.36868],[37.06992,48.36156],[37.04792,48.35725],[37.04128,48.34973],[37.04113,48.34983],[37.04431,48.35651]]]]},"properties":{"source":"deepstate","source_name":"DeepStateMap","source_url":"https://deepstatemap.live/en","category":"gained","category_label":"Newly Russian-occupied","period":"1d","compared_with":"2026-09-28","snapshot_time":"2026-09-29","area_km2_approx":3.4}},{"type":"Feature","geometry":{"type":"Polygon","coordinates":[[[37.61481,49.8001],[37.61492,49.80031],[37.6217,49.79765],[37.62938,49.79698],[37.63612,49.79469],[37.62936,49.78972],[37.61481,49.8001]]]},"properties":{"source":"deepstate","source_name":"DeepStateMap","source_url":"https://deepstatemap.live/en","category":"lost","category_label":"No longer Russian-occupied","period":"1d","compared_with":"2026-09-28","snapshot_time":"2026-09-29","area_km2_approx":0.6}}]}