{"type":"FeatureCollection","features":[{"type":"Feature","geometry":{"type":"MultiPolygon","coordinates":[[[[37.83141,48.76001],[37.83335,48.76157],[37.83769,48.76383],[37.8419,48.76326],[37.84636,48.76167],[37.8631,48.76199],[37.87951,48.76552],[37.88029,48.76967],[37.87226,48.78197],[37.88022,48.78213],[37.89375,48.77827],[37.90278,48.77065],[37.91985,48.78545],[37.92097,48.79452],[37.92112,48.79452],[37.9236,48.78056],[37.93257,48.77446],[37.92556,48.7681],[37.91895,48.76952],[37.91639,48.76956],[37.91236,48.77066],[37.90957,48.77123],[37.90781,48.7697],[37.90338,48.76475],[37.90352,48.76349],[37.90116,48.76153],[37.89073,48.76077],[37.88007,48.75821],[37.86478,48.75559],[37.85675,48.75549],[37.8533,48.75515],[37.84905,48.75436],[37.84687,48.75501],[37.84094,48.75349],[37.83817,48.75306],[37.83453,48.75175],[37.83141,48.76001]]],[[[37.85564,48.83199],[37.84569,48.83199],[37.84011,48.83312],[37.84037,48.83718],[37.84886,48.83679],[37.86054,48.8391],[37.87092,48.83868],[37.87144,48.83631],[37.87054,48.83221],[37.86745,48.828],[37.85788,48.82817],[37.85564,48.83199]]],[[[37.80803,48.72447],[37.81155,48.72872],[37.811,48.7304],[37.81122,48.73253],[37.81292,48.73448],[37.81723,48.7374],[37.81167,48.73939],[37.81407,48.74233],[37.8216,48.73972],[37.82079,48.73882],[37.8216,48.73797],[37.83302,48.73301],[37.83352,48.73234],[37.8333,48.73113],[37.8313,48.72806],[37.83092,48.72376],[37.83495,48.7224],[37.83602,48.7198],[37.83911,48.71658],[37.84383,48.71431],[37.86328,48.70667],[37.86376,48.70311],[37.84944,48.69362],[37.84781,48.69407],[37.84782,48.69408],[37.84091,48.69606],[37.8356,48.69696],[37.8356,48.69695],[37.83416,48.69721],[37.83167,48.69911],[37.83227,48.70285],[37.8138,48.70991],[37.82005,48.7196],[37.8176,48.72025],[37.7982,48.72266],[37.79819,48.72283],[37.80803,48.72447]]],[[[37.77003,48.54363],[37.77004,48.54369],[37.78899,48.54633],[37.79606,48.55042],[37.7964,48.56012],[37.79581,48.56412],[37.81094,48.5646],[37.81277,48.56732],[37.81456,48.56953],[37.81667,48.57154],[37.82127,48.57304],[37.81766,48.5776],[37.81967,48.5813],[37.81909,48.58255],[37.81653,48.58402],[37.81529,48.58656],[37.81405,48.5878],[37.81422,48.58878],[37.81633,48.58934],[37.81836,48.58857],[37.8209,48.58882],[37.82415,48.58817],[37.82556,48.58688],[37.8242,48.58526],[37.82962,48.58073],[37.83024,48.57605],[37.83181,48.572],[37.82779,48.56931],[37.82398,48.56729],[37.8226,48.5659],[37.82342,48.56475],[37.82466,48.56347],[37.83114,48.55801],[37.82868,48.55315],[37.82321,48.54749],[37.82306,48.54577],[37.79816,48.538],[37.7744,48.54263],[37.77003,48.54363]]],[[[37.08492,48.36281],[37.10325,48.36532],[37.10449,48.35968],[37.14651,48.3643],[37.16221,48.36384],[37.17118,48.36079],[37.18341,48.36136],[37.18344,48.37228],[37.17739,48.37411],[37.17653,48.37861],[37.18859,48.37978],[37.18422,48.37343],[37.19012,48.36986],[37.19488,48.36505],[37.19342,48.36166],[37.18566,48.3609],[37.1805,48.35268],[37.16073,48.35098],[37.14479,48.3521],[37.14362,48.35733],[37.10431,48.35359],[37.09886,48.35519],[37.09568,48.35499],[37.09499,48.35604],[37.09272,48.35621],[37.09057,48.35681],[37.08525,48.35735],[37.08492,48.36281]]],[[[37.18716,50.35891],[37.18641,50.35348],[37.17315,50.34762],[37.15985,50.34028],[37.1571,50.33524],[37.14466,50.33502],[37.14062,50.3428],[37.14011,50.34932],[37.13819,50.36108],[37.14882,50.356],[37.18315,50.36346],[37.18716,50.35891]]],[[[36.16191,47.65173],[36.17016,47.65393],[36.16381,47.66399],[36.16037,47.67053],[36.16654,47.67268],[36.17064,47.67076],[36.17755,47.66147],[36.18568,47.66349],[36.1898,47.6562],[36.19616,47.65663],[36.19829,47.65293],[36.19986,47.64463],[36.19812,47.64364],[36.19784,47.64056],[36.19587,47.63743],[36.18471,47.63477],[36.17598,47.64499],[36.17265,47.64516],[36.16191,47.65173]]],[[[36.1058,47.59971],[36.10363,47.61264],[36.09999,47.6214],[36.09939,47.62754],[36.1027,47.63041],[36.10471,47.63185],[36.11857,47.63373],[36.12463,47.63665],[36.13854,47.63994],[36.14573,47.64219],[36.14922,47.6477],[36.15456,47.65097],[36.1631,47.64173],[36.13937,47.633],[36.13388,47.62742],[36.13317,47.62457],[36.12718,47.62071],[36.12757,47.61063],[36.12915,47.60336],[36.13108,47.59225],[36.10852,47.58919],[36.1058,47.59971]]],[[[36.06478,47.55255],[36.07375,47.55101],[36.07465,47.54971],[36.0649,47.52458],[36.05331,47.52589],[36.06478,47.55255]]],[[[35.38522,50.69207],[35.3852,50.69202],[35.38306,50.6925],[35.37966,50.69234],[35.37695,50.69267],[35.37685,50.69356],[35.37726,50.69441],[35.3798,50.69569],[35.38018,50.69738],[35.37885,50.69932],[35.38466,50.70063],[35.38511,50.70205],[35.38737,50.70157],[35.38783,50.69811],[35.38348,50.69665],[35.3811,50.69482],[35.38522,50.69207]]]]},"properties":{"source":"ukrdaily","source_name":"UkrDailyUpdate","source_url":"https://map.ukrdailyupdate.com/","category":"gained","category_label":"Russian advance: became occupied","period":"7d","compared_with":"2026-08-26","snapshot_time":"2026-09-02","area_km2_approx":64.1}},{"type":"Feature","geometry":{"type":"MultiPolygon","coordinates":[[[[37.90396,48.8992],[37.88615,48.90383],[37.88667,48.907],[37.89824,48.9044],[37.90062,48.90251],[37.90551,48.90162],[37.91576,48.89814],[37.9157,48.89787],[37.90396,48.8992]]],[[[37.77503,48.63285],[37.78255,48.63328],[37.78336,48.63022],[37.783,48.62728],[37.77586,48.62636],[37.77503,48.63285]]],[[[37.69813,49.05858],[37.69176,49.06047],[37.67753,49.06615],[37.67427,49.07107],[37.69171,49.08149],[37.70345,49.07935],[37.70697,49.07794],[37.70495,49.07367],[37.7019,49.07041],[37.69907,49.0594],[37.69813,49.05858]]],[[[37.59194,49.81222],[37.60707,49.81203],[37.61012,49.81045],[37.61445,49.8066],[37.61106,49.80364],[37.60948,49.79965],[37.59512,49.7973],[37.59286,49.80423],[37.59194,49.81222]]],[[[35.35828,50.90028],[35.34883,50.90618],[35.34302,50.91342],[35.35547,50.9111],[35.36109,50.90978],[35.3653,50.90534],[35.36766,50.90123],[35.36676,50.89979],[35.36328,50.89931],[35.36248,50.89633],[35.35828,50.90028]]],[[[35.32809,50.91484],[35.3211,50.91262],[35.32054,50.91665],[35.31745,50.92152],[35.3189,50.92895],[35.3249,50.9169],[35.33061,50.9158],[35.32809,50.91484]]],[[[35.29954,50.93035],[35.29024,50.93167],[35.29479,50.93951],[35.29803,50.93598],[35.30357,50.93379],[35.30851,50.93235],[35.29954,50.93035]]]]},"properties":{"source":"ukrdaily","source_name":"UkrDailyUpdate","source_url":"https://map.ukrdailyupdate.com/","category":"lost","category_label":"Ukrainian advance: became Ukrainian-held","period":"7d","compared_with":"2026-08-26","snapshot_time":"2026-09-02","area_km2_approx":8.9}},{"type":"Feature","geometry":{"type":"MultiPolygon","coordinates":[[[[37.773,49.14306],[37.79703,49.14963],[37.78468,49.16014],[37.78096,49.16536],[37.77337,49.16861],[37.76547,49.17268],[37.76448,49.1742],[37.75993,49.17667],[37.76023,49.17961],[37.76161,49.18006],[37.76397,49.17986],[37.77036,49.18073],[37.78264,49.17779],[37.81036,49.17218],[37.81546,49.17156],[37.81774,49.17808],[37.82234,49.1718],[37.83297,49.17659],[37.83502,49.17494],[37.83709,49.17462],[37.84948,49.1727],[37.84989,49.17108],[37.84925,49.16836],[37.85194,49.16688],[37.85619,49.16566],[37.86114,49.16695],[37.86212,49.16918],[37.86144,49.17051],[37.86145,49.17051],[37.85794,49.17741],[37.85751,49.1772],[37.8562,49.17817],[37.85545,49.18091],[37.85345,49.18115],[37.85128,49.18053],[37.85041,49.18113],[37.84535,49.18247],[37.84451,49.18485],[37.85186,49.18554],[37.8583,49.18476],[37.86264,49.18401],[37.86549,49.18679],[37.86863,49.18804],[37.8709,49.19171],[37.8809,49.19204],[37.88428,49.19355],[37.88614,49.19862],[37.88523,49.20072],[37.88647,49.20394],[37.88934,49.20345],[37.89056,49.20753],[37.88931,49.2135],[37.88944,49.22479],[37.88779,49.22494],[37.88498,49.23045],[37.88678,49.23084],[37.88908,49.22688],[37.89469,49.22585],[37.898,49.22399],[37.92179,49.22658],[37.92235,49.22547],[37.92476,49.22328],[37.92713,49.22217],[37.9282,49.21948],[37.93454,49.21167],[37.93532,49.20074],[37.93403,49.19576],[37.9352,49.19214],[37.93034,49.19083],[37.92476,49.18646],[37.92416,49.18068],[37.92545,49.17662],[37.92102,49.165],[37.91988,49.15895],[37.92074,49.158],[37.9204,49.15529],[37.91945,49.15288],[37.91931,49.14816],[37.91953,49.14575],[37.91856,49.14043],[37.91643,49.13936],[37.9123,49.13919],[37.90416,49.13514],[37.90203,49.13393],[37.89364,49.13226],[37.88855,49.12964],[37.88313,49.12953],[37.87741,49.12865],[37.87348,49.12781],[37.84838,49.12398],[37.83475,49.12379],[37.82765,49.12433],[37.80413,49.12414],[37.80025,49.12439],[37.7948,49.12573],[37.79059,49.12735],[37.78384,49.13253],[37.77615,49.14019],[37.76593,49.14344],[37.76599,49.14371],[37.773,49.14306]]],[[[37.90289,49.08313],[37.89961,49.08315],[37.88738,49.07868],[37.87762,49.07665],[37.8708,49.07296],[37.86989,49.0717],[37.8662,49.07277],[37.86538,49.07173],[37.86377,49.07166],[37.8628,49.07863],[37.86653,49.08643],[37.88293,49.09133],[37.88976,49.09296],[37.89454,49.09228],[37.89935,49.08773],[37.90701,49.08425],[37.90289,49.08313]]],[[[37.79155,48.6332],[37.78949,48.63836],[37.7902,48.64363],[37.79191,48.64128],[37.79396,48.63926],[37.79981,48.63737],[37.80045,48.63065],[37.7924,48.62163],[37.79155,48.6332]]],[[[37.64868,49.83032],[37.66402,49.8375],[37.66749,49.83383],[37.66907,49.82881],[37.66868,49.82063],[37.67049,49.81897],[37.67318,49.81567],[37.67041,49.81255],[37.66588,49.80877],[37.66143,49.80857],[37.65777,49.81318],[37.64751,49.81515],[37.63898,49.8179],[37.63633,49.81994],[37.63536,49.82168],[37.63415,49.82264],[37.63242,49.82342],[37.64868,49.83032]]],[[[37.66051,49.85096],[37.64983,49.85262],[37.64867,49.85482],[37.64397,49.85959],[37.65373,49.85862],[37.67095,49.85392],[37.66884,49.84904],[37.6645,49.84708],[37.66051,49.85096]]],[[[37.60854,49.81687],[37.60856,49.81686],[37.60899,49.81907],[37.6103,49.82162],[37.61208,49.82567],[37.62237,49.82441],[37.63242,49.82342],[37.63014,49.82266],[37.62735,49.82058],[37.62118,49.82055],[37.61968,49.81595],[37.62461,49.81492],[37.62119,49.80987],[37.61719,49.81083],[37.60707,49.81203],[37.60827,49.81538],[37.60854,49.81687]]]]},"properties":{"source":"ukrdaily","source_name":"UkrDailyUpdate","source_url":"https://map.ukrdailyupdate.com/","category":"occupied_to_contested","category_label":"Occupied became contested","period":"7d","compared_with":"2026-08-26","snapshot_time":"2026-09-02","area_km2_approx":86.4}},{"type":"Feature","geometry":{"type":"MultiPolygon","coordinates":[[[[37.82013,48.78241],[37.83113,48.79069],[37.84658,48.78352],[37.85552,48.78453],[37.86467,48.78298],[37.8657,48.77984],[37.85517,48.77135],[37.8485,48.77519],[37.84168,48.77771],[37.83545,48.7787],[37.82403,48.77803],[37.81707,48.78075],[37.82013,48.78241]]],[[[37.81328,48.84523],[37.80826,48.85127],[37.80628,48.85695],[37.81004,48.85811],[37.8162,48.85904],[37.82751,48.85416],[37.82116,48.85332],[37.82242,48.84158],[37.81424,48.84108],[37.81328,48.84523]]],[[[37.73663,49.46789],[37.74045,49.47143],[37.74345,49.47199],[37.74309,49.47292],[37.74795,49.47125],[37.74917,49.47041],[37.74194,49.46583],[37.74074,49.46622],[37.73985,49.46489],[37.73691,49.46298],[37.73661,49.46225],[37.73893,49.46159],[37.74193,49.46016],[37.74269,49.45939],[37.74117,49.45829],[37.73969,49.45786],[37.73309,49.46191],[37.73663,49.46789]]],[[[37.71732,48.58066],[37.71421,48.58321],[37.71374,48.5861],[37.7188,48.5878],[37.72558,48.58343],[37.72084,48.58175],[37.71732,48.58066]]],[[[37.67569,48.52804],[37.67513,48.52883],[37.67492,48.52925],[37.67525,48.52993],[37.6744,48.53035],[37.67292,48.53194],[37.67133,48.53409],[37.67199,48.53624],[37.67265,48.53779],[37.67457,48.53963],[37.67431,48.5411],[37.68733,48.53507],[37.6908,48.53399],[37.69391,48.53248],[37.70293,48.52854],[37.70222,48.52781],[37.70241,48.52731],[37.70338,48.52692],[37.70469,48.52777],[37.70666,48.52691],[37.71047,48.52475],[37.70463,48.52323],[37.70305,48.5232],[37.69826,48.52229],[37.69489,48.52093],[37.69349,48.51996],[37.69192,48.5206],[37.69114,48.52191],[37.69184,48.52212],[37.69119,48.52296],[37.69148,48.52307],[37.69117,48.52348],[37.69058,48.52371],[37.69009,48.52451],[37.69019,48.52677],[37.68906,48.52817],[37.68846,48.53016],[37.68665,48.53157],[37.68612,48.53279],[37.68553,48.53324],[37.68446,48.53345],[37.68349,48.53317],[37.68265,48.53225],[37.68252,48.53148],[37.68283,48.53099],[37.67861,48.52888],[37.6793,48.52771],[37.67885,48.52638],[37.67891,48.52606],[37.67816,48.52597],[37.67828,48.5257],[37.6776,48.52555],[37.67587,48.5281],[37.67569,48.52804]]],[[[37.68582,49.62924],[37.68389,49.63308],[37.68216,49.63187],[37.67722,49.63022],[37.67716,49.63142],[37.67848,49.63256],[37.68252,49.63708],[37.68822,49.64142],[37.69196,49.64152],[37.691,49.63701],[37.69907,49.63459],[37.69937,49.63108],[37.69592,49.62757],[37.69385,49.62733],[37.69319,49.62759],[37.68996,49.62719],[37.68524,49.62716],[37.68582,49.62924]]],[[[37.67338,49.65459],[37.66929,49.65597],[37.66639,49.65749],[37.66983,49.65789],[37.67256,49.65864],[37.67705,49.65751],[37.68125,49.65848],[37.68815,49.65897],[37.69021,49.65531],[37.68997,49.65352],[37.68862,49.65105],[37.67338,49.65459]]],[[[37.65384,48.54461],[37.65757,48.54768],[37.66545,48.54423],[37.66445,48.54299],[37.66638,48.54274],[37.66688,48.5436],[37.67114,48.54256],[37.66585,48.54057],[37.66086,48.54044],[37.65771,48.54115],[37.65453,48.54113],[37.65288,48.54226],[37.65384,48.54461]]],[[[37.65802,49.65884],[37.65605,49.66046],[37.65772,49.66268],[37.6656,49.66436],[37.66311,49.65931],[37.66405,49.65818],[37.65802,49.65884]]],[[[37.58129,48.47265],[37.57675,48.49312],[37.58055,48.4947],[37.58332,48.49756],[37.58664,48.49807],[37.58943,48.50048],[37.59231,48.5013],[37.59501,48.5023],[37.59488,48.50486],[37.60605,48.50649],[37.60637,48.5037],[37.60401,48.49972],[37.60407,48.49938],[37.60435,48.49703],[37.60243,48.49625],[37.60244,48.49621],[37.59903,48.4948],[37.59723,48.49173],[37.5962,48.48798],[37.59569,48.48411],[37.5962,48.48172],[37.59429,48.47357],[37.58129,48.47265]],[[37.59349,48.49968],[37.59357,48.49927],[37.59419,48.49932],[37.59408,48.49973],[37.59349,48.49968]]],[[[37.26729,48.47628],[37.26391,48.4907],[37.26453,48.49876],[37.27079,48.50217],[37.27673,48.50965],[37.27586,48.51362],[37.28093,48.5143],[37.28565,48.50911],[37.28702,48.50166],[37.2935,48.49944],[37.29637,48.49495],[37.29797,48.487],[37.29165,48.48638],[37.28228,48.47796],[37.26729,48.47628]]],[[[37.1799,48.46477],[37.16028,48.46944],[37.12703,48.47847],[37.11192,48.48296],[37.09639,48.4843],[37.0954,48.48875],[37.09725,48.49184],[37.10964,48.49545],[37.1264,48.49544],[37.15458,48.49157],[37.17176,48.49248],[37.17898,48.49589],[37.1773,48.50538],[37.17801,48.51441],[37.20857,48.51566],[37.20925,48.51313],[37.21867,48.49919],[37.22106,48.48835],[37.22156,48.47456],[37.21709,48.46848],[37.22018,48.45567],[37.20828,48.4546],[37.19622,48.45026],[37.18921,48.4528],[37.1799,48.46477]]],[[[37.00371,48.40012],[37.03638,48.40391],[37.03409,48.41965],[37.02947,48.42002],[37.02253,48.42265],[37.02349,48.42449],[37.03314,48.42477],[37.05795,48.42455],[37.07194,48.42147],[37.07296,48.41421],[37.07621,48.40928],[37.0823,48.40669],[37.09552,48.40327],[37.10595,48.39467],[37.11288,48.38769],[37.109,48.38716],[37.10506,48.38939],[37.10244,48.38733],[37.05798,48.38397],[37.03386,48.38307],[37.02094,48.38623],[37.00648,48.38471],[37.00371,48.40012]]],[[[36.90713,48.18358],[36.91503,48.18536],[36.91606,48.18218],[36.91404,48.18151],[36.91026,48.17976],[36.90714,48.18039],[36.90713,48.18358]]],[[[36.58733,47.93809],[36.58085,47.94263],[36.58285,47.9457],[36.58804,47.94515],[36.59773,47.94552],[36.60548,47.9462],[36.60711,47.94078],[36.60204,47.94021],[36.59257,47.93591],[36.59166,47.9298],[36.58733,47.93809]]],[[[36.37847,47.79984],[36.37942,47.80134],[36.38489,47.80222],[36.38405,47.80537],[36.38951,47.80607],[36.38828,47.79565],[36.37993,47.79583],[36.36862,47.79749],[36.36727,47.79845],[36.37847,47.79984]]],[[[36.11527,47.73105],[36.10158,47.73024],[36.0773,47.72914],[36.07558,47.73223],[36.07768,47.74092],[36.09222,47.74248],[36.09381,47.73372],[36.10135,47.73434],[36.10435,47.73494],[36.11807,47.73625],[36.12203,47.72533],[36.11527,47.73105]]],[[[36.10181,47.64094],[36.10413,47.64261],[36.11271,47.64387],[36.11895,47.63378],[36.10471,47.63185],[36.10274,47.63044],[36.08541,47.62737],[36.10181,47.64094]]],[[[35.90034,47.52643],[35.89639,47.52835],[35.89536,47.53249],[35.89802,47.53484],[35.91184,47.5322],[35.90956,47.52984],[35.9081,47.52459],[35.90034,47.52643]]],[[[35.37554,50.68896],[35.37294,50.69066],[35.3724,50.69474],[35.37705,50.70042],[35.37649,50.69577],[35.37722,50.69066],[35.38171,50.6874],[35.38169,50.68736],[35.37554,50.68896]]],[[[34.78704,51.12239],[34.78129,51.12566],[34.77199,51.1209],[34.76871,51.12309],[34.76302,51.12307],[34.75954,51.12341],[34.74972,51.14487],[34.74729,51.14935],[34.75279,51.15066],[34.75313,51.14878],[34.76615,51.14947],[34.7722,51.14852],[34.76813,51.14713],[34.76708,51.14502],[34.7711,51.14308],[34.77112,51.14103],[34.77552,51.13988],[34.78231,51.13936],[34.7832,51.13541],[34.79182,51.13207],[34.79889,51.1225],[34.78704,51.12239]]]]},"properties":{"source":"ukrdaily","source_name":"UkrDailyUpdate","source_url":"https://map.ukrdailyupdate.com/","category":"ukrainian_to_contested","category_label":"Ukrainian-held became contested","period":"7d","compared_with":"2026-08-26","snapshot_time":"2026-09-02","area_km2_approx":90.8}}]}