{"type":"FeatureCollection","features":[{"type":"Feature","geometry":{"type":"MultiPolygon","coordinates":[[[[37.80803,48.72447],[37.81155,48.72872],[37.811,48.7304],[37.81122,48.73253],[37.81292,48.73448],[37.81723,48.7374],[37.81167,48.73939],[37.81407,48.74233],[37.8216,48.73972],[37.82079,48.73882],[37.8216,48.73797],[37.83302,48.73301],[37.83352,48.73234],[37.8333,48.73113],[37.8313,48.72806],[37.83092,48.72376],[37.83495,48.7224],[37.83602,48.7198],[37.83911,48.71658],[37.83615,48.71432],[37.82007,48.72146],[37.8176,48.72025],[37.7982,48.72266],[37.7982,48.72283],[37.80803,48.72447]]],[[[37.78899,48.54633],[37.79606,48.55042],[37.7964,48.56012],[37.79581,48.56412],[37.81094,48.5646],[37.81277,48.56732],[37.81456,48.56953],[37.81667,48.57154],[37.82127,48.57304],[37.81766,48.5776],[37.81858,48.57935],[37.81967,48.5813],[37.81909,48.58255],[37.81653,48.58402],[37.81529,48.58656],[37.81405,48.5878],[37.81422,48.58878],[37.81633,48.58934],[37.81836,48.58857],[37.8209,48.58882],[37.82415,48.58817],[37.82556,48.58688],[37.8242,48.58526],[37.82962,48.58073],[37.83024,48.57605],[37.83181,48.572],[37.82779,48.56931],[37.82398,48.56729],[37.8226,48.5659],[37.82342,48.56475],[37.82466,48.56347],[37.83114,48.55801],[37.82868,48.55315],[37.82321,48.54749],[37.82306,48.54577],[37.81262,48.54259],[37.80534,48.54019],[37.79816,48.538],[37.7916,48.53926],[37.7744,48.54263],[37.77006,48.54363],[37.77006,48.54368],[37.78899,48.54633]]],[[[35.38522,50.69207],[35.38521,50.69202],[35.38306,50.6925],[35.37966,50.69234],[35.37695,50.69267],[35.37685,50.69356],[35.37726,50.69441],[35.3798,50.69569],[35.38018,50.69738],[35.37885,50.69932],[35.38154,50.69999],[35.38466,50.70063],[35.38511,50.70205],[35.38737,50.70157],[35.38783,50.69811],[35.38348,50.69665],[35.3811,50.69482],[35.38522,50.69207]]]]},"properties":{"source":"ukrdaily","source_name":"UkrDailyUpdate","source_url":"https://map.ukrdailyupdate.com/","category":"gained","category_label":"Russian advance: became occupied","period":"1d","compared_with":"2026-09-01","snapshot_time":"2026-09-02","area_km2_approx":12.9}},{"type":"Feature","geometry":{"type":"MultiPolygon","coordinates":[[[[37.93288,49.1948],[37.93403,49.19576],[37.9352,49.19214],[37.9352,49.19214],[37.93288,49.1948]]],[[[37.773,49.14306],[37.79703,49.14963],[37.80134,49.15194],[37.8195,49.15063],[37.83378,49.14479],[37.84244,49.14535],[37.84385,49.14544],[37.86357,49.1438],[37.87842,49.14445],[37.88366,49.1456],[37.89836,49.15394],[37.90307,49.1546],[37.90614,49.16165],[37.90614,49.16732],[37.91463,49.17366],[37.9185,49.17815],[37.92416,49.18068],[37.92545,49.17662],[37.92102,49.165],[37.91988,49.15895],[37.92074,49.158],[37.9204,49.15529],[37.91945,49.15288],[37.91931,49.14816],[37.91953,49.14575],[37.91856,49.14043],[37.91643,49.13936],[37.9123,49.13919],[37.90416,49.13514],[37.90203,49.13393],[37.89364,49.13226],[37.88855,49.12964],[37.88313,49.12953],[37.87741,49.12865],[37.87348,49.12781],[37.84838,49.12398],[37.83475,49.12379],[37.82765,49.12433],[37.80413,49.12414],[37.80025,49.12439],[37.7948,49.12573],[37.79059,49.12735],[37.78903,49.12855],[37.78384,49.13253],[37.77997,49.13633],[37.77615,49.14019],[37.76593,49.14343],[37.76599,49.14371],[37.773,49.14306]]],[[[37.64868,49.83032],[37.66402,49.8375],[37.66632,49.83519],[37.66749,49.83383],[37.66907,49.82881],[37.66868,49.82063],[37.67049,49.81897],[37.67318,49.81567],[37.67017,49.81228],[37.66869,49.8158],[37.67014,49.81233],[37.66588,49.80877],[37.66143,49.80857],[37.65777,49.81318],[37.64751,49.81515],[37.63898,49.8179],[37.63633,49.81994],[37.63536,49.82168],[37.63415,49.82264],[37.63242,49.82342],[37.64868,49.83032]]],[[[37.66051,49.85096],[37.64983,49.85262],[37.64867,49.85482],[37.64397,49.85959],[37.65373,49.85862],[37.66634,49.85523],[37.67095,49.85392],[37.66884,49.84904],[37.6645,49.84708],[37.66051,49.85096]]]]},"properties":{"source":"ukrdaily","source_name":"UkrDailyUpdate","source_url":"https://map.ukrdailyupdate.com/","category":"occupied_to_contested","category_label":"Occupied became contested","period":"1d","compared_with":"2026-09-01","snapshot_time":"2026-09-02","area_km2_approx":31.8}},{"type":"Feature","geometry":{"type":"MultiPolygon","coordinates":[[[[37.82013,48.78241],[37.83113,48.79069],[37.84658,48.78352],[37.85552,48.78453],[37.86467,48.78298],[37.8657,48.77984],[37.85517,48.77135],[37.8485,48.77519],[37.84168,48.77771],[37.83545,48.7787],[37.82403,48.77803],[37.81707,48.78075],[37.82013,48.78241]]],[[[35.37705,50.70042],[35.37649,50.69577],[35.37722,50.69066],[35.38171,50.6874],[35.38169,50.68736],[35.37554,50.68896],[35.37294,50.69066],[35.3724,50.69474],[35.37705,50.70042]]]]},"properties":{"source":"ukrdaily","source_name":"UkrDailyUpdate","source_url":"https://map.ukrdailyupdate.com/","category":"ukrainian_to_contested","category_label":"Ukrainian-held became contested","period":"1d","compared_with":"2026-09-01","snapshot_time":"2026-09-02","area_km2_approx":3.6}}]}