{"type":"FeatureCollection","features":[{"type":"Feature","geometry":{"type":"Point","coordinates":[30.277737,50.562525]},"properties":{"source":"geoconfirmed","source_name":"GeoConfirmed","source_url":"https://geoconfirmed.org/map/ukraine","id":"6f732970-b56c-4e56-8ecd-132f50db7190","date":"2026-10-03","link":"https://geoconfirmed.org/map/ukraine/6f732970-b56c-4e56-8ecd-132f50db7190","category":"Recently destroyed/Damaged[Visible in footage] or still burning infrastucture","side":"Neutral","color":"#AC7339","description":"A  reported pharmaceutical warehouse of LLC \"Venta. LTD\" was damaged, following a Russian strike. The warehouse is located on the premises of LLC \"August Plus\" in Gostomel.","orbat":[],"geolocation":["https://x.com/Zeldamices/status/2106621088365175143"],"sources":["https://x.com/UKRINFORM/status/2106358635718754494","https://www.ukrinform.ua/rubric-regions/4170596-kilkist-postrazdalih-unaslidok-udaru-rf-po-gostomelu-zrosla-do-cotiroh.html"]}},{"type":"Feature","geometry":{"type":"Point","coordinates":[36.341399,50.424226]},"properties":{"source":"geoconfirmed","source_name":"GeoConfirmed","source_url":"https://geoconfirmed.org/map/ukraine","id":"e4d55eae-17d4-4515-a63d-45ecbfdfc5c9","date":"2026-10-03","link":"https://geoconfirmed.org/map/ukraine/e4d55eae-17d4-4515-a63d-45ecbfdfc5c9","category":"Short Range (<50km) OWAD (One Way Attack Drone), mostly rotary wing, Flying OR Attacking a target without knowing the outcome: if something is damaged --> icon of the damaged equipment.","side":"Ukraine","color":"#0051CA","description":"2:30-End - FPV drone of \"Mommy's Cherries\" of the 58th Mechanized Brigade attacking a claimed Russian position near Kozacha Lopan', Kharkiv Oblast, Ukraine.","orbat":["UAV Unit \"Mum’s Cherry\" / \"Mamkin Chereshnia\""],"geolocation":["https://x.com/GeoConfirmed/status/2106421359404331423","https://x.com/Bielitzling/status/2106373739482923249","https://x.com/GeoRaccoon/status/2106420499513540946"],"sources":["https://x.com/Bielitzling/status/2106373739482923249","https://t.me/jacksons_dairy/13338"]}},{"type":"Feature","geometry":{"type":"Point","coordinates":[30.277503,50.561985]},"properties":{"source":"geoconfirmed","source_name":"GeoConfirmed","source_url":"https://geoconfirmed.org/map/ukraine","id":"4e6f1460-bb2a-4993-af8b-6f23e5e69a74","date":"2026-10-03","link":"https://geoconfirmed.org/map/ukraine/4e6f1460-bb2a-4993-af8b-6f23e5e69a74","category":"Recently destroyed/Damaged[Visible in footage] or still burning infrastucture","side":"Neutral","color":"#AC7339","description":"A warehouse of Dymari Pp \"Kominvent\" was destroyed following a Russian strike., Reportedly four people were injured as a result of a Russian attack, including a child.","orbat":[],"geolocation":["https://x.com/Zeldamices/status/2106621434969673816"],"sources":["https://x.com/UKRINFORM/status/2106358635718754494","https://www.ukrinform.ua/rubric-regions/4170596-kilkist-postrazdalih-unaslidok-udaru-rf-po-gostomelu-zrosla-do-cotiroh.html","https://www.facebook.com/DSNS.GOV.UA/posts/pfbid0374QhEvNxV2f9KgufPV84AboqoQ1xHGrJGDaNxQthiN9yUgSnFX6iFR1kxVUzumoXl"]}},{"type":"Feature","geometry":{"type":"Point","coordinates":[36.201778,50.334396]},"properties":{"source":"geoconfirmed","source_name":"GeoConfirmed","source_url":"https://geoconfirmed.org/map/ukraine","id":"81b3be6c-01c5-471f-a935-afbd61473716","date":"2026-10-03","link":"https://geoconfirmed.org/map/ukraine/81b3be6c-01c5-471f-a935-afbd61473716","category":"Short Range (<50km) OWAD (One Way Attack Drone), mostly rotary wing, Flying OR Attacking a target without knowing the outcome: if something is damaged --> icon of the damaged equipment.","side":"Ukraine","color":"#0051CA","description":"1:48-1:51 - FPV drone of \"Mommy's Cherries\" of the 58th Mechanized Brigade attacking a claimed Russian position near Kozacha Lopan', Kharkiv Oblast, Ukraine.","orbat":["UAV Unit \"Mum’s Cherry\" / \"Mamkin Chereshnia\""],"geolocation":["https://x.com/GeoConfirmed/status/2106421359404331423","https://x.com/Bielitzling/status/2106373739482923249","https://x.com/GeoRaccoon/status/2106419760628216140"],"sources":["https://x.com/Bielitzling/status/2106373739482923249","https://t.me/jacksons_dairy/13338"]}},{"type":"Feature","geometry":{"type":"Point","coordinates":[36.17557,50.313035]},"properties":{"source":"geoconfirmed","source_name":"GeoConfirmed","source_url":"https://geoconfirmed.org/map/ukraine","id":"2a249044-3025-4cab-997e-bcae959d5319","date":"2026-10-03","link":"https://geoconfirmed.org/map/ukraine/2a249044-3025-4cab-997e-bcae959d5319","category":"Short Range (<50km) OWAD (One Way Attack Drone), mostly rotary wing, Flying OR Attacking a target without knowing the outcome: if something is damaged --> icon of the damaged equipment.","side":"Ukraine","color":"#0051CA","description":"0:51-0:56 - FPV drone of \"Mommy's Cherries\" of the 58th Mechanized Brigade attacking a claimed Russian position near Kozacha Lopan', Kharkiv Oblast, Ukraine.","orbat":["UAV Unit \"Mum’s Cherry\" / \"Mamkin Chereshnia\""],"geolocation":["https://x.com/GeoConfirmed/status/2106421359404331423","https://x.com/Bielitzling/status/2106373734382878874"],"sources":["https://x.com/Bielitzling/status/2106373739482923249","https://t.me/jacksons_dairy/13338"]}}]}