{"type":"FeatureCollection","features":[{"type":"Feature","geometry":{"type":"Point","coordinates":[35.606653,47.443743]},"properties":{"original":{"id":47299,"type":"Engineering","model":"'Zemledeliye' remote mine-laying system","status":"Destroyed","lost_by":"Russia","date":"2026-08-24","nearest_location":"Stepove (Rozdol hromada), Vasylivka raion","geo":"47.443743,35.606653","unit":null,"tags":"Cope cage, Jammer, Additional armour"},"source":"warspotting","source_name":"WarSpotting","source_url":"https://ukr.warspotting.net/","id":47299,"date":"2026-08-24","link":"https://ukr.warspotting.net/view/47299/","category":"Engineering","side":"Lost by Russia","color":"#E00000","description":"'Zemledeliye' remote mine-laying system · Destroyed · near Stepove (Rozdol hromada), Vasylivka raion · tags: Cope cage, Jammer, Additional armour","orbat":[]}}]}