{"type":"FeatureCollection","features":[{"type":"Feature","geometry":{"type":"MultiPolygon","coordinates":[[[[37.82523,48.75642],[37.81845,48.76191],[37.83591,48.77845],[37.83682,48.77825],[37.84235,48.77777],[37.84849,48.77511],[37.87119,48.77641],[37.87226,48.78197],[37.88022,48.78213],[37.89375,48.77827],[37.90278,48.77065],[37.91985,48.78545],[37.92103,48.79504],[37.93437,48.7966],[37.93153,48.81126],[37.91637,48.81015],[37.91443,48.81359],[37.90959,48.83394],[37.91092,48.83561],[37.92071,48.84021],[37.92885,48.84052],[37.93253,48.81976],[37.93017,48.81688],[37.9312,48.81295],[37.93764,48.81337],[37.94326,48.81046],[37.94893,48.81071],[37.94995,48.8097],[37.95139,48.80674],[37.95213,48.80078],[37.95703,48.79734],[37.9551,48.78803],[37.95033,48.78099],[37.94604,48.7798],[37.93257,48.77446],[37.92556,48.7681],[37.91895,48.76952],[37.91639,48.76956],[37.91236,48.77066],[37.90957,48.77123],[37.90781,48.7697],[37.90338,48.76475],[37.90352,48.76349],[37.90116,48.76153],[37.89073,48.76077],[37.88007,48.75821],[37.86478,48.75559],[37.85675,48.75549],[37.8533,48.75515],[37.84905,48.75436],[37.84687,48.75501],[37.84094,48.75349],[37.83817,48.75306],[37.83465,48.75179],[37.82523,48.75642]]],[[[37.85564,48.83199],[37.84569,48.83199],[37.84011,48.83312],[37.84037,48.83718],[37.84886,48.83679],[37.86054,48.8391],[37.87092,48.83868],[37.87144,48.83631],[37.87054,48.83221],[37.86745,48.828],[37.85788,48.82817],[37.85564,48.83199]]],[[[37.80958,48.71169],[37.8075,48.71578],[37.79959,48.72027],[37.79761,48.72273],[37.80803,48.72447],[37.81155,48.72872],[37.811,48.7304],[37.81122,48.73253],[37.81292,48.73448],[37.81723,48.7374],[37.81167,48.73939],[37.81407,48.74233],[37.8216,48.73972],[37.82079,48.73882],[37.8216,48.73797],[37.83302,48.73301],[37.83352,48.73234],[37.8333,48.73113],[37.8313,48.72806],[37.83092,48.72376],[37.83495,48.7224],[37.83602,48.7198],[37.83911,48.71658],[37.84383,48.71431],[37.86328,48.70667],[37.86376,48.70311],[37.84944,48.69362],[37.84781,48.69407],[37.84782,48.69408],[37.84091,48.69606],[37.8356,48.69696],[37.8356,48.69695],[37.83416,48.69721],[37.83167,48.69911],[37.83227,48.70285],[37.8138,48.70991],[37.82005,48.7196],[37.8176,48.72025],[37.81136,48.71084],[37.80958,48.71169]]],[[[37.77003,48.54363],[37.77004,48.54369],[37.78899,48.54633],[37.79606,48.55042],[37.79632,48.558],[37.79369,48.55914],[37.7894,48.5586],[37.78679,48.55898],[37.78706,48.56012],[37.78807,48.56073],[37.78942,48.56118],[37.79044,48.56176],[37.79029,48.56242],[37.79216,48.56282],[37.79176,48.56389],[37.80345,48.56437],[37.80315,48.56586],[37.80281,48.56976],[37.80319,48.57236],[37.80772,48.57297],[37.81141,48.5729],[37.81942,48.57537],[37.81766,48.5776],[37.81967,48.5813],[37.81909,48.58255],[37.81653,48.58402],[37.81529,48.58656],[37.81405,48.5878],[37.81422,48.58878],[37.81633,48.58934],[37.81836,48.58857],[37.8209,48.58882],[37.82415,48.58817],[37.82556,48.58688],[37.8242,48.58526],[37.82962,48.58073],[37.83024,48.57605],[37.83181,48.572],[37.82779,48.56931],[37.82398,48.56729],[37.8226,48.5659],[37.82342,48.56475],[37.82466,48.56347],[37.83114,48.55801],[37.82868,48.55315],[37.82321,48.54749],[37.82306,48.54577],[37.79816,48.538],[37.7744,48.54263],[37.77003,48.54363]]],[[[37.78567,48.6562],[37.78344,48.66596],[37.78224,48.67338],[37.785,48.67492],[37.79571,48.67999],[37.79708,48.67849],[37.80854,48.68064],[37.81091,48.66559],[37.79862,48.66385],[37.79672,48.66126],[37.79492,48.66044],[37.79414,48.65911],[37.79178,48.6581],[37.78719,48.655],[37.78567,48.6562]]],[[[37.71737,48.48653],[37.72036,48.48911],[37.72334,48.49086],[37.72557,48.49241],[37.72626,48.4936],[37.72921,48.49572],[37.73187,48.4963],[37.73342,48.49557],[37.73709,48.49439],[37.73815,48.49628],[37.73987,48.49665],[37.74188,48.49392],[37.74292,48.4909],[37.74758,48.4867],[37.75264,48.4848],[37.75704,48.48564],[37.75922,48.4837],[37.76197,48.48336],[37.76086,48.48208],[37.75456,48.47979],[37.74795,48.47871],[37.74269,48.4809],[37.72705,48.47954],[37.71795,48.48402],[37.71454,48.48502],[37.71737,48.48653]]],[[[37.60541,48.45234],[37.60683,48.45673],[37.6091,48.45721],[37.61,48.45919],[37.61125,48.45932],[37.61541,48.45727],[37.62318,48.45815],[37.62416,48.46191],[37.62712,48.46384],[37.62858,48.46677],[37.6268,48.47672],[37.61681,48.48763],[37.61132,48.49258],[37.61261,48.49474],[37.61311,48.49609],[37.62108,48.49972],[37.62271,48.51866],[37.62405,48.52419],[37.63671,48.52569],[37.64568,48.52481],[37.64929,48.5106],[37.66187,48.50463],[37.66516,48.50345],[37.65932,48.49507],[37.66122,48.49008],[37.65918,48.49021],[37.65597,48.48976],[37.6547,48.48976],[37.65233,48.48754],[37.65256,48.4845],[37.65259,48.48297],[37.65259,48.47548],[37.64775,48.4682],[37.64745,48.45796],[37.63944,48.45776],[37.63834,48.45761],[37.63937,48.45358],[37.61597,48.44565],[37.613,48.45128],[37.60588,48.45079],[37.60348,48.45133],[37.60541,48.45234]]],[[[37.605,50.25353],[37.61307,50.25561],[37.62612,50.25575],[37.6264,50.23882],[37.60908,50.24051],[37.59706,50.24594],[37.5914,50.25094],[37.605,50.25353]]],[[[37.38061,48.49678],[37.3853,48.49682],[37.41564,48.49342],[37.43616,48.48918],[37.43892,48.48991],[37.44118,48.48711],[37.44628,48.48516],[37.45686,48.48241],[37.45961,48.47792],[37.46313,48.47115],[37.46422,48.46642],[37.47141,48.4659],[37.47385,48.4651],[37.47226,48.46227],[37.47247,48.4609],[37.46972,48.46286],[37.46552,48.46386],[37.45777,48.46432],[37.45729,48.46497],[37.45667,48.4653],[37.45644,48.46706],[37.45599,48.46759],[37.45459,48.46811],[37.45431,48.46854],[37.45369,48.46871],[37.45281,48.46864],[37.45191,48.46908],[37.45039,48.47038],[37.44965,48.47429],[37.44494,48.48087],[37.40746,48.48626],[37.39133,48.48781],[37.38876,48.49133],[37.38386,48.49179],[37.38047,48.4929],[37.37942,48.49403],[37.37774,48.49461],[37.38061,48.49678]]],[[[37.24547,48.4597],[37.26452,48.46448],[37.27512,48.46974],[37.28096,48.4723],[37.2934,48.4758],[37.29984,48.47643],[37.30203,48.47609],[37.30237,48.47674],[37.30383,48.47734],[37.30636,48.47586],[37.31194,48.47424],[37.31782,48.47454],[37.30967,48.46928],[37.2947,48.4683],[37.27673,48.46738],[37.27126,48.46059],[37.26369,48.45749],[37.24924,48.45606],[37.24924,48.45604],[37.24425,48.45557],[37.24547,48.4597]]],[[[37.213,48.39606],[37.21839,48.40581],[37.20263,48.40506],[37.19962,48.40612],[37.19515,48.40479],[37.18845,48.41024],[37.18998,48.41406],[37.22282,48.41698],[37.22361,48.41961],[37.21987,48.42936],[37.21987,48.4323],[37.2294,48.43742],[37.22824,48.44317],[37.24069,48.44428],[37.24271,48.43018],[37.2444,48.42661],[37.22363,48.4255],[37.22516,48.41979],[37.23339,48.41903],[37.23559,48.41166],[37.24174,48.41143],[37.2432,48.39972],[37.22928,48.39794],[37.213,48.39606]]],[[[37.08492,48.36281],[37.10325,48.36532],[37.10671,48.37868],[37.10946,48.38139],[37.11126,48.38219],[37.1201,48.37737],[37.12237,48.37013],[37.12852,48.3653],[37.15944,48.36613],[37.167,48.3657],[37.1664,48.37224],[37.16769,48.37379],[37.17005,48.37965],[37.17653,48.37861],[37.18859,48.37978],[37.18422,48.37343],[37.19012,48.36986],[37.19488,48.36505],[37.19342,48.36166],[37.19432,48.35746],[37.19702,48.35483],[37.19904,48.35344],[37.20103,48.35364],[37.202,48.34958],[37.19871,48.34878],[37.19755,48.34789],[37.18552,48.34683],[37.18421,48.353],[37.16073,48.35098],[37.14479,48.3521],[37.14362,48.35733],[37.10431,48.35359],[37.09886,48.35519],[37.09568,48.35499],[37.09499,48.35604],[37.09272,48.35621],[37.09057,48.35681],[37.08525,48.35735],[37.08492,48.36281]]],[[[37.18716,50.35891],[37.18641,50.35348],[37.17315,50.34762],[37.15985,50.34028],[37.1571,50.33524],[37.14466,50.33502],[37.14062,50.3428],[37.14011,50.34932],[37.13819,50.36108],[37.14882,50.356],[37.18315,50.36346],[37.18716,50.35891]]],[[[37.06078,48.31323],[37.06308,48.31791],[37.06523,48.31666],[37.09644,48.30781],[37.10531,48.30203],[37.113,48.29675],[37.11412,48.28725],[37.10579,48.28586],[37.06613,48.28157],[37.06078,48.31323]]],[[[37.03405,48.25961],[37.03622,48.25584],[37.04611,48.25121],[37.04626,48.24972],[37.03959,48.2464],[37.03471,48.24523],[37.02736,48.244],[37.01594,48.24258],[37.01211,48.25939],[37.01177,48.26197],[37.03405,48.25961]]],[[[36.20784,50.34212],[36.19805,50.33431],[36.19365,50.33327],[36.19003,50.33538],[36.18984,50.33902],[36.19411,50.34519],[36.20732,50.35729],[36.22126,50.36785],[36.21933,50.36412],[36.22237,50.35963],[36.22748,50.3572],[36.20784,50.34212]]],[[[36.16191,47.65173],[36.17016,47.65393],[36.16381,47.66399],[36.16037,47.67053],[36.16654,47.67268],[36.16741,47.67884],[36.17226,47.68081],[36.1681,47.68922],[36.16409,47.69024],[36.16102,47.69316],[36.15355,47.69759],[36.14287,47.70086],[36.14021,47.70401],[36.13604,47.71358],[36.14507,47.71828],[36.14703,47.72315],[36.16368,47.72763],[36.16635,47.72946],[36.16446,47.73506],[36.16352,47.74528],[36.16601,47.74678],[36.17364,47.74718],[36.17347,47.7537],[36.17875,47.75699],[36.19525,47.76077],[36.19609,47.75206],[36.20139,47.74941],[36.20358,47.7381],[36.20263,47.73784],[36.20519,47.7238],[36.1942,47.72236],[36.17171,47.71237],[36.17403,47.70832],[36.18176,47.7104],[36.1906,47.7033],[36.20156,47.69347],[36.20602,47.68782],[36.20038,47.68566],[36.2,47.68438],[36.20256,47.6801],[36.19704,47.67801],[36.17064,47.67076],[36.17755,47.66147],[36.18568,47.66349],[36.1898,47.6562],[36.19616,47.65663],[36.19829,47.65293],[36.19986,47.64463],[36.19812,47.64364],[36.19784,47.64056],[36.19587,47.63743],[36.18471,47.63477],[36.17598,47.64499],[36.17265,47.64516],[36.16191,47.65173]]],[[[36.08036,47.58535],[36.08061,47.58787],[36.06871,47.58904],[36.06962,47.59367],[36.07289,47.59458],[36.08916,47.59011],[36.10852,47.58919],[36.10627,47.58431],[36.10235,47.58397],[36.09403,47.58553],[36.09301,47.58428],[36.08036,47.58535]]],[[[36.10852,47.58919],[36.1058,47.59971],[36.10363,47.61264],[36.09999,47.6214],[36.09939,47.62754],[36.1027,47.63041],[36.10471,47.63185],[36.11857,47.63373],[36.12463,47.63665],[36.13854,47.63994],[36.14573,47.64219],[36.14922,47.6477],[36.15456,47.65097],[36.1631,47.64173],[36.13937,47.633],[36.13388,47.62742],[36.13317,47.62457],[36.12718,47.62071],[36.12757,47.61063],[36.12915,47.60336],[36.13108,47.59225],[36.10852,47.58919]]],[[[36.06478,47.55255],[36.07375,47.55101],[36.07465,47.54971],[36.0649,47.52458],[36.05331,47.52589],[36.06478,47.55255]]],[[[35.53682,47.54717],[35.54291,47.55209],[35.56016,47.55336],[35.57802,47.55562],[35.58561,47.55287],[35.58763,47.53929],[35.59038,47.52578],[35.59312,47.51669],[35.60753,47.49912],[35.59161,47.5018],[35.5814,47.50309],[35.57176,47.5103],[35.5688,47.52168],[35.56615,47.53507],[35.56451,47.54203],[35.546,47.53784],[35.53303,47.53369],[35.52655,47.53295],[35.52208,47.53465],[35.52041,47.54001],[35.53682,47.54717]]],[[[35.39767,50.74164],[35.39363,50.75245],[35.39137,50.75494],[35.39148,50.7568],[35.39328,50.76695],[35.39453,50.78303],[35.40474,50.77767],[35.4135,50.76882],[35.41952,50.75918],[35.41935,50.75057],[35.42094,50.74071],[35.41142,50.74071],[35.40893,50.73897],[35.40464,50.7381],[35.39767,50.74164]]],[[[35.38522,50.69207],[35.3852,50.69202],[35.38306,50.6925],[35.37966,50.69234],[35.37695,50.69267],[35.37685,50.69356],[35.37726,50.69441],[35.3798,50.69569],[35.38018,50.69738],[35.37885,50.69932],[35.38466,50.70063],[35.38511,50.70205],[35.38737,50.70157],[35.38783,50.69811],[35.38348,50.69665],[35.3811,50.69482],[35.38522,50.69207]]]]},"properties":{"source":"ukrdaily","source_name":"UkrDailyUpdate","source_url":"https://map.ukrdailyupdate.com/","category":"gained","category_label":"Newly Russian-occupied","period":"30d","compared_with":"2026-08-17","snapshot_time":"2026-09-16","area_km2_approx":206.3}},{"type":"Feature","geometry":{"type":"MultiPolygon","coordinates":[[[[37.90289,49.08313],[37.89961,49.08315],[37.88738,49.07868],[37.87762,49.07665],[37.8708,49.07296],[37.86989,49.0717],[37.8662,49.07277],[37.86538,49.07173],[37.86377,49.07166],[37.8628,49.07863],[37.84028,49.07851],[37.83014,49.07502],[37.82507,49.07109],[37.82369,49.07021],[37.82189,49.06986],[37.81956,49.07006],[37.81776,49.07108],[37.81712,49.07242],[37.81497,49.07243],[37.80392,49.07022],[37.79726,49.07165],[37.78727,49.07434],[37.78019,49.07024],[37.77431,49.07209],[37.76646,49.06804],[37.75826,49.06858],[37.74981,49.06637],[37.74498,49.06376],[37.73125,49.06568],[37.72838,49.06544],[37.7193,49.0669],[37.71239,49.06623],[37.71123,49.07355],[37.71237,49.07796],[37.71691,49.0801],[37.71923,49.08439],[37.71046,49.08443],[37.70323,49.08628],[37.70342,49.09011],[37.7076,49.09678],[37.70836,49.10134],[37.70089,49.10569],[37.69313,49.10605],[37.6844,49.10526],[37.67729,49.10689],[37.67798,49.11086],[37.68618,49.12618],[37.68994,49.12864],[37.70065,49.13082],[37.71544,49.12902],[37.71522,49.12527],[37.71844,49.12208],[37.72228,49.12023],[37.7308,49.11784],[37.73686,49.11576],[37.74148,49.11574],[37.74492,49.11753],[37.74822,49.12064],[37.75444,49.12554],[37.75383,49.13674],[37.74971,49.14068],[37.74607,49.14234],[37.74552,49.14435],[37.7466,49.14516],[37.75007,49.14592],[37.75417,49.15006],[37.76063,49.14721],[37.76302,49.1445],[37.76469,49.14383],[37.773,49.14306],[37.79703,49.14963],[37.78468,49.16014],[37.78096,49.16536],[37.77337,49.16861],[37.76547,49.17268],[37.76448,49.1742],[37.75993,49.17667],[37.76023,49.17961],[37.76161,49.18006],[37.76397,49.17986],[37.77036,49.18073],[37.78264,49.17779],[37.81036,49.17218],[37.81546,49.17156],[37.81774,49.17808],[37.82234,49.1718],[37.83297,49.17659],[37.83502,49.17494],[37.84948,49.1727],[37.84989,49.17108],[37.84925,49.16836],[37.85194,49.16688],[37.85619,49.16566],[37.86114,49.16695],[37.86212,49.16918],[37.85836,49.17657],[37.8562,49.17817],[37.85545,49.18091],[37.85345,49.18115],[37.85128,49.18053],[37.85041,49.18113],[37.84535,49.18247],[37.84451,49.18485],[37.85186,49.18554],[37.8583,49.18476],[37.86264,49.18401],[37.86549,49.18679],[37.86863,49.18804],[37.8709,49.19171],[37.8809,49.19204],[37.88428,49.19355],[37.88614,49.19862],[37.88523,49.20072],[37.88647,49.20394],[37.88934,49.20345],[37.89056,49.20753],[37.88931,49.2135],[37.88944,49.22479],[37.88779,49.22494],[37.88498,49.23045],[37.88678,49.23084],[37.88908,49.22688],[37.89469,49.22585],[37.898,49.22399],[37.92179,49.22658],[37.92235,49.22547],[37.92476,49.22328],[37.92713,49.22217],[37.9282,49.21948],[37.93454,49.21167],[37.93532,49.20074],[37.93403,49.19576],[37.9352,49.19214],[37.93034,49.19083],[37.92476,49.18646],[37.92416,49.18068],[37.92545,49.17662],[37.92102,49.165],[37.9261,49.16107],[37.92796,49.15674],[37.92571,49.14342],[37.92569,49.13642],[37.91899,49.12108],[37.91779,49.11734],[37.91562,49.11405],[37.90941,49.11059],[37.89565,49.10675],[37.8994,49.10251],[37.89454,49.09228],[37.89935,49.08773],[37.90701,49.08425],[37.90289,49.08313]]],[[[37.79155,48.6332],[37.78949,48.63836],[37.7902,48.64363],[37.79191,48.64128],[37.79396,48.63926],[37.79981,48.63737],[37.80045,48.63065],[37.7924,48.62163],[37.79155,48.6332]]],[[[37.61719,49.81083],[37.60707,49.81203],[37.60827,49.81538],[37.60892,49.81893],[37.6103,49.82162],[37.61208,49.82567],[37.62237,49.82441],[37.62444,49.82558],[37.62411,49.82778],[37.6277,49.82942],[37.63,49.83148],[37.6411,49.8326],[37.63902,49.83446],[37.6348,49.83476],[37.63607,49.84008],[37.63619,49.84747],[37.63309,49.85021],[37.63581,49.85195],[37.64271,49.84989],[37.64983,49.85262],[37.64867,49.85482],[37.64397,49.85959],[37.64962,49.86325],[37.65298,49.86327],[37.65442,49.86047],[37.65965,49.86018],[37.65879,49.85728],[37.67095,49.85392],[37.66884,49.84904],[37.6645,49.84708],[37.66751,49.84196],[37.66911,49.83989],[37.66402,49.8375],[37.66749,49.83383],[37.66907,49.82881],[37.66868,49.82063],[37.67049,49.81897],[37.67318,49.81567],[37.67041,49.81255],[37.66588,49.80877],[37.66143,49.80857],[37.65777,49.81318],[37.64751,49.81515],[37.63898,49.8179],[37.63633,49.81994],[37.63536,49.82168],[37.63415,49.82264],[37.62939,49.81656],[37.62461,49.81492],[37.62119,49.80987],[37.61719,49.81083]]],[[[36.76046,48.02624],[36.76305,48.04516],[36.78159,48.0499],[36.78589,48.05319],[36.78692,48.0522],[36.79404,48.05007],[36.77932,48.03355],[36.77271,48.02818],[36.76998,48.01095],[36.76046,48.02624]]],[[[36.69353,47.96554],[36.70251,47.96667],[36.70141,47.97055],[36.72694,47.97377],[36.73686,47.97607],[36.73534,47.98958],[36.73744,47.99432],[36.73972,47.99387],[36.74075,47.9906],[36.74198,47.98934],[36.74231,47.98823],[36.74149,47.98598],[36.74202,47.98395],[36.74191,47.97896],[36.74122,47.97678],[36.74,47.97605],[36.73951,47.97553],[36.73495,47.96881],[36.7195,47.96674],[36.72226,47.95585],[36.68971,47.95097],[36.69353,47.96554]]]]},"properties":{"source":"ukrdaily","source_name":"UkrDailyUpdate","source_url":"https://map.ukrdailyupdate.com/","category":"lost","category_label":"No longer Russian-occupied","period":"30d","compared_with":"2026-08-17","snapshot_time":"2026-09-16","area_km2_approx":195.8}}]}