{"type":"FeatureCollection","features":[{"type":"Feature","geometry":{"type":"Point","coordinates":[37.464648,48.321381]},"properties":{"original":{"id":46922,"type":"Transport","model":"'Ulan-2' all-terrain vehicle","status":"Destroyed","lost_by":"Russia","date":"2026-08-29","nearest_location":"Malynivka, Pokrovsk raion","geo":"48.321381,37.464648","unit":"Southern Military District","tags":null},"source":"warspotting","source_name":"WarSpotting","source_url":"https://ukr.warspotting.net/","id":46922,"date":"2026-08-29","link":"https://ukr.warspotting.net/view/46922/","category":"Transport","side":"Lost by Russia","color":"#E00000","description":"'Ulan-2' all-terrain vehicle · Destroyed · near Malynivka, Pokrovsk raion","orbat":["Southern Military District"]}}]}