{"type":"FeatureCollection","features":[{"type":"Feature","geometry":{"type":"MultiPolygon","coordinates":[[[[36.10098,47.61311],[36.09598,47.61557],[36.09192,47.62074],[36.09107,47.62777],[36.09025,47.63142],[36.08703,47.64917],[36.09394,47.64987],[36.09368,47.65149],[36.09716,47.65183],[36.10605,47.65219],[36.10878,47.65119],[36.1149,47.65328],[36.12281,47.65391],[36.13063,47.65616],[36.13671,47.65167],[36.14601,47.64728],[36.14922,47.6477],[36.14573,47.64219],[36.13854,47.63994],[36.13047,47.63809],[36.12463,47.63665],[36.11857,47.63373],[36.10471,47.63185],[36.1027,47.63041],[36.09939,47.62754],[36.09999,47.6214],[36.10363,47.61264],[36.10098,47.61311]]],[[[36.13369,47.69189],[36.12713,47.69732],[36.12039,47.70878],[36.12082,47.7102],[36.12837,47.71291],[36.13133,47.71985],[36.13604,47.71358],[36.13911,47.70646],[36.14021,47.70401],[36.14287,47.70086],[36.1416,47.69388],[36.13907,47.69255],[36.13825,47.69062],[36.13954,47.68412],[36.13369,47.69189]]]]},"properties":{"source":"ukrdaily","source_name":"UkrDailyUpdate","source_url":"https://map.ukrdailyupdate.com/","category":"gained","category_label":"Russian advance: became occupied","period":"1d","compared_with":"2026-10-06","snapshot_time":"2026-10-07","area_km2_approx":12.5}},{"type":"Feature","geometry":{"type":"MultiPolygon","coordinates":[[[[36.07327,47.70473],[36.06091,47.70554],[36.0591,47.71183],[36.08537,47.71513],[36.08227,47.72937],[36.10158,47.73024],[36.11527,47.73105],[36.12203,47.72533],[36.123,47.72421],[36.11699,47.70446],[36.11785,47.70117],[36.12034,47.69603],[36.10111,47.69725],[36.07327,47.70473]]],[[[36.11165,47.67515],[36.10506,47.67547],[36.09995,47.67735],[36.09819,47.68575],[36.10274,47.68942],[36.11002,47.68232],[36.11165,47.67515]]],[[[36.10152,47.65508],[36.10119,47.66214],[36.10697,47.66243],[36.10784,47.65586],[36.10152,47.65508]]]]},"properties":{"source":"ukrdaily","source_name":"UkrDailyUpdate","source_url":"https://map.ukrdailyupdate.com/","category":"ukrainian_to_contested","category_label":"Ukrainian-held became contested","period":"1d","compared_with":"2026-10-06","snapshot_time":"2026-10-07","area_km2_approx":12.7}}]}