{"type":"FeatureCollection","features":[{"type":"Feature","geometry":null,"properties":{"source":"ua_mod","source_name":"Ministry of Defence of Ukraine","group":"official_ua","id":16097,"posted_utc":"2026-08-27T09:04:09+00:00","link":"https://t.me/ministry_of_defense_ua/16097","text":"❌ Ворог не має отримувати з відкритих джерел інформацію, що може загрожувати захисникам та їхнім родинам.\nКабмін схвалив законопроєкт, який пропонує відкривати декларації окремих категорій військових, правоохоронців, розвідників та інших залучених до оборони осіб через рік після припинення або скасування воєнного стану.\nЙдеться не про скасування декларування — декларації подаватимуть й надалі. Законопроєкт лише передбачає відтермінування публічного доступу до них, щоб інформація про місце проживання, фінансовий стан та членів сім’ї таких осіб не була використана противником.\nПрозорість важлива. Так само важлива безпека захисників України.","links":[],"original_html":"<i class=\"emoji\" style=\"background-image:url('//telegram.org/img/emoji/40/E29D8C.png')\"><b>❌</b></i> <b>Ворог не має отримувати з відкритих джерел інформацію, що може загрожувати захисникам та їхнім родинам.</b><br/><br/>Кабмін схвалив законопроєкт, який пропонує відкривати декларації окремих категорій військових, правоохоронців, розвідників та інших залучених до оборони осіб через рік після припинення або скасування воєнного стану.<br/><br/>Йдеться не про скасування декларування — декларації подаватимуть й надалі. Законопроєкт лише передбачає відтермінування публічного доступу до них, щоб інформація про місце проживання, фінансовий стан та членів сім’ї таких осіб не була використана противником.<br/><br/>Прозорість важлива. Так само важлива безпека захисників України."}},{"type":"Feature","geometry":null,"properties":{"source":"ua_mod","source_name":"Ministry of Defence of Ukraine","group":"official_ua","id":16098,"posted_utc":"2026-08-27T12:47:37+00:00","link":"https://t.me/ministry_of_defense_ua/16098","text":"✅ Defence City зростає: вже 51 резидент.\nЩе наприкінці липня спеціальний правовий режим, створений за участі Міноборони, об’єднував 45 українських компаній оборонно-промислового комплексу. Тепер їх уже понад пів сотні.\nDefence City дає підприємствам більше можливостей для масштабування:\n• податкові та митні стимули,\n• підтримку релокації й захисту виробництв,\n• додатковий захист чутливої інформації,\n• спрощення окремих експортних процедур.\nЗавдання – допомогти українському ОПК швидше масштабувати виробництво та залучати інвестиції.","links":["https://mod.gov.ua/news/minoborony-rozshyriuie-ekosystemu-defence-city-rezydentiv-vzhe-ponad-50?utm_source=mod-telegram&utm_medium=social"],"original_html":"<b><i class=\"emoji\" style=\"background-image:url('//telegram.org/img/emoji/40/E29C85.png')\"><b>✅</b></i> Defence City зростає: вже 51 резидент.</b><br/><br/>Ще наприкінці липня спеціальний правовий режим, створений за участі Міноборони, об’єднував 45 українських компаній оборонно-промислового комплексу. Тепер їх уже <a href=\"https://mod.gov.ua/news/minoborony-rozshyriuie-ekosystemu-defence-city-rezydentiv-vzhe-ponad-50?utm_source=mod-telegram&amp;amp;utm_medium=social\" target=\"_blank\" rel=\"noopener\" onclick=\"return confirm('Open this link?\\n\\n'+this.href);\">понад пів сотні</a>.<br/><br/><u>Defence City дає підприємствам більше можливостей для масштабування: </u><br/>• податкові та митні стимули, <br/>• підтримку релокації й захисту виробництв, <br/>• додатковий захист чутливої інформації,<br/>• спрощення окремих експортних процедур.<br/><br/>Завдання – допомогти українському ОПК швидше масштабувати виробництво та залучати інвестиції."}},{"type":"Feature","geometry":null,"properties":{"source":"ua_mod","source_name":"Ministry of Defence of Ukraine","group":"official_ua","id":16099,"posted_utc":"2026-08-27T16:25:22+00:00","link":"https://t.me/ministry_of_defense_ua/16099","text":"❓ Чи отримає військовий гроші за попередній місяць, якщо пішов у СЗЧ до дня виплати?\nНі, доки він перебуває у статусі СЗЧ.\nВиплата грошового забезпечення призупиняється з дня самовільного залишення частини. Це стосується й коштів за попередній місяць, якщо вони ще не були перераховані.\nПри цьому вже зароблені гроші не конфіскуються і не анулюються. Вони залишаються заборгованістю військової частини перед військовослужбовцем.\nПісля повернення на службу та зарахування до списків особового складу виплату відновлять, а накопичені кошти виплатять у найближчий розрахунковий період.\n🔗 Докладно пояснюємо, як це працює","links":["https://mod.gov.ua/news/chy-otrymaie-viiskovyi-u-szch-hroshove-zabezpechennia-za-poperednii-misiats-rozyasnennia-minoborony"],"original_html":"<b><i class=\"emoji\" style=\"background-image:url('//telegram.org/img/emoji/40/E29D93.png')\"><b>❓</b></i> Чи отримає військовий гроші за попередній місяць, якщо пішов у СЗЧ до дня виплати?</b><br/><br/>Ні, доки він перебуває у статусі СЗЧ.<br/><br/>Виплата грошового забезпечення призупиняється з дня самовільного залишення частини. Це стосується й коштів за попередній місяць, якщо вони ще не були перераховані.<br/><br/>При цьому вже зароблені гроші не конфіскуються і не анулюються. Вони залишаються заборгованістю військової частини перед військовослужбовцем.<br/><br/>Після повернення на службу та зарахування до списків особового складу виплату відновлять, а накопичені кошти виплатять у найближчий розрахунковий період.<br/><br/><i class=\"emoji\" style=\"background-image:url('//telegram.org/img/emoji/40/F09F9497.png')\"><b>🔗</b></i> <b>Докладно пояснюємо, </b><a href=\"https://mod.gov.ua/news/chy-otrymaie-viiskovyi-u-szch-hroshove-zabezpechennia-za-poperednii-misiats-rozyasnennia-minoborony\" target=\"_blank\" rel=\"noopener\" onclick=\"return confirm('Open this link?\\n\\n'+this.href);\"><b>як це працює</b></a>"}},{"type":"Feature","geometry":null,"properties":{"source":"ua_mod","source_name":"Ministry of Defence of Ukraine","group":"official_ua","id":16100,"posted_utc":"2026-08-27T19:14:33+00:00","link":"https://t.me/ministry_of_defense_ua/16100","text":"💥Учора в Донецьку високоточними ударами були знищено приховані командні пункти російських окупаційних військ – підтверджено Генеральним штабом ЗСУ.\nІнформація про численні втрати серед штабних офіцерів противника уточнюється.","links":[],"original_html":"<b><i class=\"emoji\" style=\"background-image:url('//telegram.org/img/emoji/40/F09F92A5.png')\"><b>💥</b></i>Учора в Донецьку високоточними ударами були знищено приховані командні пункти російських окупаційних військ – підтверджено Генеральним штабом ЗСУ. <br/></b><br/>Інформація про численні втрати серед штабних офіцерів противника уточнюється."}}]}