{"type":"FeatureCollection","features":[{"type":"Feature","geometry":{"type":"Point","coordinates":[35.92961,48.49113]},"properties":{"original":{"Date":"2026-08-28","Name":"28 AUG 2026","Faction":"Neutral","Origin":"VID","Latitude":"48.49113","Longitude":"35.92961","PlusCode":"8GWQFWRH+FR Pavlohrad, Dnipropetrovsk Oblast, Ukraine","Description":" Hardware shop \"33 Square Metres\" in Pavlohrad on fire following a reported Russian strike. Several people were injured.","Source":"https://x.com/wartranslated/status/2093358566006497437, https://t.me/dnipropetrovskaODA/31719, , More information, https://www.ukrinform.net/amp/rubric-ato/4158658-russian-forces-attack-pavlohrad-two-people-injured.html, https://t.me/dnipropetrovskaODA/31716","Geolocation":"https://x.com/zarGEOINT/status/2093361433308209592","Equipment":"","EquipmentItems":"","Units":"","OrbatUnits":"","Id":"8e7b3f03-9756-4977-8df5-0887e8d05ea3","icon":"/api/icons/AC7339/False/template/192.png"},"source":"geoconfirmed","source_name":"GeoConfirmed","source_url":"https://geoconfirmed.org/map/ukraine","id":"8e7b3f03-9756-4977-8df5-0887e8d05ea3","date":"2026-08-28","link":"https://geoconfirmed.org/map/ukraine/8e7b3f03-9756-4977-8df5-0887e8d05ea3","category":"Recently destroyed/Damaged[Visible in footage] or still burning infrastucture","side":"Neutral","color":"#AC7339","description":"Hardware shop \"33 Square Metres\" in Pavlohrad on fire following a reported Russian strike. Several people were injured.","orbat":[],"geolocation":["https://x.com/zarGEOINT/status/2093361433308209592"],"sources":["https://x.com/wartranslated/status/2093358566006497437","https://t.me/dnipropetrovskaODA/31719","https://www.ukrinform.net/amp/rubric-ato/4158658-russian-forces-attack-pavlohrad-two-people-injured.html","https://t.me/dnipropetrovskaODA/31716"]}},{"type":"Feature","geometry":{"type":"Point","coordinates":[35.15393,47.8188]},"properties":{"original":{"Date":"2026-08-28","Name":"28 AUG 2026","Faction":"Neutral","Origin":"PIC","Latitude":"47.8188","Longitude":"35.15393","PlusCode":"8GVQR593+GH Zaporizhzhia, Zaporizhia Oblast, Ukraine","Description":"Epicentr shopping center in the Oleksandrivskyi district of Zaporizhzhia on fire after an alleged Russian drone strike","Source":"https://x.com/zarGEOINT/status/2093212369635692671, https://t.me/operativnoZSU/219509","Geolocation":"https://x.com/zarGEOINT/status/2093213887529107650","Equipment":"(presumed)","EquipmentItems":"Fixed Wing OWAD (One Way Attack Drone)","Units":"","OrbatUnits":"","Id":"b3d84921-2a5c-4dc2-8517-095e5a91248d","icon":"/api/icons/AC7339/False/template/192.png"},"source":"geoconfirmed","source_name":"GeoConfirmed","source_url":"https://geoconfirmed.org/map/ukraine","id":"b3d84921-2a5c-4dc2-8517-095e5a91248d","date":"2026-08-28","link":"https://geoconfirmed.org/map/ukraine/b3d84921-2a5c-4dc2-8517-095e5a91248d","category":"Recently destroyed/Damaged[Visible in footage] or still burning infrastucture","side":"Neutral","color":"#AC7339","description":"Epicentr shopping center in the Oleksandrivskyi district of Zaporizhzhia on fire after an alleged Russian drone strike","orbat":[],"geolocation":["https://x.com/zarGEOINT/status/2093213887529107650"],"sources":["https://x.com/zarGEOINT/status/2093212369635692671","https://t.me/operativnoZSU/219509"]}},{"type":"Feature","geometry":{"type":"Point","coordinates":[30.3714,50.3979]},"properties":{"original":{"Date":"2026-08-28","Name":"28 AUG 2026","Faction":"Neutral","Origin":"PIC","Latitude":"50.3979","Longitude":"30.3714","PlusCode":"9G2G99XC+5H Vyshneve, Kyiv Oblast, Ukraine","Description":"Area grid - Several cars are on fire, with firefighters at the scene. Reportedly the aftermath of a Russian strike.","Source":"https://x.com/zarGEOINT/status/2093220215194624418, https://t.me/kievinfo_kyiv/95438, , ","Geolocation":"https://x.com/zarGEOINT/status/2093222373663121898","Equipment":"","EquipmentItems":"Car ","Units":"","OrbatUnits":"","Id":"8abb5a89-6d70-4e3f-a53d-138913ba0ee0","icon":"/api/icons/AC7339/False/template/a8c55b37-7710-40ef-8f00-2a17e58b6f69.png"},"source":"geoconfirmed","source_name":"GeoConfirmed","source_url":"https://geoconfirmed.org/map/ukraine","id":"8abb5a89-6d70-4e3f-a53d-138913ba0ee0","date":"2026-08-28","link":"https://geoconfirmed.org/map/ukraine/8abb5a89-6d70-4e3f-a53d-138913ba0ee0","category":"Recently Destroyed/Damaged[Visible in footage] Car OR PickUp (Soft Skin Vehicle)","side":"Neutral","color":"#AC7339","description":"Area grid - Several cars are on fire, with firefighters at the scene. Reportedly the aftermath of a Russian strike.","orbat":[],"geolocation":["https://x.com/zarGEOINT/status/2093222373663121898"],"sources":["https://x.com/zarGEOINT/status/2093220215194624418","https://t.me/kievinfo_kyiv/95438"]}},{"type":"Feature","geometry":{"type":"Point","coordinates":[46.20254,51.47329]},"properties":{"original":{"Date":"2026-08-28","Name":"28 AUG 2026","Faction":"Russia","Origin":"SAT","Latitude":"51.47329","Longitude":"46.20254","PlusCode":"9H38F6F3+82 Engels, Saratov Oblast, Russia","Description":"Russian strategic bomber TU-95MS damaged on the runway after a reported Ukrainian drone strike from Alpha Group","Source":"https://x.com/UAControlMap/status/2093289769685938542, https://t.me/exilenova_plus/29956/en, https://t.me/absolutely_reliable/37, , More information, https://www.pravda.com.ua/eng/news/2026/08/28/8050735/, https://x.com/ZelenskyyUa/status/2093259531937587213, ","Geolocation":"https://x.com/UAControlMap/status/2093289769685938542","Equipment":"","EquipmentItems":"Tu-95MS | Fixed Wing OWAD (One Way Attack Drone)","Units":"(reported)","OrbatUnits":"Alpha Group","Id":"ab995dcc-063c-428b-a43a-19d0cbd5222b","icon":"/api/icons/E00000/False/template/82.png"},"source":"geoconfirmed","source_name":"GeoConfirmed","source_url":"https://geoconfirmed.org/map/ukraine","id":"ab995dcc-063c-428b-a43a-19d0cbd5222b","date":"2026-08-28","link":"https://geoconfirmed.org/map/ukraine/ab995dcc-063c-428b-a43a-19d0cbd5222b","category":"Recently Destroyed/Damaged[Visible in footage] Large plane [Cargo or Bomber]","side":"Russia","color":"#E00000","description":"Russian strategic bomber TU-95MS damaged on the runway after a reported Ukrainian drone strike from Alpha Group","orbat":["Alpha Group"],"geolocation":["https://x.com/UAControlMap/status/2093289769685938542"],"sources":["https://x.com/UAControlMap/status/2093289769685938542","https://t.me/exilenova_plus/29956/en","https://t.me/absolutely_reliable/37","https://www.pravda.com.ua/eng/news/2026/08/28/8050735/","https://x.com/ZelenskyyUa/status/2093259531937587213"]}},{"type":"Feature","geometry":{"type":"Point","coordinates":[37.485964,50.1336]},"properties":{"original":{"Date":"2026-08-28","Name":"28 AUG 2026","Faction":"Russia","Origin":"UAV","Latitude":"50.1336","Longitude":"37.485964","PlusCode":"9G2V4FMP+C9 Malyi Burluk, Kharkiv Oblast, Ukraine","Description":"A Ukrainian position, reportedly of the 3rd Assault Brigade, was hit by a Russian dronestrike.","Source":"https://x.com/franfran2424/status/2092930444861845717, https://t.me/The_Wrong_Side/30769","Geolocation":"https://x.com/franfran2424/status/2092930475643810295","Equipment":"(reported)","EquipmentItems":"Geran-2","Units":"(reported)","OrbatUnits":"3rd Assault Brigade","Id":"62bd4524-2b2b-4ddc-adcb-2a75d737f6b7","icon":"/api/icons/E00000/False/template/111.png"},"source":"geoconfirmed","source_name":"GeoConfirmed","source_url":"https://geoconfirmed.org/map/ukraine","id":"62bd4524-2b2b-4ddc-adcb-2a75d737f6b7","date":"2026-08-28","link":"https://geoconfirmed.org/map/ukraine/62bd4524-2b2b-4ddc-adcb-2a75d737f6b7","category":"Short Range (<50km) OWAD (One Way Attack Drone), mostly rotary wing, Flying OR Attacking a target without knowing the outcome: if something is damaged --> icon of the damaged equipment.","side":"Russia","color":"#E00000","description":"A Ukrainian position, reportedly of the 3rd Assault Brigade, was hit by a Russian dronestrike.","orbat":["3rd Assault Brigade"],"geolocation":["https://x.com/franfran2424/status/2092930475643810295"],"sources":["https://x.com/franfran2424/status/2092930444861845717","https://t.me/The_Wrong_Side/30769"]}},{"type":"Feature","geometry":{"type":"Point","coordinates":[37.040685,48.082602]},"properties":{"original":{"Date":"2026-08-28","Name":"28 AUG 2026","Faction":"Ukraine","Origin":"UAV","Latitude":"48.082602","Longitude":"37.040685","PlusCode":"8GWV32MR+27 Sribne, Donetsk Oblast, Ukraine","Description":"0:00-0:08  - Rough location - A  vehicle was hit by an FPV from UAS Battalion \"Perun\"","Source":"(1/2), https://x.com/666_mancer/status/2094406770567377188, https://t.me/ssternenko/62967","Geolocation":"https://x.com/neonhandrail/status/2094420159893295377","Equipment":"UNK (presumed Bukhanka or loaf)","EquipmentItems":"FPV (First Person View) OWAD (One Way Attack Drone)","Units":"","OrbatUnits":"UAS Battalion \"Perun\"","Id":"b41fed4c-b63c-4175-8680-2c004781c1ba","icon":"/api/icons/0051CA/False/template/111.png"},"source":"geoconfirmed","source_name":"GeoConfirmed","source_url":"https://geoconfirmed.org/map/ukraine","id":"b41fed4c-b63c-4175-8680-2c004781c1ba","date":"2026-08-28","link":"https://geoconfirmed.org/map/ukraine/b41fed4c-b63c-4175-8680-2c004781c1ba","category":"Short Range (<50km) OWAD (One Way Attack Drone), mostly rotary wing, Flying OR Attacking a target without knowing the outcome: if something is damaged --> icon of the damaged equipment.","side":"Ukraine","color":"#0051CA","description":"0:00-0:08  - Rough location - A  vehicle was hit by an FPV from UAS Battalion \"Perun\"","orbat":["UAS Battalion \"Perun\""],"geolocation":["https://x.com/neonhandrail/status/2094420159893295377"],"sources":["https://x.com/666_mancer/status/2094406770567377188","https://t.me/ssternenko/62967"]}},{"type":"Feature","geometry":{"type":"Point","coordinates":[34.01111,45.86372]},"properties":{"original":{"Date":"2026-08-28","Name":"28 AUG 2026","Faction":"Unknown","Origin":"SAT","Latitude":"45.86372","Longitude":"34.01111","PlusCode":"8GQPV276+FC","Description":"A damaged or destroyed warehouse is visible on low resolution satellite imagery. Reportedly, in the village of Voinka in the Krasnoperekopsk district, there were six or seven air strikes on ammunition depots.","Source":"https://x.com/zarGEOINT/status/2093426750977941807, https://t.me/Crimeanwind/108296, , ","Geolocation":"Geo, https://x.com/giK1893/status/2093422663922274572, https://x.com/zarGEOINT/status/2093426750977941807","Equipment":"","EquipmentItems":"","Units":"","OrbatUnits":"","Id":"ecf44e4d-9489-44a5-a7ff-43a3e870324f","icon":"/api/icons/666666/False/template/192.png"},"source":"geoconfirmed","source_name":"GeoConfirmed","source_url":"https://geoconfirmed.org/map/ukraine","id":"ecf44e4d-9489-44a5-a7ff-43a3e870324f","date":"2026-08-28","link":"https://geoconfirmed.org/map/ukraine/ecf44e4d-9489-44a5-a7ff-43a3e870324f","category":"Recently destroyed/Damaged[Visible in footage] or still burning infrastucture","side":"Unknown","color":"#666666","description":"A damaged or destroyed warehouse is visible on low resolution satellite imagery. Reportedly, in the village of Voinka in the Krasnoperekopsk district, there were six or seven air strikes on ammunition depots.","orbat":[],"geolocation":["https://x.com/giK1893/status/2093422663922274572","https://x.com/zarGEOINT/status/2093426750977941807"],"sources":["https://x.com/zarGEOINT/status/2093426750977941807","https://t.me/Crimeanwind/108296"]}},{"type":"Feature","geometry":{"type":"Point","coordinates":[36.286346,49.936176]},"properties":{"original":{"Date":"2026-08-28","Name":"28 AUG 2026","Faction":"Neutral","Origin":"PIC","Latitude":"49.936176","Longitude":"36.286346","PlusCode":"8GXRW7PP+FG Kharkiv, Kharkiv Oblast, Ukraine","Description":"A Geran-5 drone hit a gas station in Kharkiv, killing a woman and wounding others.","Source":"Pic1: https://x.com/BohuslavskaKate/status/2093383684371951718, https://t.me/suspilne_kharkiv/100092, , Pic2: https://t.me/prokuratura_kharkiv/30436","Geolocation":"https://bsky.app/profile/scaratlas.bsky.social/post/3mu636dyojk2v","Equipment":"","EquipmentItems":"Geran-5","Units":"","OrbatUnits":"","Id":"cc7d44b0-cade-453a-a8b8-4b45db9cdbf8","icon":"/api/icons/AC7339/False/template/192.png"},"source":"geoconfirmed","source_name":"GeoConfirmed","source_url":"https://geoconfirmed.org/map/ukraine","id":"cc7d44b0-cade-453a-a8b8-4b45db9cdbf8","date":"2026-08-28","link":"https://geoconfirmed.org/map/ukraine/cc7d44b0-cade-453a-a8b8-4b45db9cdbf8","category":"Recently destroyed/Damaged[Visible in footage] or still burning infrastucture","side":"Neutral","color":"#AC7339","description":"A Geran-5 drone hit a gas station in Kharkiv, killing a woman and wounding others.","orbat":[],"geolocation":["https://bsky.app/profile/scaratlas.bsky.social/post/3mu636dyojk2v"],"sources":["https://x.com/BohuslavskaKate/status/2093383684371951718","https://t.me/suspilne_kharkiv/100092","https://t.me/prokuratura_kharkiv/30436"]}},{"type":"Feature","geometry":{"type":"Point","coordinates":[37.740785,48.56716]},"properties":{"original":{"Date":"2026-08-28","Name":"28 AUG 2026","Faction":"Ukraine","Origin":"UAV","Latitude":"48.56716","Longitude":"37.740785","PlusCode":"8GWVHP8R+V8 Stinky, Donetsk Oblast, Ukraine","Description":"0:11-0:21 - 1st Mechanized Battalion, 24th Mechanized Brigade hits alleged Russian presence south of Stinky with Vampire Drone Drops","Source":"https://x.com/AudaxonX/status/2096608072303083672, https://www.instagram.com/1mb_24army/reel/DclaipHMyDw, ","Geolocation":"https://x.com/AudaxonX/status/2096608022139158538","Equipment":"","EquipmentItems":"Vampire","Units":"","OrbatUnits":" 1st Mechanized Battalion","Id":"19ab1c46-1be8-4992-a940-5091ce0ce760","icon":"/api/icons/0051CA/False/template/110.png"},"source":"geoconfirmed","source_name":"GeoConfirmed","source_url":"https://geoconfirmed.org/map/ukraine","id":"19ab1c46-1be8-4992-a940-5091ce0ce760","date":"2026-08-28","link":"https://geoconfirmed.org/map/ukraine/19ab1c46-1be8-4992-a940-5091ce0ce760","category":"Multipurpose Bomber Drone, Flying OR Dropping OR bombing a target without knowing the outcome: if something is damaged --> icon of the damaged equipment.","side":"Ukraine","color":"#0051CA","description":"0:11-0:21 - 1st Mechanized Battalion, 24th Mechanized Brigade hits alleged Russian presence south of Stinky with Vampire Drone Drops","orbat":["1st Mechanized Battalion"],"geolocation":["https://x.com/AudaxonX/status/2096608022139158538"],"sources":["https://x.com/AudaxonX/status/2096608072303083672","https://www.instagram.com/1mb_24army/reel/DclaipHMyDw"]}},{"type":"Feature","geometry":{"type":"Point","coordinates":[37.02068,48.101824]},"properties":{"original":{"Date":"2026-08-28","Name":"28 AUG 2026","Faction":"Ukraine","Origin":"UAV","Latitude":"48.101824","Longitude":"37.02068","PlusCode":"8GWV422C+P7 Sribne, Donetsk Oblast, Ukraine","Description":"0:11-0:13 - A vehicle was hit by an FPV from UAS Battalion \"Perun\"","Source":"(1/2), https://x.com/666_mancer/status/2094406770567377188, https://t.me/ssternenko/62967","Geolocation":"https://x.com/neonhandrail/status/2094416391541776702","Equipment":"UNK (vehicle)","EquipmentItems":"FPV (First Person View) OWAD (One Way Attack Drone)","Units":"","OrbatUnits":"UAS Battalion \"Perun\"","Id":"fc3d40fc-b6cd-44a2-bb22-63e1f2007813","icon":"/api/icons/0051CA/False/template/111.png"},"source":"geoconfirmed","source_name":"GeoConfirmed","source_url":"https://geoconfirmed.org/map/ukraine","id":"fc3d40fc-b6cd-44a2-bb22-63e1f2007813","date":"2026-08-28","link":"https://geoconfirmed.org/map/ukraine/fc3d40fc-b6cd-44a2-bb22-63e1f2007813","category":"Short Range (<50km) OWAD (One Way Attack Drone), mostly rotary wing, Flying OR Attacking a target without knowing the outcome: if something is damaged --> icon of the damaged equipment.","side":"Ukraine","color":"#0051CA","description":"0:11-0:13 - A vehicle was hit by an FPV from UAS Battalion \"Perun\"","orbat":["UAS Battalion \"Perun\""],"geolocation":["https://x.com/neonhandrail/status/2094416391541776702"],"sources":["https://x.com/666_mancer/status/2094406770567377188","https://t.me/ssternenko/62967"]}},{"type":"Feature","geometry":{"type":"Point","coordinates":[30.17579,50.44237]},"properties":{"original":{"Date":"2026-08-28","Name":"28 AUG 2026","Faction":"Russia","Origin":"VID","Latitude":"50.44237","Longitude":"30.17579","PlusCode":"9G2GC5RG+W8 Myla, Kyiv Oblast, Ukraine","Description":"Rough point of view at 0:04, driving in a west direction: a large explosion occurred in Myla. Allegedly, the explosion was at a missile depot.","Source":"https://x.com/zarGEOINT/status/2093411533527130573, https://x.com/3_bm15/status/2093414894875938857, (2/5), https://t.me/kievinfo_kyiv/95536, (5/5), https://t.me/voenacher/95920, ","Geolocation":"https://x.com/zarGEOINT/status/2093413759989559559, https://x.com/3_bm15/status/2093414897820336271","Equipment":"","EquipmentItems":"","Units":"","OrbatUnits":"","Id":"846380b9-8da5-4eca-bf1e-7c4c2de51c4a","icon":"/api/icons/E00000/False/template/30.png"},"source":"geoconfirmed","source_name":"GeoConfirmed","source_url":"https://geoconfirmed.org/map/ukraine","id":"846380b9-8da5-4eca-bf1e-7c4c2de51c4a","date":"2026-08-28","link":"https://geoconfirmed.org/map/ukraine/846380b9-8da5-4eca-bf1e-7c4c2de51c4a","category":"Video - Always Point of View in description - In the colour of who is doing the attack or is responsable for the incident in the video.","side":"Russia","color":"#E00000","description":"Rough point of view at 0:04, driving in a west direction: a large explosion occurred in Myla. Allegedly, the explosion was at a missile depot.","orbat":[],"geolocation":["https://x.com/zarGEOINT/status/2093413759989559559","https://x.com/3_bm15/status/2093414897820336271"],"sources":["https://x.com/zarGEOINT/status/2093411533527130573","https://x.com/3_bm15/status/2093414894875938857","https://t.me/kievinfo_kyiv/95536","https://t.me/voenacher/95920"]}},{"type":"Feature","geometry":{"type":"Point","coordinates":[36.32844,50.02893]},"properties":{"original":{"Date":"2026-08-28","Name":"28 AUG 2026","Faction":"Neutral","Origin":"VID","Latitude":"50.02893","Longitude":"36.32844","PlusCode":"9G2R28HH+H9 Kharkiv, Kharkiv Oblast, Ukraine","Description":"Alleged Russian drone strike hit the Karavan shopping mall in Kharkiv","Source":"https://x.com/zarGEOINT/status/2093253668371841268, https://t.me/jenya_zub_live_news/59872, ","Geolocation":"https://x.com/zarGEOINT/status/2093255579007389986","Equipment":"","EquipmentItems":"","Units":"","OrbatUnits":"","Id":"ff534283-f920-49c9-b738-899655a5d597","icon":"/api/icons/AC7339/False/template/192.png"},"source":"geoconfirmed","source_name":"GeoConfirmed","source_url":"https://geoconfirmed.org/map/ukraine","id":"ff534283-f920-49c9-b738-899655a5d597","date":"2026-08-28","link":"https://geoconfirmed.org/map/ukraine/ff534283-f920-49c9-b738-899655a5d597","category":"Recently destroyed/Damaged[Visible in footage] or still burning infrastucture","side":"Neutral","color":"#AC7339","description":"Alleged Russian drone strike hit the Karavan shopping mall in Kharkiv","orbat":[],"geolocation":["https://x.com/zarGEOINT/status/2093255579007389986"],"sources":["https://x.com/zarGEOINT/status/2093253668371841268","https://t.me/jenya_zub_live_news/59872"]}},{"type":"Feature","geometry":{"type":"Point","coordinates":[34.9975,47.82801]},"properties":{"original":{"Date":"2026-08-28","Name":"28 AUG 2026","Faction":"Neutral","Origin":"PIC","Latitude":"47.82801","Longitude":"34.9975","PlusCode":"8GVPRXHX+62 Zaporizhzhia, Zaporizhia Oblast, Ukraine","Description":"Alleged Russian strike hit Khortytsia Global Spirits liquor and vodka factory in Zaporizhzhia","Source":"https://x.com/blyskavka_ua/status/2093243443107500117","Geolocation":"https://x.com/zarGEOINT/status/2093264060930248933","Equipment":"","EquipmentItems":"","Units":"","OrbatUnits":"","Id":"01d5296b-4cb1-417f-90ba-b093bdaf1fc0","icon":"/api/icons/AC7339/False/template/192.png"},"source":"geoconfirmed","source_name":"GeoConfirmed","source_url":"https://geoconfirmed.org/map/ukraine","id":"01d5296b-4cb1-417f-90ba-b093bdaf1fc0","date":"2026-08-28","link":"https://geoconfirmed.org/map/ukraine/01d5296b-4cb1-417f-90ba-b093bdaf1fc0","category":"Recently destroyed/Damaged[Visible in footage] or still burning infrastucture","side":"Neutral","color":"#AC7339","description":"Alleged Russian strike hit Khortytsia Global Spirits liquor and vodka factory in Zaporizhzhia","orbat":[],"geolocation":["https://x.com/zarGEOINT/status/2093264060930248933"],"sources":["https://x.com/blyskavka_ua/status/2093243443107500117"]}},{"type":"Feature","geometry":{"type":"Point","coordinates":[33.483161,44.604025]},"properties":{"original":{"Date":"2026-08-28","Name":"28 AUG 2026","Faction":"Neutral","Origin":"PIC","Latitude":"44.604025","Longitude":"33.483161","PlusCode":"8GPMJF3M+J7 Sevastopol","Description":"A Ukrainian drone hit a residential building in Sevastopol, four people were injured","Source":"https://t.me/ostorozhno_novosti/54138","Geolocation":"https://bsky.app/profile/scaratlas.bsky.social/post/3mu4neeqdo224","Equipment":"presumed","EquipmentItems":"Fixed Wing OWAD (One Way Attack Drone)","Units":"","OrbatUnits":"","Id":"0d1e0270-998c-4414-82b2-b549165ad69e","icon":"/api/icons/AC7339/False/template/192.png"},"source":"geoconfirmed","source_name":"GeoConfirmed","source_url":"https://geoconfirmed.org/map/ukraine","id":"0d1e0270-998c-4414-82b2-b549165ad69e","date":"2026-08-28","link":"https://geoconfirmed.org/map/ukraine/0d1e0270-998c-4414-82b2-b549165ad69e","category":"Recently destroyed/Damaged[Visible in footage] or still burning infrastucture","side":"Neutral","color":"#AC7339","description":"A Ukrainian drone hit a residential building in Sevastopol, four people were injured","orbat":[],"geolocation":["https://bsky.app/profile/scaratlas.bsky.social/post/3mu4neeqdo224"],"sources":["https://t.me/ostorozhno_novosti/54138"]}},{"type":"Feature","geometry":{"type":"Point","coordinates":[36.287361,49.936974]},"properties":{"original":{"Date":"2026-08-28","Name":"28 AUG 2026","Faction":"Russia","Origin":"PIC","Latitude":"49.936974","Longitude":"36.287361","PlusCode":"8GXRW7PP+QW Kharkiv, Kharkiv Oblast, Ukraine","Description":"A deceased woman in a bus after a Russian drone attacked a gas station.","Source":"Pic1: https://x.com/99Dominik_/status/2093400174970208427, https://t.me/suspilne_kharkiv/100092, , Pic2: https://x.com/99Dominik_/status/2093400386480611417, https://t.me/dsns_telegram/73007, ","Geolocation":"https://x.com/99Dominik_/status/2093399839404925054","Equipment":"","EquipmentItems":"Geran-5","Units":"","OrbatUnits":"","Id":"4c775aea-10d4-4789-9999-b7324e2e8491","icon":"/api/icons/E00000/False/template/50.png"},"source":"geoconfirmed","source_name":"GeoConfirmed","source_url":"https://geoconfirmed.org/map/ukraine","id":"4c775aea-10d4-4789-9999-b7324e2e8491","date":"2026-08-28","link":"https://geoconfirmed.org/map/ukraine/4c775aea-10d4-4789-9999-b7324e2e8491","category":"Killed or wounded civilian. Potential Warcrime. In the colour of who is assessed as doing the attack/killing.","side":"Russia","color":"#E00000","description":"A deceased woman in a bus after a Russian drone attacked a gas station.","orbat":[],"geolocation":["https://x.com/99Dominik_/status/2093399839404925054"],"sources":["https://x.com/99Dominik_/status/2093400174970208427","https://t.me/suspilne_kharkiv/100092","https://x.com/99Dominik_/status/2093400386480611417","https://t.me/dsns_telegram/73007"]}},{"type":"Feature","geometry":{"type":"Point","coordinates":[35.117122,51.024683]},"properties":{"original":{"Date":"2026-08-28","Name":"28 AUG 2026","Faction":"Russia","Origin":"UAV","Latitude":"51.024683","Longitude":"35.117122","PlusCode":"9G3Q24F8+VR Mohrytsya, Sumy Oblast, Ukraine","Description":"Russian soldiers showing a Russian flag to a drone in Mohrytsya","Source":"https://x.com/franfran2424/status/2093925174227693861, https://t.me/warriorofnorth/21578","Geolocation":"https://x.com/richardzai38580/status/2093322597840613725","Equipment":"","EquipmentItems":"","Units":"","OrbatUnits":"","Id":"dee5e5d9-aaaf-44b4-b678-b821b04b3deb","icon":"/api/icons/E00000/False/template/100.png"},"source":"geoconfirmed","source_name":"GeoConfirmed","source_url":"https://geoconfirmed.org/map/ukraine","id":"dee5e5d9-aaaf-44b4-b678-b821b04b3deb","date":"2026-08-28","link":"https://geoconfirmed.org/map/ukraine/dee5e5d9-aaaf-44b4-b678-b821b04b3deb","category":"Civilian or Soldier or Militant (Depending on the colour)","side":"Russia","color":"#E00000","description":"Russian soldiers showing a Russian flag to a drone in Mohrytsya","orbat":[],"geolocation":["https://x.com/richardzai38580/status/2093322597840613725"],"sources":["https://x.com/franfran2424/status/2093925174227693861","https://t.me/warriorofnorth/21578"]}},{"type":"Feature","geometry":{"type":"Point","coordinates":[30.34217,50.38702]},"properties":{"original":{"Date":"2026-08-28","Name":"28 AUG 2026","Faction":"Neutral","Origin":"PIC","Latitude":"50.38702","Longitude":"30.34217","PlusCode":"9G2G98PR+RV Vyshneve, Kyiv Oblast, Ukraine","Description":"Russian strike hit Ukrainian Fozzy hypermarket in Vyshneve","Source":"https://x.com/Maks_NAFO_FELLA/status/2093328939070443572, https://t.me/vishneve_online/1622","Geolocation":"https://x.com/zarGEOINT/status/2093344451762573408","Equipment":"","EquipmentItems":"","Units":"","OrbatUnits":"","Id":"01608ce1-bcbb-4f7b-9928-be3bb6da0f6f","icon":"/api/icons/AC7339/False/template/192.png"},"source":"geoconfirmed","source_name":"GeoConfirmed","source_url":"https://geoconfirmed.org/map/ukraine","id":"01608ce1-bcbb-4f7b-9928-be3bb6da0f6f","date":"2026-08-28","link":"https://geoconfirmed.org/map/ukraine/01608ce1-bcbb-4f7b-9928-be3bb6da0f6f","category":"Recently destroyed/Damaged[Visible in footage] or still burning infrastucture","side":"Neutral","color":"#AC7339","description":"Russian strike hit Ukrainian Fozzy hypermarket in Vyshneve","orbat":[],"geolocation":["https://x.com/zarGEOINT/status/2093344451762573408"],"sources":["https://x.com/Maks_NAFO_FELLA/status/2093328939070443572","https://t.me/vishneve_online/1622"]}},{"type":"Feature","geometry":{"type":"Point","coordinates":[37.705466,49.073653]},"properties":{"original":{"Date":"2026-08-28","Name":"28 AUG 2026","Faction":"Ukraine","Origin":"PIC","Latitude":"49.073653","Longitude":"37.705466","PlusCode":"8GXV3PF4+F5 Novoselivka, Donetsk Oblast, Ukraine","Description":"Ukrainian soldier at the entrance sign of Novoselivka, Donetsk Oblast, Ukraine","Source":"https://x.com/clement_molin/status/2094160178304463079, (1/2), https://x.com/ukrliberation/status/2094219482369507501, https://t.me/THakYukiKatz/212, , Referenced footage:, https://www.radiosvoboda.org/a/reportazh-novoselivka-donechchyna/33195935.html, , Referenced footage:, https://x.com/ZoamSc2/status/2094226411494281623, 0:40 - https://t.me/kraken_ab3/972","Geolocation":"(2/2), https://x.com/ukrliberation/status/2094219482369507501","Equipment":"","EquipmentItems":"","Units":"UNK","OrbatUnits":"","Id":"6f839299-d568-4d1f-bf37-c488faa7caf8","icon":"/api/icons/0051CA/False/template/100.png"},"source":"geoconfirmed","source_name":"GeoConfirmed","source_url":"https://geoconfirmed.org/map/ukraine","id":"6f839299-d568-4d1f-bf37-c488faa7caf8","date":"2026-08-28","link":"https://geoconfirmed.org/map/ukraine/6f839299-d568-4d1f-bf37-c488faa7caf8","category":"Civilian or Soldier or Militant (Depending on the colour)","side":"Ukraine","color":"#0051CA","description":"Ukrainian soldier at the entrance sign of Novoselivka, Donetsk Oblast, Ukraine","orbat":["UNK"],"geolocation":["https://x.com/ukrliberation/status/2094219482369507501"],"sources":["https://x.com/clement_molin/status/2094160178304463079","https://x.com/ukrliberation/status/2094219482369507501","https://t.me/THakYukiKatz/212","https://www.radiosvoboda.org/a/reportazh-novoselivka-donechchyna/33195935.html","https://x.com/ZoamSc2/status/2094226411494281623","https://t.me/kraken_ab3/972"]}},{"type":"Feature","geometry":{"type":"Point","coordinates":[36.299465,50.471701]},"properties":{"original":{"Date":"2026-08-28","Name":"28 AUG 2026","Faction":"Ukraine","Origin":"UAV","Latitude":"50.471701","Longitude":"36.299465","PlusCode":"9G2RF7CX+MQ Krasnyi Oktyabr', Russia","Description":"A drone by the company The Fourth Law operated by the 58th brigade of Ukraine hits a car, reportedly with autonomous terminal guidance.","Source":"https://x.com/thefourthlawai/status/2093282996149215396, https://www.instagram.com/p/DclGLHTz6Ap/","Geolocation":"https://x.com/blinzka/status/2093393193760903386","Equipment":"","EquipmentItems":"FPV (First Person View) OWAD (One Way Attack Drone)","Units":"","OrbatUnits":"58th Motorized Brigade","Id":"d18bd691-20b5-4892-9705-e6ee89eac6b5","icon":"/api/icons/0051CA/False/template/111.png"},"source":"geoconfirmed","source_name":"GeoConfirmed","source_url":"https://geoconfirmed.org/map/ukraine","id":"d18bd691-20b5-4892-9705-e6ee89eac6b5","date":"2026-08-28","link":"https://geoconfirmed.org/map/ukraine/d18bd691-20b5-4892-9705-e6ee89eac6b5","category":"Short Range (<50km) OWAD (One Way Attack Drone), mostly rotary wing, Flying OR Attacking a target without knowing the outcome: if something is damaged --> icon of the damaged equipment.","side":"Ukraine","color":"#0051CA","description":"A drone by the company The Fourth Law operated by the 58th brigade of Ukraine hits a car, reportedly with autonomous terminal guidance.","orbat":["58th Motorized Brigade"],"geolocation":["https://x.com/blinzka/status/2093393193760903386"],"sources":["https://x.com/thefourthlawai/status/2093282996149215396","https://www.instagram.com/p/DclGLHTz6Ap/"]}},{"type":"Feature","geometry":{"type":"Point","coordinates":[35.189842,47.784321]},"properties":{"original":{"Date":"2026-08-28","Name":"28 AUG 2026","Faction":"Neutral","Origin":"PIC","Latitude":"47.784321","Longitude":"35.189842","PlusCode":"8GVQQ5MQ+PW Zaporizhzhia, Zaporizhia Oblast, Ukraine","Description":"A Russian Shahed/Geran drone hit a house.","Source":"https://x.com/99Dominik_/status/2093358215626891750, https://t.me/info_zp/162628, Pic2, https://x.com/99Dominik_/status/2093374706602652033, https://t.me/suspilnezaporizhzhya/60893, Vid, Moment of attack, https://x.com/99Dominik_/status/2093358564530074095, https://t.me/eyes_everywhere_ua/134677, , ","Geolocation":"https://x.com/99Dominik_/status/2093357876538384661","Equipment":"","EquipmentItems":"Geran/Shahed UNK Type","Units":"","OrbatUnits":"","Id":"3cef3656-1232-4252-9534-fcdbab805286","icon":"/api/icons/AC7339/False/template/192.png"},"source":"geoconfirmed","source_name":"GeoConfirmed","source_url":"https://geoconfirmed.org/map/ukraine","id":"3cef3656-1232-4252-9534-fcdbab805286","date":"2026-08-28","link":"https://geoconfirmed.org/map/ukraine/3cef3656-1232-4252-9534-fcdbab805286","category":"Recently destroyed/Damaged[Visible in footage] or still burning infrastucture","side":"Neutral","color":"#AC7339","description":"A Russian Shahed/Geran drone hit a house.","orbat":[],"geolocation":["https://x.com/99Dominik_/status/2093357876538384661"],"sources":["https://x.com/99Dominik_/status/2093358215626891750","https://t.me/info_zp/162628","https://x.com/99Dominik_/status/2093374706602652033","https://t.me/suspilnezaporizhzhya/60893","https://x.com/99Dominik_/status/2093358564530074095","https://t.me/eyes_everywhere_ua/134677"]}},{"type":"Feature","geometry":{"type":"Point","coordinates":[30.340793,50.38049]},"properties":{"original":{"Date":"2026-08-28","Name":"28 AUG 2026","Faction":"Russia","Origin":"VID","Latitude":"50.38049","Longitude":"30.340793","PlusCode":"9G2G98JR+58 Vyshneve, Kyiv Oblast, Ukraine","Description":"Deceased person after an alleged Russian drone strike.","Source":"VID, https://x.com/99Dominik_/status/2093255776324255761, https://t.me/kyiv_golovne/79631, , PIC, https://x.com/99Dominik_/status/2093256365770674526, https://t.me/dsns_telegram/72955","Geolocation":"https://x.com/99Dominik_/status/2093255467136897521","Equipment":"(alleged)","EquipmentItems":"Fixed Wing OWAD (One Way Attack Drone)","Units":"","OrbatUnits":"","Id":"bbe9b13a-6dd3-4470-8930-fd71b36ac95d","icon":"/api/icons/E00000/False/template/50.png"},"source":"geoconfirmed","source_name":"GeoConfirmed","source_url":"https://geoconfirmed.org/map/ukraine","id":"bbe9b13a-6dd3-4470-8930-fd71b36ac95d","date":"2026-08-28","link":"https://geoconfirmed.org/map/ukraine/bbe9b13a-6dd3-4470-8930-fd71b36ac95d","category":"Killed or wounded civilian. Potential Warcrime. In the colour of who is assessed as doing the attack/killing.","side":"Russia","color":"#E00000","description":"Deceased person after an alleged Russian drone strike.","orbat":[],"geolocation":["https://x.com/99Dominik_/status/2093255467136897521"],"sources":["https://x.com/99Dominik_/status/2093255776324255761","https://t.me/kyiv_golovne/79631","https://x.com/99Dominik_/status/2093256365770674526","https://t.me/dsns_telegram/72955"]}}]}