{"type":"FeatureCollection","features":[{"type":"Feature","geometry":{"type":"Point","coordinates":[38.708444,48.372861]},"properties":{"original":{"id":47155,"type":"Radars, jammers","model":"Antenna vehicle based on KamAZ 6x6 (for 35N6 'Kasta' surveillance radar)","status":"Destroyed","lost_by":"Russia","date":"2026-09-15","nearest_location":"Adrianopil, Alchevsk raion","geo":"48.372861,38.708444","unit":null,"tags":null},"source":"warspotting","source_name":"WarSpotting","source_url":"https://ukr.warspotting.net/","id":47155,"date":"2026-09-15","link":"https://ukr.warspotting.net/view/47155/","category":"Radars, jammers","side":"Lost by Russia","color":"#E00000","description":"Antenna vehicle based on KamAZ 6x6 (for 35N6 'Kasta' surveillance radar) · Destroyed · near Adrianopil, Alchevsk raion","orbat":[]}},{"type":"Feature","geometry":{"type":"Point","coordinates":[38.708336,48.372997]},"properties":{"original":{"id":47156,"type":"Command posts, communication","model":"Command post based on KamAZ 6x6 (for 35N6 'Kasta' surveillance radar)","status":"Destroyed","lost_by":"Russia","date":"2026-09-15","nearest_location":"Adrianopil, Alchevsk raion","geo":"48.372997,38.708336","unit":null,"tags":null},"source":"warspotting","source_name":"WarSpotting","source_url":"https://ukr.warspotting.net/","id":47156,"date":"2026-09-15","link":"https://ukr.warspotting.net/view/47156/","category":"Command posts, communication","side":"Lost by Russia","color":"#E00000","description":"Command post based on KamAZ 6x6 (for 35N6 'Kasta' surveillance radar) · Destroyed · near Adrianopil, Alchevsk raion","orbat":[]}}]}