{"type":"FeatureCollection","features":[{"type":"Feature","geometry":null,"properties":{"source":"ua_mod","source_name":"Ministry of Defence of Ukraine","group":"official_ua","id":16023,"posted_utc":"2026-08-14T06:18:07+00:00","link":"https://t.me/ministry_of_defense_ua/16023","text":"🛠️ Тимчасові труднощі з входом в Армія+\nНаразі у застосунку можуть виникати помилки під час авторизації. Наші фахівці вже працюють над відновленням стабільної роботи.\nЯк тільки все виправимо — повідомимо вам.\nПерепрошуємо за тимчасові незручності та дякуємо за розуміння.","links":[],"original_html":"<b><i class=\"emoji\" style=\"background-image:url('//telegram.org/img/emoji/40/F09F9BA0.png')\"><b>🛠️</b></i> Тимчасові труднощі з входом в Армія+</b><br/> <br/>Наразі у застосунку можуть виникати помилки під час авторизації. Наші фахівці вже працюють над відновленням стабільної роботи. <br/><br/>Як тільки все виправимо — повідомимо вам. <br/><br/>Перепрошуємо за тимчасові незручності та дякуємо за розуміння."}},{"type":"Feature","geometry":null,"properties":{"source":"ua_mod","source_name":"Ministry of Defence of Ukraine","group":"official_ua","id":16024,"posted_utc":"2026-08-14T08:52:47+00:00","link":"https://t.me/ministry_of_defense_ua/16024","text":"✅ Роботу Армія+ повністю відновлено\nАвторизація у застосунку знову працює в штатному режимі. Усі технічні труднощі усунено. Дякуємо за терпіння.\nЯкщо досі не вдається увійти, спробуйте перезапустити застосунок. Якщо й це не допоможе, зверніться до нашої служби підтримки на сайті Армія+: https://aplus.mod.gov.ua/recover","links":["https://aplus.mod.gov.ua/recover"],"original_html":"<b><i class=\"emoji\" style=\"background-image:url('//telegram.org/img/emoji/40/E29C85.png')\"><b>✅</b></i> Роботу Армія+ повністю відновлено</b><br/><b><br/></b>Авторизація у застосунку знову працює в штатному режимі. Усі технічні труднощі усунено. Дякуємо за терпіння.<br/><br/>Якщо досі не вдається увійти, спробуйте перезапустити застосунок. Якщо й це не допоможе, зверніться до нашої служби підтримки на сайті Армія+: <a href=\"https://aplus.mod.gov.ua/recover\" target=\"_blank\" rel=\"noopener\">https://aplus.mod.gov.ua/recover</a>"}},{"type":"Feature","geometry":null,"properties":{"source":"ua_mod","source_name":"Ministry of Defence of Ukraine","group":"official_ua","id":16025,"posted_utc":"2026-08-14T09:18:57+00:00","link":"https://t.me/ministry_of_defense_ua/16025","text":"🤝 Російські танки в’їдуть до Європи. Але тільки як музейні експонати.\nЗа ініціативи Міністерства оборони та Міністерства культури України уряд дозволив безоплатно передавати знищену ворожу техніку іноземним музеям.\nЗокрема, музеї Литви, Латвії, Естонії, Данії та Нідерландів отримають підбиті трофейні танки Т-72.\nТак російська зброя, яка мала знищувати Україну, стає матеріальним свідченням російської агресії та частиною історії нашої боротьби за незалежність.","links":["https://mod.gov.ua/news/ukraina-peredaie-muzeiam-derzhav-partneriv-zrazky-znyshchenoi-tekhniky-rf?utm_source=mod-telegram&utm_medium=social"],"original_html":"<b><i class=\"emoji\" style=\"background-image:url('//telegram.org/img/emoji/40/F09FA49D.png')\"><b>🤝</b></i></b> <b>Російські танки в’їдуть до Європи. Але тільки як музейні експонати.<br/></b><br/>За ініціативи Міністерства оборони та Міністерства культури України уряд дозволив безоплатно <a href=\"https://mod.gov.ua/news/ukraina-peredaie-muzeiam-derzhav-partneriv-zrazky-znyshchenoi-tekhniky-rf?utm_source=mod-telegram&amp;amp;utm_medium=social\" target=\"_blank\" rel=\"noopener\" onclick=\"return confirm('Open this link?\\n\\n'+this.href);\">передавати знищену ворожу техніку</a> іноземним музеям. <br/><br/>Зокрема, музеї Литви, Латвії, Естонії, Данії та Нідерландів отримають підбиті трофейні танки Т-72. <br/><br/>Так російська зброя, яка мала знищувати Україну, стає матеріальним свідченням російської агресії та частиною історії нашої боротьби за незалежність."}},{"type":"Feature","geometry":null,"properties":{"source":"ua_mod","source_name":"Ministry of Defence of Ukraine","group":"official_ua","id":16026,"posted_utc":"2026-08-14T11:21:35+00:00","link":"https://t.me/ministry_of_defense_ua/16026","text":"📈 Понад 1 мільйона дронів за рік отримали військові через DOT-Chain Defence.\nМаркетплейс дає підрозділам змогу самостійно обирати безпілотники, боєприпаси до них та РЕБ під конкретні бойові завдання, а Агенція оборонних закупівель ДОТ бере на себе контракти, оплату та логістику.\nЗамість багатомісячного циклу закупівель — у середньому 9 днів для доставки техніки в наявності. Замість централізованого вибору — рішення військових, які найкраще знають умови своєї ділянки фронту.\nРік тому DOT-Chain Defence стартував із 12 бойових бригад. Сьогодні системою користуються 486 підрозділів Сил оборони України. НАТО, Франція та США оголосили про запуск аналогічних маркетплейсів дронів.","links":["https://mod.gov.ua/news/viiskovi-za-rik-otrymaly-ponad-milion-droniv-cherez-dot-chain-defence"],"original_html":"<b><i class=\"emoji\" style=\"background-image:url('//telegram.org/img/emoji/40/F09F9388.png')\"><b>📈</b></i> Понад 1 мільйона дронів за рік отримали військові через DOT-Chain Defence.</b><br/><br/>Маркетплейс дає підрозділам змогу самостійно обирати <a href=\"https://mod.gov.ua/news/viiskovi-za-rik-otrymaly-ponad-milion-droniv-cherez-dot-chain-defence\" target=\"_blank\" rel=\"noopener\" onclick=\"return confirm('Open this link?\\n\\n'+this.href);\">безпілотники, боєприпаси до них та РЕБ</a> під конкретні бойові завдання, а Агенція оборонних закупівель ДОТ бере на себе контракти, оплату та логістику.<br/><br/>Замість багатомісячного циклу закупівель — у середньому 9 днів для доставки техніки в наявності. Замість централізованого вибору — рішення військових, які найкраще знають умови своєї ділянки фронту.<br/><br/>Рік тому DOT-Chain Defence стартував із 12 бойових бригад. Сьогодні системою користуються 486 підрозділів Сил оборони України. НАТО, Франція та США оголосили про запуск аналогічних маркетплейсів дронів."}},{"type":"Feature","geometry":null,"properties":{"source":"ua_mod","source_name":"Ministry of Defence of Ukraine","group":"official_ua","id":16027,"posted_utc":"2026-08-14T14:36:33+00:00","link":"https://t.me/ministry_of_defense_ua/16027","text":"Зима буде спекотною🔥","links":[],"original_html":"Зима буде спекотною<i class=\"emoji\" style=\"background-image:url('//telegram.org/img/emoji/40/F09F94A5.png')\"><b>🔥</b></i>"}}]}