{"type":"FeatureCollection","features":[{"type":"Feature","geometry":{"type":"Point","coordinates":[36.30603,47.858872]},"properties":{"original":{"Date":"2026-08-03","Name":"03 AUG 2026","Faction":"Russia","Origin":"UAV","Latitude":"47.858872","Longitude":"36.30603","PlusCode":"8GVRV79G+W3 Yehorivka, Dnipropetrovsk Oblast, Ukraine","Description":"Start-0:02 - 64th Motor Rifle Brigade attacking claimed Ukrainian position with FPV drone in Yehorivka, Dnipropetrovsk Oblast ","Source":"https://x.com/Bielitzling/status/2084400987544879255, https://t.me/voin_dv/20520","Geolocation":"https://x.com/Bielitzling/status/2084406812313309584","Equipment":"","EquipmentItems":"FPV (First Person View) OWAD (One Way Attack Drone)","Units":"","OrbatUnits":"64th Guards Motorized Rifle Brigade","Id":"6680b6c4-8f34-4b33-a2f9-02afc702db06","icon":"/api/icons/E00000/False/template/111.png"},"source":"geoconfirmed","source_name":"GeoConfirmed","source_url":"https://geoconfirmed.org/map/ukraine","id":"6680b6c4-8f34-4b33-a2f9-02afc702db06","date":"2026-08-03","link":"https://geoconfirmed.org/map/ukraine/6680b6c4-8f34-4b33-a2f9-02afc702db06","category":"Short Range (<50km) OWAD (One Way Attack Drone), mostly rotary wing, Flying OR Attacking a target without knowing the outcome: if something is damaged --> icon of the damaged equipment.","side":"Russia","color":"#E00000","description":"Start-0:02 - 64th Motor Rifle Brigade attacking claimed Ukrainian position with FPV drone in Yehorivka, Dnipropetrovsk Oblast","orbat":["64th Guards Motorized Rifle Brigade"],"geolocation":["https://x.com/Bielitzling/status/2084406812313309584"],"sources":["https://x.com/Bielitzling/status/2084400987544879255","https://t.me/voin_dv/20520"]}},{"type":"Feature","geometry":{"type":"Point","coordinates":[36.277293,47.869266]},"properties":{"original":{"Date":"2026-08-03","Name":"03 AUG 2026","Faction":"Russia","Origin":"UAV","Latitude":"47.869266","Longitude":"36.277293","PlusCode":"8GVRV79G+PW Yehorivka, Dnipropetrovsk Oblast, Ukraine","Description":"0:02-0:04 - 64th Motor Rifle Brigade attacking claimed Ukrainian position with FPV drone in Yehorivka, Dnipropetrovsk Oblast ","Source":"https://x.com/Bielitzling/status/2084400987544879255, https://t.me/voin_dv/20520","Geolocation":"https://x.com/Bielitzling/status/2084406812313309584","Equipment":"","EquipmentItems":"FPV (First Person View) OWAD (One Way Attack Drone)","Units":"","OrbatUnits":"64th Guards Motorized Rifle Brigade","Id":"f8c99a20-d19f-4f36-8091-082153a4ec2d","icon":"/api/icons/E00000/False/template/111.png"},"source":"geoconfirmed","source_name":"GeoConfirmed","source_url":"https://geoconfirmed.org/map/ukraine","id":"f8c99a20-d19f-4f36-8091-082153a4ec2d","date":"2026-08-03","link":"https://geoconfirmed.org/map/ukraine/f8c99a20-d19f-4f36-8091-082153a4ec2d","category":"Short Range (<50km) OWAD (One Way Attack Drone), mostly rotary wing, Flying OR Attacking a target without knowing the outcome: if something is damaged --> icon of the damaged equipment.","side":"Russia","color":"#E00000","description":"0:02-0:04 - 64th Motor Rifle Brigade attacking claimed Ukrainian position with FPV drone in Yehorivka, Dnipropetrovsk Oblast","orbat":["64th Guards Motorized Rifle Brigade"],"geolocation":["https://x.com/Bielitzling/status/2084406812313309584"],"sources":["https://x.com/Bielitzling/status/2084400987544879255","https://t.me/voin_dv/20520"]}},{"type":"Feature","geometry":{"type":"Point","coordinates":[37.386792,47.243727]},"properties":{"original":{"Date":"2026-08-03","Name":"03 AUG 2026","Faction":"Ukraine","Origin":"VID","Latitude":"47.243727","Longitude":"37.386792","PlusCode":"8GVV69VP+FP Topolyne, Donetsk Oblast, Ukraine","Description":"1:11-1:18: The 1st Separate Centre USF \"Topolyne\" hit a 110 kV substation in Topolyne, Donetsk Oblast.","Source":"https://x.com/414magyarbirds/status/2084217027854782559, https://t.me/robert_magyar/2694","Geolocation":"https://x.com/MikiValbuena/status/2084643435173105825","Equipment":"","EquipmentItems":"FP-2 | Electrical Substation","Units":"","OrbatUnits":"1st Seperate SBS Center","Id":"f4aef544-9563-4e96-a37f-0841ba9237f4","icon":"/api/icons/0051CA/False/template/191.png"},"source":"geoconfirmed","source_name":"GeoConfirmed","source_url":"https://geoconfirmed.org/map/ukraine","id":"f4aef544-9563-4e96-a37f-0841ba9237f4","date":"2026-08-03","link":"https://geoconfirmed.org/map/ukraine/f4aef544-9563-4e96-a37f-0841ba9237f4","category":"Infrastructure","side":"Ukraine","color":"#0051CA","description":"1:11-1:18: The 1st Separate Centre USF \"Topolyne\" hit a 110 kV substation in Topolyne, Donetsk Oblast.","orbat":["1st Seperate SBS Center"],"geolocation":["https://x.com/MikiValbuena/status/2084643435173105825"],"sources":["https://x.com/414magyarbirds/status/2084217027854782559","https://t.me/robert_magyar/2694"]}},{"type":"Feature","geometry":{"type":"Point","coordinates":[37.606787,47.16352]},"properties":{"original":{"Date":"2026-08-03","Name":"03 AUG 2026","Faction":"Ukraine","Origin":"VID","Latitude":"47.16352","Longitude":"37.606787","PlusCode":"8GVV5J74+CP Mariupol, Donetsk Oblast, Ukraine","Description":"0:33-0:47 - The 413th Separate Regiment, USF 'Raid', targeted the 110 kV 'Misto-3' substation in Mariupol, Donetsk Oblast.","Source":"https://x.com/414magyarbirds/status/2084217027854782559, https://t.me/robert_magyar/2694","Geolocation":"https://x.com/MikiValbuena/status/2084643412813222157","Equipment":"","EquipmentItems":"Electrical Substation | FP-2","Units":"","OrbatUnits":"413th Unmanned Systems Regiment \"RAID\" \"РЕЙД\"","Id":"a06fc153-69dc-4e55-8da7-0b5b6eb7f8c8","icon":"/api/icons/0051CA/False/template/181.png"},"source":"geoconfirmed","source_name":"GeoConfirmed","source_url":"https://geoconfirmed.org/map/ukraine","id":"a06fc153-69dc-4e55-8da7-0b5b6eb7f8c8","date":"2026-08-03","link":"https://geoconfirmed.org/map/ukraine/a06fc153-69dc-4e55-8da7-0b5b6eb7f8c8","category":"Longe Range (>50km) OWAD (One Way Attack Drone) or Loitering munition, mostly fixed wing, Flying OR Attacking a target without knowing the outcome: if something is damaged --> icon of the damaged equipment.","side":"Ukraine","color":"#0051CA","description":"0:33-0:47 - The 413th Separate Regiment, USF 'Raid', targeted the 110 kV 'Misto-3' substation in Mariupol, Donetsk Oblast.","orbat":["413th Unmanned Systems Regiment \"RAID\" \"РЕЙД\""],"geolocation":["https://x.com/MikiValbuena/status/2084643412813222157"],"sources":["https://x.com/414magyarbirds/status/2084217027854782559","https://t.me/robert_magyar/2694"]}},{"type":"Feature","geometry":{"type":"Point","coordinates":[37.311683,47.209012]},"properties":{"original":{"Date":"2026-08-03","Name":"03 AUG 2026","Faction":"Ukraine","Origin":"VID","Latitude":"47.209012","Longitude":"37.311683","PlusCode":"8GVV6856+JM Mykilske, Donetsk Oblast, Ukraine","Description":"1:35-1:41 - The 1st Separate Centre USF \"Volodarska\" hit a 110 kV substation in Mykilske, Donetsk Oblast.","Source":"https://x.com/414magyarbirds/status/2084217027854782559, https://t.me/robert_magyar/2694","Geolocation":"https://x.com/MikiValbuena/status/2084643442823512466","Equipment":"","EquipmentItems":"FP-2 | Electrical Substation","Units":"","OrbatUnits":"1st Seperate SBS Center","Id":"7efb4846-9e3b-4322-980e-14ff90203818","icon":"/api/icons/0051CA/False/template/181.png"},"source":"geoconfirmed","source_name":"GeoConfirmed","source_url":"https://geoconfirmed.org/map/ukraine","id":"7efb4846-9e3b-4322-980e-14ff90203818","date":"2026-08-03","link":"https://geoconfirmed.org/map/ukraine/7efb4846-9e3b-4322-980e-14ff90203818","category":"Longe Range (>50km) OWAD (One Way Attack Drone) or Loitering munition, mostly fixed wing, Flying OR Attacking a target without knowing the outcome: if something is damaged --> icon of the damaged equipment.","side":"Ukraine","color":"#0051CA","description":"1:35-1:41 - The 1st Separate Centre USF \"Volodarska\" hit a 110 kV substation in Mykilske, Donetsk Oblast.","orbat":["1st Seperate SBS Center"],"geolocation":["https://x.com/MikiValbuena/status/2084643442823512466"],"sources":["https://x.com/414magyarbirds/status/2084217027854782559","https://t.me/robert_magyar/2694"]}},{"type":"Feature","geometry":{"type":"Point","coordinates":[33.271331,47.697881]},"properties":{"original":{"Date":"2026-08-03","Name":"03 AUG 2026","Faction":"Russia","Origin":"VID","Latitude":"47.697881","Longitude":"33.271331","PlusCode":"8GVMM7XC+5G Shyroke, Dnipropetrovsk Oblast, Ukraine","Description":"A gas station was hit by Russian drone. Reportedly three people were killed and six others were injured. Eduard Razlog with his eight-year-old son Maxim and 52-year-old gas station worker Tetyana Volkova., , ","Source":"Vid1, https://x.com/99Dominik_/status/2084284781605327148, https://t.me/suspilnednipro/67704, Pics, https://x.com/99Dominik_/status/2084284849179832323, https://t.me/dsns_telegram/70599, , More information about the victims:, 1&2:, https://x.com/99Dominik_/status/2084285733146124347, https://t.me/svoiKR/56299, 3:, https://x.com/99Dominik_/status/2084331135014711718, https://t.me/svoiKR/56309","Geolocation":"https://x.com/GeoConfirmed/status/2084346217212080221, https://x.com/99Dominik_/status/2084284605666861150","Equipment":"","EquipmentItems":"Fixed Wing OWAD (One Way Attack Drone) | Petrol/Gas station","Units":"","OrbatUnits":"","Id":"7ec4e995-09b1-47e5-9f63-1a48ae67480e","icon":"/api/icons/E00000/False/template/50.png"},"source":"geoconfirmed","source_name":"GeoConfirmed","source_url":"https://geoconfirmed.org/map/ukraine","id":"7ec4e995-09b1-47e5-9f63-1a48ae67480e","date":"2026-08-03","link":"https://geoconfirmed.org/map/ukraine/7ec4e995-09b1-47e5-9f63-1a48ae67480e","category":"Killed or wounded civilian. Potential Warcrime. In the colour of who is assessed as doing the attack/killing.","side":"Russia","color":"#E00000","description":"A gas station was hit by Russian drone. Reportedly three people were killed and six others were injured. Eduard Razlog with his eight-year-old son Maxim and 52-year-old gas station worker Tetyana Volkova., ,","orbat":[],"geolocation":["https://x.com/GeoConfirmed/status/2084346217212080221","https://x.com/99Dominik_/status/2084284605666861150"],"sources":["https://x.com/99Dominik_/status/2084284781605327148","https://t.me/suspilnednipro/67704","https://x.com/99Dominik_/status/2084284849179832323","https://t.me/dsns_telegram/70599","https://x.com/99Dominik_/status/2084285733146124347","https://t.me/svoiKR/56299","https://x.com/99Dominik_/status/2084331135014711718","https://t.me/svoiKR/56309"]}},{"type":"Feature","geometry":{"type":"Point","coordinates":[37.20096,48.36907]},"properties":{"original":{"Date":"2026-08-03","Name":"03 AUG 2026","Faction":"Russia","Origin":"UAV","Latitude":"48.36907","Longitude":"37.20096","PlusCode":"8GWV9692+J9 Rodyns'ke, Donetsk Oblast, Ukraine","Description":"0:00 - UA 3rd Group “NOTUS” of the “Wings Of Omega”, hit RU soldier north of Rodynske with FPV drone","Source":"https://x.com/meowqai/status/2084350511730335974, https://t.me/Centr_omega_NGU/10285","Geolocation":"https://x.com/meowqai/status/2084350511730335974","Equipment":"","EquipmentItems":"FPV (First Person View) OWAD (One Way Attack Drone)","Units":"3rd Group “NOTUS","OrbatUnits":"Special Purpose Unmanned Systems Detachment “Wings of Omega\"","Id":"cd4de581-e7f3-4179-b36e-2ef61513633c","icon":"/api/icons/E00000/False/template/92.png"},"source":"geoconfirmed","source_name":"GeoConfirmed","source_url":"https://geoconfirmed.org/map/ukraine","id":"cd4de581-e7f3-4179-b36e-2ef61513633c","date":"2026-08-03","link":"https://geoconfirmed.org/map/ukraine/cd4de581-e7f3-4179-b36e-2ef61513633c","category":"WIA/KIA Soldier/Militant","side":"Russia","color":"#E00000","description":"0:00 - UA 3rd Group “NOTUS” of the “Wings Of Omega”, hit RU soldier north of Rodynske with FPV drone","orbat":["Special Purpose Unmanned Systems Detachment “Wings of Omega\""],"geolocation":["https://x.com/meowqai/status/2084350511730335974"],"sources":["https://x.com/meowqai/status/2084350511730335974","https://t.me/Centr_omega_NGU/10285"]}},{"type":"Feature","geometry":{"type":"Point","coordinates":[35.787996,47.580223]},"properties":{"original":{"Date":"2026-08-03","Name":"03 AUG 2026","Faction":"Neutral","Origin":"UAV","Latitude":"47.580223","Longitude":"35.787996","PlusCode":"8GVQHQJQ+35 Orikhiv, Zaporizhia Oblast, Ukraine","Description":"Russian Airstrike on a damaged bridge","Source":"https://t.me/ZS42MSD/8514","Geolocation":"https://x.com/ne_kotletka/status/2084194046986097089","Equipment":"","EquipmentItems":"Airstrike | Bridge (Civilian)","Units":"","OrbatUnits":"71st Guards Motorized Rifle Regiment","Id":"91678747-8338-4bb7-80dc-380e71d5247e","icon":"/api/icons/AC7339/False/template/13.png"},"source":"geoconfirmed","source_name":"GeoConfirmed","source_url":"https://geoconfirmed.org/map/ukraine","id":"91678747-8338-4bb7-80dc-380e71d5247e","date":"2026-08-03","link":"https://geoconfirmed.org/map/ukraine/91678747-8338-4bb7-80dc-380e71d5247e","category":"Older destroyed brigde - if colour is used of a fighting faction = pontoon or similar bridge","side":"Neutral","color":"#AC7339","description":"Russian Airstrike on a damaged bridge","orbat":["71st Guards Motorized Rifle Regiment"],"geolocation":["https://x.com/ne_kotletka/status/2084194046986097089"],"sources":["https://t.me/ZS42MSD/8514"]}},{"type":"Feature","geometry":{"type":"Point","coordinates":[35.323846,51.202043]},"properties":{"original":{"Date":"2026-08-03","Name":"03 AUG 2026","Faction":"Russia","Origin":"UAV","Latitude":"51.202043","Longitude":"35.323846","PlusCode":"9G3Q682F+RG Mirnyi, Kursk Oblast, Russia","Description":"FPV strikes on a hidden Msta-S presumably destroy it, causing a large smoke solumn.","Source":"https://x.com/99Dominik_/status/2086488042756362622, https://www.facebook.com/watch/?v=1379029241033028","Geolocation":"https://x.com/99Dominik_/status/2086487623783075969, https://x.com/99Dominik_/status/2086489967560142913","Equipment":"","EquipmentItems":"2S19 Msta-S | Fiber Optic (FO) FPV (First Person View) OWAD (One Way Attack Drone)","Units":"","OrbatUnits":"68th Jaeger Brigade","Id":"0f474a58-f2c0-436e-acb6-3abbba69f915","icon":"/api/icons/E00000/False/template/02.png"},"source":"geoconfirmed","source_name":"GeoConfirmed","source_url":"https://geoconfirmed.org/map/ukraine","id":"0f474a58-f2c0-436e-acb6-3abbba69f915","date":"2026-08-03","link":"https://geoconfirmed.org/map/ukraine/0f474a58-f2c0-436e-acb6-3abbba69f915","category":"Recently Destroyed/Damaged[Visible in footage] Artillery","side":"Russia","color":"#E00000","description":"FPV strikes on a hidden Msta-S presumably destroy it, causing a large smoke solumn.","orbat":["68th Jaeger Brigade"],"geolocation":["https://x.com/99Dominik_/status/2086487623783075969","https://x.com/99Dominik_/status/2086489967560142913"],"sources":["https://x.com/99Dominik_/status/2086488042756362622","https://www.facebook.com/watch/?v=1379029241033028"]}},{"type":"Feature","geometry":{"type":"Point","coordinates":[36.11479,47.63967]},"properties":{"original":{"Date":"2026-08-03","Name":"03 AUG 2026","Faction":"Russia","Origin":"UAV","Latitude":"47.63967","Longitude":"36.11479","PlusCode":"8GVRJ4Q7+VW Hirke, Zaporizhia Oblast, Ukraine","Description":"Russia's 1st Separate Unmanned Systems Battalion hit a Ukrainian position west of Zaliznychne.","Source":"https://x.com/juss_men/status/2084347420289146923, , https://t.me/voin_dv/20518","Geolocation":"https://x.com/juss_men/status/2084347314181656621","Equipment":"","EquipmentItems":"FPV (First Person View) OWAD (One Way Attack Drone)","Units":"","OrbatUnits":"","Id":"1e8e861e-7aaa-4056-84c3-4012471ffc40","icon":"/api/icons/E00000/False/template/111.png"},"source":"geoconfirmed","source_name":"GeoConfirmed","source_url":"https://geoconfirmed.org/map/ukraine","id":"1e8e861e-7aaa-4056-84c3-4012471ffc40","date":"2026-08-03","link":"https://geoconfirmed.org/map/ukraine/1e8e861e-7aaa-4056-84c3-4012471ffc40","category":"Short Range (<50km) OWAD (One Way Attack Drone), mostly rotary wing, Flying OR Attacking a target without knowing the outcome: if something is damaged --> icon of the damaged equipment.","side":"Russia","color":"#E00000","description":"Russia's 1st Separate Unmanned Systems Battalion hit a Ukrainian position west of Zaliznychne.","orbat":[],"geolocation":["https://x.com/juss_men/status/2084347314181656621"],"sources":["https://x.com/juss_men/status/2084347420289146923","https://t.me/voin_dv/20518"]}},{"type":"Feature","geometry":{"type":"Point","coordinates":[40.1261,56.0501]},"properties":{"original":{"Date":"2026-08-03","Name":"03 AUG 2026","Faction":"Ukraine","Origin":"VID","Latitude":"56.0501","Longitude":"40.1261","PlusCode":"9H82342G+2C Ugor, Vladimir Oblast, Russia","Description":"Wildberries distribution center on fire (rough location)","Source":"1/2 https://x.com/Exilenova_plus/status/2084134841218711954, https://t.me/exilenova_plus/27911","Geolocation":"https://x.com/klinger66/status/2084146889776107962, related: https://x.com/klinger66/status/2084140763428925927","Equipment":"","EquipmentItems":"Fixed Wing OWAD (One Way Attack Drone)","Units":"","OrbatUnits":"","Id":"e3fbc152-c34c-477b-b37a-446a0d053138","icon":"/api/icons/0051CA/False/template/70.png"},"source":"geoconfirmed","source_name":"GeoConfirmed","source_url":"https://geoconfirmed.org/map/ukraine","id":"e3fbc152-c34c-477b-b37a-446a0d053138","date":"2026-08-03","link":"https://geoconfirmed.org/map/ukraine/e3fbc152-c34c-477b-b37a-446a0d053138","category":"Controlled Demolition OR explosion of unknown origin OR fire of unknown origin where no other icon fits","side":"Ukraine","color":"#0051CA","description":"Wildberries distribution center on fire (rough location)","orbat":[],"geolocation":["https://x.com/klinger66/status/2084146889776107962","https://x.com/klinger66/status/2084140763428925927"],"sources":["https://x.com/Exilenova_plus/status/2084134841218711954","https://t.me/exilenova_plus/27911"]}},{"type":"Feature","geometry":{"type":"Point","coordinates":[45.936441,51.456559]},"properties":{"original":{"Date":"2026-08-03","Name":"03 AUG 2026","Faction":"Neutral","Origin":"","Latitude":"51.456559","Longitude":"45.936441","PlusCode":"9H37FW4P+JH Saratov, Saratov Oblast, Russia","Description":"Damage to the Saratov refinery after presumed Ukrainian drone strikes. (area grid)","Source":"https://x.com/GarbuzYe/status/2084609178274828654, https://t.me/DniproOfficial/8001","Geolocation":"https://x.com/GarbuzYe/status/2084609178274828654, https://t.me/DniproOfficial/8001, likely related: https://x.com/Vlad_23456/status/2083930053734281463","Equipment":"","EquipmentItems":"","Units":"","OrbatUnits":"","Id":"14b2ea23-e6f1-468f-a3c0-453c3cde388a","icon":"/api/icons/AC7339/False/template/193.png"},"source":"geoconfirmed","source_name":"GeoConfirmed","source_url":"https://geoconfirmed.org/map/ukraine","id":"14b2ea23-e6f1-468f-a3c0-453c3cde388a","date":"2026-08-03","link":"https://geoconfirmed.org/map/ukraine/14b2ea23-e6f1-468f-a3c0-453c3cde388a","category":"Older destroyed infrastucture","side":"Neutral","color":"#AC7339","description":"Damage to the Saratov refinery after presumed Ukrainian drone strikes. (area grid)","orbat":[],"geolocation":["https://x.com/GarbuzYe/status/2084609178274828654","https://t.me/DniproOfficial/8001","https://x.com/Vlad_23456/status/2083930053734281463"],"sources":["https://x.com/GarbuzYe/status/2084609178274828654","https://t.me/DniproOfficial/8001"]}},{"type":"Feature","geometry":{"type":"Point","coordinates":[36.189122,50.053335]},"properties":{"original":{"Date":"2026-08-03","Name":"03 AUG 2026","Faction":"Neutral","Origin":"VID","Latitude":"50.053335","Longitude":"36.189122","PlusCode":"9G2R353Q+8J Kharkiv, Kharkiv Oblast, Ukraine","Description":"Russian strike on a warehouse of the Ranok publishing house in Kharkiv caused it to catch on fire","Source":"https://x.com/jimmhelloman555/status/2083755953170546920, https://t.me/place_kharkiv/130061?single","Geolocation":"https://x.com/jimmhelloman555/status/2083755953170546920","Equipment":"","EquipmentItems":"","Units":"","OrbatUnits":"","Id":"d156a8a5-1d15-44b4-9cd6-4929baa74a5b","icon":"/api/icons/AC7339/False/template/192.png"},"source":"geoconfirmed","source_name":"GeoConfirmed","source_url":"https://geoconfirmed.org/map/ukraine","id":"d156a8a5-1d15-44b4-9cd6-4929baa74a5b","date":"2026-08-03","link":"https://geoconfirmed.org/map/ukraine/d156a8a5-1d15-44b4-9cd6-4929baa74a5b","category":"Recently destroyed/Damaged[Visible in footage] or still burning infrastucture","side":"Neutral","color":"#AC7339","description":"Russian strike on a warehouse of the Ranok publishing house in Kharkiv caused it to catch on fire","orbat":[],"geolocation":["https://x.com/jimmhelloman555/status/2083755953170546920"],"sources":["https://x.com/jimmhelloman555/status/2083755953170546920","https://t.me/place_kharkiv/130061?single"]}},{"type":"Feature","geometry":{"type":"Point","coordinates":[37.20101,48.36887]},"properties":{"original":{"Date":"2026-08-03","Name":"03 AUG 2026","Faction":"Ukraine","Origin":"UAV","Latitude":"48.36887","Longitude":"37.20101","PlusCode":"8GWV9692+GC Rodyns'ke, Donetsk Oblast, Ukraine","Description":"0:16 - UA 3rd Group “NOTUS” of the “Wings Of Omega”, attack RU soldier north of Rodynske with FPV drone","Source":"https://x.com/meowqai/status/2084350511730335974, https://t.me/Centr_omega_NGU/10285","Geolocation":"https://x.com/meowqai/status/2084350511730335974","Equipment":"","EquipmentItems":"FPV (First Person View) OWAD (One Way Attack Drone)","Units":"3rd Group “NOTUS","OrbatUnits":"Special Purpose Unmanned Systems Detachment “Wings of Omega\"","Id":"127703c2-e1cf-428a-9bb1-50d9cc6ce45d","icon":"/api/icons/0051CA/False/template/111.png"},"source":"geoconfirmed","source_name":"GeoConfirmed","source_url":"https://geoconfirmed.org/map/ukraine","id":"127703c2-e1cf-428a-9bb1-50d9cc6ce45d","date":"2026-08-03","link":"https://geoconfirmed.org/map/ukraine/127703c2-e1cf-428a-9bb1-50d9cc6ce45d","category":"Short Range (<50km) OWAD (One Way Attack Drone), mostly rotary wing, Flying OR Attacking a target without knowing the outcome: if something is damaged --> icon of the damaged equipment.","side":"Ukraine","color":"#0051CA","description":"0:16 - UA 3rd Group “NOTUS” of the “Wings Of Omega”, attack RU soldier north of Rodynske with FPV drone","orbat":["Special Purpose Unmanned Systems Detachment “Wings of Omega\""],"geolocation":["https://x.com/meowqai/status/2084350511730335974"],"sources":["https://x.com/meowqai/status/2084350511730335974","https://t.me/Centr_omega_NGU/10285"]}},{"type":"Feature","geometry":{"type":"Point","coordinates":[40.114492,56.058169]},"properties":{"original":{"Date":"2026-08-03","Name":"03 AUG 2026","Faction":"Ukraine","Origin":"VID","Latitude":"56.058169","Longitude":"40.114492","PlusCode":"9H823457+7Q Khryastovo, Vladimir Oblast, Russia","Description":"Point of view, looking in a southern direction, location at 0:11 - reportedly the result of FP-1 drones striking the Wildberries company's logistics center near Khrystove village in Vladimir Oblast, Russia.","Source":"https://x.com/Vlad_23456/status/2084290099425017868, (1/3), https://t.me/exilenova_plus/27943","Geolocation":"https://x.com/GeoConfirmed/status/2084343635269869894, https://x.com/Vlad_23456/status/2084289972928925765","Equipment":"(Reportedly)","EquipmentItems":"FP-1","Units":"","OrbatUnits":"","Id":"70cb772d-acb0-41a9-b626-5924bb2ab648","icon":"/api/icons/0051CA/False/template/30.png"},"source":"geoconfirmed","source_name":"GeoConfirmed","source_url":"https://geoconfirmed.org/map/ukraine","id":"70cb772d-acb0-41a9-b626-5924bb2ab648","date":"2026-08-03","link":"https://geoconfirmed.org/map/ukraine/70cb772d-acb0-41a9-b626-5924bb2ab648","category":"Video - Always Point of View in description - In the colour of who is doing the attack or is responsable for the incident in the video.","side":"Ukraine","color":"#0051CA","description":"Point of view, looking in a southern direction, location at 0:11 - reportedly the result of FP-1 drones striking the Wildberries company's logistics center near Khrystove village in Vladimir Oblast, Russia.","orbat":[],"geolocation":["https://x.com/GeoConfirmed/status/2084343635269869894","https://x.com/Vlad_23456/status/2084289972928925765"],"sources":["https://x.com/Vlad_23456/status/2084290099425017868","https://t.me/exilenova_plus/27943"]}},{"type":"Feature","geometry":{"type":"Point","coordinates":[37.651731,47.157336]},"properties":{"original":{"Date":"2026-08-03","Name":"03 AUG 2026","Faction":"Ukraine","Origin":"VID","Latitude":"47.157336","Longitude":"37.651731","PlusCode":"8GVV5M42+WM Mariupol, Donetsk Oblast, Ukraine","Description":"1:03-1:10 - The 413th Separate USF 'Raid' Regiment hit a 110 kV 'NS-2' substation in Mariupol, Donetsk Oblast.","Source":"https://x.com/414magyarbirds/status/2084217027854782559, https://t.me/robert_magyar/2694","Geolocation":"https://x.com/MikiValbuena/status/2084643427711332440","Equipment":"","EquipmentItems":"FP-2 | Electrical Substation","Units":"","OrbatUnits":"413th Unmanned Systems Regiment \"RAID\" \"РЕЙД\"","Id":"d1aa4d6c-b0b7-48fb-bb07-5edf43983bec","icon":"/api/icons/0051CA/False/template/181.png"},"source":"geoconfirmed","source_name":"GeoConfirmed","source_url":"https://geoconfirmed.org/map/ukraine","id":"d1aa4d6c-b0b7-48fb-bb07-5edf43983bec","date":"2026-08-03","link":"https://geoconfirmed.org/map/ukraine/d1aa4d6c-b0b7-48fb-bb07-5edf43983bec","category":"Longe Range (>50km) OWAD (One Way Attack Drone) or Loitering munition, mostly fixed wing, Flying OR Attacking a target without knowing the outcome: if something is damaged --> icon of the damaged equipment.","side":"Ukraine","color":"#0051CA","description":"1:03-1:10 - The 413th Separate USF 'Raid' Regiment hit a 110 kV 'NS-2' substation in Mariupol, Donetsk Oblast.","orbat":["413th Unmanned Systems Regiment \"RAID\" \"РЕЙД\""],"geolocation":["https://x.com/MikiValbuena/status/2084643427711332440"],"sources":["https://x.com/414magyarbirds/status/2084217027854782559","https://t.me/robert_magyar/2694"]}},{"type":"Feature","geometry":{"type":"Point","coordinates":[36.188332,50.39061]},"properties":{"original":{"Date":"2026-08-03","Name":"03 AUG 2026","Faction":"Ukraine","Origin":"UAV","Latitude":"50.39061","Longitude":"36.188332","PlusCode":"9G2R95RQ+68 Veterynarne, Kharkiv Oblast, Ukraine","Description":"1:10-1:27 - Drone strike by 58th Motorized Brigade on a claimed Russian position.","Source":"https://x.com/PuenteUribarri/status/2084185888741896313, https://t.me/br58ua/3223","Geolocation":"https://x.com/jimmhelloman555/status/2084279960802304336","Equipment":"","EquipmentItems":"Fixed Wing OWAD (One Way Attack Drone)","Units":"\"El Montero\"","OrbatUnits":"58th Motorized Brigade","Id":"5a981b28-7199-434e-9bce-60ce1eb2b665","icon":"/api/icons/0051CA/False/template/111.png"},"source":"geoconfirmed","source_name":"GeoConfirmed","source_url":"https://geoconfirmed.org/map/ukraine","id":"5a981b28-7199-434e-9bce-60ce1eb2b665","date":"2026-08-03","link":"https://geoconfirmed.org/map/ukraine/5a981b28-7199-434e-9bce-60ce1eb2b665","category":"Short Range (<50km) OWAD (One Way Attack Drone), mostly rotary wing, Flying OR Attacking a target without knowing the outcome: if something is damaged --> icon of the damaged equipment.","side":"Ukraine","color":"#0051CA","description":"1:10-1:27 - Drone strike by 58th Motorized Brigade on a claimed Russian position.","orbat":["58th Motorized Brigade"],"geolocation":["https://x.com/jimmhelloman555/status/2084279960802304336"],"sources":["https://x.com/PuenteUribarri/status/2084185888741896313","https://t.me/br58ua/3223"]}},{"type":"Feature","geometry":{"type":"Point","coordinates":[38.5235,44.35745]},"properties":{"original":{"Date":"2026-08-03","Name":"03 AUG 2026","Faction":"Ukraine","Origin":"UAV","Latitude":"44.35745","Longitude":"38.5235","PlusCode":"8GPW9G4F+XC Arkhipo-Osipovka, Krasnodar Krai, Russia","Description":"A Ukrainian drone was shot down by Russian air defence and crashed on the beach. Three people were killed and thirteen others were injured.","Source":"https://x.com/99Dominik_/status/2084217103851180501, https://t.me/supernova_plus, https://x.com/InsidConflict/status/2084215751997890661, , Info on the victims, https://x.com/99Dominik_/status/2084217390976373033, https://t.me/kondratyevvi/10842","Geolocation":"https://x.com/GeoConfirmed/status/2084310105718210808, https://x.com/99Dominik_/status/2084216736182644797, https://x.com/Fotobiene/status/2084222739691286955","Equipment":"","EquipmentItems":"Fixed Wing OWAD (One Way Attack Drone)","Units":"","OrbatUnits":"","Id":"4d86b573-1ffa-47d6-9732-6ef459f520eb","icon":"/api/icons/0051CA/False/template/50.png"},"source":"geoconfirmed","source_name":"GeoConfirmed","source_url":"https://geoconfirmed.org/map/ukraine","id":"4d86b573-1ffa-47d6-9732-6ef459f520eb","date":"2026-08-03","link":"https://geoconfirmed.org/map/ukraine/4d86b573-1ffa-47d6-9732-6ef459f520eb","category":"Killed or wounded civilian. Potential Warcrime. In the colour of who is assessed as doing the attack/killing.","side":"Ukraine","color":"#0051CA","description":"A Ukrainian drone was shot down by Russian air defence and crashed on the beach. Three people were killed and thirteen others were injured.","orbat":[],"geolocation":["https://x.com/GeoConfirmed/status/2084310105718210808","https://x.com/99Dominik_/status/2084216736182644797","https://x.com/Fotobiene/status/2084222739691286955"],"sources":["https://x.com/99Dominik_/status/2084217103851180501","https://t.me/supernova_plus","https://x.com/InsidConflict/status/2084215751997890661","https://x.com/99Dominik_/status/2084217390976373033","https://t.me/kondratyevvi/10842"]}},{"type":"Feature","geometry":{"type":"Point","coordinates":[36.187769,50.39052]},"properties":{"original":{"Date":"2026-08-03","Name":"03 AUG 2026","Faction":"Ukraine","Origin":"UAV","Latitude":"50.39052","Longitude":"36.187769","PlusCode":"9G2R95RQ+64 Veterynarne, Kharkiv Oblast, Ukraine","Description":"0:00-0:10 - Drone strike by 58th Motorized Brigade on a claimed Russian position.","Source":"https://x.com/PuenteUribarri/status/2084185888741896313, https://t.me/br58ua/3223","Geolocation":"https://x.com/jimmhelloman555/status/2084279960802304336","Equipment":"","EquipmentItems":"Fixed Wing OWAD (One Way Attack Drone)","Units":"","OrbatUnits":"58th Motorized Brigade","Id":"ccbab13f-1624-4aaa-941a-6f252f5741df","icon":"/api/icons/0051CA/False/template/111.png"},"source":"geoconfirmed","source_name":"GeoConfirmed","source_url":"https://geoconfirmed.org/map/ukraine","id":"ccbab13f-1624-4aaa-941a-6f252f5741df","date":"2026-08-03","link":"https://geoconfirmed.org/map/ukraine/ccbab13f-1624-4aaa-941a-6f252f5741df","category":"Short Range (<50km) OWAD (One Way Attack Drone), mostly rotary wing, Flying OR Attacking a target without knowing the outcome: if something is damaged --> icon of the damaged equipment.","side":"Ukraine","color":"#0051CA","description":"0:00-0:10 - Drone strike by 58th Motorized Brigade on a claimed Russian position.","orbat":["58th Motorized Brigade"],"geolocation":["https://x.com/jimmhelloman555/status/2084279960802304336"],"sources":["https://x.com/PuenteUribarri/status/2084185888741896313","https://t.me/br58ua/3223"]}},{"type":"Feature","geometry":{"type":"Point","coordinates":[32.440261,46.632195]},"properties":{"original":{"Date":"2026-08-03","Name":"03 AUG 2026","Faction":"Russia","Origin":"VID","Latitude":"46.632195","Longitude":"32.440261","PlusCode":"8GRJJCJR+V4 Bilozerka, Kherson Oblast, Ukraine","Description":"A woman was killed by Russian drone.","Source":"https://x.com/99Dominik_/status/2084368030759305563, https://www.instagram.com/reel/DblXr8tMinD/","Geolocation":"https://x.com/GeoConfirmed/status/2084397789811736898, https://x.com/99Dominik_/status/2084367766593659045","Equipment":"(reported)","EquipmentItems":"FPV (First Person View) OWAD (One Way Attack Drone)","Units":"","OrbatUnits":"","Id":"b53deae4-0650-4989-931d-765d7faabe5c","icon":"/api/icons/E00000/False/template/50.png"},"source":"geoconfirmed","source_name":"GeoConfirmed","source_url":"https://geoconfirmed.org/map/ukraine","id":"b53deae4-0650-4989-931d-765d7faabe5c","date":"2026-08-03","link":"https://geoconfirmed.org/map/ukraine/b53deae4-0650-4989-931d-765d7faabe5c","category":"Killed or wounded civilian. Potential Warcrime. In the colour of who is assessed as doing the attack/killing.","side":"Russia","color":"#E00000","description":"A woman was killed by Russian drone.","orbat":[],"geolocation":["https://x.com/GeoConfirmed/status/2084397789811736898","https://x.com/99Dominik_/status/2084367766593659045"],"sources":["https://x.com/99Dominik_/status/2084368030759305563","https://www.instagram.com/reel/DblXr8tMinD/"]}},{"type":"Feature","geometry":{"type":"Point","coordinates":[40.098802,56.052727]},"properties":{"original":{"Date":"2026-08-03","Name":"03 AUG 2026","Faction":"Ukraine","Origin":"VID","Latitude":"56.052727","Longitude":"40.098802","PlusCode":"9H82333X+3G Konino, Vladimir Oblast, Russia","Description":"POV - Wildberries distribution center on fire","Source":"1/2 https://x.com/Exilenova_plus/status/2084134841218711954, https://t.me/exilenova_plus/27911","Geolocation":"https://x.com/klinger66/status/2084146889776107962, related: https://x.com/klinger66/status/2084140763428925927","Equipment":"","EquipmentItems":"Fixed Wing OWAD (One Way Attack Drone)","Units":"","OrbatUnits":"","Id":"696a62fb-9013-4a61-b315-8c85f6120406","icon":"/api/icons/0051CA/False/template/30.png"},"source":"geoconfirmed","source_name":"GeoConfirmed","source_url":"https://geoconfirmed.org/map/ukraine","id":"696a62fb-9013-4a61-b315-8c85f6120406","date":"2026-08-03","link":"https://geoconfirmed.org/map/ukraine/696a62fb-9013-4a61-b315-8c85f6120406","category":"Video - Always Point of View in description - In the colour of who is doing the attack or is responsable for the incident in the video.","side":"Ukraine","color":"#0051CA","description":"POV - Wildberries distribution center on fire","orbat":[],"geolocation":["https://x.com/klinger66/status/2084146889776107962","https://x.com/klinger66/status/2084140763428925927"],"sources":["https://x.com/Exilenova_plus/status/2084134841218711954","https://t.me/exilenova_plus/27911"]}},{"type":"Feature","geometry":{"type":"Point","coordinates":[37.657982,48.493751]},"properties":{"original":{"Date":"2026-08-03","Name":"03 AUG 2026","Faction":"Ukraine","Origin":"UAV","Latitude":"48.493751","Longitude":"37.657982","PlusCode":"8GWVFMV5+G5 Illinivka, Donetsk Oblast, Ukraine","Description":"0:40-end - Claimed Russian position hit by Ukrainian Fibre Optic FPV drone of the 39th Separate Unmanned Systems Battalion 'Ariant'","Source":"https://x.com/AudaxonX/status/2093258777520721947, https://t.me/ariantobbps39/41","Geolocation":"https://x.com/AudaxonX/status/2093258734831083769","Equipment":"","EquipmentItems":"Fiber Optic (FO) FPV (First Person View) OWAD (One Way Attack Drone)","Units":"","OrbatUnits":"39th Separate Unmanned Systems Battalion \"Ariant\"","Id":"a1469fce-763a-42e5-ac60-91b16604188d","icon":"/api/icons/0051CA/False/template/111.png"},"source":"geoconfirmed","source_name":"GeoConfirmed","source_url":"https://geoconfirmed.org/map/ukraine","id":"a1469fce-763a-42e5-ac60-91b16604188d","date":"2026-08-03","link":"https://geoconfirmed.org/map/ukraine/a1469fce-763a-42e5-ac60-91b16604188d","category":"Short Range (<50km) OWAD (One Way Attack Drone), mostly rotary wing, Flying OR Attacking a target without knowing the outcome: if something is damaged --> icon of the damaged equipment.","side":"Ukraine","color":"#0051CA","description":"0:40-end - Claimed Russian position hit by Ukrainian Fibre Optic FPV drone of the 39th Separate Unmanned Systems Battalion 'Ariant'","orbat":["39th Separate Unmanned Systems Battalion \"Ariant\""],"geolocation":["https://x.com/AudaxonX/status/2093258734831083769"],"sources":["https://x.com/AudaxonX/status/2093258777520721947","https://t.me/ariantobbps39/41"]}},{"type":"Feature","geometry":{"type":"Point","coordinates":[36.188673,50.390509]},"properties":{"original":{"Date":"2026-08-03","Name":"03 AUG 2026","Faction":"Ukraine","Origin":"UAV","Latitude":"50.390509","Longitude":"36.188673","PlusCode":"9G2R95RQ+6F Veterynarne, Kharkiv Oblast, Ukraine","Description":"0:23-0:37 - Drone strike by 58th Motorized Brigade on a claimed Russian position.","Source":"https://x.com/PuenteUribarri/status/2084185888741896313, https://t.me/br58ua/3223","Geolocation":"https://x.com/jimmhelloman555/status/2084279960802304336","Equipment":"","EquipmentItems":"Fixed Wing OWAD (One Way Attack Drone)","Units":"","OrbatUnits":"58th Motorized Brigade","Id":"03f65b6f-ba2c-45c0-8b8f-9fdbaa81a11f","icon":"/api/icons/0051CA/False/template/111.png"},"source":"geoconfirmed","source_name":"GeoConfirmed","source_url":"https://geoconfirmed.org/map/ukraine","id":"03f65b6f-ba2c-45c0-8b8f-9fdbaa81a11f","date":"2026-08-03","link":"https://geoconfirmed.org/map/ukraine/03f65b6f-ba2c-45c0-8b8f-9fdbaa81a11f","category":"Short Range (<50km) OWAD (One Way Attack Drone), mostly rotary wing, Flying OR Attacking a target without knowing the outcome: if something is damaged --> icon of the damaged equipment.","side":"Ukraine","color":"#0051CA","description":"0:23-0:37 - Drone strike by 58th Motorized Brigade on a claimed Russian position.","orbat":["58th Motorized Brigade"],"geolocation":["https://x.com/jimmhelloman555/status/2084279960802304336"],"sources":["https://x.com/PuenteUribarri/status/2084185888741896313","https://t.me/br58ua/3223"]}},{"type":"Feature","geometry":{"type":"Point","coordinates":[33.275041,45.575801]},"properties":{"original":{"Date":"2026-08-03","Name":"03 AUG 2026","Faction":"Ukraine","Origin":"VID","Latitude":"45.575801","Longitude":"33.275041","PlusCode":"8GQMH7GG+82","Description":"2:06-2:20, area grid - The 9th \"Kairos\" Battalion – 414th \"Birds of Magyar\" Brigade hit the \"Nyva\" gas pumping station twice in Nyva, Crimea, Ukraine.","Source":"https://x.com/414magyarbirds/status/2084217027854782559, https://t.me/robert_magyar/2694","Geolocation":"https://x.com/MikiValbuena/status/2084643456115232908","Equipment":"","EquipmentItems":"FP-2 | Electrical Substation","Units":"","OrbatUnits":"9th Long-Range Strike Battalion \"Kairos\"","Id":"515eca30-37e2-4d0c-b186-a076af1d2e8c","icon":"/api/icons/0051CA/False/template/181.png"},"source":"geoconfirmed","source_name":"GeoConfirmed","source_url":"https://geoconfirmed.org/map/ukraine","id":"515eca30-37e2-4d0c-b186-a076af1d2e8c","date":"2026-08-03","link":"https://geoconfirmed.org/map/ukraine/515eca30-37e2-4d0c-b186-a076af1d2e8c","category":"Longe Range (>50km) OWAD (One Way Attack Drone) or Loitering munition, mostly fixed wing, Flying OR Attacking a target without knowing the outcome: if something is damaged --> icon of the damaged equipment.","side":"Ukraine","color":"#0051CA","description":"2:06-2:20, area grid - The 9th \"Kairos\" Battalion – 414th \"Birds of Magyar\" Brigade hit the \"Nyva\" gas pumping station twice in Nyva, Crimea, Ukraine.","orbat":["9th Long-Range Strike Battalion \"Kairos\""],"geolocation":["https://x.com/MikiValbuena/status/2084643456115232908"],"sources":["https://x.com/414magyarbirds/status/2084217027854782559","https://t.me/robert_magyar/2694"]}},{"type":"Feature","geometry":{"type":"Point","coordinates":[36.275154,47.869815]},"properties":{"original":{"Date":"2026-08-03","Name":"03 AUG 2026","Faction":"Russia","Origin":"UAV","Latitude":"47.869815","Longitude":"36.275154","PlusCode":"8GVRV79G+W3 Yehorivka, Dnipropetrovsk Oblast, Ukraine","Description":"0:07-End - 64th Motor Rifle Brigade attacking claimed Ukrainian position with FPV drone in Yehorivka, Dnipropetrovsk Oblast ","Source":"https://x.com/Bielitzling/status/2084400987544879255, https://t.me/voin_dv/20520","Geolocation":"https://x.com/Bielitzling/status/2084400983459672572","Equipment":"","EquipmentItems":"FPV (First Person View) OWAD (One Way Attack Drone)","Units":"","OrbatUnits":"64th Guards Motorized Rifle Brigade","Id":"61bff988-4c57-433d-a968-a0890d735b37","icon":"/api/icons/E00000/False/template/111.png"},"source":"geoconfirmed","source_name":"GeoConfirmed","source_url":"https://geoconfirmed.org/map/ukraine","id":"61bff988-4c57-433d-a968-a0890d735b37","date":"2026-08-03","link":"https://geoconfirmed.org/map/ukraine/61bff988-4c57-433d-a968-a0890d735b37","category":"Short Range (<50km) OWAD (One Way Attack Drone), mostly rotary wing, Flying OR Attacking a target without knowing the outcome: if something is damaged --> icon of the damaged equipment.","side":"Russia","color":"#E00000","description":"0:07-End - 64th Motor Rifle Brigade attacking claimed Ukrainian position with FPV drone in Yehorivka, Dnipropetrovsk Oblast","orbat":["64th Guards Motorized Rifle Brigade"],"geolocation":["https://x.com/Bielitzling/status/2084400983459672572"],"sources":["https://x.com/Bielitzling/status/2084400987544879255","https://t.me/voin_dv/20520"]}},{"type":"Feature","geometry":{"type":"Point","coordinates":[45.940035,51.451607]},"properties":{"original":{"Date":"2026-08-03","Name":"03 AUG 2026","Faction":"Neutral","Origin":"","Latitude":"51.451607","Longitude":"45.940035","PlusCode":"9H37FW2R+J2 Saratov, Saratov Oblast, Russia","Description":"Damage to an oil tank at the Saratov refinery after presumed Ukrainian drone strikes.","Source":"https://x.com/GarbuzYe/status/2084609178274828654, https://t.me/DniproOfficial/8001","Geolocation":"https://x.com/GarbuzYe/status/2084609178274828654, https://t.me/DniproOfficial/8001, likely related: https://x.com/Vlad_23456/status/2083930053734281463","Equipment":"","EquipmentItems":"","Units":"","OrbatUnits":"","Id":"b44380f1-19e6-4e53-9c87-a0f7f689b0d9","icon":"/api/icons/AC7339/False/template/193.png"},"source":"geoconfirmed","source_name":"GeoConfirmed","source_url":"https://geoconfirmed.org/map/ukraine","id":"b44380f1-19e6-4e53-9c87-a0f7f689b0d9","date":"2026-08-03","link":"https://geoconfirmed.org/map/ukraine/b44380f1-19e6-4e53-9c87-a0f7f689b0d9","category":"Older destroyed infrastucture","side":"Neutral","color":"#AC7339","description":"Damage to an oil tank at the Saratov refinery after presumed Ukrainian drone strikes.","orbat":[],"geolocation":["https://x.com/GarbuzYe/status/2084609178274828654","https://t.me/DniproOfficial/8001","https://x.com/Vlad_23456/status/2083930053734281463"],"sources":["https://x.com/GarbuzYe/status/2084609178274828654","https://t.me/DniproOfficial/8001"]}},{"type":"Feature","geometry":{"type":"Point","coordinates":[36.188591,50.392331]},"properties":{"original":{"Date":"2026-08-03","Name":"03 AUG 2026","Faction":"Ukraine","Origin":"UAV","Latitude":"50.392331","Longitude":"36.188591","PlusCode":"9G2R95RQ+WC Veterynarne, Kharkiv Oblast, Ukraine","Description":"0:37-0:50 - Drone strike by 58th Motorized Brigade on a claimed Russian position.","Source":"https://x.com/PuenteUribarri/status/2084185888741896313, https://t.me/br58ua/3223","Geolocation":"https://x.com/jimmhelloman555/status/2084279960802304336","Equipment":"","EquipmentItems":"Fixed Wing OWAD (One Way Attack Drone)","Units":"","OrbatUnits":"58th Motorized Brigade","Id":"67348c83-873e-429b-9b16-a788b2bb28fc","icon":"/api/icons/0051CA/False/template/111.png"},"source":"geoconfirmed","source_name":"GeoConfirmed","source_url":"https://geoconfirmed.org/map/ukraine","id":"67348c83-873e-429b-9b16-a788b2bb28fc","date":"2026-08-03","link":"https://geoconfirmed.org/map/ukraine/67348c83-873e-429b-9b16-a788b2bb28fc","category":"Short Range (<50km) OWAD (One Way Attack Drone), mostly rotary wing, Flying OR Attacking a target without knowing the outcome: if something is damaged --> icon of the damaged equipment.","side":"Ukraine","color":"#0051CA","description":"0:37-0:50 - Drone strike by 58th Motorized Brigade on a claimed Russian position.","orbat":["58th Motorized Brigade"],"geolocation":["https://x.com/jimmhelloman555/status/2084279960802304336"],"sources":["https://x.com/PuenteUribarri/status/2084185888741896313","https://t.me/br58ua/3223"]}},{"type":"Feature","geometry":{"type":"Point","coordinates":[36.192065,50.391597]},"properties":{"original":{"Date":"2026-08-03","Name":"03 AUG 2026","Faction":"Ukraine","Origin":"UAV","Latitude":"50.391597","Longitude":"36.192065","PlusCode":"9G2R95RR+JR Veterynarne, Kharkiv Oblast, Ukraine","Description":"0:50-0:58 - Drone strike by 58th Motorized Brigade on a claimed Russian position.","Source":"https://x.com/PuenteUribarri/status/2084185888741896313, https://t.me/br58ua/3223","Geolocation":"https://x.com/jimmhelloman555/status/2084279960802304336","Equipment":"","EquipmentItems":"Fixed Wing OWAD (One Way Attack Drone)","Units":"\"El Montero\"","OrbatUnits":"58th Motorized Brigade","Id":"4a1999b9-43ef-440b-a61e-b1698d28430d","icon":"/api/icons/0051CA/False/template/111.png"},"source":"geoconfirmed","source_name":"GeoConfirmed","source_url":"https://geoconfirmed.org/map/ukraine","id":"4a1999b9-43ef-440b-a61e-b1698d28430d","date":"2026-08-03","link":"https://geoconfirmed.org/map/ukraine/4a1999b9-43ef-440b-a61e-b1698d28430d","category":"Short Range (<50km) OWAD (One Way Attack Drone), mostly rotary wing, Flying OR Attacking a target without knowing the outcome: if something is damaged --> icon of the damaged equipment.","side":"Ukraine","color":"#0051CA","description":"0:50-0:58 - Drone strike by 58th Motorized Brigade on a claimed Russian position.","orbat":["58th Motorized Brigade"],"geolocation":["https://x.com/jimmhelloman555/status/2084279960802304336"],"sources":["https://x.com/PuenteUribarri/status/2084185888741896313","https://t.me/br58ua/3223"]}},{"type":"Feature","geometry":{"type":"Point","coordinates":[38.875516,48.089868]},"properties":{"original":{"Date":"2026-08-03","Name":"03 AUG 2026","Faction":"Russia","Origin":"VID","Latitude":"48.089868","Longitude":"38.875516","PlusCode":"8GWW3VQG+W6 Miusynsk, Luhansk Oblast, Ukraine","Description":"Russian mobile fire group crossing the Mius River in Miusynskn, Luhansk Oblast","Source":"(1/4), https://x.com/Exilenova_plus/status/2084260463525695765","Geolocation":"https://x.com/neonhandrail/status/2084278590334456053","Equipment":"","EquipmentItems":"Pick-up","Units":"","OrbatUnits":"","Id":"3b8e682e-d5b1-467e-8219-b6f0a5220a40","icon":"/api/icons/E00000/False/template/b602eea6-3fd1-4a57-887d-fd9faf13bf07.png"},"source":"geoconfirmed","source_name":"GeoConfirmed","source_url":"https://geoconfirmed.org/map/ukraine","id":"3b8e682e-d5b1-467e-8219-b6f0a5220a40","date":"2026-08-03","link":"https://geoconfirmed.org/map/ukraine/3b8e682e-d5b1-467e-8219-b6f0a5220a40","category":"Car OR PickUp (Soft Skin Vehicle)","side":"Russia","color":"#E00000","description":"Russian mobile fire group crossing the Mius River in Miusynskn, Luhansk Oblast","orbat":[],"geolocation":["https://x.com/neonhandrail/status/2084278590334456053"],"sources":["https://x.com/Exilenova_plus/status/2084260463525695765"]}},{"type":"Feature","geometry":{"type":"Point","coordinates":[36.306485,47.859419]},"properties":{"original":{"Date":"2026-08-03","Name":"03 AUG 2026","Faction":"Russia","Origin":"UAV","Latitude":"47.859419","Longitude":"36.306485","PlusCode":"8GVRV854+QH Yehorivka, Dnipropetrovsk Oblast, Ukraine","Description":"0:05-0:06 - 64th Motor Rifle Brigade attacking claimed Ukrainian position with FPV drone in Yehorivka, Dnipropetrovsk Oblast ","Source":"https://x.com/Bielitzling/status/2084400987544879255, https://t.me/voin_dv/20520","Geolocation":"https://x.com/Bielitzling/status/2084400983459672572","Equipment":"","EquipmentItems":"FPV (First Person View) OWAD (One Way Attack Drone)","Units":"","OrbatUnits":"64th Guards Motorized Rifle Brigade","Id":"6da826b3-0942-4374-8264-c5e5056c7905","icon":"/api/icons/E00000/False/template/111.png"},"source":"geoconfirmed","source_name":"GeoConfirmed","source_url":"https://geoconfirmed.org/map/ukraine","id":"6da826b3-0942-4374-8264-c5e5056c7905","date":"2026-08-03","link":"https://geoconfirmed.org/map/ukraine/6da826b3-0942-4374-8264-c5e5056c7905","category":"Short Range (<50km) OWAD (One Way Attack Drone), mostly rotary wing, Flying OR Attacking a target without knowing the outcome: if something is damaged --> icon of the damaged equipment.","side":"Russia","color":"#E00000","description":"0:05-0:06 - 64th Motor Rifle Brigade attacking claimed Ukrainian position with FPV drone in Yehorivka, Dnipropetrovsk Oblast","orbat":["64th Guards Motorized Rifle Brigade"],"geolocation":["https://x.com/Bielitzling/status/2084400983459672572"],"sources":["https://x.com/Bielitzling/status/2084400987544879255","https://t.me/voin_dv/20520"]}},{"type":"Feature","geometry":{"type":"Point","coordinates":[36.600964,50.579924]},"properties":{"original":{"Date":"2026-08-03","Name":"03 AUG 2026","Faction":"Neutral","Origin":"VID","Latitude":"50.579924","Longitude":"36.600964","PlusCode":"9G2RHJH2+X9 Belgorod, Belgorod Oblast, Russia","Description":"Multiple Ukrainian attack drones struck Russia's Belgorod State Technological University, which is claimed to be housing Russian drone development, testing, and operator training.","Source":"Vid1, https://x.com/Osinttechnical/status/2084082708985069614, Vid2, https://x.com/Osinttechnical/status/2084082356973900036, Sat, https://x.com/neonhandrail/status/2084889776881319981, Pic, https://x.com/GeoRaccoon/status/2085028401723716044, ","Geolocation":"https://x.com/GeoConfirmed/status/2085028766363918677, https://x.com/neonhandrail/status/2084889776881319981, https://x.com/neonhandrail/status/2084999591037141144","Equipment":"","EquipmentItems":"","Units":"","OrbatUnits":"","Id":"77066911-eb67-4587-8ff7-cc6b521dfee7","icon":"/api/icons/AC7339/False/template/192.png"},"source":"geoconfirmed","source_name":"GeoConfirmed","source_url":"https://geoconfirmed.org/map/ukraine","id":"77066911-eb67-4587-8ff7-cc6b521dfee7","date":"2026-08-03","link":"https://geoconfirmed.org/map/ukraine/77066911-eb67-4587-8ff7-cc6b521dfee7","category":"Recently destroyed/Damaged[Visible in footage] or still burning infrastucture","side":"Neutral","color":"#AC7339","description":"Multiple Ukrainian attack drones struck Russia's Belgorod State Technological University, which is claimed to be housing Russian drone development, testing, and operator training.","orbat":[],"geolocation":["https://x.com/GeoConfirmed/status/2085028766363918677","https://x.com/neonhandrail/status/2084889776881319981","https://x.com/neonhandrail/status/2084999591037141144"],"sources":["https://x.com/Osinttechnical/status/2084082708985069614","https://x.com/Osinttechnical/status/2084082356973900036","https://x.com/neonhandrail/status/2084889776881319981","https://x.com/GeoRaccoon/status/2085028401723716044"]}},{"type":"Feature","geometry":{"type":"Point","coordinates":[37.50631,47.09196]},"properties":{"original":{"Date":"2026-08-03","Name":"03 AUG 2026","Faction":"Ukraine","Origin":"VID","Latitude":"47.09196","Longitude":"37.50631","PlusCode":"8GVV3GR4+QG Mariupol, Donetsk Oblast, Ukraine","Description":"0:48-1:02 - 1st Separate Centre USF drone strike on the \"Misto-2\" 110 kV substation in Mariupol, Donetsk Oblast","Source":"https://x.com/414magyarbirds/status/2084217027854782559, https://t.me/robert_magyar/2694","Geolocation":"https://x.com/MikiValbuena/status/2084643420820127921","Equipment":"","EquipmentItems":"Electrical Substation | FP-2","Units":"","OrbatUnits":"1st Seperate SBS Center","Id":"a9778428-c60d-48e8-9f91-cfd7519011df","icon":"/api/icons/0051CA/False/template/181.png"},"source":"geoconfirmed","source_name":"GeoConfirmed","source_url":"https://geoconfirmed.org/map/ukraine","id":"a9778428-c60d-48e8-9f91-cfd7519011df","date":"2026-08-03","link":"https://geoconfirmed.org/map/ukraine/a9778428-c60d-48e8-9f91-cfd7519011df","category":"Longe Range (>50km) OWAD (One Way Attack Drone) or Loitering munition, mostly fixed wing, Flying OR Attacking a target without knowing the outcome: if something is damaged --> icon of the damaged equipment.","side":"Ukraine","color":"#0051CA","description":"0:48-1:02 - 1st Separate Centre USF drone strike on the \"Misto-2\" 110 kV substation in Mariupol, Donetsk Oblast","orbat":["1st Seperate SBS Center"],"geolocation":["https://x.com/MikiValbuena/status/2084643420820127921"],"sources":["https://x.com/414magyarbirds/status/2084217027854782559","https://t.me/robert_magyar/2694"]}},{"type":"Feature","geometry":{"type":"Point","coordinates":[36.454576,50.857615]},"properties":{"original":{"Date":"2026-08-03","Name":"03 AUG 2026","Faction":"Neutral","Origin":"PIC","Latitude":"50.857615","Longitude":"36.454576","PlusCode":"9G2RVF53+2R Yakovlevo, Belgorod Oblast, Russia","Description":" 'Rosneft' gas station damaged in Yakovlevko - Belgorod Oblast, after a reported Ukrainian attack","Source":"https://x.com/MikiValbuena/status/2084595806108028947, https://t.me/belpepel/23580","Geolocation":"https://x.com/MikiValbuena/status/2084595800508711383","Equipment":"","EquipmentItems":"Petrol/Gas station","Units":"","OrbatUnits":"","Id":"8d564cf8-1db2-4d75-98e8-d33ee0745e32","icon":"/api/icons/AC7339/False/template/192.png"},"source":"geoconfirmed","source_name":"GeoConfirmed","source_url":"https://geoconfirmed.org/map/ukraine","id":"8d564cf8-1db2-4d75-98e8-d33ee0745e32","date":"2026-08-03","link":"https://geoconfirmed.org/map/ukraine/8d564cf8-1db2-4d75-98e8-d33ee0745e32","category":"Recently destroyed/Damaged[Visible in footage] or still burning infrastucture","side":"Neutral","color":"#AC7339","description":"'Rosneft' gas station damaged in Yakovlevko - Belgorod Oblast, after a reported Ukrainian attack","orbat":[],"geolocation":["https://x.com/MikiValbuena/status/2084595800508711383"],"sources":["https://x.com/MikiValbuena/status/2084595806108028947","https://t.me/belpepel/23580"]}},{"type":"Feature","geometry":{"type":"Point","coordinates":[40.077165,56.047548]},"properties":{"original":{"Date":"2026-08-03","Name":"03 AUG 2026","Faction":"Ukraine","Origin":"PIC","Latitude":"56.047548","Longitude":"40.077165","PlusCode":"9H8223XG+2V Vorsha, Vladimir Oblast, Russia","Description":"POV - Wildberries distribution center on fire","Source":"https://x.com/Grimm_Intel/status/2084148485490630676, https://t.me/exilenova_plus/27912, 2/2 https://x.com/Exilenova_plus/status/2084134841218711954, Vid 1/2 https://x.com/StratcomCentre/status/2084137257384997293","Geolocation":"https://x.com/Grimm_Intel/status/2084148918527344910","Equipment":"","EquipmentItems":"Fixed Wing OWAD (One Way Attack Drone)","Units":"","OrbatUnits":"","Id":"54d76b9f-e2b8-470f-aa4b-d504275207af","icon":"/api/icons/0051CA/False/template/30.png"},"source":"geoconfirmed","source_name":"GeoConfirmed","source_url":"https://geoconfirmed.org/map/ukraine","id":"54d76b9f-e2b8-470f-aa4b-d504275207af","date":"2026-08-03","link":"https://geoconfirmed.org/map/ukraine/54d76b9f-e2b8-470f-aa4b-d504275207af","category":"Video - Always Point of View in description - In the colour of who is doing the attack or is responsable for the incident in the video.","side":"Ukraine","color":"#0051CA","description":"POV - Wildberries distribution center on fire","orbat":[],"geolocation":["https://x.com/Grimm_Intel/status/2084148918527344910"],"sources":["https://x.com/Grimm_Intel/status/2084148485490630676","https://t.me/exilenova_plus/27912","https://x.com/Exilenova_plus/status/2084134841218711954","https://x.com/StratcomCentre/status/2084137257384997293"]}},{"type":"Feature","geometry":{"type":"Point","coordinates":[38.381124,49.030736]},"properties":{"original":{"Date":"2026-08-03","Name":"03 AUG 2026","Faction":"Ukraine","Origin":"UAV","Latitude":"49.030736","Longitude":"38.381124","PlusCode":"8GXW29JJ+7C Rubizhne, Luhansk Oblast, Ukraine","Description":"0:38-0:end - Ukrainian FPV drone of the Battalion of unmanned strike aerial systems \"Signum\"attacked a gas station","Source":"https://x.com/RedHibana/status/2085344793874301099, https://t.me/umftteam/1066","Geolocation":"https://x.com/MikiValbuena/status/2085282874115154059","Equipment":"","EquipmentItems":"Petrol/Gas station","Units":"","OrbatUnits":"Battalion of unmanned strike aerial systems \"Signum\"","Id":"01d6537c-597d-44ad-981c-d7202de79959","icon":"/api/icons/0051CA/False/template/111.png"},"source":"geoconfirmed","source_name":"GeoConfirmed","source_url":"https://geoconfirmed.org/map/ukraine","id":"01d6537c-597d-44ad-981c-d7202de79959","date":"2026-08-03","link":"https://geoconfirmed.org/map/ukraine/01d6537c-597d-44ad-981c-d7202de79959","category":"Short Range (<50km) OWAD (One Way Attack Drone), mostly rotary wing, Flying OR Attacking a target without knowing the outcome: if something is damaged --> icon of the damaged equipment.","side":"Ukraine","color":"#0051CA","description":"0:38-0:end - Ukrainian FPV drone of the Battalion of unmanned strike aerial systems \"Signum\"attacked a gas station","orbat":["Battalion of unmanned strike aerial systems \"Signum\""],"geolocation":["https://x.com/MikiValbuena/status/2085282874115154059"],"sources":["https://x.com/RedHibana/status/2085344793874301099","https://t.me/umftteam/1066"]}},{"type":"Feature","geometry":{"type":"Point","coordinates":[33.314212,45.268722]},"properties":{"original":{"Date":"2026-08-03","Name":"03 AUG 2026","Faction":"Ukraine","Origin":"VID","Latitude":"45.268722","Longitude":"33.314212","PlusCode":"8GQM7897+FM","Description":"1:42–2:05, area grid - The 9th \"Kairos\" Battalion – 414th \"Birds of Magyar\" Brigade hit the \"Lymane\" gas pumping station twice in Kolosky – Crimea, Ukraine","Source":"https://x.com/414magyarbirds/status/2084217027854782559, https://t.me/robert_magyar/2694","Geolocation":"https://x.com/MikiValbuena/status/2084643449555361977","Equipment":"","EquipmentItems":"FP-2 | Electrical Substation","Units":"","OrbatUnits":"9th Long-Range Strike Battalion \"Kairos\"","Id":"6c11c170-feae-4838-bebf-d83aa8606d1d","icon":"/api/icons/0051CA/False/template/181.png"},"source":"geoconfirmed","source_name":"GeoConfirmed","source_url":"https://geoconfirmed.org/map/ukraine","id":"6c11c170-feae-4838-bebf-d83aa8606d1d","date":"2026-08-03","link":"https://geoconfirmed.org/map/ukraine/6c11c170-feae-4838-bebf-d83aa8606d1d","category":"Longe Range (>50km) OWAD (One Way Attack Drone) or Loitering munition, mostly fixed wing, Flying OR Attacking a target without knowing the outcome: if something is damaged --> icon of the damaged equipment.","side":"Ukraine","color":"#0051CA","description":"1:42–2:05, area grid - The 9th \"Kairos\" Battalion – 414th \"Birds of Magyar\" Brigade hit the \"Lymane\" gas pumping station twice in Kolosky – Crimea, Ukraine","orbat":["9th Long-Range Strike Battalion \"Kairos\""],"geolocation":["https://x.com/MikiValbuena/status/2084643449555361977"],"sources":["https://x.com/414magyarbirds/status/2084217027854782559","https://t.me/robert_magyar/2694"]}},{"type":"Feature","geometry":{"type":"Point","coordinates":[36.1898,50.39204]},"properties":{"original":{"Date":"2026-08-03","Name":"03 AUG 2026","Faction":"Ukraine","Origin":"UAV","Latitude":"50.39204","Longitude":"36.1898","PlusCode":"9G2R95RQ+RW Veterynarne, Kharkiv Oblast, Ukraine","Description":"0:10-0:23 - Drone strike by 58th Motorized Brigade on a claimed Russian position.","Source":"https://x.com/PuenteUribarri/status/2084185888741896313, https://t.me/br58ua/3223","Geolocation":"https://x.com/jimmhelloman555/status/2084279960802304336","Equipment":"","EquipmentItems":"Fixed Wing OWAD (One Way Attack Drone) | School","Units":"","OrbatUnits":"58th Motorized Brigade","Id":"f0dbb0ca-ef05-433e-aa4f-dc9d889eb7c6","icon":"/api/icons/0051CA/False/template/111.png"},"source":"geoconfirmed","source_name":"GeoConfirmed","source_url":"https://geoconfirmed.org/map/ukraine","id":"f0dbb0ca-ef05-433e-aa4f-dc9d889eb7c6","date":"2026-08-03","link":"https://geoconfirmed.org/map/ukraine/f0dbb0ca-ef05-433e-aa4f-dc9d889eb7c6","category":"Short Range (<50km) OWAD (One Way Attack Drone), mostly rotary wing, Flying OR Attacking a target without knowing the outcome: if something is damaged --> icon of the damaged equipment.","side":"Ukraine","color":"#0051CA","description":"0:10-0:23 - Drone strike by 58th Motorized Brigade on a claimed Russian position.","orbat":["58th Motorized Brigade"],"geolocation":["https://x.com/jimmhelloman555/status/2084279960802304336"],"sources":["https://x.com/PuenteUribarri/status/2084185888741896313","https://t.me/br58ua/3223"]}},{"type":"Feature","geometry":{"type":"Point","coordinates":[40.131563,56.048472]},"properties":{"original":{"Date":"2026-08-03","Name":"03 AUG 2026","Faction":"Ukraine","Origin":"VID","Latitude":"56.048472","Longitude":"40.131563","PlusCode":"9H8224XJ+9J Ugor, Vladimir Oblast, Russia","Description":"POV - Drone attack on a Wildberries distribution center.","Source":"1/2 https://x.com/Exilenova_plus/status/2084137619357946099, https://t.me/exilenova_plus/27915, https://x.com/Grimm_Intel/status/2084141874005094591","Geolocation":"https://x.com/klinger66/status/2084140763428925927, https://x.com/Grimm_Intel/status/2084142156126507030, https://x.com/neonhandrail/status/2084251888766357751","Equipment":"","EquipmentItems":"Fixed Wing OWAD (One Way Attack Drone)","Units":"","OrbatUnits":"","Id":"ce24884c-2939-4bba-b9af-dfda55f17040","icon":"/api/icons/0051CA/False/template/30.png"},"source":"geoconfirmed","source_name":"GeoConfirmed","source_url":"https://geoconfirmed.org/map/ukraine","id":"ce24884c-2939-4bba-b9af-dfda55f17040","date":"2026-08-03","link":"https://geoconfirmed.org/map/ukraine/ce24884c-2939-4bba-b9af-dfda55f17040","category":"Video - Always Point of View in description - In the colour of who is doing the attack or is responsable for the incident in the video.","side":"Ukraine","color":"#0051CA","description":"POV - Drone attack on a Wildberries distribution center.","orbat":[],"geolocation":["https://x.com/klinger66/status/2084140763428925927","https://x.com/Grimm_Intel/status/2084142156126507030","https://x.com/neonhandrail/status/2084251888766357751"],"sources":["https://x.com/Exilenova_plus/status/2084137619357946099","https://t.me/exilenova_plus/27915","https://x.com/Grimm_Intel/status/2084141874005094591"]}},{"type":"Feature","geometry":{"type":"Point","coordinates":[37.427244,47.323961]},"properties":{"original":{"Date":"2026-08-03","Name":"03 AUG 2026","Faction":"Ukraine","Origin":"VID","Latitude":"47.323961","Longitude":"37.427244","PlusCode":"8GVV8CFG+HV Kremenivka, Donetsk Oblast, Ukraine","Description":"0:11-0:32 - Drone impacts occurred at electrical substations. The 427th Brigade 'Rarog' targeted the 'Pivdennodonbaska' 750 kV substation in Kremenivka, Donetsk Oblast.","Source":"https://x.com/414magyarbirds/status/2084217027854782559, https://t.me/robert_magyar/2694","Geolocation":"https://x.com/MikiValbuena/status/2084643405422874793, https://x.com/meowqai/status/2084959245569577319","Equipment":"","EquipmentItems":"Electrical Substation | FP-2","Units":"","OrbatUnits":"427th Separate Unmanned Systems Brigade \"Rarog\"","Id":"263cbf1e-aca9-4666-8963-e3b56f36a9b1","icon":"/api/icons/0051CA/False/template/181.png"},"source":"geoconfirmed","source_name":"GeoConfirmed","source_url":"https://geoconfirmed.org/map/ukraine","id":"263cbf1e-aca9-4666-8963-e3b56f36a9b1","date":"2026-08-03","link":"https://geoconfirmed.org/map/ukraine/263cbf1e-aca9-4666-8963-e3b56f36a9b1","category":"Longe Range (>50km) OWAD (One Way Attack Drone) or Loitering munition, mostly fixed wing, Flying OR Attacking a target without knowing the outcome: if something is damaged --> icon of the damaged equipment.","side":"Ukraine","color":"#0051CA","description":"0:11-0:32 - Drone impacts occurred at electrical substations. The 427th Brigade 'Rarog' targeted the 'Pivdennodonbaska' 750 kV substation in Kremenivka, Donetsk Oblast.","orbat":["427th Separate Unmanned Systems Brigade \"Rarog\""],"geolocation":["https://x.com/MikiValbuena/status/2084643405422874793","https://x.com/meowqai/status/2084959245569577319"],"sources":["https://x.com/414magyarbirds/status/2084217027854782559","https://t.me/robert_magyar/2694"]}},{"type":"Feature","geometry":{"type":"Point","coordinates":[37.608928,48.855022]},"properties":{"original":{"Date":"2026-08-03","Name":"03 AUG 2026","Faction":"Neutral","Origin":"PIC","Latitude":"48.855022","Longitude":"37.608928","PlusCode":"8GWVVJ45+2H Slovyansk, Donetsk Oblast, Ukraine","Description":"Slovyansk came under combined fire: from a 'KAB-250' bomb, 'Smerch' multiple launch rocket systems, and drones.","Source":"https://x.com/GeoToby/status/2084212998546010187, , https://t.me/slav_kramatorskDonbass/137190","Geolocation":"https://x.com/GeoToby/status/2084212328615027052","Equipment":"","EquipmentItems":"","Units":"","OrbatUnits":"","Id":"9fb09474-8583-4ed5-82c0-e3f6646b011c","icon":"/api/icons/AC7339/False/template/193.png"},"source":"geoconfirmed","source_name":"GeoConfirmed","source_url":"https://geoconfirmed.org/map/ukraine","id":"9fb09474-8583-4ed5-82c0-e3f6646b011c","date":"2026-08-03","link":"https://geoconfirmed.org/map/ukraine/9fb09474-8583-4ed5-82c0-e3f6646b011c","category":"Older destroyed infrastucture","side":"Neutral","color":"#AC7339","description":"Slovyansk came under combined fire: from a 'KAB-250' bomb, 'Smerch' multiple launch rocket systems, and drones.","orbat":[],"geolocation":["https://x.com/GeoToby/status/2084212328615027052"],"sources":["https://x.com/GeoToby/status/2084212998546010187","https://t.me/slav_kramatorskDonbass/137190"]}},{"type":"Feature","geometry":{"type":"Point","coordinates":[36.188318,50.393087]},"properties":{"original":{"Date":"2026-08-03","Name":"03 AUG 2026","Faction":"Ukraine","Origin":"UAV","Latitude":"50.393087","Longitude":"36.188318","PlusCode":"9G2R95VQ+68 Veterynarne, Kharkiv Oblast, Ukraine","Description":"1:27-1:32 - Drone strike by 58th Motorized Brigade on a claimed Russian position.","Source":"https://x.com/PuenteUribarri/status/2084185888741896313, https://t.me/br58ua/3223","Geolocation":"https://x.com/jimmhelloman555/status/2084279960802304336","Equipment":"","EquipmentItems":"Fixed Wing OWAD (One Way Attack Drone)","Units":"","OrbatUnits":"58th Motorized Brigade","Id":"b6b9a5f3-e640-4f78-8860-f64ce701295e","icon":"/api/icons/0051CA/False/template/111.png"},"source":"geoconfirmed","source_name":"GeoConfirmed","source_url":"https://geoconfirmed.org/map/ukraine","id":"b6b9a5f3-e640-4f78-8860-f64ce701295e","date":"2026-08-03","link":"https://geoconfirmed.org/map/ukraine/b6b9a5f3-e640-4f78-8860-f64ce701295e","category":"Short Range (<50km) OWAD (One Way Attack Drone), mostly rotary wing, Flying OR Attacking a target without knowing the outcome: if something is damaged --> icon of the damaged equipment.","side":"Ukraine","color":"#0051CA","description":"1:27-1:32 - Drone strike by 58th Motorized Brigade on a claimed Russian position.","orbat":["58th Motorized Brigade"],"geolocation":["https://x.com/jimmhelloman555/status/2084279960802304336"],"sources":["https://x.com/PuenteUribarri/status/2084185888741896313","https://t.me/br58ua/3223"]}}]}