{"type":"FeatureCollection","features":[{"type":"Feature","geometry":{"type":"MultiPolygon","coordinates":[[[[37.7944,49.06859],[37.79184,49.07079],[37.81453,49.07006],[37.81454,49.06958],[37.7944,49.06859]]],[[[37.78175,48.6279],[37.77869,48.64432],[37.77048,48.65276],[37.75973,48.65433],[37.75483,48.65608],[37.75173,48.66089],[37.75394,48.66448],[37.78182,48.67337],[37.78449,48.65666],[37.79071,48.64597],[37.78467,48.63351],[37.788,48.62353],[37.78175,48.6279]]],[[[37.13721,50.33183],[37.13025,50.33444],[37.12535,50.3412],[37.13478,50.3475],[37.13838,50.36095],[37.14336,50.34586],[37.14511,50.33534],[37.15578,50.33511],[37.1558,50.33478],[37.13721,50.33183]]],[[[37.03155,48.25889],[37.02986,48.26768],[37.04507,48.2688],[37.04603,48.27117],[37.0564,48.27015],[37.05763,48.26376],[37.05032,48.26163],[37.05117,48.25514],[37.04557,48.2538],[37.03353,48.25878],[37.03155,48.25889]]]]},"properties":{"source":"deepstate","source_name":"DeepStateMap","source_url":"https://deepstatemap.live/en","category":"gained","category_label":"Newly Russian-occupied","period":"7d","compared_with":"2026-09-16","snapshot_time":"2026-09-23","area_km2_approx":10.9}},{"type":"Feature","geometry":{"type":"MultiPolygon","coordinates":[[[[37.78359,49.07106],[37.74742,49.06316],[37.72204,49.06484],[37.71305,49.0691],[37.72074,49.08239],[37.72225,49.09333],[37.71411,49.10225],[37.71288,49.11284],[37.71739,49.12017],[37.72086,49.12788],[37.73232,49.12945],[37.7473,49.12972],[37.73095,49.11945],[37.72882,49.10849],[37.73666,49.10383],[37.7417,49.10796],[37.75293,49.11119],[37.77348,49.10778],[37.79007,49.09939],[37.77272,49.09231],[37.77481,49.09116],[37.78257,49.09091],[37.78847,49.08418],[37.78398,49.07756],[37.79184,49.07079],[37.78359,49.07106]]],[[[37.61125,49.78401],[37.6122,49.79171],[37.6057,49.79574],[37.61177,49.80177],[37.61499,49.80308],[37.61859,49.80455],[37.62463,49.81448],[37.61705,49.81665],[37.61965,49.82324],[37.63424,49.82411],[37.63853,49.81798],[37.64754,49.81439],[37.64735,49.81388],[37.64343,49.81527],[37.63699,49.80987],[37.63133,49.80181],[37.62847,49.80817],[37.62463,49.80695],[37.62674,49.80062],[37.61503,49.80282],[37.61557,49.79956],[37.62936,49.78972],[37.62712,49.78334],[37.62327,49.77672],[37.61125,49.78401]]]]},"properties":{"source":"deepstate","source_name":"DeepStateMap","source_url":"https://deepstatemap.live/en","category":"lost","category_label":"No longer Russian-occupied","period":"7d","compared_with":"2026-09-16","snapshot_time":"2026-09-23","area_km2_approx":31.0}}]}