{"type":"FeatureCollection","features":[{"type":"Feature","geometry":{"type":"Polygon","coordinates":[[[37.35874,48.53525],[37.37876,48.53974],[37.39637,48.53091],[37.39624,48.53059],[37.39292,48.53159],[37.38717,48.51575],[37.37788,48.51183],[37.37135,48.51643],[37.34498,48.51717],[37.35874,48.53525]]]},"properties":{"source":"deepstate","source_name":"DeepStateMap","source_url":"https://deepstatemap.live/en","category":"lost","category_label":"Ukrainian advance: became Ukrainian-held","period":"1d","compared_with":"2026-09-22","snapshot_time":"2026-09-23","area_km2_approx":6.8}}]}