{"type":"FeatureCollection","features":[{"type":"Feature","geometry":{"type":"Point","coordinates":[37.055325,48.122783]},"properties":{"source":"warspotting","source_name":"WarSpotting","source_url":"https://ukr.warspotting.net/","id":46987,"date":"2026-09-10","link":"https://ukr.warspotting.net/view/46987/","category":"Self-propelled artillery","side":"Lost by Russia","color":"#E00000","description":"152mm 2S19(M1) 'Msta-S' · Destroyed · near Novoielyzavetivka, Pokrovsk raion · tags: Cope cage, Additional armour","orbat":[]}}]}