{"type":"FeatureCollection","features":[{"type":"Feature","geometry":null,"properties":{"source":"ru_mod","source_name":"Ministry of Defence of Russia","group":"official_ru","id":67795,"posted_utc":"2026-10-01T03:31:01+00:00","link":"https://t.me/mod_russia/67795","text":"💥 Прятки отменяются: дроноводы «Центра» ликвидируют укрытия ВСУ в лесополосах на Добропольском направлении.\n#ВойскаБПС\n▫️ Канал Минобороны России в MAКС – источник мощных новостей","links":["https://max.ru/morf"]}},{"type":"Feature","geometry":null,"properties":{"source":"ru_mod","source_name":"Ministry of Defence of Russia","group":"official_ru","id":67796,"posted_utc":"2026-10-01T05:21:29+00:00","link":"https://t.me/mod_russia/67796","text":"❗️ Вооруженные Силы Российской Федерации продолжают наносить удары по логистическим и коммуникационным центрам, а также морским судам, задействованным в интересах ВСУ.\nСегодня ночью в результате ударов беспилотными летательными аппаратами поражены:\n📍 в Киеве – транспортно-логистический центр (ООО «Рента Логистик»), в складском здании которого был оборудован цех по производству безэкипажных катеров;\n📍 в Одессе и Одесской области:\n▪️ дата-центр «HOSTING-UA», через который осуществлялась обработка разведывательной и другой служебной информации в интересах формирований ВСУ;\n▪️ в порту Черноморск поражено морское судно типа «сухогруз» с военным имуществом и грузом двойного назначения для ВСУ.\n🔹 Минобороны России","links":["https://max.ru/morf"]}},{"type":"Feature","geometry":null,"properties":{"source":"ru_mod","source_name":"Ministry of Defence of Russia","group":"official_ru","id":67797,"posted_utc":"2026-10-01T05:34:12+00:00","link":"https://t.me/mod_russia/67797","text":"⚡️ В течение прошедшей ночи в период с 20.00 мск 30 сентября до 8.00 мск 1 октября дежурными силами ПВО перехвачены и уничтожены 330 украинских беспилотных летательных аппаратов самолетного типа над территориями Брянской, Белгородской, Смоленской, Калужской, Тульской, Курской, Тверской, Липецкой, Орловской, Тамбовской, Астраханской областей, Московского региона, Республики Крым и над акваторией Черного моря.\n🔹 Канал Минобороны России в MAКС – боевая работа 24/7","links":["https://max.ru/morf"]}},{"type":"Feature","geometry":null,"properties":{"source":"ru_mod","source_name":"Ministry of Defence of Russia","group":"official_ru","id":67798,"posted_utc":"2026-10-01T05:37:30+00:00","link":"https://t.me/mod_russia/67798","text":"▫️ Опора и сила страны\nЕжегодно 1 октября в Российской Федерации отмечается День Сухопутных войск.\n▫️ Сегодня военнослужащие Сухопутных войск, используя и совершенствуя новые тактические приёмы ведения боевых действий, эффективно выполняют задачи в ходе проведения специальной военной операции. Они демонстрируют высочайший уровень подготовки.\n🤝 За мужество, героизм и отвагу многие военнослужащие удостоены высоких государственных и ведомственных наград, а воинские части и соединения Сухопутных войск стали гвардейскими.\n🔹 Минобороны России","links":["https://max.ru/morf"]}},{"type":"Feature","geometry":null,"properties":{"source":"ru_mod","source_name":"Ministry of Defence of Russia","group":"official_ru","id":67800,"posted_utc":"2026-10-01T06:17:05+00:00","link":"https://t.me/mod_russia/67800","text":"Верховный Главнокомандующий Владимир Путин поздравил личный состав и ветеранов с Днем Сухопутных войск России.\nУважаемые товарищи!\nПоздравляю вас с Днём Сухопутных войск.\nМы искренне гордимся именами и подвигами прославленных героев – военачальников и полководцев, солдат и офицеров, которые во все времена, в боевых походах и на полях сражений за свободу и независимость Отечества проявляли беспримерное мужество, самоотверженность и силу духа.\nСегодня ратные, патриотические традиции предшественников, ветеранов служат достойным примером для нынешнего поколения военнослужащих Сухопутных войск, помогают с честью решать ответственные задачи в ходе специальной военной операции, на других стратегических направлениях.\nУверен, что вы и впредь будете демонстрировать высокий уровень подготовки, верность Присяге и долгу, надёжно стоять на страже национальных интересов и безопасности страны.\nЖелаю вам успехов и всего наилучшего.","links":["http://www.kremlin.ru/events/president/letters/80899"]}},{"type":"Feature","geometry":null,"properties":{"source":"ru_mod","source_name":"Ministry of Defence of Russia","group":"official_ru","id":67801,"posted_utc":"2026-10-01T06:30:17+00:00","link":"https://t.me/mod_russia/67801","text":"▫️ Победное слово за нашими парнями!\nМинистр обороны России Андрей Белоусов поздравил военнослужащих и ветеранов с Днем Сухопутных войск.\nАндрей Белоусов отметил, что во все времена пехотинцев отличали высокий профессионализм, самоотверженность и верность присяге. Их подвиги навсегда вписаны в ратную летопись нашей Родины.\n«Сегодня в условиях современных вызовов и угроз воины-сухопутчики демонстрируют истинное мужество, отвагу и взаимовыручку. Эффективно решают ответственные задачи, направленные на укрепление военной безопасности России», − отметил Министр обороны.\n💬 Андрей Белоусов пожелал бойцам крепкого здоровья и новых побед!\n➡️ Полный текст Приказа Министра обороны РФ\n🔹 Минобороны России","links":["https://vk.ru/@mil-ministr-oborony-rossiiskoi-federacii-andrei-belousov-pozdrav","https://max.ru/morf"]}},{"type":"Feature","geometry":null,"properties":{"source":"ru_mod","source_name":"Ministry of Defence of Russia","group":"official_ru","id":67802,"posted_utc":"2026-10-01T07:28:51+00:00","link":"https://t.me/mod_russia/67802","text":"Тяжелые огнеметные системы ТОС-1А «Солнцепек» не оставляют противнику ни единого шанса. Экипажи «Солнцепеков» в войсках уважают — ведь в их руках по-настоящему грозное оружие.\n«До \"Солнцепека\" служил в войсках ПВО. Показалось скучно», — признается наводчик с позывным «Пумба». За время работы на ТОС-1А он награжден медалью «За храбрость» II степени.\nОрденом Мужества награжден командир тяжелого огнеметного взвода с позывным «Флот», выпускник Военной академии РХБ защиты 2023 года. Он — профессионал и за результат своей работы спокоен, но всегда переживает за личный состав.\nОбоих героев дома ждут родители, семьи. «Пумба» передал привет жене, а «Флот» — трем сестрам. Пусть мужчины возвращаются домой с Победой!\nГерои в 📲 MAX,  📱 ВКонтакте и в 📱 Дзен","links":["https://max.ru/heroesofZ","https://vk.com/heroes0fz","http://dzen.ru/heroesofz"]}},{"type":"Feature","geometry":null,"properties":{"source":"ru_mod","source_name":"Ministry of Defence of Russia","group":"official_ru","id":67804,"posted_utc":"2026-10-01T08:18:13+00:00","link":"https://t.me/mod_russia/67804","text":"▫️ С Днём Сухопутных войск, мужики!\n▫️ Самый многочисленный, мощный и надёжный вид наших Вооружённых Сил отмечает свою годовщину. Вы – настоящая сила страны.\n🗂 Чтобы вы точно знали, кого из друзей и близких поздравить, мы собрали понятную структуру Сухопутных войск.\n🤝 Поздравляем всех причастных! Крепкого здоровья, удачи и стального духа. С праздником!\n🔹 MAКС – территория СВОих","links":["https://max.ru/morf"]}},{"type":"Feature","geometry":null,"properties":{"source":"ru_mod","source_name":"Ministry of Defence of Russia","group":"official_ru","id":67813,"posted_utc":"2026-10-01T08:46:36+00:00","link":"https://t.me/mod_russia/67813","text":"Победа куётся «царицей полей»\nС учётом реалий сегодняшнего дня главный акцент в развитии Сухопутных войск смещается с совершенствования отдельных образцов вооружения на создание единой устойчивой системы, объединяющей разведку, управление, огневые средства, противовоздушную оборону, радиоэлектронную, беспилотные комплексы и материально-техническое обеспечение.\nРуководство страны и Министерства обороны огромное внимание уделяют повышению боеспособности Сухопутных войск, обеспечивая их новыми вооружениями, военной и специальной техникой, необходимыми условиями и материальной базой для профессиональной подготовки военнослужащих и слаживания воинских формирований. Подробно об этом в интервью Красной звезде рассказывает главнокомандующий Сухопутными войсками генерал-полковник Андрей Мордвичев.\n🔹 Канал Минобороны России в MAКС – только для своих!","links":["http://redstar.ru/pobeda-kuyotsya-tsaritsej-polej-2/","https://max.ru/morf"]}},{"type":"Feature","geometry":null,"properties":{"source":"ru_mod","source_name":"Ministry of Defence of Russia","group":"official_ru","id":67814,"posted_utc":"2026-10-01T08:52:22+00:00","link":"https://t.me/mod_russia/67814","text":"⚡️ Подразделения группировки войск «Север» взяли под контроль населенные пункты Нестерное и Рубленое в Харьковской области.\n🔹 Минобороны России","links":["https://max.ru/morf"]}},{"type":"Feature","geometry":null,"properties":{"source":"ru_mod","source_name":"Ministry of Defence of Russia","group":"official_ru","id":67815,"posted_utc":"2026-10-01T08:52:29+00:00","link":"https://t.me/mod_russia/67815","text":"⚡️ Подразделения группировки войск «Север» взяли под контроль населенный пункт Высокая Яруга в Харьковской области.\nПодробнее об успехах наших войск ➡️ в MAКС","links":["https://max.ru/morf/AaD2sSkYZp8"]}},{"type":"Feature","geometry":null,"properties":{"source":"ru_mod","source_name":"Ministry of Defence of Russia","group":"official_ru","id":67816,"posted_utc":"2026-10-01T10:11:44+00:00","link":"https://t.me/mod_russia/67816","text":"Под прикрытием дронов и брони\nКоллективные силы ОДКБ в рамках учения «Взаимодействие-2026» отработали штурм позиций условного противника.\n➡️ Атака началась одновременно с нескольких направлений: штурмовые отряды при поддержке FPV-дронов последовательно заняли опорные пункты и закрепились на новых рубежах.\n💥 «Противнику» не дали перегруппироваться. Используя данные воздушной разведки, военнослужащие при поддержке боевых машин уничтожили отступающие силы.\n▫️ Досмотр зданий и зачистку населенного пункта выполнил спецназ Коллективных сил, завершив тактический эпизод маневров.\n#ученияОДКБ\n✈️ Курс на MAКС!","links":["https://max.ru/morf"]}},{"type":"Feature","geometry":null,"properties":{"source":"ru_mod","source_name":"Ministry of Defence of Russia","group":"official_ru","id":67794,"posted_utc":"2026-10-01T02:01:01+00:00","link":"https://t.me/mod_russia/67794","text":"▫️ Откровенный диалог с передовой\n💬 Студенты Самарского технического университета пообщались с бойцами подразделения БПС группировки «Центр». Военнослужащие рассказали об особенностях службы, управлении беспилотниками и условиях контракта.\n🤝 Ребята поблагодарили бойцов за честный рассказ о службе и за мужество при защите Родины. Военнослужащие, в свою очередь, выразили признательность за письма, отметив, что на фронте очень чувствуется их поддержка.\n#ВойскаБПС\n🔹 MAКС – территория СВОих","links":["https://max.ru/morf"]}},{"type":"Feature","geometry":null,"properties":{"source":"ru_mod","source_name":"Ministry of Defence of Russia","group":"official_ru","id":67838,"posted_utc":"2026-10-01T18:20:12+00:00","link":"https://t.me/mod_russia/67838","text":"Наших парней не остановить!\n#СобытиеДня\n🔹 MAКС – территория СВОих","links":["https://max.ru/morf"]}},{"type":"Feature","geometry":null,"properties":{"source":"ru_mod","source_name":"Ministry of Defence of Russia","group":"official_ru","id":67839,"posted_utc":"2026-10-01T19:12:34+00:00","link":"https://t.me/mod_russia/67839","text":"📆 Главное за день\n▫️ Победа куётся «царицей полей»: Верховный Главнокомандующий Владимир Путин и Министр обороны Андрей Белоусов поздравили военнослужащих и ветеранов с Днем Сухопутных войск.\n🚩 Наступаем без пауз: подразделения группировки «Север» взяли под контроль населенные пункты Нестерное, Рубленое и Высокая Яруга в Харьковской области.\n💥 Под прикрытием дронов и брони: Коллективные силы ОДКБ в рамках учения «Взаимодействие-2026» отработали штурм позиций условного противника.\n🔥 Вражеские тылы – в пепел: нанесли удары по логистическим и коммуникационным центрам, а также морским судам, задействованным в интересах ВСУ.\n🤝 Откровенный диалог с передовой: студенты Самарского технического университета пообщались с бойцами подразделения БПС группировки «Центр».\n💬 Взломали как надо: бойцы «Востока» рассказали подробности освобождения Егоровки в Запорожской области.\n⚓️ Большой поход, тёплый приём: корабли Тихоокеанского флота прибыли с деловым заходом в Индонезию.\nУверенно и мощно – к победе!\n#ИтогиДня\n🔹 Минобороны России","links":["https://t.me/mod_russia/67800","https://t.me/mod_russia/67801","https://t.me/mod_russia/67814","https://t.me/mod_russia/67815","https://t.me/mod_russia/67816","https://t.me/mod_russia/67796","https://t.me/mod_russia/67794","https://t.me/mod_russia/67817","https://t.me/mod_russia/67828","https://max.ru/morf"]}},{"type":"Feature","geometry":null,"properties":{"source":"ru_mod","source_name":"Ministry of Defence of Russia","group":"official_ru","id":67840,"posted_utc":"2026-10-01T19:35:26+00:00","link":"https://t.me/mod_russia/67840","text":"📆 Мощно начинаем месяц!\nОктябрь обещает быть жарким 🔥\n🔹 Канал Минобороны России в MAКС – только для своих!","links":["https://max.ru/morf"]}},{"type":"Feature","geometry":null,"properties":{"source":"ru_mod","source_name":"Ministry of Defence of Russia","group":"official_ru","id":67818,"posted_utc":"2026-10-01T13:37:19+00:00","link":"https://t.me/mod_russia/67818","text":"Призыв 2026 года стал знаковым: впервые мероприятия проходят круглый год, а учёт призывников и взаимодействие с ними почти полностью переведены в цифровой формат. Как идёт кампания, какие возможности открывает перед молодыми людьми служба в армии и что важно знать новобранцам, а также их семьям?\n#МОобъясняет\n🔹 Минобороны России","links":["http://redstar.ru/ot-povestki-do-voinskoj-chasti/","https://max.ru/morf"]}},{"type":"Feature","geometry":null,"properties":{"source":"ru_mod","source_name":"Ministry of Defence of Russia","group":"official_ru","id":67828,"posted_utc":"2026-10-01T14:09:18+00:00","link":"https://t.me/mod_russia/67828","text":"🤝 Большой поход, тёплый приём\nКорабли Тихоокеанского флота прибыли с деловым заходом в Индонезию. В рамках визита запланированы рабочие встречи, культурные и спортивные мероприятия с индонезийскими коллегами.\nОтряд кораблей ТОФ в составе фрегата «Маршал Шапошников», большого противолодочного корабля «Адмирал Трибуц» и танкера «Печенга» вышел из Владивостока 10 сентября для выполнения задач в Азиатско-Тихоокеанском регионе.\n🔹 Канал Минобороны России в MAКС – только для своих!","links":["https://max.ru/morf"]}},{"type":"Feature","geometry":null,"properties":{"source":"ru_mod","source_name":"Ministry of Defence of Russia","group":"official_ru","id":67829,"posted_utc":"2026-10-01T14:54:04+00:00","link":"https://t.me/mod_russia/67829","text":"💥 Артиллерийский нокаут\nРасчёт гаубицы «Гиацинт-Б» группировки «Центр» уничтожил скопление живой силы противника в районе Доброполья.\n▫️ Канал Минобороны России в MAКС – источник мощных новостей","links":["https://max.ru/morf"]}},{"type":"Feature","geometry":null,"properties":{"source":"ru_mod","source_name":"Ministry of Defence of Russia","group":"official_ru","id":67830,"posted_utc":"2026-10-01T15:32:31+00:00","link":"https://t.me/mod_russia/67830","text":"❗️ Вооруженные Силы Российской Федерации продолжают наносить удары по морским судам, задействованным в интересах ВСУ.\n💥 Сегодня днем в результате удара беспилотным летательным аппаратом в акватории Черного моря поражен сухогруз с военными грузами для подразделений ВСУ.\n🔹 Минобороны России","links":["https://max.ru/morf"]}},{"type":"Feature","geometry":null,"properties":{"source":"ru_mod","source_name":"Ministry of Defence of Russia","group":"official_ru","id":67831,"posted_utc":"2026-10-01T17:01:38+00:00","link":"https://t.me/mod_russia/67831","text":"О причинах конфликта на Украине\nПодробнее – на сайте Кремля.","links":["http://kremlin.ru/events/president/news/80910"]}},{"type":"Feature","geometry":null,"properties":{"source":"ru_mod","source_name":"Ministry of Defence of Russia","group":"official_ru","id":67832,"posted_utc":"2026-10-01T17:01:45+00:00","link":"https://t.me/mod_russia/67832","text":"Можем ли мы быть уверены, что оружие [массового поражения] никогда не будет применено? Конечно, нет. Мы же знаем с вами известное высказывание: если ружьё в начале спектакля на сцене висит где-то на стене, оно обязательно в конце концов должно выстрелить. Мы должны это иметь в виду и избежать этого.\nПодробнее – на сайте Кремля.","links":["http://kremlin.ru/events/president/news/80910"]}},{"type":"Feature","geometry":null,"properties":{"source":"ru_mod","source_name":"Ministry of Defence of Russia","group":"official_ru","id":67833,"posted_utc":"2026-10-01T17:11:05+00:00","link":"https://t.me/mod_russia/67833","text":"Российские военные <…> никогда первыми не атаковали объекты, не относящиеся прямо к военной инфраструктуре противника.\nПодробнее – на сайте Кремля.","links":["http://kremlin.ru/events/president/news/80910"]}},{"type":"Feature","geometry":null,"properties":{"source":"ru_mod","source_name":"Ministry of Defence of Russia","group":"official_ru","id":67834,"posted_utc":"2026-10-01T17:37:14+00:00","link":"https://t.me/mod_russia/67834","text":"Если речь дойдёт до прямого нападения на Российскую Федерацию, <...> конечно, в повестке дня неизбежно и немедленно появится вопрос применения Российской Федерацией всех вооружений, имеющихся в распоряжении нашей страны. Это неизбежно.\nПодробнее – на сайте Кремля.","links":["http://kremlin.ru/events/president/news/80910"]}},{"type":"Feature","geometry":null,"properties":{"source":"ru_mod","source_name":"Ministry of Defence of Russia","group":"official_ru","id":67835,"posted_utc":"2026-10-01T17:42:24+00:00","link":"https://t.me/mod_russia/67835","text":"⚡️ В течение дня в период с 8.00 до 20.00 мск дежурными силами ПВО перехвачены и уничтожены 227 украинских беспилотных летательных аппаратов самолетного типа над территориями Калужской, Брянской, Курской, Белгородской, Тульской, Воронежской, Тамбовской, Ростовской, Саратовской, Самарской областей, Краснодарского края, Московского региона, Республики Крым и над акваторией Черного моря.\n🔹 Канал Минобороны России в MAКС – только для своих!","links":["https://max.ru/morf"]}},{"type":"Feature","geometry":null,"properties":{"source":"ru_mod","source_name":"Ministry of Defence of Russia","group":"official_ru","id":67836,"posted_utc":"2026-10-01T17:46:14+00:00","link":"https://t.me/mod_russia/67836","text":"🏳️ Пленный: «Российские бойцы – хорошие люди. Угощали, даже делились рецептами»\n💬 Отведать блюда по нашим рецептам удалось солдату ВСУ Николаю Олифиренко. Он попал в российский плен после многих месяцев ожидания ротации на передовой. Командиры обещали поменять его через месяц, но ни одна группа противника не могла дойти до позиции – все они были уничтожены нашими бойцами:\n«Они говорят: «Потерпите еще немножко. Группа уже зашла». Мы ждали, ждали. Они говорят, что группу уничтожили, будет скоро другая заходить, после слаживания на полигоне. Мы снова ждали, и никаких групп не было».\n▫️ Пребывание в российском плену Николаю только в радость. Он отметил хорошее отношение со стороны наших бойцов:\n«Когда мы сдались уже в плен, к нам хорошо относились. Хорошие люди. Наоборот, угощали чем-то, даже делились рецептами».\nСдавайтесь все, мы угощаем 😋\n✈️ Курс на MAКС!","links":["https://max.ru/morf"]}},{"type":"Feature","geometry":null,"properties":{"source":"ru_mod","source_name":"Ministry of Defence of Russia","group":"official_ru","id":67837,"posted_utc":"2026-10-01T18:07:55+00:00","link":"https://t.me/mod_russia/67837","text":"💥 Устроили ураган на побережье: реактивщики группировки «Запад» уничтожили скопления живой силы ВСУ на восточном берегу Краснооскольского водохранилища.\n📍 Донецкая Народная Республика\n⚔️ Канал Минобороны России в MAКС – боевая работа 24/7. Присоединяйся!","links":["https://max.ru/morf"]}},{"type":"Feature","geometry":null,"properties":{"source":"ru_mod","source_name":"Ministry of Defence of Russia","group":"official_ru","id":67817,"posted_utc":"2026-10-01T12:29:15+00:00","link":"https://t.me/mod_russia/67817","text":"Взломали как надо: подробности штурма Егоровки в Запорожской области\n➡️ Основные подразделения наступали с трёх направлений, а малые группы просачивались между позициями ВСУ.\n«Егоровка имеет расположение продолговатое, мы заходили с торца по трем направлениям – основными тремя ударами. Плюс еще мелкие группы просачивались», – рассказал штурмовик с позывным «НКВД».\n📊 В боях за населенный пункт противник потерял более роты живой силы. Также уничтожены шесть боевых бронированных машин, 12 автомобилей, более 10 наземных роботов и 58 тяжёлых гексакоптеров типа «Баба-Яга».\n🔹 Канал Минобороны России в MAКС – только для своих!","links":["https://t.me/mod_russia/67776?single","https://max.ru/morf"]}}]}