{"type":"FeatureCollection","features":[{"type":"Feature","geometry":null,"properties":{"source":"ua_mod","source_name":"Ministry of Defence of Ukraine","group":"official_ua","id":16129,"posted_utc":"2026-09-01T05:30:31+00:00","link":"https://t.me/ministry_of_defense_ua/16129","text":"📲 Оновлення Резерв+ уже доступне всім користувачам.\nСьогодні вранці частина користувачів отримала повідомлення про необхідність оновити Резерв+. Оновлення вже доступне на iOS та Android.\nЧерез підвищене навантаження можуть тимчасово виникати складнощі з авторизацією або використанням окремих функцій. Якщо це сталося, зачекайте трохи й повторіть спробу.\nСитуація має стабілізуватися найближчим часом. Перепрошуємо за незручності.","links":[],"original_html":"<b><i class=\"emoji\" style=\"background-image:url('//telegram.org/img/emoji/40/F09F93B2.png')\"><b>📲</b></i> Оновлення Резерв+ уже доступне всім користувачам.</b><br/><br/>Сьогодні вранці частина користувачів отримала повідомлення про необхідність оновити Резерв+. Оновлення вже доступне на iOS та Android.<br/><br/>Через підвищене навантаження можуть тимчасово виникати складнощі з авторизацією або використанням окремих функцій. Якщо це сталося, зачекайте трохи й повторіть спробу.<br/><br/>Ситуація має стабілізуватися найближчим часом. Перепрошуємо за незручності."}},{"type":"Feature","geometry":null,"properties":{"source":"ua_mod","source_name":"Ministry of Defence of Ukraine","group":"official_ua","id":16130,"posted_utc":"2026-09-01T07:50:33+00:00","link":"https://t.me/ministry_of_defense_ua/16130","text":"❗️Продовжуємо відновлювати авторизацію в Резерв+\nЧастина користувачів усе ще може мати складнощі зі входом у застосунок. Розповідаємо, що сталося, що вже зробили та над чим працюємо зараз.\nЩо сталося та що вже зробили:\n• Близько 03:00 автоматично оновився сертифікат безпеки Резерв+. Через налаштування захисту попередня версія застосунку не могла під’єднатися до системи.\n• Близько 04:00 розпочалась публікація оновленої версії Резерв+ із виправленням.\n• О 06:30 оновлення стало доступним в Google Play, о 07:46 — в App Store.\n• Після цього багато користувачів одночасно почали входити в застосунок, через що різко зросло навантаження.\n• О 10:02 усунули проблему з надмірним навантаженням і перезапустили системи, які відповідають за вхід.\nЩо робимо зараз:\n• Додаємо потужності та коригуємо налаштування, щоб швидше опрацювати накопичені запити.\n• Послідовно знаходимо й усуваємо проблеми, які заважають повністю відновити авторизацію.\nПро повне відновлення авторизації повідомимо окремо. Перепрошуємо за незручності.","links":[],"original_html":"<b><i class=\"emoji\" style=\"background-image:url('//telegram.org/img/emoji/40/E29D97.png')\"><b>❗️</b></i>Продовжуємо відновлювати авторизацію в Резерв+</b><br/><br/>Частина користувачів усе ще може мати складнощі зі входом у застосунок. Розповідаємо, що сталося, що вже зробили та над чим працюємо зараз.<br/><br/><b>Що сталося та що вже зробили:</b><br/>• Близько 03:00 автоматично оновився сертифікат безпеки Резерв+. Через налаштування захисту попередня версія застосунку не могла під’єднатися до системи.<br/>• Близько 04:00 розпочалась публікація оновленої версії Резерв+ із виправленням.<br/>• О 06:30 оновлення стало доступним в Google Play, о 07:46 — в App Store.<br/>• Після цього багато користувачів одночасно почали входити в застосунок, через що різко зросло навантаження.<br/>• О 10:02 усунули проблему з надмірним навантаженням і перезапустили системи, які відповідають за вхід.<br/><br/><b>Що робимо зараз:</b><br/>• Додаємо потужності та коригуємо налаштування, щоб швидше опрацювати накопичені запити.<br/>• Послідовно знаходимо й усуваємо проблеми, які заважають повністю відновити авторизацію.<br/><br/>Про повне відновлення авторизації повідомимо окремо. Перепрошуємо за незручності."}},{"type":"Feature","geometry":null,"properties":{"source":"ua_mod","source_name":"Ministry of Defence of Ukraine","group":"official_ua","id":16131,"posted_utc":"2026-09-01T09:54:59+00:00","link":"https://t.me/ministry_of_defense_ua/16131","text":"💥 Місця запуску російських ударних дронів – під ударом Сил оборони України.\nУражено пускові установки та місця зберігання БпЛА:\n•⁠  ⁠30 серпня в районі Цимбулової Орловської області рф;\n•⁠  ⁠31 серпня та в ніч на 1 вересня у Донецьку та Гвардійському в тимчасово окупованому Криму.\nТакож у Мирному в Криму уражено вузол зв’язку противника, у Пологах на Запоріжжі – командно-спостережний пункт, у Верхньокам’янці на Луганщині – зосередження військової техніки.\nВипалюємо об’єкти, звідки ворог завдає терористичні удари по Україні. Примушуємо росію до припинення війни.","links":[],"original_html":"<b><i class=\"emoji\" style=\"background-image:url('//telegram.org/img/emoji/40/F09F92A5.png')\"><b>💥</b></i> Місця запуску російських ударних дронів – під ударом Сил оборони України.</b><br/><br/>Уражено пускові установки та місця зберігання БпЛА:<br/>•⁠  ⁠30 серпня в районі Цимбулової Орловської області рф;<br/>•⁠  ⁠31 серпня та в ніч на 1 вересня у Донецьку та Гвардійському в тимчасово окупованому Криму.<br/><br/>Також у Мирному в Криму уражено вузол зв’язку противника, у Пологах на Запоріжжі – командно-спостережний пункт, у Верхньокам’янці на Луганщині – зосередження військової техніки.<br/><br/>Випалюємо об’єкти, звідки ворог завдає терористичні удари по Україні. Примушуємо росію до припинення війни."}},{"type":"Feature","geometry":null,"properties":{"source":"ua_mod","source_name":"Ministry of Defence of Ukraine","group":"official_ua","id":16132,"posted_utc":"2026-09-01T10:21:47+00:00","link":"https://t.me/ministry_of_defense_ua/16132","text":"❗️ Артем Романюков став тимчасово виконуючим обов’язки керівника Агенції оборонних закупівель ДОТ – рішення Наглядової ради.\nРоманюков має багаторічний досвід роботи в Prozorro. Був заступником Міністра з питань стратегічних галузей промисловості. У Міноборони працював над конкурентними процедурами закупівель та їх переведенням в електронну систему. За його участі також запускалися Резерв+, Армія+, електронний рапорт і військово-обліковий документ.\nСеред ключових завдань нового керівника: продовжити переведення оборонних закупівель на тендери, цифровізувати процеси, посилити антикорупційну роботу.\nПріоритет – безперебійне забезпечення війська через більшу прозорість, ефективне використання коштів та мінімізацію ризиків.","links":[],"original_html":"<b><i class=\"emoji\" style=\"background-image:url('//telegram.org/img/emoji/40/E29D97.png')\"><b>❗️</b></i> Артем Романюков став тимчасово виконуючим обов’язки керівника Агенції оборонних закупівель ДОТ – рішення Наглядової ради.</b><br/><br/>Романюков має багаторічний досвід роботи в Prozorro. Був заступником Міністра з питань стратегічних галузей промисловості. У Міноборони працював над конкурентними процедурами закупівель та їх переведенням в електронну систему. За його участі також запускалися Резерв+, Армія+, електронний рапорт і військово-обліковий документ.<br/><br/>Серед ключових завдань нового керівника: продовжити переведення оборонних закупівель на тендери, цифровізувати процеси, посилити антикорупційну роботу.<br/><br/>Пріоритет – безперебійне забезпечення війська через більшу прозорість, ефективне використання коштів та мінімізацію ризиків."}},{"type":"Feature","geometry":null,"properties":{"source":"ua_mod","source_name":"Ministry of Defence of Ukraine","group":"official_ua","id":16133,"posted_utc":"2026-09-01T10:55:29+00:00","link":"https://t.me/ministry_of_defense_ua/16133","text":"🎓 Майже 3 500 вступників у 2026 році обрали військову освіту.\nНайбільше вступників прийняли:\n• Харківський національний університет Повітряних Сил — понад 700;\n• Військовий інститут КНУ імені Тараса Шевченка — понад 550;\n• Національна академія сухопутних військ — понад 500.\n100% від запланованої кількості вступників зараховано до Військового інституту КНУ, Інституту ВМС Національного університету «Одеська морська академія» та Військово-юридичного інституту Національного юридичного університету.\nСтаном на 2026 рік система військової освіти в Україні охоплює 121 спеціалізацію: від управління підрозділами, озброєння та розвідки до права, медицини, психології, логістики й міжнародних відносин.\nСистемно працюємо над формуванням кадрового резерву для війська на роки вперед.","links":["https://mod.gov.ua/news/viiskova-osvita-v-ukraini-okhopliuie-ponad-120-spetsializatsii?utm_source=mod-telegram&utm_medium=social"],"original_html":"<b><i class=\"emoji\" style=\"background-image:url('//telegram.org/img/emoji/40/F09F8E93.png')\"><b>🎓</b></i> Майже 3 500 вступників у 2026 році обрали військову освіту.</b><br/><br/><u>Найбільше вступників прийняли:</u><br/>• Харківський національний університет Повітряних Сил — понад 700;<br/>• Військовий інститут КНУ імені Тараса Шевченка — понад 550;<br/>• Національна академія сухопутних військ — понад 500.<br/><br/>100% від запланованої кількості вступників зараховано до Військового інституту КНУ, Інституту ВМС Національного університету «Одеська морська академія» та Військово-юридичного інституту Національного юридичного університету.&nbsp;<br/><br/>Станом на 2026 рік система військової освіти в Україні <a href=\"https://mod.gov.ua/news/viiskova-osvita-v-ukraini-okhopliuie-ponad-120-spetsializatsii?utm_source=mod-telegram&amp;amp;utm_medium=social\" target=\"_blank\" rel=\"noopener\" onclick=\"return confirm('Open this link?\\n\\n'+this.href);\">охоплює 121 спеціалізацію</a>: від управління підрозділами, озброєння та розвідки до права, медицини, психології, логістики й міжнародних відносин.<br/><br/>Системно працюємо над формуванням кадрового резерву для війська на роки вперед."}},{"type":"Feature","geometry":null,"properties":{"source":"ua_mod","source_name":"Ministry of Defence of Ukraine","group":"official_ua","id":16134,"posted_utc":"2026-09-01T17:55:24+00:00","link":"https://t.me/ministry_of_defense_ua/16134","text":"🤝 Україна закликає партнерів спрямувати кошти на додаткове фінансування виробництва українських дронів і забезпечити передачу ракет для ППО до початку зими.\nНа цьому наголосив Міністр оборони України Євгеній Хмара під час засідання міністрів оборони ЄС під головуванням Високого представника Каї Каллас.\nДля протидії російському повітряному терору, планам росії щодо мобілізації та нарощування виробництва дронів Україна потребує збільшення обсягів критичного озброєння, а також додаткових коштів – близько $27 млрд.\nСаме тому Україна закликає партнерів виділити кошти на закупівлю українських дронів з національних бюджетів, прискорити надання кредиту ЄС та відновити обговорення використання заморожених російських активів.\nТакож Євгеній Хмара закликав партнерів передати ракети Patriot з запасів для протидії балістиці, перехоплювачі класу «повітря-повітря» проти крилатих ракет і боєприпаси до ПЗРК проти реактивних дронів. Також важливими залишаються внески в механізми PURL і JUMPSTART.\nЗа словами Міністра оборони, Україна будує з партнерами модель win-win. Кожне євро, вкладене в українську оборону, — це інвестиція в європейську безпеку.\nЄвгеній Хмара підкреслив, що Міноборони разом з військовим керівництвом розширює проєкти, побудовані на асиметричних рішеннях. На основі спільного бачення готується план війни, який незабаром буде представлений партнерам.\nМіністр оборони подякував Європейському Союзу за важливу підтримку.","links":[],"original_html":"<div class=\"tgme_widget_message_text js-message_text\" dir=\"auto\"><i class=\"emoji\" style=\"background-image:url('//telegram.org/img/emoji/40/F09FA49D.png')\"><b>🤝</b></i> <b>Україна закликає партнерів спрямувати кошти на додаткове фінансування виробництва українських дронів і забезпечити передачу ракет для ППО до початку зими. <br/></b><br/>На цьому наголосив Міністр оборони України Євгеній Хмара під час засідання міністрів оборони ЄС під головуванням Високого представника Каї Каллас. <br/><br/>Для протидії російському повітряному терору, планам росії щодо мобілізації та нарощування виробництва дронів Україна потребує збільшення обсягів критичного озброєння, а також додаткових коштів – близько &#036;27 млрд. <br/><br/>Саме тому Україна закликає партнерів виділити кошти на закупівлю українських дронів з національних бюджетів, прискорити надання кредиту ЄС та відновити обговорення використання заморожених російських активів.<br/><br/>Також Євгеній Хмара закликав партнерів передати ракети Patriot з запасів для протидії балістиці, перехоплювачі класу «повітря-повітря» проти крилатих ракет і боєприпаси до ПЗРК проти реактивних дронів. Також важливими залишаються внески в механізми PURL і JUMPSTART.<br/><br/>За словами Міністра оборони, Україна будує з партнерами модель win-win. Кожне євро, вкладене в українську оборону, — це інвестиція в європейську безпеку.<br/><br/>Євгеній Хмара підкреслив, що Міноборони разом з військовим керівництвом розширює проєкти, побудовані на асиметричних рішеннях. На основі спільного бачення готується план війни, який незабаром буде представлений партнерам.<br/><br/>Міністр оборони подякував Європейському Союзу за важливу підтримку."}}]}