{"type":"FeatureCollection","features":[{"type":"Feature","geometry":{"type":"Point","coordinates":[37.54134,48.60851]},"properties":{"source":"lost_warinua","source_name":"lost_warinua (Telegram)","source_url":"https://t.me/s/lost_warinua","id":141238,"date":"2026-09-13","date_note":null,"posted_utc":"2026-10-07T14:38:56+00:00","link":"https://t.me/lost_warinua/141238","category":"Telegram post","side":"Claimed loss: Ukraine (ВСУ)","color":"#0051CA","description":"Уничтоженный бронеавтомобиль HMMWV с мангалом ВСУ в г. Дружковка Донецкой области.","orbat":[],"sources":["https://t.me/donbass24_7/111708","https://www.facebook.com/photo.php?fbid=27688344650843107&set=pb.100002828339102.-2207520000&type=3"],"original_html":"<div class=\"tgme_widget_message_text js-message_text\" dir=\"auto\">13.09.2026<br/>Уничтоженный бронеавтомобиль HMMWV с мангалом ВСУ в г. Дружковка Донецкой области.<br/>(<code>48.60851, 37.54134</code>)<br/><a href=\"https://t.me/donbass24_7/111708\" target=\"_blank\" rel=\"noopener\">https://t.me/donbass24_7/111708</a><br/><a href=\"https://www.facebook.com/photo.php?fbid=27688344650843107&amp;amp;set=pb.100002828339102.-2207520000&amp;amp;type=3\" target=\"_blank\" rel=\"noopener\" onclick=\"return confirm('Open this link?\\n\\n'+this.href);\">Источник</a>"}},{"type":"Feature","geometry":{"type":"Point","coordinates":[32.65233,46.10845]},"properties":{"source":"lost_warinua","source_name":"lost_warinua (Telegram)","source_url":"https://t.me/s/lost_warinua","id":140714,"date":"2026-09-13","date_note":null,"posted_utc":"2026-09-16T11:12:48+00:00","link":"https://t.me/lost_warinua/140714","category":"Telegram post","side":"Claimed loss: Russia","color":"#E00000","description":"Уничтоженный российский грузовик УРАЛ-4320 возле н.п. Сябры Херсонской области.","orbat":[],"sources":["https://www.tiktok.com/@molodoisiba/video/7681774380879252756"],"original_html":"<div class=\"tgme_widget_message_text js-message_text\" dir=\"auto\">13.09.26<br/>Уничтоженный российский грузовик УРАЛ-4320 возле н.п. Сябры Херсонской области.<br/>(<code>46.10845, 32.65233</code>)<br/><a href=\"https://www.tiktok.com/@molodoisiba/video/7681774380879252756\" target=\"_blank\" rel=\"noopener\" onclick=\"return confirm('Open this link?\\n\\n'+this.href);\">Источник.</a>"}}]}