{"type":"FeatureCollection","features":[{"type":"Feature","geometry":null,"properties":{"source":"ua_mod","source_name":"Ministry of Defence of Ukraine","group":"official_ua","id":16138,"posted_utc":"2026-09-02T08:32:27+00:00","link":"https://t.me/ministry_of_defense_ua/16138","text":"✅ Понад 2 мільярди гривень зекономлено на закупівлі 5 000 пікапів для Сил оборони. Перші машини вже надійшли до війська.\nАгенція оборонних закупівель ДОТ завершила відкритий тендер у системі Prozorro на придбання найбільшої партії пікапів, яку держава коли-небудь централізовано передавала військовим.\nЙдеться про 5 000 нових повнопривідних автомобілів кількох моделей із дизельними двигунами та гарантією виробників. Усю партію мають доставити до кінця року, але перші машини вже надійшли у підрозділи.\nЗакупівлю розділили на кілька лотів, тому авто закуплять у шести різних компаній. Це знизить ризик зривів чи затримок постачання, адже від одного виробника залежить лише частина партії.\nЗа результатами тендеру вдалося зекономити понад 2 млрд гривень бюджетних коштів – їх спрямують на інші потреби Сил оборони.\n🔗 Докладніше про це","links":["https://mod.gov.ua/news/cherez-tender-na-5-000-pikapiv-dlia-syl-oborony-vdalosia-zekonomyty-ponad-2-mlrd-hryven"],"original_html":"<b><i class=\"emoji\" style=\"background-image:url('//telegram.org/img/emoji/40/E29C85.png')\"><b>✅</b></i> Понад 2 мільярди гривень зекономлено на закупівлі 5 000 пікапів для Сил оборони. Перші машини вже надійшли до війська.</b><br/><br/>Агенція оборонних закупівель ДОТ завершила відкритий тендер у системі Prozorro на придбання найбільшої партії пікапів, яку держава коли-небудь централізовано передавала військовим.<br/><br/>Йдеться про 5 000 нових повнопривідних автомобілів кількох моделей із дизельними двигунами та гарантією виробників. Усю партію мають доставити до кінця року, але перші машини вже надійшли у підрозділи.<br/><br/>Закупівлю розділили на кілька лотів, тому авто закуплять у шести різних компаній. Це знизить ризик зривів чи затримок постачання, адже від одного виробника залежить лише частина партії.<br/><br/>За результатами тендеру вдалося зекономити понад 2 млрд гривень бюджетних коштів – їх спрямують на інші потреби Сил оборони.<br/><br/><i class=\"emoji\" style=\"background-image:url('//telegram.org/img/emoji/40/F09F9497.png')\"><b>🔗</b></i> <a href=\"https://mod.gov.ua/news/cherez-tender-na-5-000-pikapiv-dlia-syl-oborony-vdalosia-zekonomyty-ponad-2-mlrd-hryven\" target=\"_blank\" rel=\"noopener\" onclick=\"return confirm('Open this link?\\n\\n'+this.href);\"><b>Докладніше про це</b></a>"}},{"type":"Feature","geometry":null,"properties":{"source":"ua_mod","source_name":"Ministry of Defence of Ukraine","group":"official_ua","id":16139,"posted_utc":"2026-09-02T09:38:52+00:00","link":"https://t.me/ministry_of_defense_ua/16139","text":"✅ 42 020 російських військових були вбиті або поранені в серпні Силами оборони України.\nЗа даними Генерального штабу ЗСУ минулого місяця також уражені:\n• 13 835 одиниць автомобільної техніки та автоцистерн;\n• 1 827 артилерійських систем;\n• 197 броньованих машин;\n• 89 танків.\nДля порівняння: у липні втрати особового складу противника склали 42 860 військових, у червні – 39 290, у травні – 33 760.\nВтрати противника мають досягти такого рівня, коли він буде змушений відмовитися від агресії.","links":[],"original_html":"<i class=\"emoji\" style=\"background-image:url('//telegram.org/img/emoji/40/E29C85.png')\"><b>✅</b></i> <b>42 020 російських військових були вбиті або поранені в серпні Силами оборони України.</b><br/>&nbsp;<br/>За даними Генерального штабу ЗСУ минулого місяця також уражені:<br/>• 13 835 одиниць автомобільної техніки та автоцистерн;<br/>• 1 827 артилерійських систем;<br/>• 197 броньованих машин;<br/>• 89 танків.<br/>&nbsp;<br/>Для порівняння: у липні втрати особового складу противника склали 42 860 військових, у червні – 39 290, у травні – 33 760.<br/>&nbsp;<br/>Втрати противника мають досягти такого рівня, коли він буде змушений відмовитися від агресії."}},{"type":"Feature","geometry":null,"properties":{"source":"ua_mod","source_name":"Ministry of Defence of Ukraine","group":"official_ua","id":16140,"posted_utc":"2026-09-02T12:46:26+00:00","link":"https://t.me/ministry_of_defense_ua/16140","text":"🚀 До 1900 км — такої глибини сягали українські deep strike по росії у серпні.\nЗа місяць уражено:\n— 12 великих НПЗ із сукупною потужністю близько 100 млн тонн нафтопродуктів на рік;\n— 2 газопереробні та нафтохімічні підприємства;\n— 3 великі паливні термінали та нафтобази;\n— 2 підприємства ВПК, зокрема «Комбінат Каменський», де два цехи знищено та ще чотири суттєво пошкоджено.\nСеред уражених об’єктів «Лукойл-Пермнефтеоргсинтез» та «Орскнефтеоргсинтез» розташовані приблизно за 1500 км від державного кордону України, «Тобольскнефтехим» — за 1900 км.\nПідвищуємо ціну війни для агресора. росія заплатить за все. 🫡","links":["https://mod.gov.ua/news/urazheno-12-npz-i-2-pidpryiemstva-vpk-rosii-pidsumky-deep-strike-u-serpni?utm_source=mod-telegram&utm_medium=social"],"original_html":"<i class=\"emoji\" style=\"background-image:url('//telegram.org/img/emoji/40/F09F9A80.png')\"><b>🚀</b></i><b> До 1900 км — такої глибини сягали українські deep strike по росії у серпні.</b><br/>&nbsp;<br/><a href=\"https://mod.gov.ua/news/urazheno-12-npz-i-2-pidpryiemstva-vpk-rosii-pidsumky-deep-strike-u-serpni?utm_source=mod-telegram&amp;amp;utm_medium=social\" target=\"_blank\" rel=\"noopener\" onclick=\"return confirm('Open this link?\\n\\n'+this.href);\">За місяць уражено</a>:<br/>&nbsp;<br/>— 12 великих НПЗ із сукупною потужністю близько 100 млн тонн нафтопродуктів на рік;<br/>— 2 газопереробні та нафтохімічні підприємства;<br/>— 3 великі паливні термінали та нафтобази;<br/>— 2 підприємства ВПК, зокрема «Комбінат Каменський», де два цехи знищено та ще чотири суттєво пошкоджено.<br/>&nbsp;<br/>Серед уражених об’єктів «Лукойл-Пермнефтеоргсинтез» та «Орскнефтеоргсинтез» розташовані приблизно за 1500 км від державного кордону України, «Тобольскнефтехим» — за 1900 км.<br/>&nbsp;<br/>Підвищуємо ціну війни для агресора. росія заплатить за все. <i class=\"emoji\" style=\"background-image:url('//telegram.org/img/emoji/40/F09FABA1.png')\"><b>🫡</b></i>"}},{"type":"Feature","geometry":null,"properties":{"source":"ua_mod","source_name":"Ministry of Defence of Ukraine","group":"official_ua","id":16141,"posted_utc":"2026-09-02T14:00:14+00:00","link":"https://t.me/ministry_of_defense_ua/16141","text":"❗️ Повернутися на службу після СЗЧ за спрощеною процедурою можна до 20 вересня 2026 року.\nПрограма доступна військовослужбовцям ЗСУ, НГУ та ДССТ, у яких СЗЧ зафіксовано до 12 червня 2026 року включно.\nСпрощена процедура дозволяє:\n→ обрати одну з 70+ військових частин на вибір;\n→ обрати бажаний напрям служби;\n→ врахувати військовий і цивільний досвід;\n→ не їхати до попередньої частини по документи;\n→ після погодження рапорту прибути одразу до обраної частини.\n🔗 Докладна інструкція та перелік підрозділів — на szch.army.gov.ua.","links":["http://szch.army.gov.ua/"],"original_html":"<i class=\"emoji\" style=\"background-image:url('//telegram.org/img/emoji/40/E29D97.png')\"><b>❗️</b></i> <b>Повернутися на службу після СЗЧ за спрощеною процедурою можна до 20 вересня 2026 року.</b><br/>Програма доступна військовослужбовцям ЗСУ, НГУ та ДССТ, у яких СЗЧ зафіксовано до 12 червня 2026 року включно.<br/> <br/>Спрощена процедура дозволяє:<br/>→ обрати одну з 70+ військових частин на вибір;<br/>→ обрати бажаний напрям служби;<br/>→ врахувати військовий і цивільний досвід;<br/>→ не їхати до попередньої частини по документи;<br/>→ після погодження рапорту прибути одразу до обраної частини.<br/> <br/><i class=\"emoji\" style=\"background-image:url('//telegram.org/img/emoji/40/F09F9497.png')\"><b>🔗</b></i> Докладна інструкція та перелік підрозділів — на <a href=\"http://szch.army.gov.ua/\" target=\"_blank\" rel=\"noopener\">szch.army.gov.ua</a>."}},{"type":"Feature","geometry":null,"properties":{"source":"ua_mod","source_name":"Ministry of Defence of Ukraine","group":"official_ua","id":16142,"posted_utc":"2026-09-02T16:00:51+00:00","link":"https://t.me/ministry_of_defense_ua/16142","text":"🇺🇦 Менше бюрократії. Більше повноважень командирам. Рішення – швидше за противника.\nГоловнокомандувач ЗСУ Михайло Драпатий представив принципи лідерства та розвитку війська в умовах війни.\nДокумент визначає вісім пріоритетів:\n1. Стабілізація фронту\n2. Управління людським ресурсом\n3. Єдність зусиль\n4. Адаптація та інновації\n5. Трансформація Збройних Сил\n6. Mission Command\n7. Турбота про людей\n8. Довіра суспільства і партнерів\nПринципи реалізовуватимуться у взаємодії з Міністерством оборони.\n🔗 Ознайомитися з повним текстом можна на сайті Збройних Сил України.","links":["https://www.zsu.gov.ua/suchasni-zbroini-syly-ukrainy/pryntsypy-liderstva-holovnokomanduvacha-zbroinykh-syl-ukrainy-ta-rozvytku-viiska-v-umovakh-viiny"],"original_html":"<tg-emoji emoji-id=\"5233438162939815111\"><i class=\"emoji\" style=\"background-image:url('//telegram.org/img/emoji/40/F09F87BAF09F87A6.png')\"><b>🇺🇦</b></i></tg-emoji> <b>Менше бюрократії. Більше повноважень командирам. Рішення – швидше за противника.</b><br/><br/>Головнокомандувач ЗСУ Михайло Драпатий представив принципи лідерства та розвитку війська в умовах війни.<br/><br/><u>Документ визначає вісім пріоритетів:</u>&nbsp;<br/>1. Стабілізація фронту&nbsp;<br/>2. Управління людським ресурсом&nbsp;<br/>3. Єдність зусиль<br/>4. Адаптація та інновації<br/>5. Трансформація Збройних Сил&nbsp;<br/>6. Mission Command&nbsp;<br/>7. Турбота про людей&nbsp;<br/>8. Довіра суспільства і партнерів&nbsp;<br/><br/>Принципи реалізовуватимуться у взаємодії з Міністерством оборони.&nbsp;<br/><br/><b><i class=\"emoji\" style=\"background-image:url('//telegram.org/img/emoji/40/F09F9497.png')\"><b>🔗</b></i> Ознайомитися з повним текстом можна на </b><a href=\"https://www.zsu.gov.ua/suchasni-zbroini-syly-ukrainy/pryntsypy-liderstva-holovnokomanduvacha-zbroinykh-syl-ukrainy-ta-rozvytku-viiska-v-umovakh-viiny\" target=\"_blank\" rel=\"noopener\" onclick=\"return confirm('Open this link?\\n\\n'+this.href);\"><b><u>сайті Збройних Сил України</u></b></a><b>.</b>"}},{"type":"Feature","geometry":null,"properties":{"source":"ua_mod","source_name":"Ministry of Defence of Ukraine","group":"official_ua","id":16137,"posted_utc":"2026-09-02T06:32:01+00:00","link":"https://t.me/ministry_of_defense_ua/16137","text":"✅ Роботу Резерв+ відновлено.\nАвторизація та функції застосунку працюють у звичайному режимі після відновлення роботи сервісу вчора ввечері.\nЩоб користуватися Резерв+, оновіть застосунок до останньої версії в App Store або Google Play.\nОкремі користувачі ще можуть стикатися зі складнощами. Завершуємо працювати над їх усуненням.\nРоботу застосунку відновили спільними зусиллями команд Міністерства оборони та Національного банку України.\nДякуємо за розуміння.","links":[],"original_html":"<b><i class=\"emoji\" style=\"background-image:url('//telegram.org/img/emoji/40/E29C85.png')\"><b>✅</b></i> Роботу Резерв+ відновлено</b>.<br/><br/>Авторизація та функції застосунку працюють у звичайному режимі після відновлення роботи сервісу вчора ввечері.<br/><br/>Щоб користуватися Резерв+, оновіть застосунок до останньої версії в App Store або Google Play.<br/><br/>Окремі користувачі ще можуть стикатися зі складнощами. Завершуємо працювати над їх усуненням.<br/><br/>Роботу застосунку відновили спільними зусиллями команд Міністерства оборони та Національного банку України.<br/><br/>Дякуємо за розуміння."}}]}