{"type":"FeatureCollection","features":[{"type":"Feature","geometry":{"type":"MultiPolygon","coordinates":[[[[37.21609,48.43253],[37.21668,48.4445],[37.22417,48.44745],[37.23002,48.44856],[37.23399,48.45321],[37.2396,48.4541],[37.24049,48.44834],[37.23722,48.44842],[37.23085,48.43943],[37.21902,48.42985],[37.21609,48.43253]]],[[[37.17966,48.41236],[37.17779,48.41703],[37.1712,48.41931],[37.17168,48.4213],[37.19097,48.42241],[37.19285,48.41556],[37.18932,48.41589],[37.18939,48.40997],[37.17966,48.41236]]],[[[37.03227,48.2754],[37.04407,48.28015],[37.05438,48.28069],[37.05694,48.2701],[37.04603,48.27117],[37.04507,48.2688],[37.03216,48.26785],[37.03227,48.2754]]],[[[36.9909,48.26865],[36.99904,48.26908],[37.012,48.26787],[37.02993,48.26736],[37.03147,48.2593],[37.01252,48.25993],[37.01045,48.25978],[37.00882,48.26105],[37.00307,48.26091],[36.99545,48.2634],[36.98834,48.26291],[36.9909,48.26865]]],[[[36.12483,47.69487],[36.11967,47.70957],[36.13012,47.72098],[36.13437,47.72395],[36.1298,47.72497],[36.13175,47.72738],[36.14947,47.72803],[36.15895,47.7318],[36.1634,47.74575],[36.16347,47.74574],[36.16435,47.72631],[36.14772,47.72357],[36.1352,47.71367],[36.14226,47.70203],[36.13929,47.69001],[36.12483,47.69487]]],[[[36.09189,47.62587],[36.08689,47.64935],[36.11045,47.65133],[36.13032,47.65638],[36.13165,47.6499],[36.14182,47.64388],[36.15268,47.65002],[36.15287,47.64976],[36.14208,47.64064],[36.10508,47.63136],[36.09738,47.62622],[36.10528,47.60375],[36.105,47.60362],[36.09189,47.62587]]]]},"properties":{"source":"deepstate","source_name":"DeepStateMap","source_url":"https://deepstatemap.live/en","category":"gained","category_label":"Russian advance: became occupied","period":"7d","compared_with":"2026-10-01","snapshot_time":"2026-10-08","area_km2_approx":22.0}},{"type":"Feature","geometry":{"type":"Polygon","coordinates":[[[36.08711,47.72077],[36.0898,47.71692],[36.07471,47.71354],[36.07466,47.71369],[36.08711,47.72077]]]},"properties":{"source":"deepstate","source_name":"DeepStateMap","source_url":"https://deepstatemap.live/en","category":"lost","category_label":"Ukrainian advance: became Ukrainian-held","period":"7d","compared_with":"2026-10-01","snapshot_time":"2026-10-08","area_km2_approx":0.3}},{"type":"Feature","geometry":{"type":"MultiPolygon","coordinates":[[[[37.1489,48.43493],[37.14438,48.45466],[37.15542,48.45436],[37.16234,48.44883],[37.17424,48.44433],[37.19009,48.46351],[37.20016,48.46976],[37.21714,48.47217],[37.21704,48.46813],[37.20531,48.4668],[37.18854,48.43891],[37.16406,48.44655],[37.16309,48.44521],[37.16607,48.42855],[37.15531,48.42698],[37.1489,48.43493]]],[[[37.02341,48.32252],[37.02924,48.32868],[37.04625,48.32035],[37.04335,48.31631],[37.04285,48.30792],[37.02923,48.29843],[37.02631,48.2989],[37.02341,48.32252]]],[[[36.07383,47.62211],[36.07109,47.63602],[36.06913,47.65183],[36.0891,47.66549],[36.11289,47.66309],[36.13058,47.6678],[36.12027,47.6554],[36.11982,47.65371],[36.11045,47.65133],[36.08689,47.64935],[36.09042,47.63276],[36.09005,47.63266],[36.08379,47.62281],[36.07916,47.60805],[36.07383,47.62211]]],[[[36.08056,47.73013],[36.09108,47.74303],[36.09774,47.74312],[36.0997,47.72794],[36.08711,47.72077],[36.08056,47.73013]]],[[[36.06275,47.71087],[36.07367,47.71331],[36.07373,47.71316],[36.06323,47.70719],[36.06275,47.71087]]]]},"properties":{"source":"deepstate","source_name":"DeepStateMap","source_url":"https://deepstatemap.live/en","category":"ukrainian_to_contested","category_label":"Ukrainian-held became contested","period":"7d","compared_with":"2026-10-01","snapshot_time":"2026-10-08","area_km2_approx":22.9}}]}