{"type":"FeatureCollection","features":[{"type":"Feature","geometry":{"type":"Polygon","coordinates":[[[37.03055,48.26721],[37.05666,48.26961],[37.05687,48.26305],[37.05047,48.26165],[37.05236,48.25459],[37.05112,48.25392],[37.05113,48.2539],[37.04611,48.25121],[37.03622,48.25584],[37.03405,48.25961],[37.03209,48.25982],[37.03055,48.26721]]]},"properties":{"source":"ukrdaily","source_name":"UkrDailyUpdate","source_url":"https://map.ukrdailyupdate.com/","category":"gained","category_label":"Newly Russian-occupied","period":"1d","compared_with":"2026-09-17","snapshot_time":"2026-09-18","area_km2_approx":2.6}},{"type":"Feature","geometry":{"type":"Polygon","coordinates":[[[37.70508,49.62414],[37.70509,49.62413],[37.70559,49.62439],[37.71136,49.62664],[37.7166,49.62964],[37.72652,49.63208],[37.72682,49.63677],[37.7347,49.63715],[37.73527,49.63131],[37.72651,49.62055],[37.71351,49.62344],[37.70181,49.62252],[37.7018,49.62257],[37.70508,49.62414]]]},"properties":{"source":"ukrdaily","source_name":"UkrDailyUpdate","source_url":"https://map.ukrdailyupdate.com/","category":"gained_contested","category_label":"Newly contested","period":"1d","compared_with":"2026-09-17","snapshot_time":"2026-09-18","area_km2_approx":1.8}}]}