{"type":"FeatureCollection","features":[{"type":"Feature","geometry":{"type":"Polygon","coordinates":[[[37.79663,48.67942],[37.78659,48.69076],[37.80335,48.69272],[37.80771,48.68895],[37.80546,48.68008],[37.79663,48.67942]]]},"properties":{"source":"deepstate","source_name":"DeepStateMap","source_url":"https://deepstatemap.live/en","category":"gained","category_label":"Newly Russian-occupied","period":"1d","compared_with":"2026-07-28","snapshot_time":"2026-07-29","area_km2_approx":1.5}},{"type":"Feature","geometry":{"type":"MultiPolygon","coordinates":[[[[37.82781,48.82764],[37.82397,48.83442],[37.82849,48.8378],[37.82442,48.8395],[37.82325,48.84906],[37.82672,48.8511],[37.83546,48.84921],[37.83264,48.84755],[37.83541,48.83684],[37.83073,48.82923],[37.83169,48.82673],[37.82781,48.82764]]],[[[37.80181,48.71299],[37.79529,48.71744],[37.80593,48.71543],[37.79968,48.70378],[37.79945,48.70387],[37.80181,48.71299]]],[[[37.78091,48.68788],[37.78065,48.69582],[37.7992,48.70288],[37.79894,48.69401],[37.79871,48.69218],[37.78659,48.69076],[37.79501,48.68125],[37.78846,48.67536],[37.78091,48.68788]]],[[[37.7753,48.71493],[37.74248,48.71109],[37.74245,48.71201],[37.77277,48.71724],[37.77202,48.72182],[37.77212,48.72186],[37.77504,48.7164],[37.78864,48.7171],[37.78868,48.71661],[37.7753,48.71493]]]]},"properties":{"source":"deepstate","source_name":"DeepStateMap","source_url":"https://deepstatemap.live/en","category":"gained_contested","category_label":"Newly contested","period":"1d","compared_with":"2026-07-28","snapshot_time":"2026-07-29","area_km2_approx":4.6}},{"type":"Feature","geometry":{"type":"Polygon","coordinates":[[[37.83723,48.82542],[37.8348,48.81857],[37.83169,48.82673],[37.83723,48.82542]]]},"properties":{"source":"deepstate","source_name":"DeepStateMap","source_url":"https://deepstatemap.live/en","category":"lost","category_label":"Less Russian-held (occupied or contested area lost)","period":"1d","compared_with":"2026-07-28","snapshot_time":"2026-07-29","area_km2_approx":0.2}}]}