{"type":"FeatureCollection","features":[{"type":"Feature","geometry":null,"properties":{"source":"ua_mod","source_name":"Ministry of Defence of Ukraine","group":"official_ua","id":16310,"posted_utc":"2026-10-05T08:08:43+00:00","link":"https://t.me/ministry_of_defense_ua/16310","text":"📲 Оформлення відстрочок у Резерв+ знову доступне.\nТехнічні роботи в системах Мінсоцполітики завершено. У Резерв+ знову можна оформити відстрочку, пов’язану з інвалідністю — власною, дітей або батьків.\nДякуємо за терпіння.","links":[],"original_html":"<b><i class=\"emoji\" style=\"background-image:url('//telegram.org/img/emoji/40/F09F93B2.png')\"><b>📲</b></i> Оформлення відстрочок у Резерв+ знову доступне.</b><br/><br/>Технічні роботи в системах Мінсоцполітики завершено. У Резерв+ знову можна оформити відстрочку, пов’язану з інвалідністю — власною, дітей або батьків.<br/><br/>Дякуємо за терпіння."}},{"type":"Feature","geometry":null,"properties":{"source":"ua_mod","source_name":"Ministry of Defence of Ukraine","group":"official_ua","id":16311,"posted_utc":"2026-10-05T09:37:06+00:00","link":"https://t.me/ministry_of_defense_ua/16311","text":"✅ За вересень 2026 року підрозділи Міноборони розмінували 1 347 га звільнених територій.\nПротягом місяця було обстежено й очищено:\n✔️ 339,84 га сільськогосподарських угідь;\n✔️ 21,31 км автомобільних доріг;\n✔️ 40,4 км залізниці.\nВиявлено та знищено 364 вибухонебезпечні предмети.","links":[],"original_html":"<i class=\"emoji\" style=\"background-image:url('//telegram.org/img/emoji/40/E29C85.png')\"><b>✅</b></i> <b>За вересень 2026 року підрозділи Міноборони розмінували 1 347 га звільнених територій.</b><br/><br/>Протягом місяця було обстежено й очищено:<br/><i class=\"emoji\" style=\"background-image:url('//telegram.org/img/emoji/40/E29C94.png')\"><b>✔️</b></i> 339,84 га сільськогосподарських угідь;<br/><i class=\"emoji\" style=\"background-image:url('//telegram.org/img/emoji/40/E29C94.png')\"><b>✔️</b></i> 21,31 км автомобільних доріг;<br/><i class=\"emoji\" style=\"background-image:url('//telegram.org/img/emoji/40/E29C94.png')\"><b>✔️</b></i> 40,4 км залізниці.<br/><br/>Виявлено та знищено 364 вибухонебезпечні предмети."}},{"type":"Feature","geometry":null,"properties":{"source":"ua_mod","source_name":"Ministry of Defence of Ukraine","group":"official_ua","id":16312,"posted_utc":"2026-10-05T11:02:31+00:00","link":"https://t.me/ministry_of_defense_ua/16312","text":"🤝 Міністр оборони України Євгеній Хмара провів зустріч з Наглядовою радою Агенції оборонних закупівель.\nУ фокусі розмови – питання ефективності та прозорості процесів оборонних закупівель.\n«Для Міністерства оборони важливо, щоб робота Наглядової ради АОЗ була реальним інструментом нагляду за закупівлями. В умовах повномасштабної війни ефективні та прозорі закупівлі – це питання обороноздатності держави», – зазначив Євгеній Хмара.\nЧлени Наглядової ради розказали про основні результати роботи, найближчі плани та актуальні виклики у питаннях, повʼязаних із процесами оборонних закупівель.\nЄвгеній Хмара наголосив, що важливо покращувати ефективність взаємодії між Міноборони, Наглядовою радою та Агенцією. Сторони домовились регулярно обмінюватися інформацією, щоб швидше та скоородинованіше ухвалювати рішення.\n«Завдання і пріоритети лишаються незмінними: на фронті мають бути необхідні засоби, і вони мають бути поставлені вчасно і в необхідній кількості. Тому важливі швидкість контрактування, прозорість процесів, зрозумілі політики та процеси», – наголосив Євгеній Хмара.\nНагадаємо, Наглядова рада АОЗ забезпечує стратегічний нагляд за досягненням цілей підприємства, дотриманням законодавства, підзвітністю та прозорістю діяльності Агенції.","links":[],"original_html":"<div class=\"tgme_widget_message_text js-message_text\" dir=\"auto\"><i class=\"emoji\" style=\"background-image:url('//telegram.org/img/emoji/40/F09FA49D.png')\"><b>🤝</b></i> <b>Міністр оборони України Євгеній Хмара провів зустріч з Наглядовою радою Агенції оборонних закупівель.</b><br/><br/>У фокусі розмови – питання ефективності та прозорості процесів оборонних закупівель. <br/><br/><blockquote>«Для Міністерства оборони важливо, щоб робота Наглядової ради АОЗ була реальним інструментом нагляду за закупівлями. В умовах повномасштабної війни ефективні та прозорі закупівлі – це питання обороноздатності держави», – зазначив Євгеній Хмара.</blockquote><br/><br/>Члени Наглядової ради розказали про основні результати роботи, найближчі плани та актуальні виклики у питаннях, повʼязаних із процесами оборонних закупівель.<br/><br/>Євгеній Хмара наголосив, що важливо покращувати ефективність взаємодії між Міноборони, Наглядовою радою та Агенцією. Сторони домовились регулярно обмінюватися інформацією, щоб швидше та скоородинованіше ухвалювати рішення.<br/><br/><blockquote>«Завдання і пріоритети лишаються незмінними: на фронті мають бути необхідні засоби, і вони мають бути поставлені вчасно і в необхідній кількості. Тому важливі швидкість контрактування, прозорість процесів, зрозумілі політики та процеси», – наголосив Євгеній Хмара.</blockquote><br/><br/>Нагадаємо, Наглядова рада АОЗ забезпечує стратегічний нагляд за досягненням цілей підприємства, дотриманням законодавства, підзвітністю та прозорістю діяльності Агенції."}},{"type":"Feature","geometry":null,"properties":{"source":"ua_mod","source_name":"Ministry of Defence of Ukraine","group":"official_ua","id":16315,"posted_utc":"2026-10-05T11:17:23+00:00","link":"https://t.me/ministry_of_defense_ua/16315","text":"⚙️ Везе сотні кілограмів вантажу на кількадесят кілометрів – український НРК Varkhan допущений до постачання ЗСУ.\nНаземний роботизований комплекс призначений для військової логістики: доставки озброєння, боєприпасів, обладнання та іншого необхідного.\nVarkhan має повний привід 4×4 і кліренс понад 200 мм, тому здатний пересуватися по складному рельєфу, важкому бездоріжжі, у піску та на трясовині.\nШвидкознімні акумулятори зменшують перерви між місіями, а кілька систем зв’язку й управління підтримують керованість в бойових умовах.\nДо екосистеми також входять наземні станції керування, антени, щогли, ретранслятори та поворотні механізми.\nVarkhan створили на українському оборонному підприємстві за запитами військових. Під час випробувань комплекс підтвердив заявлені характеристики.","links":[],"original_html":"<i class=\"emoji\" style=\"background-image:url('//telegram.org/img/emoji/40/E29A99.png')\"><b>⚙️</b></i><b> Везе сотні кілограмів вантажу на кількадесят кілометрів – український НРК Varkhan допущений до постачання ЗСУ.</b><br/><br/>Наземний роботизований комплекс призначений для військової логістики: доставки озброєння, боєприпасів, обладнання та іншого необхідного.<br/><br/>Varkhan має повний привід 4×4 і кліренс понад 200 мм, тому здатний пересуватися по складному рельєфу, важкому бездоріжжі, у піску та на трясовині.<br/><br/>Швидкознімні акумулятори зменшують перерви між місіями, а кілька систем зв’язку й управління підтримують керованість в бойових умовах.<br/><br/>До екосистеми також входять наземні станції керування, антени, щогли, ретранслятори та поворотні механізми.<br/><br/>Varkhan створили на українському оборонному підприємстві за запитами військових. Під час випробувань комплекс підтвердив заявлені характеристики."}},{"type":"Feature","geometry":null,"properties":{"source":"ua_mod","source_name":"Ministry of Defence of Ukraine","group":"official_ua","id":16316,"posted_utc":"2026-10-05T14:44:30+00:00","link":"https://t.me/ministry_of_defense_ua/16316","text":"Хороша розмова з Президентом Емманюелем Макроном. Дякую за повну підтримку з боку Франції. Обговорили російську терористичну ескалацію та наші потреби у захисті. Зараз готуються нові оборонні постачання, і розраховуємо, що вже скоро новий пакет буде в Україні. Обговорили його наповнення. Також українські пілоти вже найближчим часом розпочнуть навчання на французьких літаках Rafale у Франції. Це сильний крок для української бойової авіації.\nНаші команди також продовжують працювати над локалізацією виробництва французьких ракет та авіабомб в Україні. Активно готуємо систему FREYJA. Обговорили, де можемо прискоритись. Домовилися, що поговоримо про все більш детально під час зустрічі. Дякую, Емманюелю!","links":[],"original_html":"Хороша розмова з Президентом Емманюелем Макроном. Дякую за повну підтримку з боку Франції. Обговорили російську терористичну ескалацію та наші потреби у захисті. Зараз готуються нові оборонні постачання, і розраховуємо, що вже скоро новий пакет буде в Україні. Обговорили його наповнення. Також українські пілоти вже найближчим часом розпочнуть навчання на французьких літаках Rafale у Франції. Це сильний крок для української бойової авіації. <br/><br/>Наші команди також продовжують працювати над локалізацією виробництва французьких ракет та авіабомб в Україні. Активно готуємо систему FREYJA. Обговорили, де можемо прискоритись. Домовилися, що поговоримо про все більш детально під час зустрічі. Дякую, Емманюелю&#33;"}},{"type":"Feature","geometry":null,"properties":{"source":"ua_mod","source_name":"Ministry of Defence of Ukraine","group":"official_ua","id":16317,"posted_utc":"2026-10-05T17:12:06+00:00","link":"https://t.me/ministry_of_defense_ua/16317","text":"Провів нараду з командою Міністерства оборони України та дипломатичною командою Офісу по графіку постачання озброєння від партнерів. Домовленості абсолютно чіткі, і щодня на політичному рівні з лідерами додаємо нових домовленостей. Це стосується амуніції для бойової авіації – для наших F16, додаткових фінансів на виробництво дронів різних типів і ракет та наших спільних із європейцями виробничих проєктів. Розраховую на дотримання строків виконання по кожній домовленості. Окремо обговорили з Євгенієм Хмарою та Михайлом Драпатим реалізацію наших далекобійних операцій. Нові завдання по далекобійності теж визначені. Слава Україні!","links":[],"original_html":"<div class=\"tgme_widget_message_text js-message_text\" dir=\"auto\">Провів нараду з командою Міністерства оборони України та дипломатичною командою Офісу по графіку постачання озброєння від партнерів. Домовленості абсолютно чіткі, і щодня на політичному рівні з лідерами додаємо нових домовленостей. Це стосується амуніції для бойової авіації – для наших F16, додаткових фінансів на виробництво дронів різних типів і ракет та наших спільних із європейцями виробничих проєктів. Розраховую на дотримання строків виконання по кожній домовленості. Окремо обговорили з Євгенієм Хмарою та Михайлом Драпатим реалізацію наших далекобійних операцій. Нові завдання по далекобійності теж визначені. Слава Україні&#33;"}}]}