{"type":"FeatureCollection","features":[{"type":"Feature","geometry":{"type":"Polygon","coordinates":[[[37.89534,48.78412],[37.89178,48.79399],[37.87727,48.79642],[37.88079,48.80416],[37.89126,48.80885],[37.89307,48.81677],[37.89271,48.82261],[37.89694,48.8194],[37.89853,48.81635],[37.90097,48.81381],[37.90251,48.8055],[37.91074,48.79889],[37.92041,48.7901],[37.91985,48.78545],[37.90278,48.77065],[37.89375,48.77827],[37.89534,48.78412]]]},"properties":{"source":"ukrdaily","source_name":"UkrDailyUpdate","source_url":"https://map.ukrdailyupdate.com/","category":"gained","category_label":"Newly Russian-occupied","period":"1d","compared_with":"2026-09-25","snapshot_time":"2026-09-26","area_km2_approx":7.4}}]}