{"type":"FeatureCollection","features":[{"type":"Feature","geometry":{"type":"Polygon","coordinates":[[[36.9909,48.26865],[36.99904,48.26908],[37.012,48.26787],[37.01027,48.27906],[37.0272,48.2746],[37.04407,48.28015],[37.05438,48.28069],[37.05694,48.2701],[37.04603,48.27117],[37.04507,48.2688],[37.02986,48.26768],[37.03147,48.2593],[37.01252,48.25993],[37.01045,48.25978],[37.00882,48.26105],[37.00307,48.26091],[36.99545,48.2634],[36.98834,48.26291],[36.9909,48.26865]]]},"properties":{"source":"deepstate","source_name":"DeepStateMap","source_url":"https://deepstatemap.live/en","category":"gained","category_label":"Newly Russian-occupied","period":"1d","compared_with":"2026-10-01","snapshot_time":"2026-10-02","area_km2_approx":5.9}}]}