{"type":"FeatureCollection","features":[{"type":"Feature","geometry":{"type":"MultiPolygon","coordinates":[[[[37.92276,48.78134],[37.92485,48.78843],[37.92041,48.79508],[37.92941,48.79792],[37.93738,48.79601],[37.94044,48.79842],[37.93561,48.80185],[37.92891,48.81154],[37.92994,48.81732],[37.93166,48.81278],[37.94025,48.81327],[37.94236,48.81105],[37.94903,48.80984],[37.95352,48.80023],[37.95676,48.79745],[37.95105,48.7814],[37.93022,48.77464],[37.92276,48.78134]]],[[[37.82707,48.74687],[37.83181,48.74572],[37.8347,48.75206],[37.83833,48.75064],[37.84873,48.75044],[37.85453,48.75142],[37.85896,48.75398],[37.86272,48.75225],[37.851,48.74796],[37.84752,48.7453],[37.85106,48.74243],[37.85151,48.73719],[37.84537,48.73603],[37.84788,48.73437],[37.84337,48.73125],[37.8205,48.73975],[37.82707,48.74687]]],[[[37.80865,48.71044],[37.80747,48.71517],[37.79867,48.71989],[37.79846,48.72189],[37.81589,48.72193],[37.82099,48.7212],[37.81964,48.7183],[37.81712,48.71914],[37.81037,48.70897],[37.80538,48.70202],[37.80514,48.70215],[37.80865,48.71044]]],[[[37.63337,48.47508],[37.62216,48.48564],[37.61511,48.49355],[37.62035,48.49756],[37.62842,48.50675],[37.64252,48.50773],[37.64657,48.5002],[37.66469,48.50368],[37.65949,48.49519],[37.64717,48.49383],[37.63768,48.49591],[37.63676,48.49423],[37.64816,48.48974],[37.65056,48.47572],[37.64721,48.47034],[37.64808,48.45764],[37.63852,48.45482],[37.63849,48.45193],[37.63821,48.4519],[37.63337,48.47508]]],[[[37.6269,50.2405],[37.60019,50.24053],[37.5886,50.2456],[37.59496,50.25079],[37.61076,50.2558],[37.62681,50.25479],[37.6256,50.24552],[37.6269,50.2405]]],[[[37.38679,48.49337],[37.39242,48.49678],[37.41674,48.4949],[37.43708,48.48813],[37.44617,48.49068],[37.44463,48.48472],[37.41897,48.48329],[37.39569,48.48586],[37.38833,48.49133],[37.38144,48.49318],[37.38147,48.49339],[37.38679,48.49337]]],[[[37.22514,48.41616],[37.21902,48.42985],[37.23085,48.43943],[37.23722,48.44842],[37.24071,48.44833],[37.24187,48.4423],[37.23584,48.43105],[37.2245,48.42468],[37.22632,48.42091],[37.23672,48.41941],[37.23265,48.41675],[37.22514,48.41616]]],[[[37.18051,48.3542],[37.18734,48.362],[37.1922,48.36253],[37.19364,48.36735],[37.19377,48.36733],[37.19391,48.36059],[37.20187,48.35596],[37.20219,48.35379],[37.18283,48.35341],[37.17133,48.35234],[37.17127,48.35285],[37.18051,48.3542]]],[[[36.16607,47.67461],[36.17244,47.68045],[36.1671,47.69232],[36.14226,47.70203],[36.1352,47.71367],[36.14772,47.72357],[36.16435,47.72631],[36.19007,47.71985],[36.17568,47.7143],[36.15288,47.71101],[36.15822,47.70111],[36.18501,47.69755],[36.1913,47.69579],[36.20094,47.68472],[36.19783,47.67797],[36.17193,47.66943],[36.16607,47.67461]]]]},"properties":{"source":"deepstate","source_name":"DeepStateMap","source_url":"https://deepstatemap.live/en","category":"gained","category_label":"Russian advance: became occupied","period":"7d","compared_with":"2026-08-17","snapshot_time":"2026-08-24","area_km2_approx":43.6}},{"type":"Feature","geometry":{"type":"MultiPolygon","coordinates":[[[[37.62611,50.24942],[37.62644,50.24941],[37.62682,50.24199],[37.62652,50.24195],[37.6256,50.24552],[37.62611,50.24942]]],[[[37.57703,50.21114],[37.56256,50.22208],[37.56271,50.22233],[37.57634,50.21586],[37.581,50.2096],[37.57703,50.21114]]]]},"properties":{"source":"deepstate","source_name":"DeepStateMap","source_url":"https://deepstatemap.live/en","category":"lost","category_label":"Ukrainian advance: became Ukrainian-held","period":"7d","compared_with":"2026-08-17","snapshot_time":"2026-08-24","area_km2_approx":0.4}},{"type":"Feature","geometry":{"type":"MultiPolygon","coordinates":[[[[37.82333,48.76759],[37.83549,48.77924],[37.84795,48.7767],[37.85451,48.77082],[37.84606,48.76787],[37.82742,48.76906],[37.81853,48.76205],[37.827,48.75826],[37.8175,48.75738],[37.80822,48.76011],[37.81461,48.76809],[37.82333,48.76759]]],[[[37.79293,48.82939],[37.7941,48.8351],[37.81447,48.83563],[37.81458,48.83843],[37.82442,48.8395],[37.82849,48.8378],[37.82397,48.83442],[37.81202,48.82753],[37.79293,48.82939]]],[[[37.80766,48.57584],[37.80999,48.57804],[37.80459,48.57927],[37.8046,48.57943],[37.80769,48.57965],[37.8136,48.57748],[37.81633,48.5696],[37.80894,48.56775],[37.80766,48.57584]]],[[[37.78916,48.72331],[37.79425,48.73568],[37.81039,48.73192],[37.81406,48.72193],[37.81001,48.72192],[37.79257,48.72354],[37.78916,48.72331]]],[[[37.8035,48.77228],[37.79584,48.78334],[37.78749,48.7858],[37.77157,48.78186],[37.75391,48.77581],[37.74699,48.77746],[37.76843,48.78499],[37.78403,48.78893],[37.78702,48.791],[37.79036,48.78788],[37.79614,48.78746],[37.80124,48.78242],[37.80744,48.77369],[37.80002,48.76884],[37.79976,48.76919],[37.8035,48.77228]]],[[[37.79155,48.75307],[37.8054,48.7532],[37.80208,48.74819],[37.79155,48.75307]]],[[[37.79263,48.7146],[37.77799,48.71488],[37.77797,48.71526],[37.79529,48.71744],[37.80181,48.71299],[37.79263,48.7146]]],[[[37.76997,48.56266],[37.77381,48.55156],[37.79523,48.55192],[37.8015,48.54536],[37.79025,48.54487],[37.77295,48.54713],[37.76001,48.55777],[37.74294,48.57523],[37.74298,48.57528],[37.76997,48.56266]]],[[[37.7683,48.70972],[37.75649,48.7087],[37.74309,48.71099],[37.7431,48.71116],[37.7753,48.71493],[37.7683,48.70972]]],[[[37.63386,50.19872],[37.61275,50.1998],[37.58562,50.20338],[37.581,50.2096],[37.58768,50.20701],[37.61481,50.21698],[37.63386,50.19872]]],[[[37.6278,50.26178],[37.62681,50.25479],[37.61076,50.2558],[37.59496,50.25079],[37.59396,50.24998],[37.58746,50.25144],[37.60194,50.26493],[37.62694,50.2672],[37.6278,50.26178]]],[[[37.54643,48.45831],[37.56239,48.4613],[37.59622,48.46607],[37.59251,48.48011],[37.59673,48.48621],[37.6009,48.49028],[37.60264,48.49553],[37.60433,48.48505],[37.5969,48.47654],[37.60675,48.46987],[37.59931,48.46049],[37.57509,48.45037],[37.53098,48.44852],[37.51005,48.45719],[37.54643,48.45831]]],[[[37.5298,50.20591],[37.52396,50.20442],[37.50783,50.20788],[37.51666,50.2239],[37.51318,50.2279],[37.48412,50.22476],[37.47832,50.23098],[37.50256,50.24039],[37.48513,50.2491],[37.49179,50.25466],[37.52843,50.25365],[37.51617,50.24588],[37.51347,50.23343],[37.52705,50.22227],[37.5614,50.22296],[37.5298,50.20591]]],[[[37.33779,48.49496],[37.34498,48.51717],[37.35919,48.53502],[37.38233,48.539],[37.39814,48.53002],[37.39575,48.51399],[37.3789,48.51729],[37.35477,48.51148],[37.35248,48.49559],[37.33916,48.48938],[37.33779,48.49496]]],[[[37.39575,48.51399],[37.41635,48.50728],[37.44355,48.4958],[37.43815,48.49215],[37.42263,48.49607],[37.41882,48.49421],[37.41674,48.4949],[37.40668,48.49568],[37.3841,48.5016],[37.39575,48.51399]]],[[[37.22696,50.33825],[37.20306,50.33208],[37.1678,50.31228],[37.15039,50.30701],[37.1358,50.28491],[37.13575,50.28492],[37.14283,50.31776],[37.15407,50.32423],[37.16735,50.32605],[37.18474,50.34055],[37.21707,50.35865],[37.22696,50.33825]]],[[[37.00263,50.27237],[36.9996,50.26953],[36.97825,50.27308],[36.95846,50.25811],[36.95815,50.25849],[36.98006,50.2778],[36.99433,50.28453],[37.00263,50.27237]]],[[[36.13058,47.6678],[36.09209,47.68694],[36.09792,47.6992],[36.06323,47.70719],[36.0997,47.72794],[36.09774,47.74312],[36.12494,47.74941],[36.14302,47.74684],[36.12735,47.73983],[36.13018,47.72419],[36.12648,47.709],[36.13499,47.69922],[36.12384,47.69158],[36.13741,47.68451],[36.1462,47.67046],[36.13869,47.66019],[36.13764,47.65606],[36.12027,47.6554],[36.13058,47.6678]]],[[[35.93031,47.51918],[35.91648,47.52311],[35.91658,47.52354],[35.93443,47.52046],[35.93649,47.51481],[35.93082,47.50738],[35.93031,47.51918]]],[[[35.83189,47.49264],[35.88634,47.49204],[35.91442,47.48779],[35.89149,47.47765],[35.8391,47.48034],[35.82707,47.48613],[35.83189,47.49264]]],[[[35.53021,47.56813],[35.57645,47.57103],[35.6105,47.55605],[35.61038,47.5557],[35.58436,47.5627],[35.55981,47.55529],[35.54249,47.55311],[35.53148,47.55087],[35.50549,47.55168],[35.50365,47.57019],[35.53021,47.56813]]]]},"properties":{"source":"deepstate","source_name":"DeepStateMap","source_url":"https://deepstatemap.live/en","category":"ukrainian_to_contested","category_label":"Ukrainian-held became contested","period":"7d","compared_with":"2026-08-17","snapshot_time":"2026-08-24","area_km2_approx":113.5}}]}