{"type":"FeatureCollection","features":[{"type":"Feature","geometry":{"type":"MultiPolygon","coordinates":[[[[37.66687,49.83877],[37.66888,49.82655],[37.67596,49.81892],[37.66995,49.81202],[37.66051,49.80922],[37.63853,49.81798],[37.63424,49.82411],[37.66687,49.83877]]],[[[37.63775,49.86466],[37.65537,49.86166],[37.66748,49.85373],[37.66298,49.84968],[37.65203,49.85312],[37.64791,49.85795],[37.63646,49.86277],[37.63775,49.86466]]]]},"properties":{"source":"deepstate","source_name":"DeepStateMap","source_url":"https://deepstatemap.live/en","category":"lost","category_label":"No longer Russian-occupied","period":"1d","compared_with":"2026-09-02","snapshot_time":"2026-09-03","area_km2_approx":6.8}}]}