{"type":"FeatureCollection","features":[{"type":"Feature","geometry":{"type":"MultiPolygon","coordinates":[[[[37.80975,48.73286],[37.81715,48.73709],[37.80814,48.74032],[37.81095,48.74373],[37.82033,48.74055],[37.82211,48.74222],[37.82246,48.74187],[37.8205,48.73975],[37.82147,48.73779],[37.83119,48.73412],[37.83344,48.73133],[37.83063,48.72826],[37.83046,48.72356],[37.83535,48.7215],[37.8393,48.71773],[37.85157,48.71118],[37.8589,48.7056],[37.85225,48.70082],[37.84416,48.70445],[37.83395,48.7064],[37.82516,48.70542],[37.81542,48.70932],[37.82099,48.7212],[37.81589,48.72193],[37.80975,48.73286]]],[[[37.79597,48.54703],[37.79565,48.56424],[37.81298,48.56464],[37.81391,48.56694],[37.81839,48.55827],[37.82243,48.54611],[37.79442,48.53862],[37.77055,48.54354],[37.77056,48.54364],[37.79597,48.54703]]],[[[37.54578,50.22673],[37.52772,50.22076],[37.52236,50.22905],[37.52845,50.2362],[37.52743,50.24315],[37.54237,50.24416],[37.56886,50.23713],[37.56882,50.23687],[37.53979,50.23788],[37.53875,50.23587],[37.54458,50.23409],[37.56879,50.22991],[37.56878,50.22975],[37.54578,50.22673]]],[[[37.08477,48.36258],[37.10284,48.36528],[37.10328,48.36302],[37.14662,48.36549],[37.16604,48.3603],[37.1834,48.36173],[37.18947,48.37186],[37.1894,48.36903],[37.19376,48.36777],[37.1922,48.36253],[37.18734,48.362],[37.18051,48.3542],[37.16139,48.35141],[37.1568,48.34807],[37.14682,48.35304],[37.14406,48.35768],[37.12301,48.3565],[37.0955,48.3563],[37.08589,48.3578],[37.08477,48.36258]]],[[[37.17923,48.37481],[37.1781,48.37906],[37.18572,48.38035],[37.18626,48.38749],[37.18675,48.38748],[37.18678,48.37367],[37.18911,48.3721],[37.18905,48.37198],[37.17923,48.37481]]],[[[37.14511,50.33534],[37.14336,50.34586],[37.16296,50.35194],[37.18034,50.36317],[37.18828,50.35397],[37.16136,50.34378],[37.15765,50.33507],[37.14511,50.33534]]],[[[36.16457,47.65167],[36.17061,47.65487],[36.16026,47.66886],[36.16607,47.67461],[36.17193,47.66943],[36.17988,47.65799],[36.19555,47.65776],[36.20232,47.64835],[36.20386,47.64355],[36.19482,47.63712],[36.18279,47.63314],[36.17729,47.64322],[36.17195,47.64508],[36.15978,47.65279],[36.15984,47.65292],[36.16457,47.65167]]],[[[36.10581,47.60224],[36.09738,47.62622],[36.10508,47.63136],[36.14208,47.64064],[36.15418,47.65087],[36.1589,47.64249],[36.14036,47.63325],[36.12809,47.62141],[36.12399,47.61129],[36.12959,47.60294],[36.12392,47.59188],[36.10852,47.58992],[36.1085,47.58709],[36.10814,47.58706],[36.10581,47.60224]]],[[[36.05615,47.53356],[36.06382,47.55287],[36.07253,47.55055],[36.06525,47.52684],[36.03239,47.52614],[36.03235,47.52633],[36.05615,47.53356]]]]},"properties":{"source":"deepstate","source_name":"DeepStateMap","source_url":"https://deepstatemap.live/en","category":"gained","category_label":"Newly Russian-occupied","period":"7d","compared_with":"2026-08-27","snapshot_time":"2026-09-03","area_km2_approx":47.7}},{"type":"Feature","geometry":{"type":"MultiPolygon","coordinates":[[[[37.66687,49.83877],[37.66888,49.82655],[37.67596,49.81892],[37.66995,49.81202],[37.66051,49.80922],[37.63853,49.81798],[37.63424,49.82411],[37.66687,49.83877]]],[[[37.63775,49.86466],[37.65537,49.86166],[37.66748,49.85373],[37.66298,49.84968],[37.65203,49.85312],[37.64791,49.85795],[37.63646,49.86277],[37.63775,49.86466]]],[[[37.60525,49.80215],[37.60013,49.80926],[37.60051,49.81177],[37.60976,49.81587],[37.61965,49.82324],[37.61705,49.81665],[37.62463,49.81448],[37.61859,49.80455],[37.61177,49.80177],[37.6057,49.79574],[37.60525,49.80215]]]]},"properties":{"source":"deepstate","source_name":"DeepStateMap","source_url":"https://deepstatemap.live/en","category":"lost","category_label":"No longer Russian-occupied","period":"7d","compared_with":"2026-08-27","snapshot_time":"2026-09-03","area_km2_approx":9.1}}]}