{"type":"FeatureCollection","features":[{"type":"Feature","geometry":{"type":"MultiPolygon","coordinates":[[[[37.90042,48.77406],[37.91345,48.78343],[37.92267,48.78527],[37.92045,48.79492],[37.9205,48.79494],[37.92485,48.78843],[37.92276,48.78134],[37.93022,48.77464],[37.92135,48.76929],[37.89956,48.77134],[37.89171,48.77778],[37.89183,48.77796],[37.90042,48.77406]]],[[[37.85104,48.76079],[37.86489,48.76165],[37.88436,48.76645],[37.88728,48.76974],[37.88083,48.77925],[37.89466,48.77177],[37.89041,48.76137],[37.87998,48.75773],[37.86912,48.7594],[37.86359,48.75909],[37.85854,48.75655],[37.85156,48.75819],[37.84093,48.76383],[37.84107,48.76416],[37.85104,48.76079]]],[[[37.81839,48.55827],[37.81391,48.56694],[37.81937,48.57173],[37.81583,48.5755],[37.81963,48.58246],[37.81441,48.58816],[37.81814,48.59059],[37.82111,48.58816],[37.82066,48.58473],[37.82467,48.58157],[37.82868,48.57718],[37.83037,48.57154],[37.82237,48.56485],[37.82884,48.56166],[37.83615,48.55242],[37.82243,48.54611],[37.81839,48.55827]]],[[[37.63337,48.47508],[37.62216,48.48564],[37.61511,48.49355],[37.62035,48.49756],[37.62842,48.50675],[37.64252,48.50773],[37.64657,48.5002],[37.66469,48.50368],[37.65949,48.49519],[37.64685,48.49968],[37.64685,48.49968],[37.64348,48.50088],[37.63768,48.49591],[37.62744,48.49466],[37.63188,48.48384],[37.64696,48.48354],[37.65056,48.47572],[37.64721,48.47034],[37.64808,48.45764],[37.63852,48.45482],[37.63849,48.45193],[37.63821,48.4519],[37.63337,48.47508]]],[[[37.38679,48.49337],[37.39242,48.49678],[37.41674,48.4949],[37.43708,48.48813],[37.44617,48.49068],[37.44463,48.48472],[37.41897,48.48329],[37.39569,48.48586],[37.38833,48.49133],[37.38145,48.49317],[37.38147,48.49339],[37.38679,48.49337]]],[[[37.22514,48.41616],[37.21902,48.42985],[37.23085,48.43943],[37.23722,48.44842],[37.24071,48.44833],[37.24187,48.4423],[37.23584,48.43105],[37.2245,48.42468],[37.22632,48.42091],[37.23672,48.41941],[37.23265,48.41675],[37.22514,48.41616]]],[[[37.08477,48.36258],[37.10284,48.36528],[37.10328,48.36302],[37.14662,48.36549],[37.16604,48.3603],[37.1834,48.36173],[37.18947,48.37186],[37.1894,48.36903],[37.19376,48.36777],[37.1922,48.36253],[37.18734,48.362],[37.18051,48.3542],[37.16139,48.35141],[37.1568,48.34807],[37.14682,48.35304],[37.14406,48.35768],[37.12301,48.3565],[37.0955,48.3563],[37.08589,48.3578],[37.08477,48.36258]]],[[[37.17923,48.37481],[37.1781,48.37906],[37.18572,48.38035],[37.18626,48.38749],[37.18675,48.38748],[37.18678,48.37367],[37.18911,48.3721],[37.18905,48.37198],[37.17923,48.37481]]],[[[36.16457,47.65167],[36.17061,47.65487],[36.16026,47.66886],[36.16607,47.67461],[36.17193,47.66943],[36.17988,47.65799],[36.19555,47.65776],[36.20232,47.64835],[36.20386,47.64355],[36.19482,47.63712],[36.18279,47.63314],[36.17729,47.64322],[36.17195,47.64508],[36.15978,47.65279],[36.15984,47.65292],[36.16457,47.65167]]]]},"properties":{"source":"deepstate","source_name":"DeepStateMap","source_url":"https://deepstatemap.live/en","category":"gained","category_label":"Russian advance: became occupied","period":"7d","compared_with":"2026-08-22","snapshot_time":"2026-08-29","area_km2_approx":35.8}},{"type":"Feature","geometry":{"type":"Polygon","coordinates":[[[37.61613,49.83053],[37.62024,49.83194],[37.62145,49.83902],[37.62716,49.86337],[37.64387,49.85601],[37.64565,49.84874],[37.65292,49.84191],[37.64891,49.8338],[37.6433,49.83085],[37.6338,49.83248],[37.62917,49.82618],[37.61528,49.82721],[37.6112,49.82453],[37.61108,49.82467],[37.61613,49.83053]]]},"properties":{"source":"deepstate","source_name":"DeepStateMap","source_url":"https://deepstatemap.live/en","category":"lost","category_label":"Ukrainian advance: became Ukrainian-held","period":"7d","compared_with":"2026-08-22","snapshot_time":"2026-08-29","area_km2_approx":6.2}},{"type":"Feature","geometry":{"type":"Polygon","coordinates":[[[37.61571,49.82345],[37.61708,49.82479],[37.6233,49.82662],[37.62917,49.82618],[37.6338,49.83248],[37.6433,49.83085],[37.64891,49.8338],[37.65292,49.84191],[37.64565,49.84874],[37.64499,49.85142],[37.64791,49.85135],[37.64791,49.85795],[37.65203,49.85312],[37.66298,49.84968],[37.66628,49.84612],[37.66687,49.83877],[37.63424,49.82411],[37.61965,49.82324],[37.61038,49.81634],[37.61024,49.81648],[37.61571,49.82345]]]},"properties":{"source":"deepstate","source_name":"DeepStateMap","source_url":"https://deepstatemap.live/en","category":"occupied_to_contested","category_label":"Occupied became contested","period":"7d","compared_with":"2026-08-22","snapshot_time":"2026-08-29","area_km2_approx":3.4}},{"type":"Feature","geometry":{"type":"MultiPolygon","coordinates":[[[[37.79361,48.76127],[37.77074,48.7644],[37.7707,48.76946],[37.79451,48.76698],[37.79275,48.76296],[37.79824,48.75873],[37.79793,48.75831],[37.79361,48.76127]]],[[[37.74122,48.73756],[37.74102,48.74389],[37.77979,48.74321],[37.77981,48.74297],[37.75516,48.73734],[37.74122,48.73756]]],[[[37.62621,50.26713],[37.62694,50.2672],[37.6278,50.26178],[37.62705,50.25645],[37.62673,50.25647],[37.62621,50.26713]]],[[[37.41635,48.50728],[37.44355,48.4958],[37.43815,48.49215],[37.42263,48.49607],[37.41883,48.49421],[37.41674,48.4949],[37.40668,48.49568],[37.3841,48.5016],[37.39575,48.51399],[37.41635,48.50728]]],[[[37.17097,48.37648],[37.15999,48.37904],[37.16347,48.38828],[37.17261,48.39592],[37.17052,48.40465],[37.17547,48.40307],[37.17825,48.39975],[37.18754,48.39706],[37.17218,48.39067],[37.17338,48.37956],[37.17039,48.37331],[37.17004,48.37345],[37.17097,48.37648]]],[[[37.002,48.40009],[37.03727,48.40506],[37.05263,48.41437],[37.07669,48.41024],[37.09197,48.40379],[37.10302,48.39715],[37.11333,48.38765],[37.11012,48.38448],[37.11859,48.37949],[37.11779,48.37572],[37.12012,48.36639],[37.10216,48.36616],[37.09128,48.38688],[37.06757,48.38667],[37.03556,48.38409],[37.02432,48.3863],[37.00682,48.38524],[37.002,48.40009]]]]},"properties":{"source":"deepstate","source_name":"DeepStateMap","source_url":"https://deepstatemap.live/en","category":"ukrainian_to_contested","category_label":"Ukrainian-held became contested","period":"7d","compared_with":"2026-08-22","snapshot_time":"2026-08-29","area_km2_approx":30.0}}]}