{"type":"FeatureCollection","features":[{"type":"Feature","geometry":{"type":"MultiPolygon","coordinates":[[[[37.94903,48.80984],[37.94236,48.81105],[37.94025,48.81327],[37.93166,48.81278],[37.92994,48.81732],[37.93255,48.81936],[37.92794,48.83903],[37.92054,48.83955],[37.92055,48.83998],[37.93018,48.84038],[37.94096,48.84389],[37.9526,48.8428],[37.95535,48.82655],[37.95518,48.82186],[37.95036,48.8134],[37.95555,48.80973],[37.95352,48.80023],[37.94903,48.80984]]],[[[37.82237,48.56485],[37.83037,48.57154],[37.82868,48.57718],[37.82467,48.58157],[37.83228,48.58076],[37.8344,48.57829],[37.83773,48.57814],[37.8364,48.57545],[37.83307,48.57266],[37.8342,48.56839],[37.83616,48.56636],[37.82884,48.56166],[37.82237,48.56485]]],[[[37.72649,48.47945],[37.74268,48.48121],[37.74852,48.47794],[37.76195,48.48311],[37.77041,48.46952],[37.75495,48.47267],[37.74558,48.47402],[37.7218,48.472],[37.71615,48.48442],[37.72649,48.47945]]],[[[37.65056,48.47572],[37.64816,48.48974],[37.63676,48.49423],[37.63768,48.49591],[37.64717,48.49383],[37.65949,48.49519],[37.66168,48.48979],[37.65314,48.48912],[37.65288,48.47572],[37.64784,48.47094],[37.64767,48.47108],[37.65056,48.47572]]],[[[37.56928,50.22982],[37.54458,50.23409],[37.53875,50.23587],[37.53979,50.23788],[37.57001,50.23683],[37.586,50.23913],[37.59439,50.23387],[37.58662,50.23036],[37.59868,50.22149],[37.59865,50.22142],[37.56928,50.22982]]],[[[37.2427,48.42682],[37.24207,48.43376],[37.24442,48.43392],[37.24397,48.43759],[37.24657,48.43822],[37.25002,48.44264],[37.24883,48.45344],[37.26933,48.45705],[37.27719,48.46406],[37.28533,48.46848],[37.29578,48.46988],[37.30784,48.47472],[37.31838,48.47393],[37.33935,48.47373],[37.36486,48.47782],[37.36711,48.48189],[37.36728,48.48183],[37.36529,48.47292],[37.36003,48.47196],[37.35143,48.46391],[37.33909,48.4597],[37.3254,48.45891],[37.31844,48.4647],[37.30217,48.46476],[37.28728,48.46037],[37.27457,48.45205],[37.25896,48.44285],[37.24362,48.42932],[37.2482,48.42585],[37.23942,48.4261],[37.23941,48.42653],[37.2427,48.42682]]],[[[35.39205,50.69877],[35.38762,50.70388],[35.38849,50.70752],[35.39631,50.70731],[35.40834,50.70317],[35.40655,50.70263],[35.40127,50.69855],[35.39205,50.69877]]]]},"properties":{"source":"deepstate","source_name":"DeepStateMap","source_url":"https://deepstatemap.live/en","category":"gained","category_label":"Newly Russian-occupied","period":"7d","compared_with":"2026-08-01","snapshot_time":"2026-08-08","area_km2_approx":26.4}},{"type":"Feature","geometry":{"type":"MultiPolygon","coordinates":[[[[37.83628,48.79897],[37.8184,48.805],[37.83245,48.81668],[37.84075,48.8053],[37.85522,48.79663],[37.83628,48.79897]]],[[[37.82332,48.82],[37.81202,48.82753],[37.82397,48.83442],[37.82781,48.82764],[37.83723,48.82542],[37.8348,48.81857],[37.83245,48.81668],[37.82332,48.82]]],[[[37.79822,48.56116],[37.80137,48.56579],[37.81633,48.5696],[37.81451,48.56718],[37.81553,48.5629],[37.81203,48.56372],[37.80674,48.55193],[37.79822,48.56116]]],[[[37.7968,48.76674],[37.80744,48.77369],[37.80427,48.76215],[37.79493,48.7669],[37.79497,48.76703],[37.7968,48.76674]]],[[[37.77071,48.6536],[37.78731,48.66027],[37.78835,48.67387],[37.78865,48.67387],[37.79074,48.65721],[37.79131,48.64952],[37.7819,48.64476],[37.77071,48.6536]]],[[[37.60836,48.49364],[37.61245,48.50128],[37.62548,48.51551],[37.62799,48.49889],[37.61299,48.49466],[37.61123,48.48905],[37.60836,48.49364]]],[[[37.22143,48.45765],[37.22473,48.45234],[37.23104,48.44076],[37.21375,48.43616],[37.20756,48.44289],[37.22143,48.45765]]],[[[35.39631,50.70731],[35.38849,50.70752],[35.38762,50.70388],[35.39205,50.69877],[35.39507,50.6987],[35.39215,50.69516],[35.3858,50.69364],[35.37482,50.70983],[35.37745,50.73046],[35.41069,50.70983],[35.40333,50.7049],[35.39631,50.70731]]]]},"properties":{"source":"deepstate","source_name":"DeepStateMap","source_url":"https://deepstatemap.live/en","category":"gained_contested","category_label":"Newly contested","period":"7d","compared_with":"2026-08-01","snapshot_time":"2026-08-08","area_km2_approx":15.6}}]}