{"type":"FeatureCollection","features":[{"type":"Feature","geometry":null,"properties":{"source":"ua_mod","source_name":"Ministry of Defence of Ukraine","group":"official_ua","id":16117,"posted_utc":"2026-08-29T14:48:02+00:00","link":"https://t.me/ministry_of_defense_ua/16117","text":"🇺🇦 Незалежність України виборюється щодня. За нею стоїть запекла боротьба і найвища ціна, яку заплатили воїни, що стали на захист країни від російської агресії.\nМіністр оборони Євгеній Хмара разом із Президентом Володимиром Зеленським вшанували пам’ять воїнів, які загинули в боротьбі за незалежність, суверенітет і територіальну цілісність України.\nСхиляємо голови перед кожним, хто віддав життя за Україну.\nНаш обов’язок берегти пам’ять про полеглих, підтримувати їхні родини і щодня бути достойними подвигу тих, хто віддав своє життя за наші цінності і нашу державу.\nЧесть і шана полеглим захисникам і захисницям України!","links":[],"original_html":"<div class=\"tgme_widget_message_text js-message_text\" dir=\"auto\"><i class=\"emoji\" style=\"background-image:url('//telegram.org/img/emoji/40/F09F87BAF09F87A6.png')\"><b>🇺🇦</b></i> Незалежність України виборюється щодня. За нею стоїть запекла боротьба і найвища ціна, яку заплатили воїни, що стали на захист країни від російської агресії. <br/><br/>Міністр оборони Євгеній Хмара разом із Президентом Володимиром Зеленським вшанували пам’ять воїнів, які загинули в боротьбі за незалежність, суверенітет і територіальну цілісність України. <br/><br/>Схиляємо голови перед кожним, хто віддав життя за Україну.<br/><br/>Наш обов’язок берегти пам’ять про полеглих, підтримувати їхні родини і щодня бути достойними подвигу тих, хто віддав своє життя за наші цінності і нашу державу.  <br/><br/>Честь і шана полеглим захисникам і захисницям України&#33;"}},{"type":"Feature","geometry":null,"properties":{"source":"ua_mod","source_name":"Ministry of Defence of Ukraine","group":"official_ua","id":16121,"posted_utc":"2026-08-29T16:01:47+00:00","link":"https://t.me/ministry_of_defense_ua/16121","text":"🇺🇦🇱🇻 Україна та Латвія обговорили першочергові потреби Сил оборони та подальшу підтримку українських військових.\nМіністр оборони України Євгеній Хмара та Головнокомандувач ЗСУ Михайло Драпатий зустрілися з міністром оборони Латвії Райвісом Мелнісом.\nСеред ключових потреб України — наземні роботизовані комплекси, оптоволоконні дрони, засоби middle strike та ППО. Окремий пріоритет — максимально швидке постачання необхідних засобів.\nЛатвія продовжить безпекову підтримку України на рівні щонайменше 0,25% ВВП на рік. Також сторони обговорили реабілітацію військових, тренування та посилення кіберспроможностей.\nУкраїна зі свого боку готова ділитися унікальним бойовим досвідом — від проведення мультидоменних операцій до організації захисту території та розвитку сучасних фортифікацій.\nДякуємо Латвії за послідовну підтримку та партнерство.","links":[],"original_html":"<div class=\"tgme_widget_message_text js-message_text\" dir=\"auto\"><i class=\"emoji\" style=\"background-image:url('//telegram.org/img/emoji/40/F09F87BAF09F87A6.png')\"><b>🇺🇦</b></i><i class=\"emoji\" style=\"background-image:url('//telegram.org/img/emoji/40/F09F87B1F09F87BB.png')\"><b>🇱🇻</b></i> <b>Україна та Латвія обговорили першочергові потреби Сил оборони та подальшу підтримку українських військових.</b><br/><br/>Міністр оборони України Євгеній Хмара та Головнокомандувач ЗСУ Михайло Драпатий зустрілися з міністром оборони Латвії Райвісом Мелнісом.<br/><br/>Серед ключових потреб України — наземні роботизовані комплекси, оптоволоконні дрони, засоби middle strike та ППО. Окремий пріоритет — максимально швидке постачання необхідних засобів.<br/><br/>Латвія продовжить безпекову підтримку України на рівні щонайменше 0,25% ВВП на рік. Також сторони обговорили реабілітацію військових, тренування та посилення кіберспроможностей.<br/><br/>Україна зі свого боку готова ділитися унікальним бойовим досвідом — від проведення мультидоменних операцій до організації захисту території та розвитку сучасних фортифікацій.<br/><br/>Дякуємо Латвії за послідовну підтримку та партнерство."}},{"type":"Feature","geometry":null,"properties":{"source":"ua_mod","source_name":"Ministry of Defence of Ukraine","group":"official_ua","id":16112,"posted_utc":"2026-08-29T11:52:49+00:00","link":"https://t.me/ministry_of_defense_ua/16112","text":"❗️Схиляємо голови у глибокій скорботі разом із кожною родиною, яка втратила близьких через жахливу трагедію в селі Мила на Київщині.\nСтаном на 14:50 29 серпня відомо про 37 загиблих і 15 поранених. Ще двох людей досі намагаються знайти під завалами.\nРозміщення складів із вибухівкою поруч із житловими будинками — неприпустимо.\nУсі відповідальні керівники складових Сил безпеки та оборони, вітчизняного ОПК повинні провести повний аудит місць розміщення зброї та боєприпасів. Подібні об’єкти не мають перебувати поруч із житловими будинками.\nЗараз на місці в Бучанському районі Київщини працюють рятувальники, медики та поліцейські, а громади роблять усе можливе для порятунку й підтримки постраждалих.\nросія обов’язково відповість за всі злочини проти українців, які вона вчиняє на нашій землі.","links":[],"original_html":"<i class=\"emoji\" style=\"background-image:url('//telegram.org/img/emoji/40/E29D97.png')\"><b>❗️</b></i>Схиляємо голови у глибокій скорботі разом із кожною родиною, яка втратила близьких через жахливу трагедію в селі Мила на Київщині.<br/><br/>Станом на 14:50 29 серпня відомо про 37 загиблих і 15 поранених. Ще двох людей досі намагаються знайти під завалами.<br/><br/>Розміщення складів із вибухівкою поруч із житловими будинками — неприпустимо.<br/><br/>Усі відповідальні керівники складових Сил безпеки та оборони, вітчизняного ОПК повинні провести повний аудит місць розміщення зброї та боєприпасів. Подібні об’єкти не мають перебувати поруч із житловими будинками.<br/><br/>Зараз на місці в Бучанському районі Київщини працюють рятувальники, медики та поліцейські, а громади роблять усе можливе для порятунку й підтримки постраждалих.<br/><br/>росія обов’язково відповість за всі злочини проти українців, які вона вчиняє на нашій землі."}}]}