{"type":"FeatureCollection","features":[{"type":"Feature","geometry":{"type":"MultiPolygon","coordinates":[[[[37.84716,48.76724],[37.84282,48.76968],[37.83574,48.77661],[37.83682,48.77825],[37.84235,48.77777],[37.84849,48.77511],[37.87119,48.77641],[37.87226,48.78197],[37.88029,48.76967],[37.87951,48.76552],[37.8631,48.76199],[37.84636,48.76167],[37.84716,48.76724]]],[[[37.06078,48.31323],[37.06308,48.31791],[37.06523,48.31666],[37.09644,48.30781],[37.10531,48.30203],[37.113,48.29675],[37.11412,48.28725],[37.10579,48.28586],[37.06613,48.28157],[37.06078,48.31323]]]]},"properties":{"source":"ukrdaily","source_name":"UkrDailyUpdate","source_url":"https://map.ukrdailyupdate.com/","category":"gained","category_label":"Newly Russian-occupied","period":"1d","compared_with":"2026-09-06","snapshot_time":"2026-09-07","area_km2_approx":14.4}},{"type":"Feature","geometry":{"type":"Polygon","coordinates":[[[37.93288,49.1948],[37.93403,49.19576],[37.9352,49.19214],[37.93288,49.1948]]]},"properties":{"source":"ukrdaily","source_name":"UkrDailyUpdate","source_url":"https://map.ukrdailyupdate.com/","category":"lost","category_label":"No longer Russian-occupied","period":"1d","compared_with":"2026-09-06","snapshot_time":"2026-09-07","area_km2_approx":0.0}}]}