{"type":"FeatureCollection","features":[{"type":"Feature","geometry":{"type":"Point","coordinates":[34.8369,46.02178]},"properties":{"original":{"Date":"2026-08-07","Name":"07 AUG 2026","Faction":"Ukraine","Origin":"UAV","Latitude":"46.02178","Longitude":"34.8369","PlusCode":"8GRP2RCP+PQ Shchaslyvtseve, Kherson Oblast, Ukraine","Description":"0:11-0:37 - Drone strike on a reported Russian FSB base.","Source":"https://x.com/414magyarbirds/status/2085769186677027156, https://t.me/robert_magyar/2711","Geolocation":"https://x.com/MikiValbuena/status/2086481251657994440","Equipment":"","EquipmentItems":"Fixed Wing OWAD (One Way Attack Drone)","Units":"","OrbatUnits":"9th Long-Range Strike Battalion \"Kairos\"","Id":"e42b18c3-e48e-4b8d-abb4-03fd4db583f7","icon":"/api/icons/0051CA/False/template/70.png"},"source":"geoconfirmed","source_name":"GeoConfirmed","source_url":"https://geoconfirmed.org/map/ukraine","id":"e42b18c3-e48e-4b8d-abb4-03fd4db583f7","date":"2026-08-07","link":"https://geoconfirmed.org/map/ukraine/e42b18c3-e48e-4b8d-abb4-03fd4db583f7","category":"Controlled Demolition OR explosion of unknown origin OR fire of unknown origin where no other icon fits","side":"Ukraine","color":"#0051CA","description":"0:11-0:37 - Drone strike on a reported Russian FSB base.","orbat":["9th Long-Range Strike Battalion \"Kairos\""],"geolocation":["https://x.com/MikiValbuena/status/2086481251657994440"],"sources":["https://x.com/414magyarbirds/status/2085769186677027156","https://t.me/robert_magyar/2711"]}},{"type":"Feature","geometry":{"type":"Point","coordinates":[60.56299,56.74339]},"properties":{"original":{"Date":"2026-08-07","Name":"07 AUG 2026","Faction":"Ukraine","Origin":"VID","Latitude":"56.74339","Longitude":"60.56299","PlusCode":"9J82PHV7+95 Yekaterinburg, Sverdlovsk Oblast, Russia","Description":"Point of view - Ukrainian drones struck a Wildberries warehouse in southwestern Yekaterinburg","Source":"https://x.com/zarGEOINT/status/2085592090159854036, https://t.me/exilenova_plus/28312","Geolocation":"https://x.com/zarGEOINT/status/2085594021112561702, https://x.com/Vlad_23456/status/2085741329779208448","Equipment":"","EquipmentItems":"Fixed Wing OWAD (One Way Attack Drone)","Units":"","OrbatUnits":"","Id":"02db14cb-db7b-4521-97bc-087d55142f75","icon":"/api/icons/0051CA/False/template/30.png"},"source":"geoconfirmed","source_name":"GeoConfirmed","source_url":"https://geoconfirmed.org/map/ukraine","id":"02db14cb-db7b-4521-97bc-087d55142f75","date":"2026-08-07","link":"https://geoconfirmed.org/map/ukraine/02db14cb-db7b-4521-97bc-087d55142f75","category":"Video - Always Point of View in description - In the colour of who is doing the attack or is responsable for the incident in the video.","side":"Ukraine","color":"#0051CA","description":"Point of view - Ukrainian drones struck a Wildberries warehouse in southwestern Yekaterinburg","orbat":[],"geolocation":["https://x.com/zarGEOINT/status/2085594021112561702","https://x.com/Vlad_23456/status/2085741329779208448"],"sources":["https://x.com/zarGEOINT/status/2085592090159854036","https://t.me/exilenova_plus/28312"]}},{"type":"Feature","geometry":{"type":"Point","coordinates":[36.581446,50.575341]},"properties":{"original":{"Date":"2026-08-07","Name":"07 AUG 2026","Faction":"Ukraine","Origin":"PIC","Latitude":"50.575341","Longitude":"36.581446","PlusCode":"9G2RHHGJ+4H Belgorod, Belgorod Oblast, Russia","Description":"Rough location - Smoke near the Radio and TV Transmission building in Belgorod after a reported Ukrainian attack; television broadcasting has reportedly stopped working.","Source":"https://x.com/MikiValbuena/status/2085640980389118394, https://t.me/belpepel/23724, , Info about the broadcast, https://t.me/belpepel/23729","Geolocation":"https://x.com/MikiValbuena/status/2085640974688985277","Equipment":"","EquipmentItems":"","Units":"","OrbatUnits":"","Id":"7ccca208-51ce-471a-93f4-0ee227eaddd2","icon":"/api/icons/0051CA/False/template/70.png"},"source":"geoconfirmed","source_name":"GeoConfirmed","source_url":"https://geoconfirmed.org/map/ukraine","id":"7ccca208-51ce-471a-93f4-0ee227eaddd2","date":"2026-08-07","link":"https://geoconfirmed.org/map/ukraine/7ccca208-51ce-471a-93f4-0ee227eaddd2","category":"Controlled Demolition OR explosion of unknown origin OR fire of unknown origin where no other icon fits","side":"Ukraine","color":"#0051CA","description":"Rough location - Smoke near the Radio and TV Transmission building in Belgorod after a reported Ukrainian attack; television broadcasting has reportedly stopped working.","orbat":[],"geolocation":["https://x.com/MikiValbuena/status/2085640974688985277"],"sources":["https://x.com/MikiValbuena/status/2085640980389118394","https://t.me/belpepel/23724","https://t.me/belpepel/23729"]}},{"type":"Feature","geometry":{"type":"Point","coordinates":[33.128543,45.396183]},"properties":{"original":{"Date":"2026-08-07","Name":"07 AUG 2026","Faction":"Ukraine","Origin":"UAV","Latitude":"45.396183","Longitude":"33.128543","PlusCode":"8GQM94WH+FC","Description":"1:51-2:18 - Drone strikes on a reported Russian deployment point. (area grid)","Source":"https://x.com/414magyarbirds/status/2085769186677027156, https://t.me/robert_magyar/2711","Geolocation":"https://x.com/MikiValbuena/status/2086481268082885053","Equipment":"","EquipmentItems":"Fixed Wing OWAD (One Way Attack Drone)","Units":"","OrbatUnits":"9th Long-Range Strike Battalion \"Kairos\"","Id":"01865b71-c3c1-4eda-8c22-1cad5c90d47a","icon":"/api/icons/0051CA/False/template/70.png"},"source":"geoconfirmed","source_name":"GeoConfirmed","source_url":"https://geoconfirmed.org/map/ukraine","id":"01865b71-c3c1-4eda-8c22-1cad5c90d47a","date":"2026-08-07","link":"https://geoconfirmed.org/map/ukraine/01865b71-c3c1-4eda-8c22-1cad5c90d47a","category":"Controlled Demolition OR explosion of unknown origin OR fire of unknown origin where no other icon fits","side":"Ukraine","color":"#0051CA","description":"1:51-2:18 - Drone strikes on a reported Russian deployment point. (area grid)","orbat":["9th Long-Range Strike Battalion \"Kairos\""],"geolocation":["https://x.com/MikiValbuena/status/2086481268082885053"],"sources":["https://x.com/414magyarbirds/status/2085769186677027156","https://t.me/robert_magyar/2711"]}},{"type":"Feature","geometry":{"type":"Point","coordinates":[36.26541,47.80874]},"properties":{"original":{"Date":"2026-08-07","Name":"07 AUG 2026","Faction":"Russia","Origin":"UAV","Latitude":"47.80874","Longitude":"36.26541","PlusCode":"8GVRR758+F5 Solodke, Zaporizhia Oblast, Ukraine","Description":"Russian shelling, reportedly by 2S3, date estimated.","Source":"https://x.com/moklasen/status/2099571943406031188, https://t.me/mod_russia/67316","Geolocation":"https://x.com/moklasen/status/2099571943406031188, regarding date:, https://x.com/klinger66/status/2099794494006722902","Equipment":"","EquipmentItems":"2S3 Akatsiya (US Army: M1973; GRAU: 2S3) ","Units":"Vostok group of Forces.","OrbatUnits":"","Id":"061876e9-738b-494f-ad03-2337658f9ea9","icon":"/api/icons/E00000/False/template/10.png"},"source":"geoconfirmed","source_name":"GeoConfirmed","source_url":"https://geoconfirmed.org/map/ukraine","id":"061876e9-738b-494f-ad03-2337658f9ea9","date":"2026-08-07","link":"https://geoconfirmed.org/map/ukraine/061876e9-738b-494f-ad03-2337658f9ea9","category":"Shelling by artillery or aerial bombings - Location of the shelling, colour of who is shelling; Brown = UXO","side":"Russia","color":"#E00000","description":"Russian shelling, reportedly by 2S3, date estimated.","orbat":["Vostok group of Forces."],"geolocation":["https://x.com/moklasen/status/2099571943406031188","https://x.com/klinger66/status/2099794494006722902"],"sources":["https://x.com/moklasen/status/2099571943406031188","https://t.me/mod_russia/67316"]}},{"type":"Feature","geometry":{"type":"Point","coordinates":[30.756138,46.481]},"properties":{"original":{"Date":"2026-08-07","Name":"07 AUG 2026","Faction":"Neutral","Origin":"VID","Latitude":"46.481","Longitude":"30.756138","PlusCode":"8GRGFQJ4+9F Odesa, Odesa Oblast, Ukraine","Description":"Chornomorets stadium damaged after a reported Russian strike","Source":"https://x.com/ZoryaLondonsk/status/2085704505484558836","Geolocation":"https://x.com/war_cube/status/2086395012313485513","Equipment":"","EquipmentItems":"","Units":"","OrbatUnits":"","Id":"462776c0-489b-405a-b117-363e0200736d","icon":"/api/icons/AC7339/False/template/192.png"},"source":"geoconfirmed","source_name":"GeoConfirmed","source_url":"https://geoconfirmed.org/map/ukraine","id":"462776c0-489b-405a-b117-363e0200736d","date":"2026-08-07","link":"https://geoconfirmed.org/map/ukraine/462776c0-489b-405a-b117-363e0200736d","category":"Recently destroyed/Damaged[Visible in footage] or still burning infrastucture","side":"Neutral","color":"#AC7339","description":"Chornomorets stadium damaged after a reported Russian strike","orbat":[],"geolocation":["https://x.com/war_cube/status/2086395012313485513"],"sources":["https://x.com/ZoryaLondonsk/status/2085704505484558836"]}},{"type":"Feature","geometry":{"type":"Point","coordinates":[37.723797,48.074455]},"properties":{"original":{"Date":"2026-08-07","Name":"07 AUG 2026","Faction":"Ukraine","Origin":"UAV","Latitude":"48.074455","Longitude":"37.723797","PlusCode":"8GWV3PFF+QG Donetsk, Donetsk Oblast, Ukraine","Description":"0:11 - A Shahed drone on a transport fixture is attacked by a Ukrainian FPV drone at Donetsk Airport.","Source":"https://x.com/sternenko/status/2085777949664461180, shorter: , https://x.com/GeoToby/status/2085997636318838792, https://t.me/Tsaplienko/97000","Geolocation":"https://x.com/GeoToby/status/2085997541133258885","Equipment":"","EquipmentItems":"FPV (First Person View) OWAD (One Way Attack Drone) | Shahed 136","Units":"","OrbatUnits":"Alpha Group","Id":"f11c5ff8-f375-4545-922b-39b0944f6b3c","icon":"/api/icons/0051CA/False/template/111.png"},"source":"geoconfirmed","source_name":"GeoConfirmed","source_url":"https://geoconfirmed.org/map/ukraine","id":"f11c5ff8-f375-4545-922b-39b0944f6b3c","date":"2026-08-07","link":"https://geoconfirmed.org/map/ukraine/f11c5ff8-f375-4545-922b-39b0944f6b3c","category":"Short Range (<50km) OWAD (One Way Attack Drone), mostly rotary wing, Flying OR Attacking a target without knowing the outcome: if something is damaged --> icon of the damaged equipment.","side":"Ukraine","color":"#0051CA","description":"0:11 - A Shahed drone on a transport fixture is attacked by a Ukrainian FPV drone at Donetsk Airport.","orbat":["Alpha Group"],"geolocation":["https://x.com/GeoToby/status/2085997541133258885"],"sources":["https://x.com/sternenko/status/2085777949664461180","https://x.com/GeoToby/status/2085997636318838792","https://t.me/Tsaplienko/97000"]}},{"type":"Feature","geometry":{"type":"Point","coordinates":[37.732206,49.042135]},"properties":{"original":{"Date":"2026-08-07","Name":"07 AUG 2026","Faction":"Russia","Origin":"UAV","Latitude":"49.042135","Longitude":"37.732206","PlusCode":"8GXV2PRJ+VV Drobysheve, Donetsk Oblast, Ukraine","Description":"0:08 - RU 20th Combined Arms Army attacks UA logistics UGV with a Vandal Drone","Source":"https://x.com/ZoamSc2/status/2085845905417339005, https://t.me/operationall_space/12685","Geolocation":"https://x.com/ZoamSc2/status/2085845902741410248","Equipment":"","EquipmentItems":"Unmanned Ground Vehicle (UGV) | FPV (First Person View) OWAD (One Way Attack Drone)","Units":"","OrbatUnits":"20th Guards Combined Arms Army","Id":"fe3b3ba3-b3c5-46e2-a26a-42f82d6a6050","icon":"/api/icons/E00000/False/template/111.png"},"source":"geoconfirmed","source_name":"GeoConfirmed","source_url":"https://geoconfirmed.org/map/ukraine","id":"fe3b3ba3-b3c5-46e2-a26a-42f82d6a6050","date":"2026-08-07","link":"https://geoconfirmed.org/map/ukraine/fe3b3ba3-b3c5-46e2-a26a-42f82d6a6050","category":"Short Range (<50km) OWAD (One Way Attack Drone), mostly rotary wing, Flying OR Attacking a target without knowing the outcome: if something is damaged --> icon of the damaged equipment.","side":"Russia","color":"#E00000","description":"0:08 - RU 20th Combined Arms Army attacks UA logistics UGV with a Vandal Drone","orbat":["20th Guards Combined Arms Army"],"geolocation":["https://x.com/ZoamSc2/status/2085845902741410248"],"sources":["https://x.com/ZoamSc2/status/2085845905417339005","https://t.me/operationall_space/12685"]}},{"type":"Feature","geometry":{"type":"Point","coordinates":[37.732206,49.042135]},"properties":{"original":{"Date":"2026-08-07","Name":"07 AUG 2026","Faction":"Russia","Origin":"UAV","Latitude":"49.042135","Longitude":"37.732206","PlusCode":"8GXV2PRJ+VV Drobysheve, Donetsk Oblast, Ukraine","Description":"0:00-0:09 - Russian 20th Guards Combined Arms Army attacked Ukrainian logistics UGV with a Vandal Drone","Source":"https://x.com/ZoamSc2/status/2085845905417339005, https://t.me/operationall_space/12685, ","Geolocation":"https://x.com/ZoamSc2/status/2085845902741410248","Equipment":"","EquipmentItems":"Vandal (KVN) | Unmanned Ground Vehicle (UGV)","Units":"","OrbatUnits":"20th Guards Combined Arms Army","Id":"b78c78f9-e2a5-44d5-8965-49ec0829ef7a","icon":"/api/icons/E00000/False/template/111.png"},"source":"geoconfirmed","source_name":"GeoConfirmed","source_url":"https://geoconfirmed.org/map/ukraine","id":"b78c78f9-e2a5-44d5-8965-49ec0829ef7a","date":"2026-08-07","link":"https://geoconfirmed.org/map/ukraine/b78c78f9-e2a5-44d5-8965-49ec0829ef7a","category":"Short Range (<50km) OWAD (One Way Attack Drone), mostly rotary wing, Flying OR Attacking a target without knowing the outcome: if something is damaged --> icon of the damaged equipment.","side":"Russia","color":"#E00000","description":"0:00-0:09 - Russian 20th Guards Combined Arms Army attacked Ukrainian logistics UGV with a Vandal Drone","orbat":["20th Guards Combined Arms Army"],"geolocation":["https://x.com/ZoamSc2/status/2085845902741410248"],"sources":["https://x.com/ZoamSc2/status/2085845905417339005","https://t.me/operationall_space/12685"]}},{"type":"Feature","geometry":{"type":"Point","coordinates":[60.57566,56.72903]},"properties":{"original":{"Date":"2026-08-07","Name":"07 AUG 2026","Faction":"Ukraine","Origin":"VID","Latitude":"56.72903","Longitude":"60.57566","PlusCode":"9J82PHHG+J7 Yekaterinburg, Sverdlovsk Oblast, Russia","Description":"Ukrainian drones struck a Wildberries warehouse in southwestern Yekaterinburg","Source":"https://x.com/zarGEOINT/status/2085592090159854036, https://t.me/exilenova_plus/28312","Geolocation":"https://x.com/zarGEOINT/status/2085594021112561702, https://x.com/Vlad_23456/status/2085741329779208448","Equipment":"","EquipmentItems":"Fixed Wing OWAD (One Way Attack Drone)","Units":"","OrbatUnits":"","Id":"c4ef0473-6090-496a-9171-533be3beb355","icon":"/api/icons/0051CA/False/template/70.png"},"source":"geoconfirmed","source_name":"GeoConfirmed","source_url":"https://geoconfirmed.org/map/ukraine","id":"c4ef0473-6090-496a-9171-533be3beb355","date":"2026-08-07","link":"https://geoconfirmed.org/map/ukraine/c4ef0473-6090-496a-9171-533be3beb355","category":"Controlled Demolition OR explosion of unknown origin OR fire of unknown origin where no other icon fits","side":"Ukraine","color":"#0051CA","description":"Ukrainian drones struck a Wildberries warehouse in southwestern Yekaterinburg","orbat":[],"geolocation":["https://x.com/zarGEOINT/status/2085594021112561702","https://x.com/Vlad_23456/status/2085741329779208448"],"sources":["https://x.com/zarGEOINT/status/2085592090159854036","https://t.me/exilenova_plus/28312"]}},{"type":"Feature","geometry":{"type":"Point","coordinates":[37.071983,50.314152]},"properties":{"original":{"Date":"2026-08-07","Name":"07 AUG 2026","Faction":"Russia","Origin":"UAV","Latitude":"50.314152","Longitude":"37.071983","PlusCode":"9G2V837C+MQ Zybyne, Kharkiv Oblast, Ukraine","Description":"Russian soldiers just west of Zybyne were hit by the Forpost Brigade (area)","Source":"https://x.com/PuenteUribarri/status/2085718866626310243, https://t.me/Kramatorsk11Dpsu/621","Geolocation":"https://x.com/jimmhelloman555/status/2085854157274022204, https://x.com/klinger66/status/2086060466288075151","Equipment":"","EquipmentItems":"FPV (First Person View) OWAD (One Way Attack Drone)","Units":"","OrbatUnits":"11th Border Guard Detachment \"Forpost\"","Id":"43b8a906-5946-42d5-9f92-5c968494a53b","icon":"/api/icons/E00000/False/template/92.png"},"source":"geoconfirmed","source_name":"GeoConfirmed","source_url":"https://geoconfirmed.org/map/ukraine","id":"43b8a906-5946-42d5-9f92-5c968494a53b","date":"2026-08-07","link":"https://geoconfirmed.org/map/ukraine/43b8a906-5946-42d5-9f92-5c968494a53b","category":"WIA/KIA Soldier/Militant","side":"Russia","color":"#E00000","description":"Russian soldiers just west of Zybyne were hit by the Forpost Brigade (area)","orbat":["11th Border Guard Detachment \"Forpost\""],"geolocation":["https://x.com/jimmhelloman555/status/2085854157274022204","https://x.com/klinger66/status/2086060466288075151"],"sources":["https://x.com/PuenteUribarri/status/2085718866626310243","https://t.me/Kramatorsk11Dpsu/621"]}},{"type":"Feature","geometry":{"type":"Point","coordinates":[36.913648,50.250515]},"properties":{"original":{"Date":"2026-08-07","Name":"07 AUG 2026","Faction":"Russia","Origin":"UAV","Latitude":"50.250515","Longitude":"36.913648","PlusCode":"9G2R7W27+6F Tsehel'ne, Kharkiv Oblast, Ukraine","Description":"1:36 - Russian shelling of a Ukrainian clearing operation.","Source":"https://www.youtube.com/watch?v=yzo2dza_Vyo","Geolocation":"https://x.com/ukrRaiders/status/2086021180775903381","Equipment":"","EquipmentItems":"","Units":"","OrbatUnits":"3rd Seperate Motorized Battalion \"Volya\" / \"Воля\"","Id":"c91ea8e0-f4cc-425d-bdaf-5d8b5ca8b151","icon":"/api/icons/E00000/False/template/10.png"},"source":"geoconfirmed","source_name":"GeoConfirmed","source_url":"https://geoconfirmed.org/map/ukraine","id":"c91ea8e0-f4cc-425d-bdaf-5d8b5ca8b151","date":"2026-08-07","link":"https://geoconfirmed.org/map/ukraine/c91ea8e0-f4cc-425d-bdaf-5d8b5ca8b151","category":"Shelling by artillery or aerial bombings - Location of the shelling, colour of who is shelling; Brown = UXO","side":"Russia","color":"#E00000","description":"1:36 - Russian shelling of a Ukrainian clearing operation.","orbat":["3rd Seperate Motorized Battalion \"Volya\" / \"Воля\""],"geolocation":["https://x.com/ukrRaiders/status/2086021180775903381"],"sources":["https://www.youtube.com/watch?v=yzo2dza_Vyo"]}},{"type":"Feature","geometry":{"type":"Point","coordinates":[60.572128,56.746727]},"properties":{"original":{"Date":"2026-08-07","Name":"07 AUG 2026","Faction":"Ukraine","Origin":"VID","Latitude":"56.746727","Longitude":"60.572128","PlusCode":"9J82PHWC+MV Yekaterinburg, Sverdlovsk Oblast, Russia","Description":"Pont of view in southern direction - Wildberries in Yekaterinburg hit by Ukrainian drones","Source":"https://x.com/Grimm_Intel/status/2085585045356486701, https://t.me/exilenova_plus/28299","Geolocation":"https://x.com/Grimm_Intel/status/2085585281176973436, https://x.com/Vlad_23456/status/2085741329779208448","Equipment":"","EquipmentItems":"Fixed Wing OWAD (One Way Attack Drone)","Units":"","OrbatUnits":"","Id":"c3eb2458-4b38-48b3-a6a5-62a9754b29ac","icon":"/api/icons/0051CA/False/template/30.png"},"source":"geoconfirmed","source_name":"GeoConfirmed","source_url":"https://geoconfirmed.org/map/ukraine","id":"c3eb2458-4b38-48b3-a6a5-62a9754b29ac","date":"2026-08-07","link":"https://geoconfirmed.org/map/ukraine/c3eb2458-4b38-48b3-a6a5-62a9754b29ac","category":"Video - Always Point of View in description - In the colour of who is doing the attack or is responsable for the incident in the video.","side":"Ukraine","color":"#0051CA","description":"Pont of view in southern direction - Wildberries in Yekaterinburg hit by Ukrainian drones","orbat":[],"geolocation":["https://x.com/Grimm_Intel/status/2085585281176973436","https://x.com/Vlad_23456/status/2085741329779208448"],"sources":["https://x.com/Grimm_Intel/status/2085585045356486701","https://t.me/exilenova_plus/28299"]}},{"type":"Feature","geometry":{"type":"Point","coordinates":[34.150051,44.483834]},"properties":{"original":{"Date":"2026-08-07","Name":"07 AUG 2026","Faction":"Ukraine","Origin":"PIC","Latitude":"44.483834","Longitude":"34.150051","PlusCode":"8GPPF5M2+G2 Yalta","Description":"Point of view, looking in north-Western direction - Reported sea drone (BEK) attack in Yalta, Crimea. ","Source":"https://x.com/GeoRaccoon/status/2086046078025998341, https://t.me/exilenova_plus/28345","Geolocation":"based on, https://x.com/LayBay_ish/status/2085672060978696567","Equipment":"(reportedly)","EquipmentItems":"Unmanned Surface Vehicle (USV)","Units":"","OrbatUnits":"","Id":"2faaefa0-9ec9-4d10-98db-62cab67c3796","icon":"/api/icons/0051CA/False/template/20.png"},"source":"geoconfirmed","source_name":"GeoConfirmed","source_url":"https://geoconfirmed.org/map/ukraine","id":"2faaefa0-9ec9-4d10-98db-62cab67c3796","date":"2026-08-07","link":"https://geoconfirmed.org/map/ukraine/2faaefa0-9ec9-4d10-98db-62cab67c3796","category":"Picture - Always Point of View in description - - In the colour of who is doing the attack or is responsable for the incident in the picture.","side":"Ukraine","color":"#0051CA","description":"Point of view, looking in north-Western direction - Reported sea drone (BEK) attack in Yalta, Crimea.","orbat":[],"geolocation":["https://x.com/LayBay_ish/status/2085672060978696567"],"sources":["https://x.com/GeoRaccoon/status/2086046078025998341","https://t.me/exilenova_plus/28345"]}},{"type":"Feature","geometry":{"type":"Point","coordinates":[37.562214,47.185296]},"properties":{"original":{"Date":"2026-08-07","Name":"07 AUG 2026","Faction":"Ukraine","Origin":"UAV","Latitude":"47.185296","Longitude":"37.562214","PlusCode":"8GVV5HP6+4V Mariupol, Donetsk Oblast, Ukraine","Description":"2:55-3:03 - Drone strike on an electrical substation.","Source":"https://x.com/414magyarbirds/status/2085769186677027156, https://t.me/robert_magyar/2711","Geolocation":"https://x.com/MikiValbuena/status/2086722645614002298","Equipment":"","EquipmentItems":"Fixed Wing OWAD (One Way Attack Drone) | Electrical Substation","Units":"","OrbatUnits":"412th Unmanned Systems Brigade \"Nemesis\" ","Id":"4daafe5b-7718-424d-a32f-6440970280a5","icon":"/api/icons/0051CA/False/template/181.png"},"source":"geoconfirmed","source_name":"GeoConfirmed","source_url":"https://geoconfirmed.org/map/ukraine","id":"4daafe5b-7718-424d-a32f-6440970280a5","date":"2026-08-07","link":"https://geoconfirmed.org/map/ukraine/4daafe5b-7718-424d-a32f-6440970280a5","category":"Longe Range (>50km) OWAD (One Way Attack Drone) or Loitering munition, mostly fixed wing, Flying OR Attacking a target without knowing the outcome: if something is damaged --> icon of the damaged equipment.","side":"Ukraine","color":"#0051CA","description":"2:55-3:03 - Drone strike on an electrical substation.","orbat":["412th Unmanned Systems Brigade \"Nemesis\""],"geolocation":["https://x.com/MikiValbuena/status/2086722645614002298"],"sources":["https://x.com/414magyarbirds/status/2085769186677027156","https://t.me/robert_magyar/2711"]}},{"type":"Feature","geometry":{"type":"Point","coordinates":[38.665422,48.694042]},"properties":{"original":{"Date":"2026-08-07","Name":"07 AUG 2026","Faction":"Ukraine","Origin":"UAV","Latitude":"48.694042","Longitude":"38.665422","PlusCode":"8GWWMMV8+J5 Donets'kyi, Luhansk Oblast, Ukraine","Description":"3:56-4:02 - Drone strike on an electrical substation.","Source":"https://x.com/414magyarbirds/status/2085769186677027156, https://t.me/robert_magyar/2711","Geolocation":"https://x.com/MikiValbuena/status/2086722682876199057","Equipment":"","EquipmentItems":"Fixed Wing OWAD (One Way Attack Drone) | Electrical Substation","Units":"","OrbatUnits":"20th Unmanned Systems Brigade \"K-2\"","Id":"a49a6392-4742-4b7a-abf7-686b73c9f309","icon":"/api/icons/0051CA/False/template/181.png"},"source":"geoconfirmed","source_name":"GeoConfirmed","source_url":"https://geoconfirmed.org/map/ukraine","id":"a49a6392-4742-4b7a-abf7-686b73c9f309","date":"2026-08-07","link":"https://geoconfirmed.org/map/ukraine/a49a6392-4742-4b7a-abf7-686b73c9f309","category":"Longe Range (>50km) OWAD (One Way Attack Drone) or Loitering munition, mostly fixed wing, Flying OR Attacking a target without knowing the outcome: if something is damaged --> icon of the damaged equipment.","side":"Ukraine","color":"#0051CA","description":"3:56-4:02 - Drone strike on an electrical substation.","orbat":["20th Unmanned Systems Brigade \"K-2\""],"geolocation":["https://x.com/MikiValbuena/status/2086722682876199057"],"sources":["https://x.com/414magyarbirds/status/2085769186677027156","https://t.me/robert_magyar/2711"]}},{"type":"Feature","geometry":{"type":"Point","coordinates":[37.506441,47.092118]},"properties":{"original":{"Date":"2026-08-07","Name":"07 AUG 2026","Faction":"Ukraine","Origin":"UAV","Latitude":"47.092118","Longitude":"37.506441","PlusCode":"8GVV3GR4+RH Mariupol, Donetsk Oblast, Ukraine","Description":"3:27-3:40 - Drone strike on an electrical substation.","Source":"https://x.com/414magyarbirds/status/2085769186677027156, https://t.me/robert_magyar/2711","Geolocation":"https://x.com/MikiValbuena/status/2086722663150453172","Equipment":"","EquipmentItems":"Fixed Wing OWAD (One Way Attack Drone) | Electrical Substation","Units":"","OrbatUnits":"427th Separate Unmanned Systems Brigade \"Rarog\"","Id":"b2519375-7aa5-4f74-9657-68a411e7aee7","icon":"/api/icons/0051CA/False/template/70.png"},"source":"geoconfirmed","source_name":"GeoConfirmed","source_url":"https://geoconfirmed.org/map/ukraine","id":"b2519375-7aa5-4f74-9657-68a411e7aee7","date":"2026-08-07","link":"https://geoconfirmed.org/map/ukraine/b2519375-7aa5-4f74-9657-68a411e7aee7","category":"Controlled Demolition OR explosion of unknown origin OR fire of unknown origin where no other icon fits","side":"Ukraine","color":"#0051CA","description":"3:27-3:40 - Drone strike on an electrical substation.","orbat":["427th Separate Unmanned Systems Brigade \"Rarog\""],"geolocation":["https://x.com/MikiValbuena/status/2086722663150453172"],"sources":["https://x.com/414magyarbirds/status/2085769186677027156","https://t.me/robert_magyar/2711"]}},{"type":"Feature","geometry":{"type":"Point","coordinates":[36.3169,48.891572]},"properties":{"original":{"Date":"2026-08-07","Name":"07 AUG 2026","Faction":"Russia","Origin":"UAV","Latitude":"48.891572","Longitude":"36.3169","PlusCode":"8GWRV8R8+MJ Lozova, Kharkiv Oblast, Ukraine","Description":"50th Varyag UAV unit targets a train in the village of Lozova Ukraine, presumably shown burning afterwards.","Source":"https://t.me/mod_russia/66331","Geolocation":"https://x.com/ne_kotletka/status/2085668249287413795","Equipment":"","EquipmentItems":"Unmanned Aerial Vehicle (UAV)","Units":"","OrbatUnits":"50th Separate Unmanned Systems Brigade of the Supreme High Command \"VARYAG\"","Id":"0f70f3d6-7466-4b24-8374-6c7f9a9eb564","icon":"/api/icons/E00000/False/template/162.png"},"source":"geoconfirmed","source_name":"GeoConfirmed","source_url":"https://geoconfirmed.org/map/ukraine","id":"0f70f3d6-7466-4b24-8374-6c7f9a9eb564","date":"2026-08-07","link":"https://geoconfirmed.org/map/ukraine/0f70f3d6-7466-4b24-8374-6c7f9a9eb564","category":"Recently Destroyed/Damaged[Visible in footage] Train","side":"Russia","color":"#E00000","description":"50th Varyag UAV unit targets a train in the village of Lozova Ukraine, presumably shown burning afterwards.","orbat":["50th Separate Unmanned Systems Brigade of the Supreme High Command \"VARYAG\""],"geolocation":["https://x.com/ne_kotletka/status/2085668249287413795"],"sources":["https://t.me/mod_russia/66331"]}},{"type":"Feature","geometry":{"type":"Point","coordinates":[37.504605,47.105215]},"properties":{"original":{"Date":"2026-08-07","Name":"07 AUG 2026","Faction":"Ukraine","Origin":"UAV","Latitude":"47.105215","Longitude":"37.504605","PlusCode":"8GVV4G43+3R Mariupol, Donetsk Oblast, Ukraine","Description":"3:18-3:26 - Drone strike on an electrical substation.","Source":"https://x.com/414magyarbirds/status/2085769186677027156, https://t.me/robert_magyar/2711","Geolocation":"https://x.com/MikiValbuena/status/2086722656900980812","Equipment":"","EquipmentItems":"Fixed Wing OWAD (One Way Attack Drone) | Electrical Substation","Units":"","OrbatUnits":"411th Regiment of Unmanned Systems","Id":"fe13929a-ee35-40dc-bc8c-6f48724ef47c","icon":"/api/icons/0051CA/False/template/181.png"},"source":"geoconfirmed","source_name":"GeoConfirmed","source_url":"https://geoconfirmed.org/map/ukraine","id":"fe13929a-ee35-40dc-bc8c-6f48724ef47c","date":"2026-08-07","link":"https://geoconfirmed.org/map/ukraine/fe13929a-ee35-40dc-bc8c-6f48724ef47c","category":"Longe Range (>50km) OWAD (One Way Attack Drone) or Loitering munition, mostly fixed wing, Flying OR Attacking a target without knowing the outcome: if something is damaged --> icon of the damaged equipment.","side":"Ukraine","color":"#0051CA","description":"3:18-3:26 - Drone strike on an electrical substation.","orbat":["411th Regiment of Unmanned Systems"],"geolocation":["https://x.com/MikiValbuena/status/2086722656900980812"],"sources":["https://x.com/414magyarbirds/status/2085769186677027156","https://t.me/robert_magyar/2711"]}},{"type":"Feature","geometry":{"type":"Point","coordinates":[37.726131,48.907264]},"properties":{"original":{"Date":"2026-08-07","Name":"07 AUG 2026","Faction":"Unknown","Origin":"UAV","Latitude":"48.907264","Longitude":"37.726131","PlusCode":"8GWVWP4G+WF Raihorodok, Donetsk Oblast, Ukraine","Description":"0:00-0:06 - Double Russian ambush drone destroys a pickup.","Source":"https://bsky.app/profile/scaratlas.bsky.social/post/3mthaouaawc2r, https://t.me/Phoenixdrone/750","Geolocation":"https://bsky.app/profile/scaratlas.bsky.social/post/3mthaolrkss2r","Equipment":"","EquipmentItems":"Fiber Optic (FO) FPV (First Person View) OWAD (One Way Attack Drone) | Car ","Units":"","OrbatUnits":"First Special Mining Battalion \"Phoenix\"","Id":"0217c8cc-dd2b-4701-a9db-701f395a618c","icon":"/api/icons/666666/False/template/a8c55b37-7710-40ef-8f00-2a17e58b6f69.png"},"source":"geoconfirmed","source_name":"GeoConfirmed","source_url":"https://geoconfirmed.org/map/ukraine","id":"0217c8cc-dd2b-4701-a9db-701f395a618c","date":"2026-08-07","link":"https://geoconfirmed.org/map/ukraine/0217c8cc-dd2b-4701-a9db-701f395a618c","category":"Recently Destroyed/Damaged[Visible in footage] Car OR PickUp (Soft Skin Vehicle)","side":"Unknown","color":"#666666","description":"0:00-0:06 - Double Russian ambush drone destroys a pickup.","orbat":["First Special Mining Battalion \"Phoenix\""],"geolocation":["https://bsky.app/profile/scaratlas.bsky.social/post/3mthaolrkss2r"],"sources":["https://bsky.app/profile/scaratlas.bsky.social/post/3mthaouaawc2r","https://t.me/Phoenixdrone/750"]}},{"type":"Feature","geometry":{"type":"Point","coordinates":[34.505132,45.67127]},"properties":{"original":{"Date":"2026-08-07","Name":"07 AUG 2026","Faction":"Ukraine","Origin":"UAV","Latitude":"45.67127","Longitude":"34.505132","PlusCode":"8GQPMGC4+G3","Description":"1:24-1:50 - Drone strikes on a reported Russian depot. (area grid)","Source":"https://x.com/414magyarbirds/status/2085769186677027156, https://t.me/robert_magyar/2711","Geolocation":"https://x.com/MikiValbuena/status/2086481262772912296","Equipment":"","EquipmentItems":"Fixed Wing OWAD (One Way Attack Drone)","Units":"","OrbatUnits":"9th Long-Range Strike Battalion \"Kairos\"","Id":"f728ee37-abf2-46a1-892b-73ed42e9bd90","icon":"/api/icons/0051CA/False/template/70.png"},"source":"geoconfirmed","source_name":"GeoConfirmed","source_url":"https://geoconfirmed.org/map/ukraine","id":"f728ee37-abf2-46a1-892b-73ed42e9bd90","date":"2026-08-07","link":"https://geoconfirmed.org/map/ukraine/f728ee37-abf2-46a1-892b-73ed42e9bd90","category":"Controlled Demolition OR explosion of unknown origin OR fire of unknown origin where no other icon fits","side":"Ukraine","color":"#0051CA","description":"1:24-1:50 - Drone strikes on a reported Russian depot. (area grid)","orbat":["9th Long-Range Strike Battalion \"Kairos\""],"geolocation":["https://x.com/MikiValbuena/status/2086481262772912296"],"sources":["https://x.com/414magyarbirds/status/2085769186677027156","https://t.me/robert_magyar/2711"]}},{"type":"Feature","geometry":{"type":"Point","coordinates":[35.853468,47.540774]},"properties":{"original":{"Date":"2026-08-07","Name":"07 AUG 2026","Faction":"Ukraine","Origin":"UAV","Latitude":"47.540774","Longitude":"35.853468","PlusCode":"8GVQGVR3+89 Mala Tokmachka, Zaporizhia Oblast, Ukraine","Description":"0:20-0:27 - Ukrainian 118th Mechanized Brigade drone drop on a claimed Russian position in Mala Tokmachka","Source":"https://x.com/RedHibana/status/2085692917075661230, https://t.me/bolgarodessaanbu/282, ","Geolocation":"https://x.com/richardzai38580/status/2085630344745853282","Equipment":"","EquipmentItems":"(Multi-Purpose) Bomber UAV","Units":"","OrbatUnits":"118th Mechanized Brigade","Id":"4892afef-6bbc-4db7-9bcd-75bca135b880","icon":"/api/icons/0051CA/False/template/110.png"},"source":"geoconfirmed","source_name":"GeoConfirmed","source_url":"https://geoconfirmed.org/map/ukraine","id":"4892afef-6bbc-4db7-9bcd-75bca135b880","date":"2026-08-07","link":"https://geoconfirmed.org/map/ukraine/4892afef-6bbc-4db7-9bcd-75bca135b880","category":"Multipurpose Bomber Drone, Flying OR Dropping OR bombing a target without knowing the outcome: if something is damaged --> icon of the damaged equipment.","side":"Ukraine","color":"#0051CA","description":"0:20-0:27 - Ukrainian 118th Mechanized Brigade drone drop on a claimed Russian position in Mala Tokmachka","orbat":["118th Mechanized Brigade"],"geolocation":["https://x.com/richardzai38580/status/2085630344745853282"],"sources":["https://x.com/RedHibana/status/2085692917075661230","https://t.me/bolgarodessaanbu/282"]}},{"type":"Feature","geometry":{"type":"Point","coordinates":[38.08342,50.21909]},"properties":{"original":{"Date":"2026-08-07","Name":"07 AUG 2026","Faction":"Neutral","Origin":"VID","Latitude":"50.21909","Longitude":"38.08342","PlusCode":"9G2W639M+J9 Valuyki, Belgorod Oblast, Russia","Description":"Reported Ukrainian strike damaged a Gazprom gas station in Valuyki, Belgorod Oblast","Source":"https://x.com/zarGEOINT/status/2085619011203502197, https://t.me/belpepel/23717","Geolocation":"https://x.com/zarGEOINT/status/2085619013430784392","Equipment":"","EquipmentItems":"Petrol/Gas station","Units":"","OrbatUnits":"","Id":"5ee0752e-e0f3-4ffb-8add-78c7842266e7","icon":"/api/icons/AC7339/False/template/192.png"},"source":"geoconfirmed","source_name":"GeoConfirmed","source_url":"https://geoconfirmed.org/map/ukraine","id":"5ee0752e-e0f3-4ffb-8add-78c7842266e7","date":"2026-08-07","link":"https://geoconfirmed.org/map/ukraine/5ee0752e-e0f3-4ffb-8add-78c7842266e7","category":"Recently destroyed/Damaged[Visible in footage] or still burning infrastucture","side":"Neutral","color":"#AC7339","description":"Reported Ukrainian strike damaged a Gazprom gas station in Valuyki, Belgorod Oblast","orbat":[],"geolocation":["https://x.com/zarGEOINT/status/2085619013430784392"],"sources":["https://x.com/zarGEOINT/status/2085619011203502197","https://t.me/belpepel/23717"]}},{"type":"Feature","geometry":{"type":"Point","coordinates":[37.725378,48.906958]},"properties":{"original":{"Date":"2026-08-07","Name":"07 AUG 2026","Faction":"Ukraine","Origin":"UAV","Latitude":"48.906958","Longitude":"37.725378","PlusCode":"8GWVWP4G+Q5 Raihorodok, Donetsk Oblast, Ukraine","Description":"0:08-0:27 - Multiple Russian ambush drones destroys an Ukrainian Humvee","Source":"https://bsky.app/profile/scaratlas.bsky.social/post/3mthaouaawc2r, https://t.me/Phoenixdrone/750","Geolocation":"https://bsky.app/profile/scaratlas.bsky.social/post/3mthaonod5k2r","Equipment":"","EquipmentItems":"Humvee | Thermal FPV (First Person View) OWAD (One Way Attack Drone)","Units":"","OrbatUnits":"First Special Mining Battalion \"Phoenix\"","Id":"c14a1705-a42e-4ae3-88be-7d9e5c2370f7","icon":"/api/icons/0051CA/False/template/172.png"},"source":"geoconfirmed","source_name":"GeoConfirmed","source_url":"https://geoconfirmed.org/map/ukraine","id":"c14a1705-a42e-4ae3-88be-7d9e5c2370f7","date":"2026-08-07","link":"https://geoconfirmed.org/map/ukraine/c14a1705-a42e-4ae3-88be-7d9e5c2370f7","category":"Recently Destroyed/Damaged APC OR IFV / TRACKED or WHEELED / ARMOURED - Including vehicles like HUMVEE and similar","side":"Ukraine","color":"#0051CA","description":"0:08-0:27 - Multiple Russian ambush drones destroys an Ukrainian Humvee","orbat":["First Special Mining Battalion \"Phoenix\""],"geolocation":["https://bsky.app/profile/scaratlas.bsky.social/post/3mthaonod5k2r"],"sources":["https://bsky.app/profile/scaratlas.bsky.social/post/3mthaouaawc2r","https://t.me/Phoenixdrone/750"]}},{"type":"Feature","geometry":{"type":"Point","coordinates":[37.989556,44.571383]},"properties":{"original":{"Date":"2026-08-07","Name":"07 AUG 2026","Faction":"Russia","Origin":"SAT","Latitude":"44.571383","Longitude":"37.989556","PlusCode":"","Description":"The Ukrainian Defense Forces reportedly destroyed a Russian Volna Kupol Garant EW system","Source":"https://x.com/GarbuzYe/status/2086150074925469867, https://t.me/DniproOfficial/8029","Geolocation":"https://x.com/GarbuzYe/status/2086150074925469867","Equipment":" Volna Kupol Garant ","EquipmentItems":"","Units":"","OrbatUnits":"","Id":"60a9b0ce-efd6-4d1c-999c-7f4570d21e89","icon":"/api/icons/E00000/False/template/15380368-63be-4bf9-8373-a30ef0d31bed.png"},"source":"geoconfirmed","source_name":"GeoConfirmed","source_url":"https://geoconfirmed.org/map/ukraine","id":"60a9b0ce-efd6-4d1c-999c-7f4570d21e89","date":"2026-08-07","link":"https://geoconfirmed.org/map/ukraine/60a9b0ce-efd6-4d1c-999c-7f4570d21e89","category":"Recently Destroyed/Damaged[Visible in footage] Radar System (Mobile or fixed)","side":"Russia","color":"#E00000","description":"The Ukrainian Defense Forces reportedly destroyed a Russian Volna Kupol Garant EW system","orbat":[],"geolocation":["https://x.com/GarbuzYe/status/2086150074925469867"],"sources":["https://x.com/GarbuzYe/status/2086150074925469867","https://t.me/DniproOfficial/8029"]}},{"type":"Feature","geometry":{"type":"Point","coordinates":[38.620698,48.638785]},"properties":{"original":{"Date":"2026-08-07","Name":"07 AUG 2026","Faction":"Ukraine","Origin":"UAV","Latitude":"48.638785","Longitude":"38.620698","PlusCode":"8GWWJJQC+G7 Holubivka, Luhansk Oblast, Ukraine","Description":"3:48-3:55 - Drone strike on an electrical substation.","Source":"https://x.com/414magyarbirds/status/2085769186677027156, https://t.me/robert_magyar/2711","Geolocation":"https://x.com/MikiValbuena/status/2086722676647690685","Equipment":"","EquipmentItems":"Fixed Wing OWAD (One Way Attack Drone) | Electrical Substation","Units":"","OrbatUnits":"20th Unmanned Systems Brigade \"K-2\"","Id":"42477855-f4e4-4332-b800-8f6969b7da5a","icon":"/api/icons/0051CA/False/template/181.png"},"source":"geoconfirmed","source_name":"GeoConfirmed","source_url":"https://geoconfirmed.org/map/ukraine","id":"42477855-f4e4-4332-b800-8f6969b7da5a","date":"2026-08-07","link":"https://geoconfirmed.org/map/ukraine/42477855-f4e4-4332-b800-8f6969b7da5a","category":"Longe Range (>50km) OWAD (One Way Attack Drone) or Loitering munition, mostly fixed wing, Flying OR Attacking a target without knowing the outcome: if something is damaged --> icon of the damaged equipment.","side":"Ukraine","color":"#0051CA","description":"3:48-3:55 - Drone strike on an electrical substation.","orbat":["20th Unmanned Systems Brigade \"K-2\""],"geolocation":["https://x.com/MikiValbuena/status/2086722676647690685"],"sources":["https://x.com/414magyarbirds/status/2085769186677027156","https://t.me/robert_magyar/2711"]}},{"type":"Feature","geometry":{"type":"Point","coordinates":[37.593392,47.297535]},"properties":{"original":{"Date":"2026-08-07","Name":"07 AUG 2026","Faction":"Ukraine","Origin":"UAV","Latitude":"47.297535","Longitude":"37.593392","PlusCode":"8GVV7HXV+29 Afiny, Donetsk Oblast, Ukraine","Description":"2:38-2:54 - Drone strikes on an electrical substation.","Source":"https://x.com/414magyarbirds/status/2085769186677027156, https://t.me/robert_magyar/2711","Geolocation":"https://x.com/MikiValbuena/status/2086722639519744148","Equipment":"","EquipmentItems":"Fixed Wing OWAD (One Way Attack Drone) | Electrical Substation","Units":"","OrbatUnits":"412th Unmanned Systems Brigade \"Nemesis\" ","Id":"229172be-e4e3-436f-9226-92452847e540","icon":"/api/icons/0051CA/False/template/70.png"},"source":"geoconfirmed","source_name":"GeoConfirmed","source_url":"https://geoconfirmed.org/map/ukraine","id":"229172be-e4e3-436f-9226-92452847e540","date":"2026-08-07","link":"https://geoconfirmed.org/map/ukraine/229172be-e4e3-436f-9226-92452847e540","category":"Controlled Demolition OR explosion of unknown origin OR fire of unknown origin where no other icon fits","side":"Ukraine","color":"#0051CA","description":"2:38-2:54 - Drone strikes on an electrical substation.","orbat":["412th Unmanned Systems Brigade \"Nemesis\""],"geolocation":["https://x.com/MikiValbuena/status/2086722639519744148"],"sources":["https://x.com/414magyarbirds/status/2085769186677027156","https://t.me/robert_magyar/2711"]}},{"type":"Feature","geometry":{"type":"Point","coordinates":[35.106199,46.586261]},"properties":{"original":{"Date":"2026-08-07","Name":"07 AUG 2026","Faction":"Ukraine","Origin":"UAV","Latitude":"46.586261","Longitude":"35.106199","PlusCode":"8GRQH4P4+GF Vovchans'ke, Zaporizhia Oblast, Ukraine","Description":"0:38-1:23 - Drone strikes on a reported Russian base. (area grid)","Source":"https://x.com/414magyarbirds/status/2085769186677027156, https://t.me/robert_magyar/2711","Geolocation":"https://x.com/MikiValbuena/status/2086481257274151164","Equipment":"","EquipmentItems":"Fixed Wing OWAD (One Way Attack Drone)","Units":"","OrbatUnits":"9th Long-Range Strike Battalion \"Kairos\"","Id":"22aa865a-970f-433d-af44-939c73720451","icon":"/api/icons/0051CA/False/template/70.png"},"source":"geoconfirmed","source_name":"GeoConfirmed","source_url":"https://geoconfirmed.org/map/ukraine","id":"22aa865a-970f-433d-af44-939c73720451","date":"2026-08-07","link":"https://geoconfirmed.org/map/ukraine/22aa865a-970f-433d-af44-939c73720451","category":"Controlled Demolition OR explosion of unknown origin OR fire of unknown origin where no other icon fits","side":"Ukraine","color":"#0051CA","description":"0:38-1:23 - Drone strikes on a reported Russian base. (area grid)","orbat":["9th Long-Range Strike Battalion \"Kairos\""],"geolocation":["https://x.com/MikiValbuena/status/2086481257274151164"],"sources":["https://x.com/414magyarbirds/status/2085769186677027156","https://t.me/robert_magyar/2711"]}},{"type":"Feature","geometry":{"type":"Point","coordinates":[36.827468,46.7144]},"properties":{"original":{"Date":"2026-08-07","Name":"07 AUG 2026","Faction":"Ukraine","Origin":"UAV","Latitude":"46.7144","Longitude":"36.827468","PlusCode":"8GRRPR7G+QX Berdiansk, Zaporizhia Oblast, Ukraine","Description":"3:41-3:47 - Drone strike on an electrical substation.","Source":"https://x.com/414magyarbirds/status/2085769186677027156, https://t.me/robert_magyar/2711","Geolocation":"https://x.com/MikiValbuena/status/2086722669794218237","Equipment":"","EquipmentItems":"Fixed Wing OWAD (One Way Attack Drone) | Electrical Substation","Units":"","OrbatUnits":"414th Separate Unmanned Systems Brigade \"Birds of the Magyar\"","Id":"4e4ec130-453c-4194-9804-9cf1f019c195","icon":"/api/icons/0051CA/False/template/70.png"},"source":"geoconfirmed","source_name":"GeoConfirmed","source_url":"https://geoconfirmed.org/map/ukraine","id":"4e4ec130-453c-4194-9804-9cf1f019c195","date":"2026-08-07","link":"https://geoconfirmed.org/map/ukraine/4e4ec130-453c-4194-9804-9cf1f019c195","category":"Controlled Demolition OR explosion of unknown origin OR fire of unknown origin where no other icon fits","side":"Ukraine","color":"#0051CA","description":"3:41-3:47 - Drone strike on an electrical substation.","orbat":["414th Separate Unmanned Systems Brigade \"Birds of the Magyar\""],"geolocation":["https://x.com/MikiValbuena/status/2086722669794218237"],"sources":["https://x.com/414magyarbirds/status/2085769186677027156","https://t.me/robert_magyar/2711"]}},{"type":"Feature","geometry":{"type":"Point","coordinates":[37.709466,47.766804]},"properties":{"original":{"Date":"2026-08-07","Name":"07 AUG 2026","Faction":"Ukraine","Origin":"UAV","Latitude":"47.766804","Longitude":"37.709466","PlusCode":"8GVVQP85+PQ Dokuchajevs'k, Donetsk Oblast, Ukraine","Description":"4:13-4:19 - Drone strike on an electrical substation.","Source":"https://x.com/414magyarbirds/status/2085769186677027156, https://t.me/robert_magyar/2711","Geolocation":"https://x.com/MikiValbuena/status/2086722694410629460","Equipment":"","EquipmentItems":"Fixed Wing OWAD (One Way Attack Drone) | Electrical Substation","Units":"","OrbatUnits":"2nd Unmanned Systems Battalion \"Wormbusters\"","Id":"f8454626-ab6b-4156-97ac-9d7d3cafbe58","icon":"/api/icons/0051CA/False/template/181.png"},"source":"geoconfirmed","source_name":"GeoConfirmed","source_url":"https://geoconfirmed.org/map/ukraine","id":"f8454626-ab6b-4156-97ac-9d7d3cafbe58","date":"2026-08-07","link":"https://geoconfirmed.org/map/ukraine/f8454626-ab6b-4156-97ac-9d7d3cafbe58","category":"Longe Range (>50km) OWAD (One Way Attack Drone) or Loitering munition, mostly fixed wing, Flying OR Attacking a target without knowing the outcome: if something is damaged --> icon of the damaged equipment.","side":"Ukraine","color":"#0051CA","description":"4:13-4:19 - Drone strike on an electrical substation.","orbat":["2nd Unmanned Systems Battalion \"Wormbusters\""],"geolocation":["https://x.com/MikiValbuena/status/2086722694410629460"],"sources":["https://x.com/414magyarbirds/status/2085769186677027156","https://t.me/robert_magyar/2711"]}},{"type":"Feature","geometry":{"type":"Point","coordinates":[37.72129,48.072661]},"properties":{"original":{"Date":"2026-08-07","Name":"07 AUG 2026","Faction":"Ukraine","Origin":"UAV","Latitude":"48.072661","Longitude":"37.72129","PlusCode":"8GWV3PFC+3G Donetsk, Donetsk Oblast, Ukraine","Description":"0:16-end Ukrainian FPV attack on a Pick-Up","Source":"https://x.com/sternenko/status/2085777949664461180, shorter:, https://x.com/GeoToby/status/2085997636318838792, https://t.me/Tsaplienko/97000","Geolocation":"https://x.com/GeoToby/status/2085997541133258885","Equipment":"","EquipmentItems":"FPV (First Person View) OWAD (One Way Attack Drone) | Pick-up","Units":"","OrbatUnits":"Alpha Group","Id":"e5a89964-0fab-402c-a1e4-9f280ebc044d","icon":"/api/icons/0051CA/False/template/111.png"},"source":"geoconfirmed","source_name":"GeoConfirmed","source_url":"https://geoconfirmed.org/map/ukraine","id":"e5a89964-0fab-402c-a1e4-9f280ebc044d","date":"2026-08-07","link":"https://geoconfirmed.org/map/ukraine/e5a89964-0fab-402c-a1e4-9f280ebc044d","category":"Short Range (<50km) OWAD (One Way Attack Drone), mostly rotary wing, Flying OR Attacking a target without knowing the outcome: if something is damaged --> icon of the damaged equipment.","side":"Ukraine","color":"#0051CA","description":"0:16-end Ukrainian FPV attack on a Pick-Up","orbat":["Alpha Group"],"geolocation":["https://x.com/GeoToby/status/2085997541133258885"],"sources":["https://x.com/sternenko/status/2085777949664461180","https://x.com/GeoToby/status/2085997636318838792","https://t.me/Tsaplienko/97000"]}},{"type":"Feature","geometry":{"type":"Point","coordinates":[34.312944,51.149941]},"properties":{"original":{"Date":"2026-08-07","Name":"07 AUG 2026","Faction":"Russia","Origin":"PIC","Latitude":"51.149941","Longitude":"34.312944","PlusCode":"9G3P48X7+X5 Bilopillya, Sumy Oblast, Ukraine","Description":"Reported Russian drone attack on a market kills a civilian, injures another. ","Source":"https://x.com/99Dominik_/status/2085751235726938347, https://t.me/bilopillya_info/38190, , reporting: https://x.com/OlehHryhorov/status/2086076345621119163","Geolocation":"https://x.com/99Dominik_/status/2085751086267146362","Equipment":"(reported)","EquipmentItems":"FPV (First Person View) OWAD (One Way Attack Drone)","Units":"","OrbatUnits":"","Id":"1c43b670-481a-4786-b4a1-a344a54212c7","icon":"/api/icons/E00000/False/template/50.png"},"source":"geoconfirmed","source_name":"GeoConfirmed","source_url":"https://geoconfirmed.org/map/ukraine","id":"1c43b670-481a-4786-b4a1-a344a54212c7","date":"2026-08-07","link":"https://geoconfirmed.org/map/ukraine/1c43b670-481a-4786-b4a1-a344a54212c7","category":"Killed or wounded civilian. Potential Warcrime. In the colour of who is assessed as doing the attack/killing.","side":"Russia","color":"#E00000","description":"Reported Russian drone attack on a market kills a civilian, injures another.","orbat":[],"geolocation":["https://x.com/99Dominik_/status/2085751086267146362"],"sources":["https://x.com/99Dominik_/status/2085751235726938347","https://t.me/bilopillya_info/38190","https://x.com/OlehHryhorov/status/2086076345621119163"]}},{"type":"Feature","geometry":{"type":"Point","coordinates":[35.91478,47.5284]},"properties":{"original":{"Date":"2026-08-07","Name":"07 AUG 2026","Faction":"Ukraine","Origin":"UAV","Latitude":"47.5284","Longitude":"35.91478","PlusCode":"8GVQGWH7+9W Mala Tokmachka, Zaporizhia Oblast, Ukraine","Description":"0:28 - 0:39 - The Ukrainian 118th Separate Mechanized Brigade struck a Russian position in the settlement of Mala Tokmachka using drone dropped grenades.","Source":"https://x.com/RedHibana/status/2085692917075661230, https://t.me/bolgarodessaanbu/282, https://x.com/AndreevkaMaps/status/2087605598212800534","Geolocation":"https://x.com/richardzai38580/status/2085630344745853282, https://x.com/AndreevkaMaps/status/2087605598212800534","Equipment":"","EquipmentItems":"(Multi-Purpose) Bomber UAV","Units":"","OrbatUnits":"118th Mechanized Brigade","Id":"b6668381-0501-4150-b700-b4de8a30a3cc","icon":"/api/icons/0051CA/False/template/110.png"},"source":"geoconfirmed","source_name":"GeoConfirmed","source_url":"https://geoconfirmed.org/map/ukraine","id":"b6668381-0501-4150-b700-b4de8a30a3cc","date":"2026-08-07","link":"https://geoconfirmed.org/map/ukraine/b6668381-0501-4150-b700-b4de8a30a3cc","category":"Multipurpose Bomber Drone, Flying OR Dropping OR bombing a target without knowing the outcome: if something is damaged --> icon of the damaged equipment.","side":"Ukraine","color":"#0051CA","description":"0:28 - 0:39 - The Ukrainian 118th Separate Mechanized Brigade struck a Russian position in the settlement of Mala Tokmachka using drone dropped grenades.","orbat":["118th Mechanized Brigade"],"geolocation":["https://x.com/richardzai38580/status/2085630344745853282","https://x.com/AndreevkaMaps/status/2087605598212800534"],"sources":["https://x.com/RedHibana/status/2085692917075661230","https://t.me/bolgarodessaanbu/282","https://x.com/AndreevkaMaps/status/2087605598212800534"]}},{"type":"Feature","geometry":{"type":"Point","coordinates":[36.305802,48.897113]},"properties":{"original":{"Date":"2026-08-07","Name":"07 AUG 2026","Faction":"Russia","Origin":"UAV","Latitude":"48.897113","Longitude":"36.305802","PlusCode":"8GWRV8W4+R8 Lozova, Kharkiv Oblast, Ukraine","Description":"1:20-End - The Russian 50th Separate Unmanned Systems Brigade attacked a Ukrainian locomotive.","Source":"https://x.com/GeoRaccoon/status/2085781951676330139, https://t.me/Brigada_VARYAG/153","Geolocation":"https://x.com/ne_kotletka/status/2085663040439992423","Equipment":"","EquipmentItems":"Unmanned Aerial Vehicle (UAV)","Units":"","OrbatUnits":"50th Separate Unmanned Systems Brigade of the Supreme High Command \"VARYAG\"","Id":"30a9668c-67c4-4acc-bef6-b61e69737d7a","icon":"/api/icons/E00000/False/template/181.png"},"source":"geoconfirmed","source_name":"GeoConfirmed","source_url":"https://geoconfirmed.org/map/ukraine","id":"30a9668c-67c4-4acc-bef6-b61e69737d7a","date":"2026-08-07","link":"https://geoconfirmed.org/map/ukraine/30a9668c-67c4-4acc-bef6-b61e69737d7a","category":"Longe Range (>50km) OWAD (One Way Attack Drone) or Loitering munition, mostly fixed wing, Flying OR Attacking a target without knowing the outcome: if something is damaged --> icon of the damaged equipment.","side":"Russia","color":"#E00000","description":"1:20-End - The Russian 50th Separate Unmanned Systems Brigade attacked a Ukrainian locomotive.","orbat":["50th Separate Unmanned Systems Brigade of the Supreme High Command \"VARYAG\""],"geolocation":["https://x.com/ne_kotletka/status/2085663040439992423"],"sources":["https://x.com/GeoRaccoon/status/2085781951676330139","https://t.me/Brigada_VARYAG/153"]}},{"type":"Feature","geometry":{"type":"Point","coordinates":[32.160137,46.575226]},"properties":{"original":{"Date":"2026-08-07","Name":"07 AUG 2026","Faction":"Neutral","Origin":"UAV","Latitude":"46.575226","Longitude":"32.160137","PlusCode":"8GRJH5G6+33 Stanislav, Kherson Oblast, Ukraine","Description":"Church damaged, reportedly by Artillery shelling","Source":"https://x.com/MikiValbuena/status/2086373566568649061https://most.ks.ua/news/url/rosijani-artobstrilom-znischili-dzvinitsju-hramu-u-stanislavi-foto/","Geolocation":"https://x.com/MikiValbuena/status/2086373560461762903","Equipment":"","EquipmentItems":"","Units":"","OrbatUnits":"","Id":"aac78a3a-8c7f-4572-b811-b7b55d153de6","icon":"/api/icons/AC7339/False/template/193.png"},"source":"geoconfirmed","source_name":"GeoConfirmed","source_url":"https://geoconfirmed.org/map/ukraine","id":"aac78a3a-8c7f-4572-b811-b7b55d153de6","date":"2026-08-07","link":"https://geoconfirmed.org/map/ukraine/aac78a3a-8c7f-4572-b811-b7b55d153de6","category":"Older destroyed infrastucture","side":"Neutral","color":"#AC7339","description":"Church damaged, reportedly by Artillery shelling","orbat":[],"geolocation":["https://x.com/MikiValbuena/status/2086373560461762903"],"sources":["https://x.com/MikiValbuena/status/2086373566568649061https://most.ks.ua/news/url/rosijani-artobstrilom-znischili-dzvinitsju-hramu-u-stanislavi-foto/"]}},{"type":"Feature","geometry":{"type":"Point","coordinates":[36.417175,47.782753]},"properties":{"original":{"Date":"2026-08-07","Name":"07 AUG 2026","Faction":"Ukraine","Origin":"UAV","Latitude":"47.782753","Longitude":"36.417175","PlusCode":"8GVRQCM8+4V Uspenivka, Zaporizhia Oblast, Ukraine","Description":"1:10-end - Claimed Russian position on fire after FPV strikes of the 82nd Air Assault Brigade","Source":"https://x.com/richardzai38580/status/2085607858088141099, https://t.me/zsu82odshbr/3428, ","Geolocation":"https://x.com/richardzai38580/status/2085607771941241192","Equipment":"","EquipmentItems":"","Units":"","OrbatUnits":"82nd Air Assault Brigade","Id":"3258e096-b07a-46d2-8111-cb6097f8187b","icon":"/api/icons/0051CA/False/template/111.png"},"source":"geoconfirmed","source_name":"GeoConfirmed","source_url":"https://geoconfirmed.org/map/ukraine","id":"3258e096-b07a-46d2-8111-cb6097f8187b","date":"2026-08-07","link":"https://geoconfirmed.org/map/ukraine/3258e096-b07a-46d2-8111-cb6097f8187b","category":"Short Range (<50km) OWAD (One Way Attack Drone), mostly rotary wing, Flying OR Attacking a target without knowing the outcome: if something is damaged --> icon of the damaged equipment.","side":"Ukraine","color":"#0051CA","description":"1:10-end - Claimed Russian position on fire after FPV strikes of the 82nd Air Assault Brigade","orbat":["82nd Air Assault Brigade"],"geolocation":["https://x.com/richardzai38580/status/2085607771941241192"],"sources":["https://x.com/richardzai38580/status/2085607858088141099","https://t.me/zsu82odshbr/3428"]}},{"type":"Feature","geometry":{"type":"Point","coordinates":[34.877439,50.300518]},"properties":{"original":{"Date":"2026-08-07","Name":"07 AUG 2026","Faction":"Neutral","Origin":"UAV","Latitude":"50.300518","Longitude":"34.877439","PlusCode":"9G2P8V2G+6X Okhtyrka, Sumy Oblast, Ukraine","Description":"RU 50th Varyag UAV unit claims to have hit a Ukrainian drone production facility in Okhtyrka.  ","Source":"https://t.me/mod_russia/66332","Geolocation":"https://x.com/ne_kotletka/status/2085669869349916836","Equipment":"","EquipmentItems":"Geran-2","Units":"","OrbatUnits":"50th Separate Unmanned Systems Brigade of the Supreme High Command \"VARYAG\"","Id":"a1d91da9-50f7-44d9-bf6f-d44d1f93debf","icon":"/api/icons/AC7339/False/template/192.png"},"source":"geoconfirmed","source_name":"GeoConfirmed","source_url":"https://geoconfirmed.org/map/ukraine","id":"a1d91da9-50f7-44d9-bf6f-d44d1f93debf","date":"2026-08-07","link":"https://geoconfirmed.org/map/ukraine/a1d91da9-50f7-44d9-bf6f-d44d1f93debf","category":"Recently destroyed/Damaged[Visible in footage] or still burning infrastucture","side":"Neutral","color":"#AC7339","description":"RU 50th Varyag UAV unit claims to have hit a Ukrainian drone production facility in Okhtyrka.","orbat":["50th Separate Unmanned Systems Brigade of the Supreme High Command \"VARYAG\""],"geolocation":["https://x.com/ne_kotletka/status/2085669869349916836"],"sources":["https://t.me/mod_russia/66332"]}},{"type":"Feature","geometry":{"type":"Point","coordinates":[37.7422,48.52322]},"properties":{"original":{"Date":"2026-08-07","Name":"07 AUG 2026","Faction":"Ukraine","Origin":"UAV","Latitude":"48.52322","Longitude":"37.7422","PlusCode":"8GWVGPFR+7V Kostyantynivka, Donetsk Oblast, Ukraine","Description":"0:19-0:25 - Two Russian soldiers attacked by an FPV drone from the 36th Marine Brigade.","Source":"(4/4), https://x.com/RackhamLeRousse/status/2089729849229283471, https://x.com/EndlessWint_r/status/2089737693580206124, https://t.me/ua_marines_36brigade/4458","Geolocation":"(1/4&2/4&3/4), https://x.com/RackhamLeRousse/status/2089729849229283471","Equipment":"","EquipmentItems":"FPV (First Person View) OWAD (One Way Attack Drone)","Units":"","OrbatUnits":"UAS Platoon \"Alliance Group\"","Id":"a6c1385d-81dd-4986-9da3-d783da53e6cd","icon":"/api/icons/0051CA/False/template/111.png"},"source":"geoconfirmed","source_name":"GeoConfirmed","source_url":"https://geoconfirmed.org/map/ukraine","id":"a6c1385d-81dd-4986-9da3-d783da53e6cd","date":"2026-08-07","link":"https://geoconfirmed.org/map/ukraine/a6c1385d-81dd-4986-9da3-d783da53e6cd","category":"Short Range (<50km) OWAD (One Way Attack Drone), mostly rotary wing, Flying OR Attacking a target without knowing the outcome: if something is damaged --> icon of the damaged equipment.","side":"Ukraine","color":"#0051CA","description":"0:19-0:25 - Two Russian soldiers attacked by an FPV drone from the 36th Marine Brigade.","orbat":["UAS Platoon \"Alliance Group\""],"geolocation":["https://x.com/RackhamLeRousse/status/2089729849229283471"],"sources":["https://x.com/RackhamLeRousse/status/2089729849229283471","https://x.com/EndlessWint_r/status/2089737693580206124","https://t.me/ua_marines_36brigade/4458"]}},{"type":"Feature","geometry":{"type":"Point","coordinates":[34.095948,45.686032]},"properties":{"original":{"Date":"2026-08-07","Name":"07 AUG 2026","Faction":"Ukraine","Origin":"UAV","Latitude":"45.686032","Longitude":"34.095948","PlusCode":"8GQPM3PW+C9","Description":"2:19-2:37 - Drone strikes on a reported Russian repair point. (area grid)","Source":"https://x.com/414magyarbirds/status/2085769186677027156, https://t.me/robert_magyar/2711","Geolocation":"https://x.com/MikiValbuena/status/2086481274030428162","Equipment":"","EquipmentItems":"Fixed Wing OWAD (One Way Attack Drone)","Units":"","OrbatUnits":"9th Long-Range Strike Battalion \"Kairos\"","Id":"bdbcfcbb-7818-4a8a-a04a-daddcdd18ccb","icon":"/api/icons/0051CA/False/template/70.png"},"source":"geoconfirmed","source_name":"GeoConfirmed","source_url":"https://geoconfirmed.org/map/ukraine","id":"bdbcfcbb-7818-4a8a-a04a-daddcdd18ccb","date":"2026-08-07","link":"https://geoconfirmed.org/map/ukraine/bdbcfcbb-7818-4a8a-a04a-daddcdd18ccb","category":"Controlled Demolition OR explosion of unknown origin OR fire of unknown origin where no other icon fits","side":"Ukraine","color":"#0051CA","description":"2:19-2:37 - Drone strikes on a reported Russian repair point. (area grid)","orbat":["9th Long-Range Strike Battalion \"Kairos\""],"geolocation":["https://x.com/MikiValbuena/status/2086481274030428162"],"sources":["https://x.com/414magyarbirds/status/2085769186677027156","https://t.me/robert_magyar/2711"]}},{"type":"Feature","geometry":{"type":"Point","coordinates":[37.80125,48.85818]},"properties":{"original":{"Date":"2026-08-07","Name":"07 AUG 2026","Faction":"Ukraine Civilian","Origin":"UAV","Latitude":"48.85818","Longitude":"37.80125","PlusCode":"8GWVVR52+7F Mykolaivka, Donetsk Oblast, Ukraine","Description":"2:06 - UA 1st Assault Battalion of the 33rd Assault Regiment evacuates civilians on a UGV.","Source":"https://x.com/meowqai/status/2084713595611283731, https://t.me/assaultregiment33/3237","Geolocation":"https://x.com/meowqai/status/2084713595611283731","Equipment":"","EquipmentItems":"Unmanned Ground Vehicle (UGV)","Units":"","OrbatUnits":"1st Assault Battalion","Id":"698198bc-ab52-44d1-9420-de087c2e95b2","icon":"/api/icons/3184FF/False/template/100.png"},"source":"geoconfirmed","source_name":"GeoConfirmed","source_url":"https://geoconfirmed.org/map/ukraine","id":"698198bc-ab52-44d1-9420-de087c2e95b2","date":"2026-08-07","link":"https://geoconfirmed.org/map/ukraine/698198bc-ab52-44d1-9420-de087c2e95b2","category":"Civilian or Soldier or Militant (Depending on the colour)","side":"Ukraine Civilian","color":"#3184FF","description":"2:06 - UA 1st Assault Battalion of the 33rd Assault Regiment evacuates civilians on a UGV.","orbat":["1st Assault Battalion"],"geolocation":["https://x.com/meowqai/status/2084713595611283731"],"sources":["https://x.com/meowqai/status/2084713595611283731","https://t.me/assaultregiment33/3237"]}},{"type":"Feature","geometry":{"type":"Point","coordinates":[36.70678,48.05864]},"properties":{"original":{"Date":"2026-08-07","Name":"07 AUG 2026","Faction":"Russia","Origin":"UAV","Latitude":"48.05864","Longitude":"36.70678","PlusCode":"8GWR3P54+FP Novokhats'ke, Donetsk Oblast, Ukraine","Description":"0:32-0:56 - Russian shelling (area grid)","Source":"Vid1 , https://x.com/moklasen/status/2086150769850319193, https://t.me/RtrDonetsk/37511, Vid2 , https://t.me/mod_russia/66340","Geolocation":"https://x.com/moklasen/status/2086150765190521006","Equipment":"","EquipmentItems":"Artillery","Units":"","OrbatUnits":"80th Guards Tank Regiment","Id":"ac66652a-75b6-4178-bec6-e41474cc04fc","icon":"/api/icons/E00000/False/template/10.png"},"source":"geoconfirmed","source_name":"GeoConfirmed","source_url":"https://geoconfirmed.org/map/ukraine","id":"ac66652a-75b6-4178-bec6-e41474cc04fc","date":"2026-08-07","link":"https://geoconfirmed.org/map/ukraine/ac66652a-75b6-4178-bec6-e41474cc04fc","category":"Shelling by artillery or aerial bombings - Location of the shelling, colour of who is shelling; Brown = UXO","side":"Russia","color":"#E00000","description":"0:32-0:56 - Russian shelling (area grid)","orbat":["80th Guards Tank Regiment"],"geolocation":["https://x.com/moklasen/status/2086150765190521006"],"sources":["https://x.com/moklasen/status/2086150769850319193","https://t.me/RtrDonetsk/37511","https://t.me/mod_russia/66340"]}},{"type":"Feature","geometry":{"type":"Point","coordinates":[37.975505,48.307977]},"properties":{"original":{"Date":"2026-08-07","Name":"07 AUG 2026","Faction":"Ukraine","Origin":"UAV","Latitude":"48.307977","Longitude":"37.975505","PlusCode":"8GWV8X5G+56 Horlivka, Donetsk Oblast, Ukraine","Description":"4:03-4:12 - Drone strike on an electrical substation.","Source":"https://x.com/414magyarbirds/status/2085769186677027156, https://t.me/robert_magyar/2711","Geolocation":"https://x.com/MikiValbuena/status/2086722688253378771","Equipment":"","EquipmentItems":"Fixed Wing OWAD (One Way Attack Drone) | Electrical Substation","Units":"","OrbatUnits":"Unmanned Systems Regiment \"Phoenix\" / \"Фенікс\"","Id":"1cbf5457-a5af-4aeb-9e9d-e434ab082eee","icon":"/api/icons/0051CA/False/template/181.png"},"source":"geoconfirmed","source_name":"GeoConfirmed","source_url":"https://geoconfirmed.org/map/ukraine","id":"1cbf5457-a5af-4aeb-9e9d-e434ab082eee","date":"2026-08-07","link":"https://geoconfirmed.org/map/ukraine/1cbf5457-a5af-4aeb-9e9d-e434ab082eee","category":"Longe Range (>50km) OWAD (One Way Attack Drone) or Loitering munition, mostly fixed wing, Flying OR Attacking a target without knowing the outcome: if something is damaged --> icon of the damaged equipment.","side":"Ukraine","color":"#0051CA","description":"4:03-4:12 - Drone strike on an electrical substation.","orbat":["Unmanned Systems Regiment \"Phoenix\" / \"Фенікс\""],"geolocation":["https://x.com/MikiValbuena/status/2086722688253378771"],"sources":["https://x.com/414magyarbirds/status/2085769186677027156","https://t.me/robert_magyar/2711"]}},{"type":"Feature","geometry":{"type":"Point","coordinates":[34.162082,44.487977]},"properties":{"original":{"Date":"2026-08-07","Name":"07 AUG 2026","Faction":"Ukraine","Origin":"PIC","Latitude":"44.487977","Longitude":"34.162082","PlusCode":"8GPPF5Q6+5R im. Lenina embankment, 39, Yalta","Description":"Rough grid, origin of the fire - Reported sea drone (BEK) attack in Yalta, Crimea. ","Source":"https://x.com/GeoRaccoon/status/2086046078025998341, https://t.me/exilenova_plus/28345","Geolocation":"https://x.com/LayBay_ish/status/2085672060978696567","Equipment":"(reportedly)","EquipmentItems":"Unmanned Surface Vehicle (USV)","Units":"","OrbatUnits":"","Id":"8daaad67-0ed3-4e37-9d3c-f5ffc4c2e8c8","icon":"/api/icons/0051CA/False/template/70.png"},"source":"geoconfirmed","source_name":"GeoConfirmed","source_url":"https://geoconfirmed.org/map/ukraine","id":"8daaad67-0ed3-4e37-9d3c-f5ffc4c2e8c8","date":"2026-08-07","link":"https://geoconfirmed.org/map/ukraine/8daaad67-0ed3-4e37-9d3c-f5ffc4c2e8c8","category":"Controlled Demolition OR explosion of unknown origin OR fire of unknown origin where no other icon fits","side":"Ukraine","color":"#0051CA","description":"Rough grid, origin of the fire - Reported sea drone (BEK) attack in Yalta, Crimea.","orbat":[],"geolocation":["https://x.com/LayBay_ish/status/2085672060978696567"],"sources":["https://x.com/GeoRaccoon/status/2086046078025998341","https://t.me/exilenova_plus/28345"]}},{"type":"Feature","geometry":{"type":"Point","coordinates":[37.801988,48.858061]},"properties":{"original":{"Date":"2026-08-07","Name":"07 AUG 2026","Faction":"Ukraine","Origin":"UAV","Latitude":"48.858061","Longitude":"37.801988","PlusCode":"8GWVVR52+6Q Mykolaivka, Donetsk Oblast, Ukraine","Description":"2:02 - Destroyed Ukrainian VAB visible","Source":"https://x.com/meowqai/status/2084713595611283731, https://t.me/assaultregiment33/3237","Geolocation":"based on: https://x.com/meowqai/status/2084713595611283731","Equipment":"VAB ","EquipmentItems":"","Units":"","OrbatUnits":"","Id":"adaf1280-e200-48d1-817c-fab9dd0717db","icon":"/api/icons/0051CA/False/template/173.png"},"source":"geoconfirmed","source_name":"GeoConfirmed","source_url":"https://geoconfirmed.org/map/ukraine","id":"adaf1280-e200-48d1-817c-fab9dd0717db","date":"2026-08-07","link":"https://geoconfirmed.org/map/ukraine/adaf1280-e200-48d1-817c-fab9dd0717db","category":"Older Destroyed/Damaged APC OR IFV / TRACKED or WHEELED / ARMOURED - Including vehicles like HUMVEE and similar","side":"Ukraine","color":"#0051CA","description":"2:02 - Destroyed Ukrainian VAB visible","orbat":[],"geolocation":["https://x.com/meowqai/status/2084713595611283731"],"sources":["https://x.com/meowqai/status/2084713595611283731","https://t.me/assaultregiment33/3237"]}},{"type":"Feature","geometry":{"type":"Point","coordinates":[37.632763,47.11611]},"properties":{"original":{"Date":"2026-08-07","Name":"07 AUG 2026","Faction":"Ukraine","Origin":"UAV","Latitude":"47.11611","Longitude":"37.632763","PlusCode":"8GVV4J8M+C4 Mariupol, Donetsk Oblast, Ukraine","Description":"3:04-3:17 - Drone strike on an electrical substation.","Source":"https://x.com/414magyarbirds/status/2085769186677027156, https://t.me/robert_magyar/2711","Geolocation":"https://x.com/MikiValbuena/status/2086722651251191998","Equipment":"","EquipmentItems":"Fixed Wing OWAD (One Way Attack Drone) | Electrical Substation","Units":"","OrbatUnits":"411th Regiment of Unmanned Systems","Id":"605628aa-1a76-461a-a71c-fc72ddecb24b","icon":"/api/icons/0051CA/False/template/70.png"},"source":"geoconfirmed","source_name":"GeoConfirmed","source_url":"https://geoconfirmed.org/map/ukraine","id":"605628aa-1a76-461a-a71c-fc72ddecb24b","date":"2026-08-07","link":"https://geoconfirmed.org/map/ukraine/605628aa-1a76-461a-a71c-fc72ddecb24b","category":"Controlled Demolition OR explosion of unknown origin OR fire of unknown origin where no other icon fits","side":"Ukraine","color":"#0051CA","description":"3:04-3:17 - Drone strike on an electrical substation.","orbat":["411th Regiment of Unmanned Systems"],"geolocation":["https://x.com/MikiValbuena/status/2086722651251191998"],"sources":["https://x.com/414magyarbirds/status/2085769186677027156","https://t.me/robert_magyar/2711"]}},{"type":"Feature","geometry":{"type":"Point","coordinates":[39.8834,57.54849]},"properties":{"original":{"Date":"2026-08-07","Name":"07 AUG 2026","Faction":"Russia","Origin":"VID","Latitude":"57.54849","Longitude":"39.8834","PlusCode":"9G9XGVXM+99 Frunzenskiy Rayon, Yaroslavl, Russia","Description":"Something explodes between cars while people are nearby. Claimed to be Pantsir anti-aircraft fire. A smoke column is visible in the background.","Source":"https://x.com/Archer83Able/status/2085858463003844712","Geolocation":"https://x.com/blinzka/status/2085891376193974321","Equipment":"UNK (claimed Pantsir 2A38M anti-aircraft fire)","EquipmentItems":"","Units":"UNK","OrbatUnits":"","Id":"b800429b-ec61-4766-ae78-fe4aed5902f8","icon":"/api/icons/E00000/False/template/70.png"},"source":"geoconfirmed","source_name":"GeoConfirmed","source_url":"https://geoconfirmed.org/map/ukraine","id":"b800429b-ec61-4766-ae78-fe4aed5902f8","date":"2026-08-07","link":"https://geoconfirmed.org/map/ukraine/b800429b-ec61-4766-ae78-fe4aed5902f8","category":"Controlled Demolition OR explosion of unknown origin OR fire of unknown origin where no other icon fits","side":"Russia","color":"#E00000","description":"Something explodes between cars while people are nearby. Claimed to be Pantsir anti-aircraft fire. A smoke column is visible in the background.","orbat":["UNK"],"geolocation":["https://x.com/blinzka/status/2085891376193974321"],"sources":["https://x.com/Archer83Able/status/2085858463003844712"]}}]}