{"type":"FeatureCollection","features":[{"type":"Feature","geometry":{"type":"MultiPolygon","coordinates":[[[[37.91785,48.81009],[37.90716,48.83304],[37.91665,48.83982],[37.92794,48.83903],[37.93255,48.81936],[37.92994,48.81732],[37.92891,48.81154],[37.91785,48.81009]]],[[[37.83834,48.75767],[37.82501,48.75655],[37.81858,48.76232],[37.83502,48.77946],[37.84205,48.78353],[37.84788,48.77545],[37.83656,48.77833],[37.83553,48.77748],[37.84206,48.76999],[37.85184,48.76668],[37.85104,48.76079],[37.83897,48.76487],[37.83207,48.76554],[37.83326,48.76266],[37.83685,48.76226],[37.84443,48.75444],[37.8347,48.75206],[37.83834,48.75767]]],[[[37.80337,48.56442],[37.80335,48.57228],[37.81583,48.5755],[37.81937,48.57173],[37.81391,48.56694],[37.81298,48.56464],[37.80337,48.56442]]],[[[37.71349,49.10756],[37.71511,49.10711],[37.71419,49.10264],[37.71406,49.10264],[37.71349,49.10756]]],[[[37.61537,48.48823],[37.61181,48.49237],[37.61357,48.4944],[37.61919,48.49702],[37.61934,48.49678],[37.61511,48.49355],[37.62216,48.48564],[37.61537,48.48823]]],[[[37.24994,48.45529],[37.24667,48.45979],[37.27444,48.46839],[37.28121,48.47303],[37.29887,48.47602],[37.30784,48.47472],[37.29578,48.46988],[37.28533,48.46848],[37.27719,48.46406],[37.26933,48.45705],[37.24994,48.45529]]],[[[37.17432,48.39103],[37.19362,48.40242],[37.18939,48.40997],[37.18932,48.41589],[37.20126,48.41477],[37.22362,48.41956],[37.22514,48.41616],[37.23265,48.41675],[37.23748,48.41507],[37.23461,48.41115],[37.23973,48.41116],[37.24056,48.40383],[37.21319,48.40149],[37.20468,48.39768],[37.18673,48.39364],[37.18572,48.38035],[37.1781,48.37906],[37.17039,48.37909],[37.17432,48.39103]]],[[[37.13721,50.33183],[37.13025,50.33444],[37.12535,50.3412],[37.13478,50.3475],[37.13838,50.36095],[37.14336,50.34586],[37.14511,50.33534],[37.15578,50.33511],[37.1558,50.33478],[37.13721,50.33183]]]]},"properties":{"source":"deepstate","source_name":"DeepStateMap","source_url":"https://deepstatemap.live/en","category":"gained","category_label":"Russian advance: became occupied","period":"7d","compared_with":"2026-09-10","snapshot_time":"2026-09-17","area_km2_approx":22.5}},{"type":"Feature","geometry":{"type":"Polygon","coordinates":[[[37.70954,49.08555],[37.68743,49.08744],[37.68088,49.09154],[37.6758,49.10077],[37.67295,49.11451],[37.68088,49.1271],[37.69865,49.13671],[37.71633,49.13088],[37.70963,49.1193],[37.707,49.10598],[37.71074,49.09533],[37.71663,49.08715],[37.70954,49.08555]]]},"properties":{"source":"deepstate","source_name":"DeepStateMap","source_url":"https://deepstatemap.live/en","category":"lost","category_label":"Ukrainian advance: became Ukrainian-held","period":"7d","compared_with":"2026-09-10","snapshot_time":"2026-09-17","area_km2_approx":12.5}},{"type":"Feature","geometry":{"type":"MultiPolygon","coordinates":[[[[37.70764,49.1092],[37.70963,49.1193],[37.71554,49.12951],[37.72408,49.13326],[37.74527,49.13003],[37.74524,49.12968],[37.73232,49.12945],[37.72086,49.12788],[37.71739,49.12017],[37.71288,49.11284],[37.71349,49.10756],[37.70764,49.1092]]],[[[37.71548,49.08874],[37.71074,49.09533],[37.70863,49.10135],[37.7103,49.10157],[37.71411,49.10225],[37.72225,49.09333],[37.72157,49.08839],[37.71548,49.08874]]]]},"properties":{"source":"deepstate","source_name":"DeepStateMap","source_url":"https://deepstatemap.live/en","category":"occupied_to_contested","category_label":"Occupied became contested","period":"7d","compared_with":"2026-09-10","snapshot_time":"2026-09-17","area_km2_approx":2.5}},{"type":"Feature","geometry":{"type":"MultiPolygon","coordinates":[[[[37.82085,48.76946],[37.82753,48.77888],[37.82774,48.77877],[37.82333,48.76759],[37.81532,48.76805],[37.8153,48.76824],[37.82085,48.76946]]],[[[37.79296,48.57562],[37.80192,48.57617],[37.80068,48.57249],[37.79169,48.57054],[37.79296,48.57562]]],[[[37.17779,48.41063],[37.18869,48.40974],[37.18983,48.40366],[37.17911,48.40322],[37.17779,48.41063]]],[[[37.16875,48.42158],[37.18746,48.42227],[37.18678,48.4148],[37.17117,48.41501],[37.16875,48.42158]]],[[[37.02924,48.32868],[37.03028,48.34094],[37.03525,48.33165],[37.04607,48.32054],[37.04602,48.32046],[37.02924,48.32868]]]]},"properties":{"source":"deepstate","source_name":"DeepStateMap","source_url":"https://deepstatemap.live/en","category":"ukrainian_to_contested","category_label":"Ukrainian-held became contested","period":"7d","compared_with":"2026-09-10","snapshot_time":"2026-09-17","area_km2_approx":2.8}}]}