{"type":"FeatureCollection","features":[{"type":"Feature","geometry":{"type":"Polygon","coordinates":[[[37.13721,50.33183],[37.13025,50.33444],[37.12535,50.3412],[37.13478,50.3475],[37.13838,50.36095],[37.14336,50.34586],[37.14511,50.33534],[37.15578,50.33511],[37.1558,50.33478],[37.13721,50.33183]]]},"properties":{"source":"deepstate","source_name":"DeepStateMap","source_url":"https://deepstatemap.live/en","category":"gained","category_label":"Newly Russian-occupied","period":"1d","compared_with":"2026-09-16","snapshot_time":"2026-09-17","area_km2_approx":2.3}}]}