{"type":"FeatureCollection","features":[{"type":"Feature","geometry":{"type":"Point","coordinates":[36.92175,50.30709]},"properties":{"original":{"id":47295,"type":"Infantry fighting vehicles","model":"MT-LBVM(K)","status":"Destroyed","lost_by":"Russia","date":"2026-09-20","nearest_location":"Vovchansk, Chuhuiv raion","geo":"50.30709,36.92175","unit":null,"tags":"Cope cage"},"source":"warspotting","source_name":"WarSpotting","source_url":"https://ukr.warspotting.net/","id":47295,"date":"2026-09-20","link":"https://ukr.warspotting.net/view/47295/","category":"Infantry fighting vehicles","side":"Lost by Russia","color":"#E00000","description":"MT-LBVM(K) · Destroyed · near Vovchansk, Chuhuiv raion · tags: Cope cage","orbat":[]}},{"type":"Feature","geometry":{"type":"Point","coordinates":[37.458271,48.254275]},"properties":{"original":{"id":47320,"type":"Infantry fighting vehicles","model":"MT-LB(V)","status":"Destroyed","lost_by":"Russia","date":"2026-09-20","nearest_location":"Ivanivka (Hrodivka hromada), Pokrovsk raion","geo":"48.254275,37.458271","unit":null,"tags":"Cope cage, Hedgehog"},"source":"warspotting","source_name":"WarSpotting","source_url":"https://ukr.warspotting.net/","id":47320,"date":"2026-09-20","link":"https://ukr.warspotting.net/view/47320/","category":"Infantry fighting vehicles","side":"Lost by Russia","color":"#E00000","description":"MT-LB(V) · Destroyed · near Ivanivka (Hrodivka hromada), Pokrovsk raion · tags: Cope cage, Hedgehog","orbat":[]}},{"type":"Feature","geometry":{"type":"Point","coordinates":[37.458271,48.254275]},"properties":{"original":{"id":47321,"type":"Self-propelled artillery","model":"122mm 2S1 'Gvozdika'","status":"Destroyed","lost_by":"Russia","date":"2026-09-20","nearest_location":"Ivanivka (Hrodivka hromada), Pokrovsk raion","geo":"48.254275,37.458271","unit":null,"tags":"Cope cage, Additional armour"},"source":"warspotting","source_name":"WarSpotting","source_url":"https://ukr.warspotting.net/","id":47321,"date":"2026-09-20","link":"https://ukr.warspotting.net/view/47321/","category":"Self-propelled artillery","side":"Lost by Russia","color":"#E00000","description":"122mm 2S1 'Gvozdika' · Destroyed · near Ivanivka (Hrodivka hromada), Pokrovsk raion · tags: Cope cage, Additional armour","orbat":[]}}]}