{"type":"FeatureCollection","features":[{"type":"Feature","geometry":{"type":"Point","coordinates":[35.60661,47.4438]},"properties":{"source":"lost_warinua","source_name":"lost_warinua (Telegram)","source_url":"https://t.me/s/lost_warinua","id":140992,"date":"2026-08-24","date_note":null,"posted_utc":"2026-09-25T13:52:06+00:00","link":"https://t.me/lost_warinua/140992","category":"Telegram post","side":"Claimed loss: Russia","color":"#E00000","description":"Уничтоженный российский инженерный разведывательно-огневой комплекс «Земледелие» возле н.п. Степовое Запорожской области.","orbat":[],"sources":["https://t.me/Ronins_65/1466"],"original_html":"<div class=\"tgme_widget_message_text js-message_text\" dir=\"auto\">24.08.2026<br/>Уничтоженный российский инженерный разведывательно-огневой комплекс «Земледелие» возле н.п. Степовое Запорожской области.<br/>(<code>47.4438, 35.60661</code>)<br/><a href=\"https://t.me/Ronins_65/1466\" target=\"_blank\" rel=\"noopener\">https://t.me/Ronins_65/1466</a>"}}]}