{"type":"FeatureCollection","features":[{"type":"Feature","geometry":null,"properties":{"source":"ru_mod","source_name":"Ministry of Defence of Russia","group":"official_ru","id":68053,"posted_utc":"2026-10-09T02:03:01+00:00","link":"https://t.me/mod_russia/68053","text":"«Град» не по прогнозу\n💥 Артиллеристы группировки «Восток» разнесли замаскированные пункты дислокации противника в Запорожской области.\n⚔️ Канал Минобороны России в MAКС – боевая работа 24/7. Присоединяйся!","links":["https://max.ru/morf"],"original_html":"<b>«Град» не по прогнозу</b><br/><br/><tg-emoji emoji-id=\"5449682610877918293\"><i class=\"emoji\" style=\"background-image:url('//telegram.org/img/emoji/40/F09F92A5.png')\"><b>💥</b></i></tg-emoji> Артиллеристы группировки «Восток» <b>разнесли замаскированные пункты дислокации противника </b>в Запорожской области.<br/><br/><tg-emoji emoji-id=\"5352957387571492906\"><i class=\"emoji\" style=\"background-image:url('//telegram.org/img/emoji/40/E29A94.png')\"><b>⚔️</b></i></tg-emoji> <a href=\"https://max.ru/morf\" target=\"_blank\" rel=\"noopener\" onclick=\"return confirm('Open this link?\\n\\n'+this.href);\">Канал Минобороны России в MAКС – боевая работа 24/7. Присоединяйся&#33;</a>"}},{"type":"Feature","geometry":null,"properties":{"source":"ru_mod","source_name":"Ministry of Defence of Russia","group":"official_ru","id":68054,"posted_utc":"2026-10-09T03:52:01+00:00","link":"https://t.me/mod_russia/68054","text":"💥 «Молнию» не ждали так быстро: дроноводы группировки войск «Север» уничтожили укрытую живую силу подразделений ВСУ в Сумской области.\n💬 После получения координат понадобилось буквально две минуты – и цель поражена. О молниеносной реакции своего подразделения рассказал командир роты БПС с позывным «Перс»:\n«\"Прилетели\" координаты укрытия живой силы противника. Посмотрел по карте, выбрал расчет, который способен выполнить эту задачу максимально быстро. Назначил цель. Две минуты готовности. Цель была поражена».\n#ВойскаБПС\n▫️ Канал Минобороны России в MAКС – источник мощных новостей","links":["https://max.ru/morf"],"original_html":"<b><tg-emoji emoji-id=\"5449682610877918293\"><i class=\"emoji\" style=\"background-image:url('//telegram.org/img/emoji/40/F09F92A5.png')\"><b>💥</b></i></tg-emoji></b><b> «Молнию» не ждали так быстро:</b> дроноводы группировки войск «Север» уничтожили укрытую живую силу подразделений ВСУ в Сумской области.<br/><b><br/></b><b><tg-emoji emoji-id=\"5447486370761176298\"><i class=\"emoji\" style=\"background-image:url('//telegram.org/img/emoji/40/F09F92AC.png')\"><b>💬</b></i></tg-emoji></b><b> После получения координат понадобилось буквально две минуты – и цель поражена. </b>О молниеносной реакции своего подразделения рассказал командир роты БПС с позывным «Перс»:<br/><br/><blockquote>«&quot;Прилетели&quot; координаты укрытия живой силы противника. Посмотрел по карте, выбрал расчет, который способен выполнить эту задачу максимально быстро. Назначил цель. Две минуты готовности. Цель была поражена».</blockquote><br/><br/><a href=\"?q=%23%D0%92%D0%BE%D0%B9%D1%81%D0%BA%D0%B0%D0%91%D0%9F%D0%A1\">#ВойскаБПС</a><br/><tg-emoji emoji-id=\"5352532894478793783\"><i class=\"emoji\" style=\"background-image:url('//telegram.org/img/emoji/40/E296AB.png')\"><b>▫️</b></i></tg-emoji> <a href=\"https://max.ru/morf\" target=\"_blank\" rel=\"noopener\" onclick=\"return confirm('Open this link?\\n\\n'+this.href);\">Канал Минобороны России в MAКС – источник мощных новостей</a>"}},{"type":"Feature","geometry":null,"properties":{"source":"ru_mod","source_name":"Ministry of Defence of Russia","group":"official_ru","id":68055,"posted_utc":"2026-10-09T05:39:35+00:00","link":"https://t.me/mod_russia/68055","text":"⚡️ В течение прошедшей ночи в период с 20.00 мск 8 октября до 8.00 мск 9 октября дежурными силами ПВО перехвачены и уничтожены 505 украинских беспилотных летательных аппаратов самолетного типа над территориями Калужской, Брянской, Нижегородской, Белгородской, Курской, Орловской, Воронежской, Липецкой, Тульской, Тверской, Тамбовской, Смоленской, Рязанской, Ульяновской, Ростовской, Астраханской областей, Московского региона, Краснодарского края, Республики Татарстан, Республики Крым, над акваториями Черного и Азовского морей.\n🔹 MAКС – территория СВОих","links":["https://max.ru/morf"],"original_html":"<tg-emoji emoji-id=\"5449911936361724483\"><i class=\"emoji\" style=\"background-image:url('//telegram.org/img/emoji/40/E29AA1.png')\"><b>⚡️</b></i></tg-emoji> В течение прошедшей ночи в период с 20.00 мск 8 октября до 8.00 мск 9 октября дежурными силами ПВО <b>перехвачены и уничтожены 505 украинских беспилотных летательных аппаратов самолетного типа</b> над территориями Калужской, Брянской, Нижегородской, Белгородской, Курской, Орловской, Воронежской, Липецкой, Тульской, Тверской, Тамбовской, Смоленской, Рязанской, Ульяновской, Ростовской, Астраханской областей, Московского региона, Краснодарского края, Республики Татарстан, Республики Крым, над акваториями Черного и Азовского морей.<br/><br/><tg-emoji emoji-id=\"5269510734265483362\"><i class=\"emoji\" style=\"background-image:url('//telegram.org/img/emoji/40/F09F94B9.png')\"><b>🔹</b></i></tg-emoji> <a href=\"https://max.ru/morf\" target=\"_blank\" rel=\"noopener\" onclick=\"return confirm('Open this link?\\n\\n'+this.href);\">MAКС – территория СВОих</a>"}},{"type":"Feature","geometry":null,"properties":{"source":"ru_mod","source_name":"Ministry of Defence of Russia","group":"official_ru","id":68056,"posted_utc":"2026-10-09T05:47:37+00:00","link":"https://t.me/mod_russia/68056","text":"Роботов в утиль, снаряды на воздух\n🔥 Расчеты беспилотных систем группировки «Центр» вскрыли и сожгли крупный склад НРТК и боеприпасов врага на Добропольском направлении.\n#ВойскаБПС\n🔹 Канал Минобороны России в MAКС – только для своих!","links":["https://max.ru/morf"],"original_html":"<b>Роботов в утиль, снаряды на воздух</b><br/><br/><tg-emoji emoji-id=\"5449590921916082144\"><i class=\"emoji\" style=\"background-image:url('//telegram.org/img/emoji/40/F09F94A5.png')\"><b>🔥</b></i></tg-emoji> Расчеты беспилотных систем группировки «Центр»<b> вскрыли и сожгли крупный склад НРТК и боеприпасов врага</b> на Добропольском направлении.<br/><br/><a href=\"?q=%23%D0%92%D0%BE%D0%B9%D1%81%D0%BA%D0%B0%D0%91%D0%9F%D0%A1\">#ВойскаБПС</a><br/><tg-emoji emoji-id=\"5269510734265483362\"><i class=\"emoji\" style=\"background-image:url('//telegram.org/img/emoji/40/F09F94B9.png')\"><b>🔹</b></i></tg-emoji> <a href=\"https://max.ru/morf\" target=\"_blank\" rel=\"noopener\" onclick=\"return confirm('Open this link?\\n\\n'+this.href);\">Канал Минобороны России в MAКС – только для своих&#33;</a>"}},{"type":"Feature","geometry":null,"properties":{"source":"ru_mod","source_name":"Ministry of Defence of Russia","group":"official_ru","id":68057,"posted_utc":"2026-10-09T06:30:38+00:00","link":"https://t.me/mod_russia/68057","text":"❗️ Сегодня ночью Вооруженными Силами Российской Федерации продолжено нанесение ударов беспилотными летательными аппаратами по объектам портовой инфраструктуры Украины, а также морским судам, задействованным в интересах ВСУ.\n💥 В результате удара в порту Николаев Николаевской области поражен сухогруз, доставивший военные грузы.\n🔹 Минобороны России","links":["https://max.ru/morf"],"original_html":"<i class=\"emoji\" style=\"background-image:url('//telegram.org/img/emoji/40/E29D97.png')\"><b>❗️</b></i> Сегодня ночью Вооруженными Силами Российской Федерации <b>продолжено нанесение ударов беспилотными летательными аппаратами по объектам портовой инфраструктуры Украины, а также морским судам</b>, задействованным в интересах ВСУ.<br/><br/><i class=\"emoji\" style=\"background-image:url('//telegram.org/img/emoji/40/F09F92A5.png')\"><b>💥</b></i> В результате удара в порту Николаев Николаевской области <b>поражен сухогруз</b>, доставивший военные грузы.<br/><br/><tg-emoji emoji-id=\"5269510734265483362\"><i class=\"emoji\" style=\"background-image:url('//telegram.org/img/emoji/40/F09F94B9.png')\"><b>🔹</b></i></tg-emoji> <a href=\"https://max.ru/morf\" target=\"_blank\" rel=\"noopener\" onclick=\"return confirm('Open this link?\\n\\n'+this.href);\">Минобороны России</a>"}},{"type":"Feature","geometry":null,"properties":{"source":"ru_mod","source_name":"Ministry of Defence of Russia","group":"official_ru","id":68058,"posted_utc":"2026-10-09T06:35:48+00:00","link":"https://t.me/mod_russia/68058","text":"👊 Развод мостов продолжается. Теперь за Купянском\n💥 Российские войска нанесли ракетный удар по мосту через реку Оскол в районе села Петровка на Купянском направлении.\n🔹 MAКС – территория СВОих","links":["https://max.ru/morf"],"original_html":"<i class=\"emoji\" style=\"background-image:url('//telegram.org/img/emoji/40/F09F918A.png')\"><b>👊</b></i><b> Развод мостов продолжается. Теперь за Купянском</b><br/><br/><i class=\"emoji\" style=\"background-image:url('//telegram.org/img/emoji/40/F09F92A5.png')\"><b>💥</b></i> Российские войска <b>нанесли ракетный удар по мосту через реку Оскол</b> в районе села Петровка на Купянском направлении. <br/><br/><tg-emoji emoji-id=\"5269510734265483362\"><i class=\"emoji\" style=\"background-image:url('//telegram.org/img/emoji/40/F09F94B9.png')\"><b>🔹</b></i></tg-emoji> <a href=\"https://max.ru/morf\" target=\"_blank\" rel=\"noopener\" onclick=\"return confirm('Open this link?\\n\\n'+this.href);\">MAКС – территория СВОих</a>"}},{"type":"Feature","geometry":null,"properties":{"source":"ru_mod","source_name":"Ministry of Defence of Russia","group":"official_ru","id":68059,"posted_utc":"2026-10-09T06:54:44+00:00","link":"https://t.me/mod_russia/68059","text":"🔥 Тройной удар по резервам: ВКC России поразили места сосредоточения живой силы и техники ВСУ\n📍 В Харьковской области:\n▪️ в районе села Приколотное четырьмя высокоточными планирующими боеприпасами УМПБ уничтожены пункты временной дислокации 129-й отдельной тяжелой механизированной бригады ВСУ.\n📍 В Запорожской области:\n▪️ в районе Орехова экипажи ВКС применили две авиабомбы ФАБ-3000 с УМПК, ликвидировав позиции 65-й отдельной механизированной бригады противника;\n▪️ в районе поселка Кушугум авиаракетным ударом разрушен опорный пункт 128-й отдельной тяжелой механизированной бригады ВСУ.\n🔹 Канал Минобороны России в MAКС – боевая работа 24/7","links":["https://max.ru/morf"],"original_html":"<i class=\"emoji\" style=\"background-image:url('//telegram.org/img/emoji/40/F09F94A5.png')\"><b>🔥</b></i> <b>Тройной удар по резервам: ВКC России поразили места сосредоточения живой силы и техники ВСУ</b><br/><br/><i class=\"emoji\" style=\"background-image:url('//telegram.org/img/emoji/40/F09F938D.png')\"><b>📍</b></i> <b>В Харьковской области:</b><br/><br/><i class=\"emoji\" style=\"background-image:url('//telegram.org/img/emoji/40/E296AA.png')\"><b>▪️</b></i> в районе села Приколотное четырьмя высокоточными планирующими боеприпасами УМПБ <b>уничтожены пункты временной дислокации 129-й отдельной тяжелой механизированной бригады ВСУ.<br/></b><br/><i class=\"emoji\" style=\"background-image:url('//telegram.org/img/emoji/40/F09F938D.png')\"><b>📍</b></i> <b>В Запорожской области:</b><br/><br/> <i class=\"emoji\" style=\"background-image:url('//telegram.org/img/emoji/40/E296AA.png')\"><b>▪️</b></i><b> </b>в районе Орехова экипажи ВКС применили две авиабомбы ФАБ-3000 с УМПК, <b>ликвидировав позиции 65-й отдельной механизированной бригады противника; <br/></b><br/><i class=\"emoji\" style=\"background-image:url('//telegram.org/img/emoji/40/E296AA.png')\"><b>▪️</b></i> в районе поселка Кушугум авиаракетным ударом <b>разрушен опорный пункт 128-й отдельной тяжелой механизированной бригады ВСУ.</b><br/><br/><tg-emoji emoji-id=\"5269510734265483362\"><i class=\"emoji\" style=\"background-image:url('//telegram.org/img/emoji/40/F09F94B9.png')\"><b>🔹</b></i></tg-emoji> <a href=\"https://max.ru/morf\" target=\"_blank\" rel=\"noopener\" onclick=\"return confirm('Open this link?\\n\\n'+this.href);\">Канал Минобороны России в MAКС – боевая работа 24/7</a>"}},{"type":"Feature","geometry":null,"properties":{"source":"ru_mod","source_name":"Ministry of Defence of Russia","group":"official_ru","id":68060,"posted_utc":"2026-10-09T08:04:23+00:00","link":"https://t.me/mod_russia/68060","text":"«С детьми в школе мне было сложнее, чем сейчас здесь, со взрослыми».\nДенис Колесников родом из Челябинской области. По профессии он — учитель. Начав работать в школе еще до ковида, он пользовался законной отсрочкой от службы по призыву. Но мысль о воинском долге не отпускала. И Денис решил пойти в армию, где стал служить номером расчета гаубицы 2С3 «Акация». А дальше началась специальная военная операция.\nСегодня он — замполит в гаубичном артиллерийском дивизионе. А бывшие ученики шлют ему письма и пишут слова поддержки.\nГерои в 📲 MAX,  📱 ВКонтакте и в 📱 Дзен","links":["https://max.ru/heroesofZ","https://vk.com/heroes0fz","http://dzen.ru/heroesofz"],"original_html":"<i>«С детьми в школе мне было сложнее, чем сейчас здесь, со взрослыми».</i><br/><br/><b>Денис Колесников</b> родом из Челябинской области. По профессии он — учитель. Начав работать в школе еще до ковида, он пользовался законной отсрочкой от службы по призыву. Но мысль о воинском долге не отпускала. И Денис решил пойти в армию, где стал служить номером расчета гаубицы 2С3 «Акация». А дальше началась специальная военная операция.<br/><br/>Сегодня он — замполит в гаубичном артиллерийском дивизионе. А бывшие ученики шлют ему письма и пишут слова поддержки.<br/><br/><i>Герои в </i><i><tg-emoji emoji-id=\"5449407131675558756\"><i class=\"emoji\" style=\"background-image:url('//telegram.org/img/emoji/40/F09F93B2.png')\"><b>📲</b></i></tg-emoji></i><i> </i><a href=\"https://max.ru/heroesofZ\" target=\"_blank\" rel=\"noopener\" onclick=\"return confirm('Open this link?\\n\\n'+this.href);\"><i>MAX</i></a>,<i>  </i><i><tg-emoji emoji-id=\"5334853932915114338\"><i class=\"emoji\" style=\"background-image:url('//telegram.org/img/emoji/40/F09F93B1.png')\"><b>📱</b></i></tg-emoji></i><i> </i><a href=\"https://vk.com/heroes0fz\" target=\"_blank\" rel=\"noopener\" onclick=\"return confirm('Open this link?\\n\\n'+this.href);\"><i>ВКонтакте</i></a> <i>и в </i><i><tg-emoji emoji-id=\"5321533581472842536\"><i class=\"emoji\" style=\"background-image:url('//telegram.org/img/emoji/40/F09F93B1.png')\"><b>📱</b></i></tg-emoji></i><i> </i><a href=\"http://dzen.ru/heroesofz\" target=\"_blank\" rel=\"noopener\" onclick=\"return confirm('Open this link?\\n\\n'+this.href);\"><i>Дзен</i></a>"}},{"type":"Feature","geometry":null,"properties":{"source":"ru_mod","source_name":"Ministry of Defence of Russia","group":"official_ru","id":68061,"posted_utc":"2026-10-09T08:47:13+00:00","link":"https://t.me/mod_russia/68061","text":"⚡️  Подразделения группировки войск «Север» установили контроль на населенным пунктом Кияница в Сумской области.\nПодробнее об успехах наших войск ➡️ в MAКС","links":["https://max.ru/morf/AaEf3h_2CXM"],"original_html":"<i class=\"emoji\" style=\"background-image:url('//telegram.org/img/emoji/40/E29AA1.png')\"><b>⚡️</b></i>  Подразделения группировки войск «Север» <b>установили контроль на населенным пунктом Кияница</b> в Сумской области.<br/><br/>Подробнее об успехах наших войск <tg-emoji emoji-id=\"5469902676957357453\"><i class=\"emoji\" style=\"background-image:url('//telegram.org/img/emoji/40/E29EA1.png')\"><b>➡️</b></i></tg-emoji> <a href=\"https://max.ru/morf/AaEf3h_2CXM\" target=\"_blank\" rel=\"noopener\" onclick=\"return confirm('Open this link?\\n\\n'+this.href);\">в MAКС</a>"}},{"type":"Feature","geometry":null,"properties":{"source":"ru_mod","source_name":"Ministry of Defence of Russia","group":"official_ru","id":68063,"posted_utc":"2026-10-09T10:05:50+00:00","link":"https://t.me/mod_russia/68063","text":"💥 Сорвали эфир\nДроноводы группировки «Центр» помножили на ноль шесть антенн-ретрансляторов противника на Добропольском направлении.\n#ВойскаБПС\n🔹 MAКС – территория СВОих","links":["https://max.ru/morf"],"original_html":"<i class=\"emoji\" style=\"background-image:url('//telegram.org/img/emoji/40/F09F92A5.png')\"><b>💥</b></i> <b>Сорвали эфир</b><br/><br/>Дроноводы группировки «Центр»<b> помножили на ноль шесть антенн-ретрансляторов противника</b> на Добропольском направлении.<br/><br/><a href=\"?q=%23%D0%92%D0%BE%D0%B9%D1%81%D0%BA%D0%B0%D0%91%D0%9F%D0%A1\">#ВойскаБПС</a><br/><tg-emoji emoji-id=\"5269510734265483362\"><i class=\"emoji\" style=\"background-image:url('//telegram.org/img/emoji/40/F09F94B9.png')\"><b>🔹</b></i></tg-emoji> <a href=\"https://max.ru/morf\" target=\"_blank\" rel=\"noopener\" onclick=\"return confirm('Open this link?\\n\\n'+this.href);\">MAКС – территория СВОих</a>"}},{"type":"Feature","geometry":null,"properties":{"source":"ru_mod","source_name":"Ministry of Defence of Russia","group":"official_ru","id":68064,"posted_utc":"2026-10-09T10:28:41+00:00","link":"https://t.me/mod_russia/68064","text":"📹 Кадры из освобожденной Константиновки, снятые бойцами 84-й мотострелковой дивизии и 72-й отдельной мотострелковой бригады «Южной» группировки.\nВоеннослужащие в закрепленных секторах города осматривают строения на территории промышленных предприятий, дворы домов, а также автомобильные дороги на наличие неразорвавшихся боеприпасов или признаков дистанционного минирования, которое все еще могут осуществлять действующие на большом удалении тяжелые коптеры ВСУ.\n➡️  Бойцы подразделений закрепления уделяют особое внимание промышленным территориям: городской Металлургический завод, ведут мониторинг обстановки в лесополосах парка «Юбилейный», у памятника танку «Иосиф Сталин», а также в районе одной из центральных улиц Константиновки – проспекта Олексы Тихого, рядом с православным храмом и железнодорожным вокзалом.\n🎮 Операторы разведывательных беспилотников в круглосуточном режиме следят за обстановкой в районе ключевых объектов и улиц города, сопровождают все передвижения подразделений закрепления, информируя их об обстановке в районе выполнения задач.\n🔹 Канал Минобороны России в MAКС – боевая работа 24/7","links":["https://max.ru/morf"],"original_html":"<i class=\"emoji\" style=\"background-image:url('//telegram.org/img/emoji/40/F09F93B9.png')\"><b>📹</b></i> <b>Кадры из освобожденной Константиновки, снятые бойцами 84-й мотострелковой дивизии и 72-й отдельной мотострелковой бригады «Южной» группировки.</b><br/> <br/>Военнослужащие в закрепленных секторах города осматривают строения на территории промышленных предприятий, дворы домов, а также автомобильные дороги на наличие неразорвавшихся боеприпасов или признаков дистанционного минирования, которое все еще могут осуществлять действующие на большом удалении тяжелые коптеры ВСУ.<br/><br/><i class=\"emoji\" style=\"background-image:url('//telegram.org/img/emoji/40/E29EA1.png')\"><b>➡️</b></i>  <b>Бойцы подразделений закрепления уделяют особое внимание промышленным территориям:</b> городской Металлургический завод, ведут мониторинг обстановки в лесополосах парка «Юбилейный», у памятника танку «Иосиф Сталин», а также в районе одной из центральных улиц Константиновки – проспекта Олексы Тихого, рядом с православным храмом и железнодорожным вокзалом.<br/><br/><i class=\"emoji\" style=\"background-image:url('//telegram.org/img/emoji/40/F09F8EAE.png')\"><b>🎮</b></i> Операторы разведывательных беспилотников в круглосуточном режиме <b>следят за обстановкой в районе ключевых объектов и улиц города</b>, сопровождают все передвижения подразделений закрепления, информируя их об обстановке в районе выполнения задач.<br/><br/><tg-emoji emoji-id=\"5269510734265483362\"><i class=\"emoji\" style=\"background-image:url('//telegram.org/img/emoji/40/F09F94B9.png')\"><b>🔹</b></i></tg-emoji> <a href=\"https://max.ru/morf\" target=\"_blank\" rel=\"noopener\" onclick=\"return confirm('Open this link?\\n\\n'+this.href);\">Канал Минобороны России в MAКС – боевая работа 24/7</a>"}},{"type":"Feature","geometry":null,"properties":{"source":"ru_mod","source_name":"Ministry of Defence of Russia","group":"official_ru","id":68065,"posted_utc":"2026-10-09T11:57:52+00:00","link":"https://t.me/mod_russia/68065","text":"🌊  Смыло взрывной волной\nРасчет БПЛА «Мерлин-ВР» группировки войск «Днепр» вскрыл позиции ВСУ и скорректировал удар авиации на пункт управления БПЛА ВСУ в портовой зоне Херсона.\n#ВойскаБПС\n🔹💥▫️ Канал Минобороны России в MAКС – источник мощных новостей","links":["https://max.ru/morf"],"original_html":"<i class=\"emoji\" style=\"background-image:url('//telegram.org/img/emoji/40/F09F8C8A.png')\"><b>🌊</b></i> <b> Смыло взрывной волной</b><br/><br/>Расчет БПЛА «Мерлин-ВР» группировки войск «Днепр» <b>вскрыл позиции ВСУ и скорректировал удар авиации</b> на пункт управления БПЛА ВСУ в портовой зоне Херсона.<br/><br/><a href=\"?q=%23%D0%92%D0%BE%D0%B9%D1%81%D0%BA%D0%B0%D0%91%D0%9F%D0%A1\">#ВойскаБПС</a><br/><tg-emoji emoji-id=\"5269510734265483362\"><i class=\"emoji\" style=\"background-image:url('//telegram.org/img/emoji/40/F09F94B9.png')\"><b>🔹</b></i></tg-emoji><tg-emoji emoji-id=\"5449682610877918293\"><i class=\"emoji\" style=\"background-image:url('//telegram.org/img/emoji/40/F09F92A5.png')\"><b>💥</b></i></tg-emoji><tg-emoji emoji-id=\"5352532894478793783\"><i class=\"emoji\" style=\"background-image:url('//telegram.org/img/emoji/40/E296AB.png')\"><b>▫️</b></i></tg-emoji> <a href=\"https://max.ru/morf\" target=\"_blank\" rel=\"noopener\" onclick=\"return confirm('Open this link?\\n\\n'+this.href);\">Канал Минобороны России в MAКС – источник мощных новостей</a>"}},{"type":"Feature","geometry":null,"properties":{"source":"ru_mod","source_name":"Ministry of Defence of Russia","group":"official_ru","id":68066,"posted_utc":"2026-10-09T13:28:29+00:00","link":"https://t.me/mod_russia/68066","text":"🚀  Скорость реакции – максимальная\n💥  Саперы группировки «Запад» уничтожили неразорвавшийся ударный дрон ВСУ на Краснолиманском направлении.\n💣 Информацию об упавшем вражеском FPV-дроне саперы получили от соседнего подразделения. Группа разминирования выдвинулась максимально быстро, и не зря: БПЛА упал на маршруте движения колесной техники. Накладным зарядом опасная находка была уничтожена.\n🤝 Этот случай – лишь один из многих эпизодов работы военных инженеров. Они регулярно выезжают на разминирование как по заявкам сослуживцев, так и по просьбам местных жителей.\nУ парней стальные нервы. 🦾\n🔹 MAКС – территория СВОих","links":["https://max.ru/morf"],"original_html":"<i class=\"emoji\" style=\"background-image:url('//telegram.org/img/emoji/40/F09F9A80.png')\"><b>🚀</b></i> <b> Скорость реакции – максимальная</b><br/><br/><i class=\"emoji\" style=\"background-image:url('//telegram.org/img/emoji/40/F09F92A5.png')\"><b>💥</b></i>  Саперы группировки «Запад»<b> уничтожили неразорвавшийся ударный дрон ВСУ</b> на Краснолиманском направлении.<br/><br/><i class=\"emoji\" style=\"background-image:url('//telegram.org/img/emoji/40/F09F92A3.png')\"><b>💣</b></i> Информацию об упавшем вражеском FPV-дроне саперы получили от соседнего подразделения. <b>Группа разминирования выдвинулась максимально быстро, и не зря: </b>БПЛА упал на маршруте движения колесной техники. Накладным зарядом опасная находка была уничтожена. <br/><br/><a href=\"https://max.ru/morf\" target=\"_blank\" rel=\"noopener\" onclick=\"return confirm('Open this link?\\n\\n'+this.href);\"><u><i class=\"emoji\" style=\"background-image:url('//telegram.org/img/emoji/40/F09FA49D.png')\"><b>🤝</b></i></u></a> <b>Этот случай – лишь один из многих эпизодов работы военных инженеров.</b> Они регулярно выезжают на разминирование как по заявкам сослуживцев, так и по просьбам местных жителей. <br/><br/>У парней стальные нервы. <i class=\"emoji\" style=\"background-image:url('//telegram.org/img/emoji/40/F09FA6BE.png')\"><b>🦾</b></i> <br/><br/><tg-emoji emoji-id=\"5269510734265483362\"><i class=\"emoji\" style=\"background-image:url('//telegram.org/img/emoji/40/F09F94B9.png')\"><b>🔹</b></i></tg-emoji> <a href=\"https://max.ru/morf\" target=\"_blank\" rel=\"noopener\" onclick=\"return confirm('Open this link?\\n\\n'+this.href);\">MAКС – территория СВОих</a>"}},{"type":"Feature","geometry":null,"properties":{"source":"ru_mod","source_name":"Ministry of Defence of Russia","group":"official_ru","id":68067,"posted_utc":"2026-10-09T15:01:25+00:00","link":"https://t.me/mod_russia/68067","text":"Зажали мертвой хваткой\n💥 Подразделения группировки «Центр» продолжают перемалывать окружённые формирования противника в Доброполье.\n👊  Штурмовые группы продвигаются вглубь города на максимальных оборотах, не оставляя боевикам ни единого шанса зацепиться на позициях.\n🔹 MAКС – территория СВОих","links":["https://max.ru/morf"],"original_html":"<b>Зажали мертвой хваткой</b><br/><br/><i class=\"emoji\" style=\"background-image:url('//telegram.org/img/emoji/40/F09F92A5.png')\"><b>💥</b></i> Подразделения группировки «Центр» продолжают перемалывать окружённые формирования противника в Доброполье.<br/><br/><i class=\"emoji\" style=\"background-image:url('//telegram.org/img/emoji/40/F09F918A.png')\"><b>👊</b></i>  Штурмовые группы продвигаются вглубь города на максимальных оборотах, не оставляя боевикам ни единого шанса зацепиться на позициях.<br/><br/><tg-emoji emoji-id=\"5269510734265483362\"><i class=\"emoji\" style=\"background-image:url('//telegram.org/img/emoji/40/F09F94B9.png')\"><b>🔹</b></i></tg-emoji> <a href=\"https://max.ru/morf\" target=\"_blank\" rel=\"noopener\" onclick=\"return confirm('Open this link?\\n\\n'+this.href);\">MAКС – территория СВОих</a>"}},{"type":"Feature","geometry":null,"properties":{"source":"ru_mod","source_name":"Ministry of Defence of Russia","group":"official_ru","id":68068,"posted_utc":"2026-10-09T15:52:41+00:00","link":"https://t.me/mod_russia/68068","text":"❗ Сегодня днем Вооруженными Силами Российской Федерации продолжено нанесение ударов беспилотными летательными аппаратами по портовой инфраструктуре Украины и морским судам, задействованным в доставке военных грузов.\n💥 В результате ударов в порту Черноморск поражен сухогруз, доставлявший грузы двойного назначения, предназначенные для обеспечения ВСУ.\n🔥 Кроме того, на переходе морем поражен сухогруз, доставлявший в порт Одесса грузы военного назначения.\n🔹 Минобороны России","links":["https://max.ru/morf"],"original_html":"<i class=\"emoji\" style=\"background-image:url('//telegram.org/img/emoji/40/E29D97.png')\"><b>❗</b></i> Сегодня днем Вооруженными Силами Российской Федерации <b>продолжено нанесение ударов беспилотными летательными аппаратами по портовой инфраструктуре Украины и морским судам</b>, задействованным в доставке военных грузов.<br/><br/><i class=\"emoji\" style=\"background-image:url('//telegram.org/img/emoji/40/F09F92A5.png')\"><b>💥</b></i> В результате ударов в порту Черноморск <b>поражен сухогруз</b>, доставлявший грузы двойного назначения, предназначенные для обеспечения ВСУ.<br/><br/><i class=\"emoji\" style=\"background-image:url('//telegram.org/img/emoji/40/F09F94A5.png')\"><b>🔥</b></i> Кроме того, на переходе морем <b>поражен сухогруз</b>, доставлявший в порт Одесса грузы военного назначения.<br/><br/><tg-emoji emoji-id=\"5269510734265483362\"><i class=\"emoji\" style=\"background-image:url('//telegram.org/img/emoji/40/F09F94B9.png')\"><b>🔹</b></i></tg-emoji> <a href=\"https://max.ru/morf\" target=\"_blank\" rel=\"noopener\" onclick=\"return confirm('Open this link?\\n\\n'+this.href);\">Минобороны России</a>"}},{"type":"Feature","geometry":null,"properties":{"source":"ru_mod","source_name":"Ministry of Defence of Russia","group":"official_ru","id":68069,"posted_utc":"2026-10-09T16:43:33+00:00","link":"https://t.me/mod_russia/68069","text":"🔥 Вычищаем квартал за кварталом\nГвардейцы-десантники в составе группировки «Центр» круглосуточно перемалывают силы ВСУ в Доброполье, планомерно ликвидируя живую силу, пункты управления и «гнезда» беспилотников ВСУ.\n#ВойскаБПС\n🔹 Канал Минобороны России в MAКС – боевая работа 24/7","links":["https://max.ru/morf"],"original_html":"<i class=\"emoji\" style=\"background-image:url('//telegram.org/img/emoji/40/F09F94A5.png')\"><b>🔥</b></i> <b>Вычищаем квартал за кварталом</b><br/><br/>Гвардейцы-десантники в составе группировки «Центр» <b>круглосуточно перемалывают силы ВСУ в Доброполье</b>, планомерно ликвидируя живую силу, пункты управления и «гнезда» беспилотников ВСУ.<br/><br/><a href=\"?q=%23%D0%92%D0%BE%D0%B9%D1%81%D0%BA%D0%B0%D0%91%D0%9F%D0%A1\">#ВойскаБПС</a><br/><tg-emoji emoji-id=\"5269510734265483362\"><i class=\"emoji\" style=\"background-image:url('//telegram.org/img/emoji/40/F09F94B9.png')\"><b>🔹</b></i></tg-emoji> <a href=\"https://max.ru/morf\" target=\"_blank\" rel=\"noopener\" onclick=\"return confirm('Open this link?\\n\\n'+this.href);\">Канал Минобороны России в MAКС – боевая работа 24/7</a>"}},{"type":"Feature","geometry":null,"properties":{"source":"ru_mod","source_name":"Ministry of Defence of Russia","group":"official_ru","id":68070,"posted_utc":"2026-10-09T17:49:39+00:00","link":"https://t.me/mod_russia/68070","text":"⚡️ В течение дня в период с 8.00 до 20.00 мск дежурными силами ПВО перехвачены и уничтожены 62 украинских беспилотных летательных средства над территориями Белгородской, Брянской, Калужской, Курской, Орловской, Рязанской, Смоленской, Тульской, Ярославской областей, Московского региона, Краснодарского края, Республики Коми, Республики Крым и над акваторией Черного моря.\n🔹 Минобороны России","links":["https://max.ru/morf"],"original_html":"<i class=\"emoji\" style=\"background-image:url('//telegram.org/img/emoji/40/E29AA1.png')\"><b>⚡️</b></i> В течение дня в период с 8.00 до 20.00 мск дежурными силами ПВО <b>перехвачены и уничтожены 62 украинских беспилотных летательных средства</b> над территориями Белгородской, Брянской, Калужской, Курской, Орловской, Рязанской, Смоленской, Тульской, Ярославской областей, Московского региона, Краснодарского края, Республики Коми, Республики Крым и над акваторией Черного моря.<br/><br/><tg-emoji emoji-id=\"5269510734265483362\"><i class=\"emoji\" style=\"background-image:url('//telegram.org/img/emoji/40/F09F94B9.png')\"><b>🔹</b></i></tg-emoji> <a href=\"https://max.ru/morf\" target=\"_blank\" rel=\"noopener\" onclick=\"return confirm('Open this link?\\n\\n'+this.href);\">Минобороны России</a>"}},{"type":"Feature","geometry":null,"properties":{"source":"ru_mod","source_name":"Ministry of Defence of Russia","group":"official_ru","id":68071,"posted_utc":"2026-10-09T18:00:37+00:00","link":"https://t.me/mod_russia/68071","text":"Тяжёлый аргумент ВКС 🔥\n✈️ Экипаж Су-34 ВКС России нанёс удар авиабомбами по пунктам временной дислокации и живой силе ВСУ в зоне ответственности группировки «Север».\n🔹 MAКС – территория СВОих","links":["https://max.ru/morf"],"original_html":"<b>Тяжёлый аргумент ВКС</b> <i class=\"emoji\" style=\"background-image:url('//telegram.org/img/emoji/40/F09F94A5.png')\"><b>🔥</b></i><br/><br/><i class=\"emoji\" style=\"background-image:url('//telegram.org/img/emoji/40/E29C88.png')\"><b>✈️</b></i> Экипаж Су-34 ВКС России <b>нанёс удар авиабомбами по пунктам временной дислокации и живой силе ВСУ</b> в зоне ответственности группировки «Север».<br/><br/><tg-emoji emoji-id=\"5269510734265483362\"><i class=\"emoji\" style=\"background-image:url('//telegram.org/img/emoji/40/F09F94B9.png')\"><b>🔹</b></i></tg-emoji> <a href=\"https://max.ru/morf\" target=\"_blank\" rel=\"noopener\" onclick=\"return confirm('Open this link?\\n\\n'+this.href);\">MAКС – территория СВОих</a>"}},{"type":"Feature","geometry":null,"properties":{"source":"ru_mod","source_name":"Ministry of Defence of Russia","group":"official_ru","id":68072,"posted_utc":"2026-10-09T18:17:25+00:00","link":"https://t.me/mod_russia/68072","text":"Работаем мощно, без остановок!\n#Цифра\n🔹 Минобороны России","links":["https://max.ru/morf"],"original_html":"<b>Работаем мощно, без остановок&#33;</b><br/><br/><a href=\"?q=%23%D0%A6%D0%B8%D1%84%D1%80%D0%B0\">#Цифра</a><br/><tg-emoji emoji-id=\"5269510734265483362\"><i class=\"emoji\" style=\"background-image:url('//telegram.org/img/emoji/40/F09F94B9.png')\"><b>🔹</b></i></tg-emoji> <a href=\"https://max.ru/morf\" target=\"_blank\" rel=\"noopener\" onclick=\"return confirm('Open this link?\\n\\n'+this.href);\">Минобороны России</a>"}},{"type":"Feature","geometry":null,"properties":{"source":"ru_mod","source_name":"Ministry of Defence of Russia","group":"official_ru","id":68073,"posted_utc":"2026-10-09T18:52:38+00:00","link":"https://t.me/mod_russia/68073","text":"📆  Главное за день\n🚩  Еще один рубеж за нами: подразделения группировки «Север» взяли под контроль населенный пункт Кияница в Сумской области.\n🔥  Тройной удар по резервам: ВКC России поразили места сосредоточения живой силы и техники врага в Харьковской и Запорожской областях.\n👉 Вычищаем квартал за кварталом: гвардейцы-десантники в составе группировки «Центр» методично перемалывают формирования ВСУ в Доброполье.\n🌊   Смыло взрывной волной: расчет разведывательного беспилотника вскрыл позиции ВСУ и скорректировал удар авиации по пункту управления БПЛА противника в портовой зоне Херсона.\n💥  «Град» не по прогнозу: артиллеристы группировки «Восток» разнесли замаскированные пункты дислокации врага в Запорожской области.\n👊  Развод мостов продолжается: российские войска нанесли ракетный удар по мосту через реку Оскол на Купянском направлении.\n⚡ Сорвали эфир: дроноводы группировки «Центр» помножили на ноль шесть антенн-ретрансляторов ВСУ на Добропольском направлении.\nДень был насыщенным. Работаем дальше 💪\n#ИтогиДня\n🔹 MAКС – территория СВОих","links":["https://t.me/mod_russia/68061","https://t.me/mod_russia/68059","https://t.me/mod_russia/68069","https://t.me/mod_russia/68065","https://t.me/mod_russia/68053","https://t.me/mod_russia/68058","https://t.me/mod_russia/68063","https://max.ru/morf"],"original_html":"<i class=\"emoji\" style=\"background-image:url('//telegram.org/img/emoji/40/F09F9386.png')\"><b>📆</b></i> <b> Главное за день</b><br/> <br/><i class=\"emoji\" style=\"background-image:url('//telegram.org/img/emoji/40/F09F9AA9.png')\"><b>🚩</b></i> <b> Еще один рубеж за нами</b>: подразделения группировки «Север» <a href=\"https://t.me/mod_russia/68061\" target=\"_blank\" rel=\"noopener\" onclick=\"return confirm('Open this link?\\n\\n'+this.href);\">взяли под контроль</a><b> населенный пункт Кияница</b> в Сумской области.<br/> <br/><i class=\"emoji\" style=\"background-image:url('//telegram.org/img/emoji/40/F09F94A5.png')\"><b>🔥</b></i>  <b>Тройной удар по резервам</b>: ВКC России <a href=\"https://t.me/mod_russia/68059\" target=\"_blank\" rel=\"noopener\" onclick=\"return confirm('Open this link?\\n\\n'+this.href);\">поразили</a> места сосредоточения живой силы и техники врага в Харьковской и Запорожской областях.<br/><br/><b><i class=\"emoji\" style=\"background-image:url('//telegram.org/img/emoji/40/F09F9189.png')\"><b>👉</b></i> Вычищаем квартал за кварталом:</b> гвардейцы-десантники в составе группировки «Центр»<b> </b>методично <a href=\"https://t.me/mod_russia/68069\" target=\"_blank\" rel=\"noopener\" onclick=\"return confirm('Open this link?\\n\\n'+this.href);\">перемалывают</a> формирования ВСУ в Доброполье.<br/> <br/><i class=\"emoji\" style=\"background-image:url('//telegram.org/img/emoji/40/F09F8C8A.png')\"><b>🌊</b></i> <b>  Смыло взрывной волной</b>: расчет разведывательного беспилотника <a href=\"https://t.me/mod_russia/68065\" target=\"_blank\" rel=\"noopener\" onclick=\"return confirm('Open this link?\\n\\n'+this.href);\">вскрыл</a> <b>позиции ВСУ и скорректировал удар авиации</b> по пункту управления БПЛА противника в портовой зоне Херсона.<br/> <br/><i class=\"emoji\" style=\"background-image:url('//telegram.org/img/emoji/40/F09F92A5.png')\"><b>💥</b></i>  <b>«Град» не по прогнозу</b>: артиллеристы группировки «Восток» <a href=\"https://t.me/mod_russia/68053\" target=\"_blank\" rel=\"noopener\" onclick=\"return confirm('Open this link?\\n\\n'+this.href);\">разнесли</a><b> замаскированные пункты дислокации врага</b> в Запорожской области.<br/> <br/><i class=\"emoji\" style=\"background-image:url('//telegram.org/img/emoji/40/F09F918A.png')\"><b>👊</b></i>  <b>Развод мостов продолжается</b>: российские войска <a href=\"https://t.me/mod_russia/68058\" target=\"_blank\" rel=\"noopener\" onclick=\"return confirm('Open this link?\\n\\n'+this.href);\">нанесли</a><b> ракетный удар по мосту</b> через реку Оскол на Купянском направлении.<br/><br/><i class=\"emoji\" style=\"background-image:url('//telegram.org/img/emoji/40/E29AA1.png')\"><b>⚡</b></i> <b>Сорвали эфир:</b> дроноводы группировки «Центр» <a href=\"https://t.me/mod_russia/68063\" target=\"_blank\" rel=\"noopener\" onclick=\"return confirm('Open this link?\\n\\n'+this.href);\">помножили</a><b> на ноль</b> <b>шесть антенн-ретрансляторов ВСУ</b> на Добропольском направлении.<br/> <br/><b>День был насыщенным. Работаем дальше </b><i class=\"emoji\" style=\"background-image:url('//telegram.org/img/emoji/40/F09F92AA.png')\"><b>💪</b></i> <br/> <br/><a href=\"?q=%23%D0%98%D1%82%D0%BE%D0%B3%D0%B8%D0%94%D0%BD%D1%8F\">#ИтогиДня</a><br/><tg-emoji emoji-id=\"5269510734265483362\"><i class=\"emoji\" style=\"background-image:url('//telegram.org/img/emoji/40/F09F94B9.png')\"><b>🔹</b></i></tg-emoji> <a href=\"https://max.ru/morf\" target=\"_blank\" rel=\"noopener\" onclick=\"return confirm('Open this link?\\n\\n'+this.href);\">MAКС – территория СВОих</a>"}},{"type":"Feature","geometry":null,"properties":{"source":"ru_mod","source_name":"Ministry of Defence of Russia","group":"official_ru","id":68074,"posted_utc":"2026-10-09T19:11:01+00:00","link":"https://t.me/mod_russia/68074","text":"🌅 Время запускать ночных хищников. Но сначала – настройка оборудования перед боевым вылетом.\n🔹 Минобороны России","links":["https://max.ru/morf"],"original_html":"<i class=\"emoji\" style=\"background-image:url('//telegram.org/img/emoji/40/F09F8C85.png')\"><b>🌅</b></i> <b>Время запускать ночных хищников.</b> Но сначала – настройка оборудования перед боевым вылетом.<br/><br/><tg-emoji emoji-id=\"5269510734265483362\"><i class=\"emoji\" style=\"background-image:url('//telegram.org/img/emoji/40/F09F94B9.png')\"><b>🔹</b></i></tg-emoji> <a href=\"https://max.ru/morf\" target=\"_blank\" rel=\"noopener\" onclick=\"return confirm('Open this link?\\n\\n'+this.href);\">Минобороны России</a>"}}]}