{"type":"FeatureCollection","features":[{"type":"Feature","geometry":{"type":"MultiPolygon","coordinates":[[[[37.92883,48.84061],[37.94297,48.84131],[37.95256,48.84105],[37.95595,48.82625],[37.95712,48.82272],[37.95043,48.81614],[37.94893,48.81071],[37.94326,48.81046],[37.93764,48.81337],[37.9312,48.81295],[37.93017,48.81688],[37.93253,48.81976],[37.92883,48.84061]]],[[[37.72048,48.47133],[37.72027,48.47289],[37.72005,48.4745],[37.71795,48.48402],[37.72705,48.47954],[37.74269,48.4809],[37.74795,48.47871],[37.75456,48.47979],[37.76086,48.48208],[37.76197,48.48336],[37.76946,48.47002],[37.76517,48.46941],[37.76264,48.47045],[37.75912,48.47223],[37.74243,48.47267],[37.72048,48.47133]]],[[[37.57792,50.2336],[37.58796,50.23172],[37.58745,50.22986],[37.59534,50.22799],[37.5956,50.22415],[37.5811,50.22816],[37.55904,50.23217],[37.54766,50.23313],[37.54148,50.2345],[37.53767,50.23653],[37.54277,50.24002],[37.54668,50.23955],[37.54947,50.2367],[37.5656,50.23601],[37.57204,50.23648],[37.57792,50.2336]]],[[[37.24422,48.4376],[37.24719,48.43794],[37.2504,48.44246],[37.24914,48.45077],[37.24953,48.45282],[37.25255,48.45288],[37.27126,48.46059],[37.27673,48.46738],[37.2947,48.4683],[37.30967,48.46928],[37.31782,48.47454],[37.33167,48.47275],[37.34086,48.47457],[37.35043,48.47488],[37.36526,48.47299],[37.3653,48.47174],[37.35757,48.47239],[37.35598,48.47149],[37.35334,48.46701],[37.35066,48.46297],[37.3471,48.46102],[37.33858,48.45977],[37.33096,48.45825],[37.32577,48.4627],[37.32036,48.4656],[37.31264,48.46532],[37.30594,48.46392],[37.29609,48.46222],[37.28907,48.46316],[37.28139,48.45271],[37.27798,48.44921],[37.27003,48.44697],[37.25924,48.44277],[37.25379,48.43855],[37.24222,48.43335],[37.24422,48.4376]]],[[[37.19012,48.36986],[37.19061,48.37121],[37.19304,48.37409],[37.20038,48.37213],[37.20495,48.38062],[37.23192,48.38147],[37.23198,48.38008],[37.22585,48.37623],[37.22074,48.37586],[37.22005,48.36811],[37.20752,48.36623],[37.2029,48.3693],[37.19896,48.3689],[37.19488,48.36505],[37.19012,48.36986]]],[[[36.19243,50.39096],[36.18824,50.39027],[36.18815,50.39088],[36.18883,50.39125],[36.1904,50.39147],[36.1905,50.39167],[36.19176,50.39222],[36.19219,50.39226],[36.19493,50.39114],[36.19243,50.39096]]]]},"properties":{"source":"ukrdaily","source_name":"UkrDailyUpdate","source_url":"https://map.ukrdailyupdate.com/","category":"gained","category_label":"Newly Russian-occupied","period":"7d","compared_with":"2026-07-31","snapshot_time":"2026-08-07","area_km2_approx":23.6}},{"type":"Feature","geometry":{"type":"Polygon","coordinates":[[[36.70906,48.00764],[36.71057,48.01151],[36.70747,48.02434],[36.71572,48.03664],[36.72,48.04059],[36.72179,48.0401],[36.73551,48.0392],[36.73352,48.03567],[36.73346,48.03139],[36.73197,48.02224],[36.75702,48.01108],[36.76475,48.00625],[36.7691,48.00208],[36.76785,47.98897],[36.75377,47.98989],[36.75124,47.99063],[36.75025,47.99138],[36.74605,47.99954],[36.73425,48.00417],[36.70647,48.00275],[36.70906,48.00764]]]},"properties":{"source":"ukrdaily","source_name":"UkrDailyUpdate","source_url":"https://map.ukrdailyupdate.com/","category":"lost","category_label":"No longer Russian-occupied","period":"7d","compared_with":"2026-07-31","snapshot_time":"2026-08-07","area_km2_approx":12.2}}]}