{"type":"FeatureCollection","features":[{"type":"Feature","geometry":null,"properties":{"source":"ru_mod","source_name":"Ministry of Defence of Russia","group":"official_ru","id":67361,"posted_utc":"2026-09-15T12:17:31+00:00","link":"https://t.me/mod_russia/67361","text":"Огненный рой в действии: «Шмели» устроили ад для условного противника\n📍 Кемеровская область\nВ рамках сборов огнеметчики отработали упражнения с реактивными пехотными огнеметами РПО-А «Шмель».\n➡️ Главным испытанием для бойцов стало прохождение «Штурмовой полосы огнеметчика». Военнослужащие прорывались через рвы, траншеи, элементы городской застройки и учебные минные поля.\n▫️ Огнеметчики продемонстрировали высокую скорость на полосе препятствий, а также ювелирную точность при уничтожении целей.\n🔹 MAКС – территория СВОих","links":["https://max.ru/morf"],"original_html":"<b>Огненный рой в действии:</b> «Шмели» устроили ад для условного противника<br/><br/><tg-emoji emoji-id=\"5449396879588614682\"><i class=\"emoji\" style=\"background-image:url('//telegram.org/img/emoji/40/F09F938D.png')\"><b>📍</b></i></tg-emoji> Кемеровская область<br/><br/>В рамках сборов огнеметчики <b>отработали упражнения с реактивными пехотными огнеметами РПО-А «Шмель»</b>.<br/><br/><b><tg-emoji emoji-id=\"5469902676957357453\"><i class=\"emoji\" style=\"background-image:url('//telegram.org/img/emoji/40/E29EA1.png')\"><b>➡️</b></i></tg-emoji></b><b> Главным испытанием для бойцов стало прохождение «Штурмовой полосы огнеметчика».</b> Военнослужащие прорывались через рвы, траншеи, элементы городской застройки и учебные минные поля. <br/><br/><tg-emoji emoji-id=\"5352532894478793783\"><i class=\"emoji\" style=\"background-image:url('//telegram.org/img/emoji/40/E296AB.png')\"><b>▫️</b></i></tg-emoji> Огнеметчики <b>продемонстрировали высокую скорость</b> на полосе препятствий, а также <b>ювелирную точность </b>при уничтожении целей.<br/><br/><tg-emoji emoji-id=\"5269510734265483362\"><i class=\"emoji\" style=\"background-image:url('//telegram.org/img/emoji/40/F09F94B9.png')\"><b>🔹</b></i></tg-emoji> <a href=\"https://max.ru/morf\" target=\"_blank\" rel=\"noopener\" onclick=\"return confirm('Open this link?\\n\\n'+this.href);\">MAКС – территория СВОих</a>"}},{"type":"Feature","geometry":null,"properties":{"source":"ru_mod","source_name":"Ministry of Defence of Russia","group":"official_ru","id":67362,"posted_utc":"2026-09-15T12:33:20+00:00","link":"https://t.me/mod_russia/67362","text":"Ту-95мс поднялись в воздух\n✈️ Стратегические ракетоносцы дальней авиации ВКС России выполнили плановый полет в воздушном пространстве над нейтральными водами Баренцева и Норвежского морей.\n⏱️ Продолжительность полета составила около 5 часов.\n▫️ Истребительное сопровождение обеспечивали экипажи самолетов Су-33 Военно-морского флота. На отдельных этапах маршрута дальние бомбардировщики сопровождались истребителями иностранных государств.\nЭкипажи дальней авиации регулярно совершают полеты над нейтральными водами Арктики, Северной Атлантики, Тихого океана, Балтийского и Черного морей. Все полеты самолетов Воздушно-космических сил России выполняются в строгом соответствии с международными правилами использования воздушного пространства.\n🔹 Курс на MAКС!","links":["https://max.ru/morf"],"original_html":"<b>Ту-95мс поднялись в воздух</b><br/><br/><tg-emoji emoji-id=\"5449403034276751727\"><i class=\"emoji\" style=\"background-image:url('//telegram.org/img/emoji/40/E29C88.png')\"><b>✈️</b></i></tg-emoji> Стратегические ракетоносцы дальней авиации ВКС России <b>выполнили плановый полет</b> в воздушном пространстве над нейтральными водами Баренцева и Норвежского морей.<br/><br/><tg-emoji emoji-id=\"5262665621547545888\"><i class=\"emoji\" style=\"background-image:url('//telegram.org/img/emoji/40/E28FB1.png')\"><b>⏱️</b></i></tg-emoji> Продолжительность полета составила <b>около 5 часов. </b><br/><br/><b><tg-emoji emoji-id=\"5469903849483431273\"><i class=\"emoji\" style=\"background-image:url('//telegram.org/img/emoji/40/E296AB.png')\"><b>▫️</b></i></tg-emoji></b><b> Истребительное сопровождение обеспечивали </b>экипажи самолетов Су-33 Военно-морского флота. На отдельных этапах маршрута дальние бомбардировщики сопровождались истребителями иностранных государств.<br/><br/><i>Экипажи дальней авиации регулярно совершают полеты над нейтральными водами Арктики, Северной Атлантики, Тихого океана, Балтийского и Черного морей. Все полеты самолетов Воздушно-космических сил России выполняются в строгом соответствии с международными правилами использования воздушного пространства</i>.<br/><br/><tg-emoji emoji-id=\"5269510734265483362\"><i class=\"emoji\" style=\"background-image:url('//telegram.org/img/emoji/40/F09F94B9.png')\"><b>🔹</b></i></tg-emoji> <a href=\"https://max.ru/morf\" target=\"_blank\" rel=\"noopener\" onclick=\"return confirm('Open this link?\\n\\n'+this.href);\">Курс на MAКС&#33;</a>"}},{"type":"Feature","geometry":null,"properties":{"source":"ru_mod","source_name":"Ministry of Defence of Russia","group":"official_ru","id":67363,"posted_utc":"2026-09-15T14:43:22+00:00","link":"https://t.me/mod_russia/67363","text":"«Действуем малыми группами и постоянно меняем тактику»\nПомощник командира батальона по огневому поражению с позывным «Федя» рассказал о боевой работе подразделений в Славянско-Краматорской агломерации.\n«Основное направление – на Дружковку и дальше. Продвигаемся, освобождаем территорию непосредственно перед собой. Продумываем постоянно разные стратегии, разные действия. Постоянно меняя тактику».\n🔹 MAКС – территория СВОих","links":["https://max.ru/morf"],"original_html":"<b>«Действуем малыми группами и постоянно меняем тактику»</b><br/><br/>Помощник командира батальона по огневому поражению с позывным «Федя<b>» рассказал о боевой работе подразделений в Славянско-Краматорской агломерации.<br/><br/></b><blockquote>«Основное направление – на Дружковку и дальше. Продвигаемся, освобождаем территорию непосредственно перед собой. Продумываем постоянно разные стратегии, разные действия. Постоянно меняя тактику».</blockquote><br/><b><br/></b><tg-emoji emoji-id=\"5269510734265483362\"><i class=\"emoji\" style=\"background-image:url('//telegram.org/img/emoji/40/F09F94B9.png')\"><b>🔹</b></i></tg-emoji> <a href=\"https://max.ru/morf\" target=\"_blank\" rel=\"noopener\" onclick=\"return confirm('Open this link?\\n\\n'+this.href);\">MAКС – территория СВОих</a>"}},{"type":"Feature","geometry":null,"properties":{"source":"ru_mod","source_name":"Ministry of Defence of Russia","group":"official_ru","id":67364,"posted_utc":"2026-09-15T15:39:09+00:00","link":"https://t.me/mod_russia/67364","text":"❗️ В течение дня Вооруженными Силами Российской Федерации продолжено нанесение ударов по портам Украины и морским судам, используемым в интересах ВСУ.\nВ результате ударов беспилотными летательными аппаратами поражены:\n▪️ в порту «Черноморск» морской паром типа «РО-РО», доставивший грузы, предназначенные для обеспечения ВСУ;\n▪️ в порту «Измаил» морское судно типа «танкер», доставившее горюче-смазочные материалы, предназначенные для обеспечения ВСУ;\n▪️ в порту «Южный» железнодорожный состав в момент погрузки грузов, предназначенных для обеспечения ВСУ.\n▪️ Кроме того, продолжено нанесение ударов по объектам железнодорожной инфраструктуры в западных регионах Украины, используемых для перевозки грузов военного назначения из стран Европы.\n🔹 Минобороны России","links":["https://max.ru/morf"],"original_html":"<i class=\"emoji\" style=\"background-image:url('//telegram.org/img/emoji/40/E29D97.png')\"><b>❗️</b></i><b> В течение дня Вооруженными Силами Российской Федерации продолжено нанесение ударов по портам Украины и морским судам, используемым в интересах ВСУ.</b><br/><br/>В результате ударов беспилотными летательными аппаратами поражены:<br/><br/><i class=\"emoji\" style=\"background-image:url('//telegram.org/img/emoji/40/E296AA.png')\"><b>▪️</b></i> <b>в порту «Черноморск» морской паром типа «РО-РО»,</b> доставивший грузы, предназначенные для обеспечения ВСУ;<br/><br/><i class=\"emoji\" style=\"background-image:url('//telegram.org/img/emoji/40/E296AA.png')\"><b>▪️</b></i> <b>в порту «Измаил» морское судно типа «танкер»,</b> доставившее горюче-смазочные материалы, предназначенные для обеспечения ВСУ;<br/><br/><i class=\"emoji\" style=\"background-image:url('//telegram.org/img/emoji/40/E296AA.png')\"><b>▪️</b></i> <b>в порту «Южный» железнодорожный состав в момент погрузки грузов,</b> предназначенных для обеспечения ВСУ.<br/><br/><i class=\"emoji\" style=\"background-image:url('//telegram.org/img/emoji/40/E296AA.png')\"><b>▪️</b></i> <b>Кроме того, продолжено нанесение ударов по объектам железнодорожной инфраструктуры в западных регионах Украины,</b> используемых для перевозки грузов военного назначения из стран Европы.<br/><br/><tg-emoji emoji-id=\"5269510734265483362\"><i class=\"emoji\" style=\"background-image:url('//telegram.org/img/emoji/40/F09F94B9.png')\"><b>🔹</b></i></tg-emoji> <a href=\"https://max.ru/morf\" target=\"_blank\" rel=\"noopener\" onclick=\"return confirm('Open this link?\\n\\n'+this.href);\">Минобороны России</a>"}},{"type":"Feature","geometry":null,"properties":{"source":"ru_mod","source_name":"Ministry of Defence of Russia","group":"official_ru","id":67365,"posted_utc":"2026-09-15T16:31:48+00:00","link":"https://t.me/mod_russia/67365","text":"Провалил краш-тест\n🔥 После встречи с нашими «птичками» вражеские пикапы полыхнули как спички. Ротация подразделений ВСУ в Краматорском районе сорвана.\n#ВойскаБПС\n🔹 Канал Минобороны России в MAКС – только для своих!","links":["https://max.ru/morf"],"original_html":"<b>Провалил краш-тест</b><br/><br/><tg-emoji emoji-id=\"5449590921916082144\"><i class=\"emoji\" style=\"background-image:url('//telegram.org/img/emoji/40/F09F94A5.png')\"><b>🔥</b></i></tg-emoji> После встречи с нашими «птичками» <b>вражеские пикапы полыхнули как спички.</b> Ротация подразделений ВСУ в Краматорском районе сорвана. <br/><br/><a href=\"?q=%23%D0%92%D0%BE%D0%B9%D1%81%D0%BA%D0%B0%D0%91%D0%9F%D0%A1\">#ВойскаБПС</a><br/><tg-emoji emoji-id=\"5269510734265483362\"><i class=\"emoji\" style=\"background-image:url('//telegram.org/img/emoji/40/F09F94B9.png')\"><b>🔹</b></i></tg-emoji> <a href=\"https://max.ru/morf\" target=\"_blank\" rel=\"noopener\" onclick=\"return confirm('Open this link?\\n\\n'+this.href);\">Канал Минобороны России в MAКС – только для своих&#33;</a>"}},{"type":"Feature","geometry":null,"properties":{"source":"ru_mod","source_name":"Ministry of Defence of Russia","group":"official_ru","id":67366,"posted_utc":"2026-09-15T17:32:21+00:00","link":"https://t.me/mod_russia/67366","text":"⚡️ В течение дня, в период с 8.00 до 20.00 мск, дежурными силами ПВО перехвачены и уничтожены 22 украинских беспилотных летательных аппарата самолетного типа над территориями Брянской, Курской, Калужской, Смоленской областей, Республики Крым и над акваторией Черного моря.\n🔹 Канал Минобороны России в MAКС – боевая работа 24/7","links":["https://max.ru/morf"],"original_html":"<i class=\"emoji\" style=\"background-image:url('//telegram.org/img/emoji/40/E29AA1.png')\"><b>⚡️</b></i> В течение дня, в период с 8.00 до 20.00 мск, дежурными силами ПВО <b>перехвачены и уничтожены 22 украинских беспилотных летательных аппарата самолетного типа</b> над территориями Брянской, Курской, Калужской, Смоленской областей, Республики Крым и над акваторией Черного моря.<br/><br/><tg-emoji emoji-id=\"5269510734265483362\"><i class=\"emoji\" style=\"background-image:url('//telegram.org/img/emoji/40/F09F94B9.png')\"><b>🔹</b></i></tg-emoji> <a href=\"https://max.ru/morf\" target=\"_blank\" rel=\"noopener\" onclick=\"return confirm('Open this link?\\n\\n'+this.href);\">Канал Минобороны России в MAКС – боевая работа 24/7</a>"}},{"type":"Feature","geometry":null,"properties":{"source":"ru_mod","source_name":"Ministry of Defence of Russia","group":"official_ru","id":67367,"posted_utc":"2026-09-15T17:51:58+00:00","link":"https://t.me/mod_russia/67367","text":"Дроны «отлетают» пачками\n💥 Операторы FPV-перехватчиков группировки «Запад» сбивают беспилотники коптерного и самолетного типов в небе на Краснолиманском направлении.\n#ВойскаБПС\n🔹 MAКС – территория СВОих","links":["https://max.ru/morf"],"original_html":"<b>Дроны «отлетают» пачками</b><br/><br/><tg-emoji emoji-id=\"5449682610877918293\"><i class=\"emoji\" style=\"background-image:url('//telegram.org/img/emoji/40/F09F92A5.png')\"><b>💥</b></i></tg-emoji> Операторы FPV-перехватчиков группировки «Запад» <b>сбивают беспилотники коптерного и самолетного типов</b> в небе на Краснолиманском направлении.<br/><br/><a href=\"?q=%23%D0%92%D0%BE%D0%B9%D1%81%D0%BA%D0%B0%D0%91%D0%9F%D0%A1\">#ВойскаБПС</a><br/><tg-emoji emoji-id=\"5269510734265483362\"><i class=\"emoji\" style=\"background-image:url('//telegram.org/img/emoji/40/F09F94B9.png')\"><b>🔹</b></i></tg-emoji> <a href=\"https://max.ru/morf\" target=\"_blank\" rel=\"noopener\" onclick=\"return confirm('Open this link?\\n\\n'+this.href);\">MAКС – территория СВОих</a>"}},{"type":"Feature","geometry":null,"properties":{"source":"ru_mod","source_name":"Ministry of Defence of Russia","group":"official_ru","id":67368,"posted_utc":"2026-09-15T18:23:26+00:00","link":"https://t.me/mod_russia/67368","text":"Каждый день − новый рубеж.\n▫️ Натиск только нарастает!\n#СобытиеДня\n🔹 Курс на MAКС!","links":["https://max.ru/morf"],"original_html":"<b>Каждый день − новый рубеж. </b><br/><tg-emoji emoji-id=\"5352532894478793783\"><i class=\"emoji\" style=\"background-image:url('//telegram.org/img/emoji/40/E296AB.png')\"><b>▫️</b></i></tg-emoji> Натиск только нарастает&#33;<br/><br/><a href=\"?q=%23%D0%A1%D0%BE%D0%B1%D1%8B%D1%82%D0%B8%D0%B5%D0%94%D0%BD%D1%8F\">#СобытиеДня</a><br/><tg-emoji emoji-id=\"5269510734265483362\"><i class=\"emoji\" style=\"background-image:url('//telegram.org/img/emoji/40/F09F94B9.png')\"><b>🔹</b></i></tg-emoji> <a href=\"https://max.ru/morf\" target=\"_blank\" rel=\"noopener\" onclick=\"return confirm('Open this link?\\n\\n'+this.href);\">Курс на MAКС&#33;</a>"}},{"type":"Feature","geometry":null,"properties":{"source":"ru_mod","source_name":"Ministry of Defence of Russia","group":"official_ru","id":67369,"posted_utc":"2026-09-15T18:55:27+00:00","link":"https://t.me/mod_russia/67369","text":"📆 Главное за день\n↗️ Темп не сбавляем: установили контроль над населенным пунктом Ольховатка в Харьковской области.\n🔥 Порты в огне, корабли на дне: нанесли групповые удары по логистическим центрам и портам Украины, а также морским судам, задействованным в интересах ВСУ.\n🎯 Абсолютная точность «Гераней»: поразили международный автомобильный пункт пропуска «Ягодин» и железнодорожный состав ВСУ в Волынской области.\n💥 Выжгли логово с «птицами»: дроноводы «Центра» разнесли замаскированный пункт управления вражескими беспилотниками на Добропольском направлении.\n▫️ Обломали клешни польскому «Крабу»: бойцы «Южной» группировки уничтожили САУ «Краб» в Краматорском районе.\n🔹 Крепкий дух воинов – в силе веры: подразделения группировки «Север» встретили ковчег с мощами великого князя Дмитрия Донского.\n✈️ Ту-95мс поднялись в воздух: стратегические ракетоносцы выполнили плановый полет над нейтральными водами Баренцева и Норвежского морей.\n▫️ Огненный рой в действии: в рамках сборов огнеметчики отработали упражнения с реактивными пехотными огнеметами РПО-А «Шмель».\nИдем к цели, к победе!\n#ИтогиДня\n🔹 Минобороны России","links":["https://t.me/mod_russia/67356?single","https://t.me/mod_russia/67352","https://t.me/mod_russia/67360","https://t.me/mod_russia/67358","https://t.me/mod_russia/67351","https://t.me/mod_russia/67354","https://t.me/mod_russia/67350","https://t.me/mod_russia/67362","https://t.me/mod_russia/67361","https://max.ru/morf"],"original_html":"<tg-emoji emoji-id=\"5472282252048104170\"><i class=\"emoji\" style=\"background-image:url('//telegram.org/img/emoji/40/F09F9386.png')\"><b>📆</b></i></tg-emoji> <b>Главное за день</b><br/> <br/><tg-emoji emoji-id=\"5352838429862296415\"><i class=\"emoji\" style=\"background-image:url('//telegram.org/img/emoji/40/E28697.png')\"><b>↗️</b></i></tg-emoji> Темп не сбавляем: <a href=\"https://t.me/mod_russia/67356?single\" target=\"_blank\" rel=\"noopener\" onclick=\"return confirm('Open this link?\\n\\n'+this.href);\"><b>установили</b></a><b> контроль над населенным пунктом Ольховатка</b> в Харьковской области.<br/><br/><tg-emoji emoji-id=\"5449590921916082144\"><i class=\"emoji\" style=\"background-image:url('//telegram.org/img/emoji/40/F09F94A5.png')\"><b>🔥</b></i></tg-emoji> Порты в огне, корабли на дне: <a href=\"https://t.me/mod_russia/67352\" target=\"_blank\" rel=\"noopener\" onclick=\"return confirm('Open this link?\\n\\n'+this.href);\"><b>нанесли</b></a><b> групповые удары по логистическим центрам и портам Украины, а также морским судам,</b> задействованным в интересах ВСУ.<br/><br/><tg-emoji emoji-id=\"5467558728620341717\"><i class=\"emoji\" style=\"background-image:url('//telegram.org/img/emoji/40/F09F8EAF.png')\"><b>🎯</b></i></tg-emoji> Абсолютная точность «Гераней»: <b>поразили </b><a href=\"https://t.me/mod_russia/67360\" target=\"_blank\" rel=\"noopener\" onclick=\"return confirm('Open this link?\\n\\n'+this.href);\"><b>международный автомобильный пункт пропуска</b></a><b> «Ягодин» и </b><a href=\"https://t.me/mod_russia/67358\" target=\"_blank\" rel=\"noopener\" onclick=\"return confirm('Open this link?\\n\\n'+this.href);\"><b>железнодорожный состав</b></a><b> ВСУ</b> в Волынской области.<br/><br/><tg-emoji emoji-id=\"5449682610877918293\"><i class=\"emoji\" style=\"background-image:url('//telegram.org/img/emoji/40/F09F92A5.png')\"><b>💥</b></i></tg-emoji> Выжгли логово с «птицами»: дроноводы «Центра» <a href=\"https://t.me/mod_russia/67351\" target=\"_blank\" rel=\"noopener\" onclick=\"return confirm('Open this link?\\n\\n'+this.href);\"><b>разнесли</b></a><b> замаскированный пункт управления вражескими беспилотниками</b> на Добропольском направлении.<br/><br/><tg-emoji emoji-id=\"5469903849483431273\"><i class=\"emoji\" style=\"background-image:url('//telegram.org/img/emoji/40/E296AB.png')\"><b>▫️</b></i></tg-emoji> Обломали клешни польскому «Крабу»: бойцы «Южной» группировки<b> </b><a href=\"https://t.me/mod_russia/67354\" target=\"_blank\" rel=\"noopener\" onclick=\"return confirm('Open this link?\\n\\n'+this.href);\"><b>уничтожили</b></a><b> САУ «Краб»</b> в Краматорском районе.<br/><br/><tg-emoji emoji-id=\"5470000692406023380\"><i class=\"emoji\" style=\"background-image:url('//telegram.org/img/emoji/40/F09F94B9.png')\"><b>🔹</b></i></tg-emoji> Крепкий дух воинов – в силе веры: подразделения группировки «Север» <a href=\"https://t.me/mod_russia/67350\" target=\"_blank\" rel=\"noopener\" onclick=\"return confirm('Open this link?\\n\\n'+this.href);\"><b>встретили</b></a><b> ковчег с мощами великого князя Дмитрия Донского.</b><br/><br/><tg-emoji emoji-id=\"5449403034276751727\"><i class=\"emoji\" style=\"background-image:url('//telegram.org/img/emoji/40/E29C88.png')\"><b>✈️</b></i></tg-emoji> Ту-95мс поднялись в воздух: <b>стратегические ракетоносцы </b><a href=\"https://t.me/mod_russia/67362\" target=\"_blank\" rel=\"noopener\" onclick=\"return confirm('Open this link?\\n\\n'+this.href);\"><b>выполнили</b></a><b> плановый полет </b>над нейтральными водами Баренцева и Норвежского морей.<br/><br/><tg-emoji emoji-id=\"5355283112362274459\"><i class=\"emoji\" style=\"background-image:url('//telegram.org/img/emoji/40/E296AB.png')\"><b>▫️</b></i></tg-emoji> Огненный рой в действии: в рамках сборов <b>огнеметчики </b><a href=\"https://t.me/mod_russia/67361\" target=\"_blank\" rel=\"noopener\" onclick=\"return confirm('Open this link?\\n\\n'+this.href);\"><b>отработали</b></a><b> упражнения с реактивными пехотными огнеметами РПО-А «Шмель».</b><br/><br/><b>Идем к цели, к победе&#33;</b><br/><br/><a href=\"?q=%23%D0%98%D1%82%D0%BE%D0%B3%D0%B8%D0%94%D0%BD%D1%8F\">#ИтогиДня</a><br/><tg-emoji emoji-id=\"5269510734265483362\"><i class=\"emoji\" style=\"background-image:url('//telegram.org/img/emoji/40/F09F94B9.png')\"><b>🔹</b></i></tg-emoji> <a href=\"https://max.ru/morf\" target=\"_blank\" rel=\"noopener\" onclick=\"return confirm('Open this link?\\n\\n'+this.href);\">Минобороны России</a>"}},{"type":"Feature","geometry":null,"properties":{"source":"ru_mod","source_name":"Ministry of Defence of Russia","group":"official_ru","id":67370,"posted_utc":"2026-09-15T19:21:51+00:00","link":"https://t.me/mod_russia/67370","text":"Где мы − там Россия!\nНочь под защитой отважных людей ❤️\n🔹 MAКС – территория СВОих","links":["https://max.ru/morf"],"original_html":"<b>Где мы − там Россия&#33;</b><br/><br/><i>Ночь под защитой отважных людей </i><i class=\"emoji\" style=\"background-image:url('//telegram.org/img/emoji/40/E29DA4.png')\"><b>❤️</b></i> <br/><br/><tg-emoji emoji-id=\"5269510734265483362\"><i class=\"emoji\" style=\"background-image:url('//telegram.org/img/emoji/40/F09F94B9.png')\"><b>🔹</b></i></tg-emoji> <a href=\"https://max.ru/morf\" target=\"_blank\" rel=\"noopener\" onclick=\"return confirm('Open this link?\\n\\n'+this.href);\">MAКС – территория СВОих</a>"}},{"type":"Feature","geometry":null,"properties":{"source":"ru_mod","source_name":"Ministry of Defence of Russia","group":"official_ru","id":67350,"posted_utc":"2026-09-15T02:08:01+00:00","link":"https://t.me/mod_russia/67350","text":"Крепкий дух воинов – в силе веры\n☦️  Подразделения группировки «Север» встретили ковчег с мощами Святого благоверного великого князя Дмитрия Донского.\nВоеннослужащие смогли прикоснуться к святыне в перерывах от боевой работы и боевой подготовки.\n🔹 Канал Минобороны России в MAКС – только для своих!","links":["https://max.ru/morf"],"original_html":"<b>Крепкий дух воинов – в силе веры</b><br/><br/><i class=\"emoji\" style=\"background-image:url('//telegram.org/img/emoji/40/E298A6.png')\"><b>☦️</b></i> <b> </b>Подразделения группировки «Север» <b>встретили ковчег с мощами</b> Святого благоверного великого князя Дмитрия Донского.<br/><br/><i>Военнослужащие смогли прикоснуться к святыне в перерывах от боевой работы и боевой подготовки.<br/></i><br/><tg-emoji emoji-id=\"5269510734265483362\"><i class=\"emoji\" style=\"background-image:url('//telegram.org/img/emoji/40/F09F94B9.png')\"><b>🔹</b></i></tg-emoji> <a href=\"https://max.ru/morf\" target=\"_blank\" rel=\"noopener\" onclick=\"return confirm('Open this link?\\n\\n'+this.href);\">Канал Минобороны России в MAКС – только для своих&#33;</a>"}},{"type":"Feature","geometry":null,"properties":{"source":"ru_mod","source_name":"Ministry of Defence of Russia","group":"official_ru","id":67351,"posted_utc":"2026-09-15T03:32:01+00:00","link":"https://t.me/mod_russia/67351","text":"💥  Выжгли логово с «птицами»\nДроноводы «Центра» в пух и прах разнесли замаскированный пункт управления вражескими беспилотниками.\n📍  Добропольское направление\n#ВойскаБПС\n🔹 Канал Минобороны России в MAКС – боевая работа 24/7","links":["https://max.ru/morf"],"original_html":"<tg-emoji emoji-id=\"5449682610877918293\"><i class=\"emoji\" style=\"background-image:url('//telegram.org/img/emoji/40/F09F92A5.png')\"><b>💥</b></i></tg-emoji>  <b>Выжгли логово с «птицами»</b><br/><br/>Дроноводы «Центра» в пух и прах <b>разнесли замаскированный пункт управления вражескими беспилотниками. </b><br/><br/><tg-emoji emoji-id=\"5469680584198483528\"><i class=\"emoji\" style=\"background-image:url('//telegram.org/img/emoji/40/F09F938D.png')\"><b>📍</b></i></tg-emoji> <i> Добропольское направление</i><br/><br/><a href=\"?q=%23%D0%92%D0%BE%D0%B9%D1%81%D0%BA%D0%B0%D0%91%D0%9F%D0%A1\">#ВойскаБПС</a><br/><tg-emoji emoji-id=\"5269510734265483362\"><i class=\"emoji\" style=\"background-image:url('//telegram.org/img/emoji/40/F09F94B9.png')\"><b>🔹</b></i></tg-emoji> <a href=\"https://max.ru/morf\" target=\"_blank\" rel=\"noopener\" onclick=\"return confirm('Open this link?\\n\\n'+this.href);\">Канал Минобороны России в MAКС – боевая работа 24/7</a>"}},{"type":"Feature","geometry":null,"properties":{"source":"ru_mod","source_name":"Ministry of Defence of Russia","group":"official_ru","id":67352,"posted_utc":"2026-09-15T05:12:53+00:00","link":"https://t.me/mod_russia/67352","text":"❗ Сегодня ночью Вооруженными Силами Российской Федерации нанесены групповые удары беспилотными летательными аппаратами по логистическим центрам и портам Украины, а также морским судам, задействованным в интересах ВСУ.\nВ результате поражены:\n📍  в Одесской области: логистический центр в населенном пункте Великая Балка, обеспечивающий хранение и распределение военных грузов, поступающих на Украину из-за границы;\n📍  в порту «Черноморск» морское судно типа «сухогруз» и паром типа «РО-РО», доставившие грузы, предназначенные для обеспечения ВСУ.\n🔥  Кроме того, в западных регионах Украины продолжено нанесение ударов по объектам железнодорожной инфраструктуры, используемым для перевозки грузов военного назначения из стран Европы.\n🔹 Минобороны России","links":["https://max.ru/morf"],"original_html":"<i class=\"emoji\" style=\"background-image:url('//telegram.org/img/emoji/40/E29D97.png')\"><b>❗</b></i> <b>Сегодня ночью Вооруженными Силами Российской Федерации нанесены групповые удары беспилотными летательными аппаратами по логистическим центрам и портам Украины, а также морским судам, задействованным в интересах ВСУ.</b><br/><br/>В результате <b>поражены:</b><br/><br/><i class=\"emoji\" style=\"background-image:url('//telegram.org/img/emoji/40/F09F938D.png')\"><b>📍</b></i>  в Одесской области: <b>логистический центр</b> в населенном пункте Великая Балка, обеспечивающий хранение и распределение военных грузов, поступающих на Украину из-за границы;<br/><br/><i class=\"emoji\" style=\"background-image:url('//telegram.org/img/emoji/40/F09F938D.png')\"><b>📍</b></i>  в порту «Черноморск»<b> морское судно типа «сухогруз» и паром типа «РО-РО»</b>, доставившие грузы, предназначенные для обеспечения ВСУ.<br/><br/><i class=\"emoji\" style=\"background-image:url('//telegram.org/img/emoji/40/F09F94A5.png')\"><b>🔥</b></i>  Кроме того, в западных регионах Украины <b>продолжено нанесение ударов по объектам железнодорожной инфраструктуры</b>, используемым для перевозки грузов военного назначения из стран Европы.<br/><br/><tg-emoji emoji-id=\"5269510734265483362\"><i class=\"emoji\" style=\"background-image:url('//telegram.org/img/emoji/40/F09F94B9.png')\"><b>🔹</b></i></tg-emoji> <a href=\"https://max.ru/morf\" target=\"_blank\" rel=\"noopener\" onclick=\"return confirm('Open this link?\\n\\n'+this.href);\">Минобороны России</a>"}},{"type":"Feature","geometry":null,"properties":{"source":"ru_mod","source_name":"Ministry of Defence of Russia","group":"official_ru","id":67353,"posted_utc":"2026-09-15T05:31:45+00:00","link":"https://t.me/mod_russia/67353","text":"⚡ В течение прошедшей ночи дежурными силами ПВО перехвачены и уничтожены 222 украинских беспилотных летательных аппарата самолетного типа над территориями Орловской, Белгородской, Воронежской, Тульской, Тамбовской, Брянской, Ростовской, Курской, Липецкой, Рязанской, Саратовской, Самарской, Калужской, Ульяновской областей, Республики Татарстан, Республики Крым и над акваторией Черного моря.\n🔹 Курс на MAКС!","links":["https://max.ru/morf"],"original_html":"<i class=\"emoji\" style=\"background-image:url('//telegram.org/img/emoji/40/E29AA1.png')\"><b>⚡</b></i> В течение прошедшей ночи дежурными силами ПВО<b> перехвачены и уничтожены 222 украинских беспилотных летательных аппарата самолетного типа</b> над территориями Орловской, Белгородской, Воронежской, Тульской, Тамбовской, Брянской, Ростовской, Курской, Липецкой, Рязанской, Саратовской, Самарской, Калужской, Ульяновской областей, Республики Татарстан, Республики Крым и над акваторией Черного моря.<br/><br/><tg-emoji emoji-id=\"5269510734265483362\"><i class=\"emoji\" style=\"background-image:url('//telegram.org/img/emoji/40/F09F94B9.png')\"><b>🔹</b></i></tg-emoji> <a href=\"https://max.ru/morf\" target=\"_blank\" rel=\"noopener\" onclick=\"return confirm('Open this link?\\n\\n'+this.href);\">Курс на MAКС&#33;</a>"}},{"type":"Feature","geometry":null,"properties":{"source":"ru_mod","source_name":"Ministry of Defence of Russia","group":"official_ru","id":67354,"posted_utc":"2026-09-15T05:38:43+00:00","link":"https://t.me/mod_russia/67354","text":"Обломали клешни польскому «Крабу»\n🎯  В ходе воздушной разведки в Краматорском районе дроноводы обнаружили позицию САУ «Краб» польского производства. Вражеская самоходка обстреливала наступающие российские подразделения.\n💥  По артустановке противника сразу ударил расчет гаубицы «Мста-Б». Первым же прилетом машину обездвижили, после чего подбитого «Краба» сожгли ударные дроны.\n#ВойскаБПС\n🔹 Канал Минобороны России в MAКС – источник мощных новостей","links":["https://max.ru/morf"],"original_html":"<b>Обломали клешни польскому «Крабу»</b><br/><br/><tg-emoji emoji-id=\"5467558728620341717\"><i class=\"emoji\" style=\"background-image:url('//telegram.org/img/emoji/40/F09F8EAF.png')\"><b>🎯</b></i></tg-emoji>  В ходе воздушной разведки в Краматорском районе <b>дроноводы обнаружили позицию САУ «Краб» польского производства. </b>Вражеская самоходка обстреливала наступающие российские подразделения.<br/><br/><tg-emoji emoji-id=\"5449682610877918293\"><i class=\"emoji\" style=\"background-image:url('//telegram.org/img/emoji/40/F09F92A5.png')\"><b>💥</b></i></tg-emoji>  По артустановке противника сразу ударил расчет гаубицы «Мста-Б». <b>Первым же прилетом машину обездвижили, после чего подбитого «Краба» сожгли ударные дроны.</b><br/><br/><a href=\"?q=%23%D0%92%D0%BE%D0%B9%D1%81%D0%BA%D0%B0%D0%91%D0%9F%D0%A1\">#ВойскаБПС</a><br/><tg-emoji emoji-id=\"5269510734265483362\"><i class=\"emoji\" style=\"background-image:url('//telegram.org/img/emoji/40/F09F94B9.png')\"><b>🔹</b></i></tg-emoji> <a href=\"https://max.ru/morf\" target=\"_blank\" rel=\"noopener\" onclick=\"return confirm('Open this link?\\n\\n'+this.href);\">Канал Минобороны России в MAКС – источник мощных новостей</a>"}},{"type":"Feature","geometry":null,"properties":{"source":"ru_mod","source_name":"Ministry of Defence of Russia","group":"official_ru","id":67355,"posted_utc":"2026-09-15T06:45:05+00:00","link":"https://t.me/mod_russia/67355","text":"Весной мы рассказывали о Николае Иванове, который ушел служить на спецконтракт в войска беспилотных систем, будучи студентом второго курса Томского политехнического университета.\nСегодня Николай уже работает в зоне СВО начальником станции РЛС. Его задача — в режиме 24/7 следить за небом и искать вражеские цели, которые совместными усилиями отрабатывают расчеты FPV-перехватчиков.\nНаш герой и школу окончил с серебряной медалью, и в вузе учился на отлично. И к своим текущим обязанностям он относится максимально серьезно. Ведь, по его словам, каждый сбитый вражеский дрон — это спасенная жизнь бойца или сохраненная техника.\nРассказываем об участниках СВО в 📲 MAX,  📱 ВКонтакте и в 📱 Дзен","links":["https://t.me/heroesofZ/2147","https://max.ru/heroesofZ","https://vk.com/heroes0fz","http://dzen.ru/heroesofz"],"original_html":"Весной мы рассказывали о <a href=\"https://t.me/heroesofZ/2147\" target=\"_blank\" rel=\"noopener\" onclick=\"return confirm('Open this link?\\n\\n'+this.href);\"><b>Николае Иванове</b></a>, который ушел служить на спецконтракт в войска беспилотных систем, будучи студентом второго курса Томского политехнического университета.<br/><br/><b>Сегодня Николай уже работает в зоне СВО начальником станции РЛС. </b>Его задача — в режиме 24/7 следить за небом и искать вражеские цели, которые совместными усилиями отрабатывают расчеты FPV-перехватчиков.<br/><br/>Наш герой и школу окончил с серебряной медалью, и в вузе учился на отлично. И к своим текущим обязанностям он относится максимально серьезно. Ведь, по его словам, каждый сбитый вражеский дрон — это спасенная жизнь бойца или сохраненная техника.<br/><br/><i>Рассказываем об участниках СВО в</i> <i><tg-emoji emoji-id=\"5449407131675558756\"><i class=\"emoji\" style=\"background-image:url('//telegram.org/img/emoji/40/F09F93B2.png')\"><b>📲</b></i></tg-emoji></i><i> </i><a href=\"https://max.ru/heroesofZ\" target=\"_blank\" rel=\"noopener\" onclick=\"return confirm('Open this link?\\n\\n'+this.href);\"><i>MAX</i></a>,<i>  </i><i><tg-emoji emoji-id=\"5334853932915114338\"><i class=\"emoji\" style=\"background-image:url('//telegram.org/img/emoji/40/F09F93B1.png')\"><b>📱</b></i></tg-emoji></i><i> </i><a href=\"https://vk.com/heroes0fz\" target=\"_blank\" rel=\"noopener\" onclick=\"return confirm('Open this link?\\n\\n'+this.href);\"><i>ВКонтакте</i></a> <i>и в </i><i><tg-emoji emoji-id=\"5321533581472842536\"><i class=\"emoji\" style=\"background-image:url('//telegram.org/img/emoji/40/F09F93B1.png')\"><b>📱</b></i></tg-emoji></i><i> </i><a href=\"http://dzen.ru/heroesofz\" target=\"_blank\" rel=\"noopener\" onclick=\"return confirm('Open this link?\\n\\n'+this.href);\"><i>Дзен</i></a>"}},{"type":"Feature","geometry":null,"properties":{"source":"ru_mod","source_name":"Ministry of Defence of Russia","group":"official_ru","id":67356,"posted_utc":"2026-09-15T08:05:40+00:00","link":"https://t.me/mod_russia/67356","text":"⚡️ Подразделения группировки войск «Север» установили контроль над населенным пунктом Ольховатка в Харьковской области.\nПодробнее об успехах на других направлениях ➡️ в MAКС","links":["https://max.ru/morf/AaCkILjycAM"],"original_html":"<i class=\"emoji\" style=\"background-image:url('//telegram.org/img/emoji/40/E29AA1.png')\"><b>⚡️</b></i> Подразделения группировки войск «Север» <b>установили контроль над населенным пунктом Ольховатка</b> в Харьковской области.<br/><br/>Подробнее об успехах на других направлениях <tg-emoji emoji-id=\"5469902676957357453\"><i class=\"emoji\" style=\"background-image:url('//telegram.org/img/emoji/40/E29EA1.png')\"><b>➡️</b></i></tg-emoji> <a href=\"https://max.ru/morf/AaCkILjycAM\" target=\"_blank\" rel=\"noopener\" onclick=\"return confirm('Open this link?\\n\\n'+this.href);\">в MAКС</a>"}},{"type":"Feature","geometry":null,"properties":{"source":"ru_mod","source_name":"Ministry of Defence of Russia","group":"official_ru","id":67358,"posted_utc":"2026-09-15T08:42:54+00:00","link":"https://t.me/mod_russia/67358","text":"💥 Постой, паровоз, не стучите, колёса\nРасчет «Герань-4 сикер» поразил железнодорожный состав ВСУ, используемый для доставки грузов военного назначения, в том числе БПЛА иностранного производства и их комплектующих.\n📍 район населенного пункта Рымачи, Волынская область.\n#ВойскаБПС\n🔹 MAКС – территория СВОих","links":["https://max.ru/morf"],"original_html":"<tg-emoji emoji-id=\"5449682610877918293\"><i class=\"emoji\" style=\"background-image:url('//telegram.org/img/emoji/40/F09F92A5.png')\"><b>💥</b></i></tg-emoji> <b>Постой, паровоз, не стучите, колёса<br/><br/>Расчет «Герань-4 сикер» поразил железнодорожный состав ВСУ, </b>используемый для доставки грузов военного назначения, в том числе БПЛА иностранного производства и их комплектующих.<br/><br/><tg-emoji emoji-id=\"5449396879588614682\"><i class=\"emoji\" style=\"background-image:url('//telegram.org/img/emoji/40/F09F938D.png')\"><b>📍</b></i></tg-emoji><i> район населенного пункта Рымачи, Волынская область.</i><br/><br/><a href=\"?q=%23%D0%92%D0%BE%D0%B9%D1%81%D0%BA%D0%B0%D0%91%D0%9F%D0%A1\">#ВойскаБПС</a><br/><tg-emoji emoji-id=\"5269510734265483362\"><i class=\"emoji\" style=\"background-image:url('//telegram.org/img/emoji/40/F09F94B9.png')\"><b>🔹</b></i></tg-emoji> <a href=\"https://max.ru/morf\" target=\"_blank\" rel=\"noopener\" onclick=\"return confirm('Open this link?\\n\\n'+this.href);\">MAКС – территория СВОих</a>"}},{"type":"Feature","geometry":null,"properties":{"source":"ru_mod","source_name":"Ministry of Defence of Russia","group":"official_ru","id":67359,"posted_utc":"2026-09-15T09:11:53+00:00","link":"https://t.me/mod_russia/67359","text":"Более 500 000 ветеранов уже с электронными удостоверениями! Как работает новый сервис?\n🤝 Минобороны России выдало уже более 500 тысяч электронных удостоверений ветерана боевых действий. Все благодаря цифровому сервису по учету информации и обмену данными с уполномоченными банками.\n🖥 Ресурс создан на отечественном софте, полностью безопасен и позволяет быстро обрабатывать заявления.\n🔹 На сегодняшний день электронное удостоверение ветеранов боевых действий внедрено в 71 субъекте Российской Федерации. Из них в 14 – как отдельная региональная транспортная карта, а в 57 регионах удостоверение функционирует как социальная карта, подключенная к цифровому сервису соцподдержки, включая льготный проезд на транспорте.\n▫️ Кроме того, пользователям электронного удостоверения предоставляются скидки, льготы и преференции в 46 российских ведущих торговых сетях и транспортных операторах.\n📊 Продолжаем улучшать информационный ресурс для более качественной обработки заявлений. Внедряем электронное удостоверение в других субъектах России, а также расширяем список торговых компаний по предоставлению преференций.\n#МОобъясняет\n🔹 Канал Минобороны России в MAКС – только для своих!","links":["https://max.ru/morf"],"original_html":"<b>Более 500 000 ветеранов уже с электронными удостоверениями&#33;</b> Как работает новый сервис?<br/><br/><b><tg-emoji emoji-id=\"5447324252925620983\"><i class=\"emoji\" style=\"background-image:url('//telegram.org/img/emoji/40/F09FA49D.png')\"><b>🤝</b></i></tg-emoji></b><b> Минобороны России выдало уже более 500 тысяч электронных удостоверений ветерана боевых действий. </b>Все благодаря цифровому сервису по учету информации и обмену данными с уполномоченными банками.<br/><br/><b><tg-emoji emoji-id=\"5449528846753754177\"><i class=\"emoji\" style=\"background-image:url('//telegram.org/img/emoji/40/F09F96A5.png')\"><b>🖥</b></i></tg-emoji></b><b> Ресурс создан на отечественном софте</b>, полностью безопасен и позволяет быстро обрабатывать заявления.<br/><br/><tg-emoji emoji-id=\"5470000692406023380\"><i class=\"emoji\" style=\"background-image:url('//telegram.org/img/emoji/40/F09F94B9.png')\"><b>🔹</b></i></tg-emoji> На сегодняшний день электронное удостоверение ветеранов боевых действий<b> внедрено в 71 субъекте Российской Федерации. </b>Из них в 14 – как отдельная региональная транспортная карта, а в 57 регионах удостоверение функционирует как социальная карта, подключенная к цифровому сервису соцподдержки, включая льготный проезд на транспорте.<br/><br/><tg-emoji emoji-id=\"5469903849483431273\"><i class=\"emoji\" style=\"background-image:url('//telegram.org/img/emoji/40/E296AB.png')\"><b>▫️</b></i></tg-emoji> Кроме того, <b>пользователям электронного удостоверения предоставляются скидки, льготы и преференции в 46 российских ведущих торговых сетях</b> и транспортных операторах.<br/><br/><b><tg-emoji emoji-id=\"5471887681992551719\"><i class=\"emoji\" style=\"background-image:url('//telegram.org/img/emoji/40/F09F938A.png')\"><b>📊</b></i></tg-emoji></b><b> Продолжаем улучшать информационный ресурс </b>для более качественной обработки заявлений. Внедряем электронное удостоверение в других субъектах России, а также расширяем список торговых компаний по предоставлению преференций.<br/><br/><a href=\"?q=%23%D0%9C%D0%9E%D0%BE%D0%B1%D1%8A%D1%8F%D1%81%D0%BD%D1%8F%D0%B5%D1%82\">#МОобъясняет</a><br/><tg-emoji emoji-id=\"5269510734265483362\"><i class=\"emoji\" style=\"background-image:url('//telegram.org/img/emoji/40/F09F94B9.png')\"><b>🔹</b></i></tg-emoji> <a href=\"https://max.ru/morf\" target=\"_blank\" rel=\"noopener\" onclick=\"return confirm('Open this link?\\n\\n'+this.href);\">Канал Минобороны России в MAКС – только для своих&#33;</a>"}},{"type":"Feature","geometry":null,"properties":{"source":"ru_mod","source_name":"Ministry of Defence of Russia","group":"official_ru","id":67360,"posted_utc":"2026-09-15T10:12:27+00:00","link":"https://t.me/mod_russia/67360","text":"Граница на замке, ключ у «Герани». На пункте «Ягодин» досрочно закрыли смену.\nРоссийские войска поразили «Геранями» международный автомобильный пункт пропуска «Ягодин» в Волынской области.\nУдары по погранпереходам Украины нарушают поставки иностранной военной помощи на ключевых транспортно-логистических узлах ВСУ.\n#ВойскаБПС\n🎮 Канал Минобороны России в MAКС – боевая работа 24/7. Присоединяйся!","links":["https://max.ru/morf"],"original_html":"<b>Граница на замке, ключ у «Герани». </b>На пункте «Ягодин» досрочно закрыли смену.<br/><br/>Российские войска поразили «Геранями» международный автомобильный пункт пропуска «Ягодин» в Волынской области.<br/><i><br/>Удары по погранпереходам Украины нарушают поставки иностранной военной помощи на ключевых транспортно-логистических узлах ВСУ.</i><br/><br/><a href=\"?q=%23%D0%92%D0%BE%D0%B9%D1%81%D0%BA%D0%B0%D0%91%D0%9F%D0%A1\">#ВойскаБПС</a><br/><tg-emoji emoji-id=\"5449767024165154360\"><i class=\"emoji\" style=\"background-image:url('//telegram.org/img/emoji/40/F09F8EAE.png')\"><b>🎮</b></i></tg-emoji> <a href=\"https://max.ru/morf\" target=\"_blank\" rel=\"noopener\" onclick=\"return confirm('Open this link?\\n\\n'+this.href);\">Канал Минобороны России в MAКС – боевая работа 24/7. Присоединяйся&#33;</a>"}}]}