{"type":"FeatureCollection","features":[{"type":"Feature","geometry":null,"properties":{"source":"ru_mod","source_name":"Ministry of Defence of Russia","group":"official_ru","id":67728,"posted_utc":"2026-09-29T02:07:01+00:00","link":"https://t.me/mod_russia/67728","text":"Отлетались: артиллеристы разнесли вражеское гнездо\n⚔️ Расчет «Града» 44-го армейского корпуса группировки «Север» уничтожил пункты управления беспилотниками и живую силу противника.\n📍 Сумская область\n🔹 Канал Минобороны России в MAКС – боевая работа 24/7","links":["https://max.ru/morf"],"original_html":"<b>Отлетались: артиллеристы разнесли вражеское гнездо</b><br/><br/><tg-emoji emoji-id=\"5352957387571492906\"><i class=\"emoji\" style=\"background-image:url('//telegram.org/img/emoji/40/E29A94.png')\"><b>⚔️</b></i></tg-emoji> Расчет «Града» 44-го армейского корпуса группировки «Север» уничтожил пункты управления беспилотниками и живую силу противника.<br/><br/><tg-emoji emoji-id=\"5469680584198483528\"><i class=\"emoji\" style=\"background-image:url('//telegram.org/img/emoji/40/F09F938D.png')\"><b>📍</b></i></tg-emoji> <i>Сумская область</i><br/><br/><tg-emoji emoji-id=\"5269510734265483362\"><i class=\"emoji\" style=\"background-image:url('//telegram.org/img/emoji/40/F09F94B9.png')\"><b>🔹</b></i></tg-emoji> <a href=\"https://max.ru/morf\" target=\"_blank\" rel=\"noopener\" onclick=\"return confirm('Open this link?\\n\\n'+this.href);\">Канал Минобороны России в MAКС – боевая работа 24/7</a>"}},{"type":"Feature","geometry":null,"properties":{"source":"ru_mod","source_name":"Ministry of Defence of Russia","group":"official_ru","id":67729,"posted_utc":"2026-09-29T03:43:01+00:00","link":"https://t.me/mod_russia/67729","text":"▫️  Жесткий прессинг от бойцов группировки «Север»\n📍  На прошлой неделе бойцы 128-й отдельной мотострелковой бригады взяли под контроль Новоалександровку в Харьковской области.\n🤝  Решающую роль в штурме сыграло тесное взаимодействие артиллерии и операторов ударных БПЛА. Точечными ударами они заранее выжгли вражеские опорные пункты, огневые точки и полевые склады с боеприпасами, обескровив противника.\n➡️ Заняв населённый пункт, российские штурмовые группы сразу же закрепились на рубежах. Это не оставило врагу шансов на контратаку и создало плацдарм для дальнейшего продвижения на этом участке фронта.\n🔹 Канал Минобороны России в MAКС – источник мощных новостей","links":["https://t.me/mod_russia/67526","https://max.ru/morf"],"original_html":"<tg-emoji emoji-id=\"5352532894478793783\"><i class=\"emoji\" style=\"background-image:url('//telegram.org/img/emoji/40/E296AB.png')\"><b>▫️</b></i></tg-emoji>  <b>Жесткий прессинг от бойцов группировки «Север»</b><br/><br/><tg-emoji emoji-id=\"5469680584198483528\"><i class=\"emoji\" style=\"background-image:url('//telegram.org/img/emoji/40/F09F938D.png')\"><b>📍</b></i></tg-emoji>  На прошлой неделе бойцы 128-й отдельной мотострелковой бригады взяли под контроль <a href=\"https://t.me/mod_russia/67526\" target=\"_blank\" rel=\"noopener\" onclick=\"return confirm('Open this link?\\n\\n'+this.href);\"><u>Новоалександровку</u></a> в Харьковской области.<br/><br/><tg-emoji emoji-id=\"5447324252925620983\"><i class=\"emoji\" style=\"background-image:url('//telegram.org/img/emoji/40/F09FA49D.png')\"><b>🤝</b></i></tg-emoji>  Решающую роль в штурме сыграло <b>тесное взаимодействие артиллерии и операторов ударных БПЛА. </b>Точечными ударами они заранее выжгли вражеские опорные пункты, огневые точки и полевые склады с боеприпасами, обескровив противника.<br/><br/><tg-emoji emoji-id=\"5469902676957357453\"><i class=\"emoji\" style=\"background-image:url('//telegram.org/img/emoji/40/E29EA1.png')\"><b>➡️</b></i></tg-emoji> Заняв населённый пункт, российские штурмовые группы сразу же закрепились на рубежах. Это не оставило врагу шансов на контратаку и <b>создало плацдарм для дальнейшего продвижения на этом участке фронта.<br/><br/></b><tg-emoji emoji-id=\"5269510734265483362\"><i class=\"emoji\" style=\"background-image:url('//telegram.org/img/emoji/40/F09F94B9.png')\"><b>🔹</b></i></tg-emoji> <a href=\"https://max.ru/morf\" target=\"_blank\" rel=\"noopener\" onclick=\"return confirm('Open this link?\\n\\n'+this.href);\">Канал Минобороны России в MAКС – источник мощных новостей</a>"}},{"type":"Feature","geometry":null,"properties":{"source":"ru_mod","source_name":"Ministry of Defence of Russia","group":"official_ru","id":67730,"posted_utc":"2026-09-29T05:18:45+00:00","link":"https://t.me/mod_russia/67730","text":"⚡️ В течение прошедшей ночи в период с 20.00 мск 28 сентября до 8.00 мск 29 сентября дежурными силами ПВО перехвачены и уничтожены 129 украинских беспилотных летательных аппаратов самолетного типа над территориями Белгородской, Брянской, Курской, Орловской, Смоленской областей, Республики Крым и над акваторией Черного моря.\n🔹 MAКС – территория СВОих","links":["https://max.ru/morf"],"original_html":"<i class=\"emoji\" style=\"background-image:url('//telegram.org/img/emoji/40/E29AA1.png')\"><b>⚡️</b></i> В течение прошедшей ночи в период с 20.00 мск 28 сентября до 8.00 мск 29 сентября дежурными силами ПВО <b>перехвачены и уничтожены 129 украинских беспилотных летательных аппаратов самолетного типа</b> над территориями Белгородской, Брянской, Курской, Орловской, Смоленской областей, Республики Крым и над акваторией Черного моря.<br/><br/><tg-emoji emoji-id=\"5269510734265483362\"><i class=\"emoji\" style=\"background-image:url('//telegram.org/img/emoji/40/F09F94B9.png')\"><b>🔹</b></i></tg-emoji> <a href=\"https://max.ru/morf\" target=\"_blank\" rel=\"noopener\" onclick=\"return confirm('Open this link?\\n\\n'+this.href);\">MAКС – территория СВОих</a>"}},{"type":"Feature","geometry":null,"properties":{"source":"ru_mod","source_name":"Ministry of Defence of Russia","group":"official_ru","id":67731,"posted_utc":"2026-09-29T05:40:38+00:00","link":"https://t.me/mod_russia/67731","text":"🇷🇺 Редкодуб: позиции держим\nРоссийские войска продолжают удерживать позиции в населенном пункте Редкодуб в Краматорском районе.\n👉 На кадрах объективного контроля – штурмовики группировки «Запад» передвигаются между занятыми позициями.\n🔹 Канал Минобороны России в MAКС – боевая работа 24/7","links":["https://max.ru/morf"],"original_html":"<i class=\"emoji\" style=\"background-image:url('//telegram.org/img/emoji/40/F09F87B7F09F87BA.png')\"><b>🇷🇺</b></i> <b>Редкодуб: позиции держим</b><br/><br/>Российские войска продолжают удерживать позиции в населенном пункте Редкодуб в Краматорском районе.<br/><br/><i class=\"emoji\" style=\"background-image:url('//telegram.org/img/emoji/40/F09F9189.png')\"><b>👉</b></i> На кадрах объективного контроля – штурмовики группировки «Запад» передвигаются между занятыми позициями.<br/><br/><tg-emoji emoji-id=\"5269510734265483362\"><i class=\"emoji\" style=\"background-image:url('//telegram.org/img/emoji/40/F09F94B9.png')\"><b>🔹</b></i></tg-emoji> <a href=\"https://max.ru/morf\" target=\"_blank\" rel=\"noopener\" onclick=\"return confirm('Open this link?\\n\\n'+this.href);\">Канал Минобороны России в MAКС – боевая работа 24/7</a>"}},{"type":"Feature","geometry":null,"properties":{"source":"ru_mod","source_name":"Ministry of Defence of Russia","group":"official_ru","id":67732,"posted_utc":"2026-09-29T05:41:28+00:00","link":"https://t.me/mod_russia/67732","text":"Ямполь контролируем полностью\n▫️ Военнослужащие группировки «Запад» держат под полным контролем населенный пункт Ямполь в Краматорском районе.\n🔹 Канал Минобороны России в MAКС – только для своих!","links":["https://max.ru/morf"],"original_html":"<b>Ямполь контролируем полностью</b><br/><br/><tg-emoji emoji-id=\"5352532894478793783\"><i class=\"emoji\" style=\"background-image:url('//telegram.org/img/emoji/40/E296AB.png')\"><b>▫️</b></i></tg-emoji> Военнослужащие группировки «Запад» держат под полным контролем населенный пункт Ямполь в Краматорском районе.<br/><br/><tg-emoji emoji-id=\"5269510734265483362\"><i class=\"emoji\" style=\"background-image:url('//telegram.org/img/emoji/40/F09F94B9.png')\"><b>🔹</b></i></tg-emoji> <a href=\"https://max.ru/morf\" target=\"_blank\" rel=\"noopener\" onclick=\"return confirm('Open this link?\\n\\n'+this.href);\">Канал Минобороны России в MAКС – только для своих&#33;</a>"}},{"type":"Feature","geometry":null,"properties":{"source":"ru_mod","source_name":"Ministry of Defence of Russia","group":"official_ru","id":67733,"posted_utc":"2026-09-29T05:42:38+00:00","link":"https://t.me/mod_russia/67733","text":"🇷🇺 Над Новомихайловкой только наши флаги!\nШтурмовые подразделения группировки «Запад» уверенно удерживают позиции в населенном пункте Новомихайловка в Краматорском районе.\n🔹 Курс на MAКС!","links":["https://max.ru/morf"],"original_html":"<i class=\"emoji\" style=\"background-image:url('//telegram.org/img/emoji/40/F09F87B7F09F87BA.png')\"><b>🇷🇺</b></i> <b>Над Новомихайловкой только наши флаги&#33;</b><br/><br/>Штурмовые подразделения группировки «Запад» уверенно удерживают позиции в населенном пункте Новомихайловка в Краматорском районе. <br/><br/><tg-emoji emoji-id=\"5269510734265483362\"><i class=\"emoji\" style=\"background-image:url('//telegram.org/img/emoji/40/F09F94B9.png')\"><b>🔹</b></i></tg-emoji> <a href=\"https://max.ru/morf\" target=\"_blank\" rel=\"noopener\" onclick=\"return confirm('Open this link?\\n\\n'+this.href);\">Курс на MAКС&#33;</a>"}},{"type":"Feature","geometry":null,"properties":{"source":"ru_mod","source_name":"Ministry of Defence of Russia","group":"official_ru","id":67734,"posted_utc":"2026-09-29T05:43:29+00:00","link":"https://t.me/mod_russia/67734","text":"▫️ В Новом уверенно стоим на занятых позициях\nВоеннослужащие группировки «Запад» продолжают удерживать занятые позиции в населенном пункте Новое в Краматорском районе.\n🔹 Канал Минобороны России в MAКС – источник мощных новостей","links":["https://max.ru/morf"],"original_html":"<tg-emoji emoji-id=\"5352532894478793783\"><i class=\"emoji\" style=\"background-image:url('//telegram.org/img/emoji/40/E296AB.png')\"><b>▫️</b></i></tg-emoji> <b>В Новом уверенно стоим на занятых позициях</b><br/><br/>Военнослужащие группировки «Запад» продолжают удерживать занятые позиции в населенном пункте Новое в Краматорском районе.<br/><br/><tg-emoji emoji-id=\"5269510734265483362\"><i class=\"emoji\" style=\"background-image:url('//telegram.org/img/emoji/40/F09F94B9.png')\"><b>🔹</b></i></tg-emoji> <a href=\"https://max.ru/morf\" target=\"_blank\" rel=\"noopener\" onclick=\"return confirm('Open this link?\\n\\n'+this.href);\">Канал Минобороны России в MAКС – источник мощных новостей</a>"}},{"type":"Feature","geometry":null,"properties":{"source":"ru_mod","source_name":"Ministry of Defence of Russia","group":"official_ru","id":67735,"posted_utc":"2026-09-29T06:07:39+00:00","link":"https://t.me/mod_russia/67735","text":"❗️ Сегодня ночью Вооруженными Силами Российской Федерации нанесен групповой удар высокоточным оружием наземного базирования и беспилотными летательными аппаратами по логистическим центрам, объектам портовой, транспортной инфраструктуры и морским судам, задействованным в интересах ВСУ.\n💥  В результате удара поражены:\n📍  в Киеве:\n▫️ локомотивное депо, где был оборудован склад крылатых ракет наземного базирования FP-5 «Фламинго» и компонентов к ним;\n▫️ центр обработки данных «Бимобайл», одна из основных точек обмена интернет-трафиком, обеспечивающая стабильность передачи информации, в том числе разведывательной, в интересах ВСУ;\n▫️ центр обработки данных «Парковый» – обеспечивавший обработку данных в государственных и коммерческих сервисах, в том числе в интересах ВСУ;\n📍  в Киевской области – складской терминал «Белогородка», на территории которого осуществлялось производство и хранение беспилотных летательных аппаратов самолетного типа;\n📍  в Одесской области:\n▫️ электроподстанция «Усатово», обеспечивающая электроэнергией объекты инфраструктуры украинских портов;\n▫️ цех производства беспилотных летательных аппаратов самолетного типа в населенном пункте Великодолинское;\n▫️ в порту Измаил – объекты портовой инфраструктуры, обеспечивающие разгрузку грузов военного назначения;\n▫️ в порту Одесса поражено морское судно типа «сухогруз», доставившее военное имущество для обеспечения ВСУ.\n💥 Кроме того, на переходе морем нанесено поражение морскому судну типа «сухогруз», перевозившему военные грузы в порт Одесса.\n🔹 Минобороны России","links":["https://max.ru/morf"],"original_html":"<tg-emoji emoji-id=\"5447116342148753425\"><i class=\"emoji\" style=\"background-image:url('//telegram.org/img/emoji/40/E29D97.png')\"><b>❗️</b></i></tg-emoji> <b>Сегодня ночью Вооруженными Силами Российской Федерации нанесен групповой удар высокоточным оружием наземного базирования и беспилотными летательными аппаратами по логистическим центрам, объектам портовой, транспортной инфраструктуры и морским судам, задействованным в интересах ВСУ.</b><br/><br/><tg-emoji emoji-id=\"5449682610877918293\"><i class=\"emoji\" style=\"background-image:url('//telegram.org/img/emoji/40/F09F92A5.png')\"><b>💥</b></i></tg-emoji>  В результате удара поражены:<br/><br/><tg-emoji emoji-id=\"5449396879588614682\"><i class=\"emoji\" style=\"background-image:url('//telegram.org/img/emoji/40/F09F938D.png')\"><b>📍</b></i></tg-emoji>  в <b>Киеве</b>:<br/><br/><tg-emoji emoji-id=\"5469903849483431273\"><i class=\"emoji\" style=\"background-image:url('//telegram.org/img/emoji/40/E296AB.png')\"><b>▫️</b></i></tg-emoji> локомотивное депо, где был оборудован склад крылатых ракет наземного базирования FP-5 «Фламинго» и компонентов к ним;<br/><br/><tg-emoji emoji-id=\"5469903849483431273\"><i class=\"emoji\" style=\"background-image:url('//telegram.org/img/emoji/40/E296AB.png')\"><b>▫️</b></i></tg-emoji> центр обработки данных «Бимобайл», одна из основных точек обмена интернет-трафиком, обеспечивающая стабильность передачи информации, в том числе разведывательной, в интересах ВСУ;<br/><br/><tg-emoji emoji-id=\"5469903849483431273\"><i class=\"emoji\" style=\"background-image:url('//telegram.org/img/emoji/40/E296AB.png')\"><b>▫️</b></i></tg-emoji> центр обработки данных «Парковый» – обеспечивавший обработку данных в государственных и коммерческих сервисах, в том числе в интересах ВСУ;<br/><br/><tg-emoji emoji-id=\"5449396879588614682\"><i class=\"emoji\" style=\"background-image:url('//telegram.org/img/emoji/40/F09F938D.png')\"><b>📍</b></i></tg-emoji>  в <b>Киевской области</b> – складской терминал «Белогородка», на территории которого осуществлялось производство и хранение беспилотных летательных аппаратов самолетного типа;<br/><br/><tg-emoji emoji-id=\"5449396879588614682\"><i class=\"emoji\" style=\"background-image:url('//telegram.org/img/emoji/40/F09F938D.png')\"><b>📍</b></i></tg-emoji>  в <b>Одесской области</b>:<br/><tg-emoji emoji-id=\"5469903849483431273\"><i class=\"emoji\" style=\"background-image:url('//telegram.org/img/emoji/40/E296AB.png')\"><b>▫️</b></i></tg-emoji> электроподстанция «Усатово», обеспечивающая электроэнергией объекты инфраструктуры украинских портов;<br/><br/><tg-emoji emoji-id=\"5469903849483431273\"><i class=\"emoji\" style=\"background-image:url('//telegram.org/img/emoji/40/E296AB.png')\"><b>▫️</b></i></tg-emoji> цех производства беспилотных летательных аппаратов самолетного типа в населенном пункте Великодолинское;<br/><br/><tg-emoji emoji-id=\"5469903849483431273\"><i class=\"emoji\" style=\"background-image:url('//telegram.org/img/emoji/40/E296AB.png')\"><b>▫️</b></i></tg-emoji> в порту Измаил – объекты портовой инфраструктуры, обеспечивающие разгрузку грузов военного назначения;<br/><br/><tg-emoji emoji-id=\"5469903849483431273\"><i class=\"emoji\" style=\"background-image:url('//telegram.org/img/emoji/40/E296AB.png')\"><b>▫️</b></i></tg-emoji> в порту Одесса поражено морское судно типа «сухогруз», доставившее военное имущество для обеспечения ВСУ.<br/><br/><tg-emoji emoji-id=\"5449682610877918293\"><i class=\"emoji\" style=\"background-image:url('//telegram.org/img/emoji/40/F09F92A5.png')\"><b>💥</b></i></tg-emoji> Кроме того, <b>на переходе морем </b>нанесено поражение морскому судну типа «сухогруз», перевозившему военные грузы в порт Одесса.<br/><br/><tg-emoji emoji-id=\"5269510734265483362\"><i class=\"emoji\" style=\"background-image:url('//telegram.org/img/emoji/40/F09F94B9.png')\"><b>🔹</b></i></tg-emoji> <a href=\"https://max.ru/morf\" target=\"_blank\" rel=\"noopener\" onclick=\"return confirm('Open this link?\\n\\n'+this.href);\">Минобороны России</a>"}},{"type":"Feature","geometry":null,"properties":{"source":"ru_mod","source_name":"Ministry of Defence of Russia","group":"official_ru","id":67736,"posted_utc":"2026-09-29T07:18:47+00:00","link":"https://t.me/mod_russia/67736","text":"▫️ Настоящие мастера по «пикапу»\nПарни из расчетов ударных БПЛА показали, что такое «горячий подкат». Проводя разведку в Славянско-Краматорской агломерации, они обнаружили вражеский транспорт, который вез припасы на позиции.\nИтог «знакомства»: несколько единиц транспорта ВСУ больше никуда не едут, снабжение позиций полностью сорвано.\n#ВойскаБПС\n🎮 Канал Минобороны России в MAКС – боевая работа 24/7. Присоединяйся!","links":["https://max.ru/morf"],"original_html":"<tg-emoji emoji-id=\"5352532894478793783\"><i class=\"emoji\" style=\"background-image:url('//telegram.org/img/emoji/40/E296AB.png')\"><b>▫️</b></i></tg-emoji> <b>Настоящие мастера по «пикапу»</b><br/><br/>Парни из расчетов ударных БПЛА показали, что такое «горячий подкат». Проводя разведку в Славянско-Краматорской агломерации, они обнаружили вражеский транспорт, который вез припасы на позиции. <br/><br/><b>Итог «знакомства»: несколько единиц транспорта ВСУ больше никуда не едут, снабжение позиций полностью сорвано.</b><br/><br/><a href=\"?q=%23%D0%92%D0%BE%D0%B9%D1%81%D0%BA%D0%B0%D0%91%D0%9F%D0%A1\">#ВойскаБПС</a><br/><tg-emoji emoji-id=\"5449767024165154360\"><i class=\"emoji\" style=\"background-image:url('//telegram.org/img/emoji/40/F09F8EAE.png')\"><b>🎮</b></i></tg-emoji> <a href=\"https://max.ru/morf\" target=\"_blank\" rel=\"noopener\" onclick=\"return confirm('Open this link?\\n\\n'+this.href);\">Канал Минобороны России в MAКС – боевая работа 24/7. Присоединяйся&#33;</a>"}},{"type":"Feature","geometry":null,"properties":{"source":"ru_mod","source_name":"Ministry of Defence of Russia","group":"official_ru","id":67737,"posted_utc":"2026-09-29T07:46:02+00:00","link":"https://t.me/mod_russia/67737","text":"❤️ Красиво: корабли Северного флота впервые в истории ВМФ России прошли проливом Шокальского\n📍 Маршрут пролегал между островами архипелага Северная Земля.\n🚁 Ледовая разведка: С борта патрульного корабля ледового класса «Иван Папанин» подняли вертолёт Ка-29 для разведки маршрута с воздуха.\n🌊 Маневрирование среди айсбергов: Пролив встретил отряд сложной ледовой обстановкой. Североморцы оперативно меняли курс и скорость, чтобы обеспечить полную навигационную безопасность.\n▫️ Боевая готовность: Для прохождения пролива на кораблях объявили учебную тревогу, а экипажи успешно оценили этот новый район для будущих действий ВМФ России.\n⚓️ Гордимся нашими моряками!\n🔹 MAКС – территория СВОих","links":["https://max.ru/morf"],"original_html":"<i class=\"emoji\" style=\"background-image:url('//telegram.org/img/emoji/40/E29DA4.png')\"><b>❤️</b></i> <b>Красиво: корабли Северного флота впервые в истории ВМФ России прошли проливом Шокальского</b><br/><i><br/></i><i><tg-emoji emoji-id=\"5449396879588614682\"><i class=\"emoji\" style=\"background-image:url('//telegram.org/img/emoji/40/F09F938D.png')\"><b>📍</b></i></tg-emoji></i><i> Маршрут пролегал между островами архипелага Северная Земля.</i><br/><br/><tg-emoji emoji-id=\"5449369619431188481\"><i class=\"emoji\" style=\"background-image:url('//telegram.org/img/emoji/40/F09F9A81.png')\"><b>🚁</b></i></tg-emoji> <b>Ледовая разведка</b>: С борта патрульного корабля ледового класса «Иван Папанин» подняли вертолёт Ка-29 для разведки маршрута с воздуха.<br/><br/><i class=\"emoji\" style=\"background-image:url('//telegram.org/img/emoji/40/F09F8C8A.png')\"><b>🌊</b></i> <b>Маневрирование среди айсбергов</b>: Пролив встретил отряд сложной ледовой обстановкой. Североморцы оперативно меняли курс и скорость, чтобы обеспечить полную навигационную безопасность.<br/><br/><tg-emoji emoji-id=\"5352532894478793783\"><i class=\"emoji\" style=\"background-image:url('//telegram.org/img/emoji/40/E296AB.png')\"><b>▫️</b></i></tg-emoji> <b>Боевая готовность</b>: Для прохождения пролива на кораблях объявили учебную тревогу, а экипажи успешно оценили этот новый район для будущих действий ВМФ России.<br/><br/><tg-emoji emoji-id=\"5469905455801198241\"><i class=\"emoji\" style=\"background-image:url('//telegram.org/img/emoji/40/E29A93.png')\"><b>⚓️</b></i></tg-emoji> <b>Гордимся нашими моряками&#33;</b><br/><br/><tg-emoji emoji-id=\"5269510734265483362\"><i class=\"emoji\" style=\"background-image:url('//telegram.org/img/emoji/40/F09F94B9.png')\"><b>🔹</b></i></tg-emoji> <a href=\"https://max.ru/morf\" target=\"_blank\" rel=\"noopener\" onclick=\"return confirm('Open this link?\\n\\n'+this.href);\">MAКС – территория СВОих</a>"}},{"type":"Feature","geometry":null,"properties":{"source":"ru_mod","source_name":"Ministry of Defence of Russia","group":"official_ru","id":67738,"posted_utc":"2026-09-29T08:29:30+00:00","link":"https://t.me/mod_russia/67738","text":"«Что удивило — так это душ в блиндаже!»\nТехник расчета БПЛА с позывным «Полюс» поделился впечатлениями о том, как служится в войсках беспилотных систем. Как студент-заочник, он получил возможность заключить спецконтракт. Опыт предыдущей работы помог определить специализацию. Условиями «Полюс» доволен: бойцам выдали положенное довольствие, кормят прилично, работа важная для страны.\nВ течение года он будет выполнять задачи в составе расчета БПЛА, а в колледже будет действовать академический отпуск.\nРассказываем об участниках СВО в 📲 MAX,  📱 ВКонтакте и в 📱 Дзен","links":["https://max.ru/heroesofZ","https://vk.com/heroes0fz","http://dzen.ru/heroesofz"],"original_html":"<i>«Что удивило — так это душ в блиндаже&#33;»</i><br/><br/>Техник расчета БПЛА с <b>позывным «Полюс»</b> поделился впечатлениями о том, как служится в войсках беспилотных систем. Как студент-заочник, он получил возможность заключить спецконтракт. Опыт предыдущей работы помог определить специализацию. Условиями «Полюс» доволен: бойцам выдали положенное довольствие, кормят прилично, работа важная для страны.<br/><br/> В течение года он будет выполнять задачи в составе расчета БПЛА, а в колледже будет действовать академический отпуск. <br/><br/><i>Рассказываем об участниках СВО в</i> <i><tg-emoji emoji-id=\"5449407131675558756\"><i class=\"emoji\" style=\"background-image:url('//telegram.org/img/emoji/40/F09F93B2.png')\"><b>📲</b></i></tg-emoji></i><i> </i><a href=\"https://max.ru/heroesofZ\" target=\"_blank\" rel=\"noopener\" onclick=\"return confirm('Open this link?\\n\\n'+this.href);\"><i>MAX</i></a>,<i>  </i><i><tg-emoji emoji-id=\"5334853932915114338\"><i class=\"emoji\" style=\"background-image:url('//telegram.org/img/emoji/40/F09F93B1.png')\"><b>📱</b></i></tg-emoji></i><i> </i><a href=\"https://vk.com/heroes0fz\" target=\"_blank\" rel=\"noopener\" onclick=\"return confirm('Open this link?\\n\\n'+this.href);\"><i>ВКонтакте</i></a> <i>и в </i><i><tg-emoji emoji-id=\"5321533581472842536\"><i class=\"emoji\" style=\"background-image:url('//telegram.org/img/emoji/40/F09F93B1.png')\"><b>📱</b></i></tg-emoji></i><i> </i><a href=\"http://dzen.ru/heroesofz\" target=\"_blank\" rel=\"noopener\" onclick=\"return confirm('Open this link?\\n\\n'+this.href);\"><i>Дзен</i></a>"}},{"type":"Feature","geometry":null,"properties":{"source":"ru_mod","source_name":"Ministry of Defence of Russia","group":"official_ru","id":67739,"posted_utc":"2026-09-29T08:48:13+00:00","link":"https://t.me/mod_russia/67739","text":"☦️ Разведчики ЮВО под покровительством Дмитрия Донского\nВ Республике Северная Осетия – Алания прошли богослужения, приуроченные к обретению мощей святого благоверного князя Дмитрия Донского.\n📍 город Моздок\nМолебен прошел в храме-часовне на территории отдельного соединения разведки Южного военного округа. Военнослужащие помолились перед иконой святого князя за здравие и благополучие своих близких.\n🔹 Канал Минобороны России в MAКС – только для своих!","links":["https://max.ru/morf"],"original_html":"<i class=\"emoji\" style=\"background-image:url('//telegram.org/img/emoji/40/E298A6.png')\"><b>☦️</b></i> <b>Разведчики ЮВО под покровительством Дмитрия Донского<br/><br/>В Республике Северная Осетия – Алания прошли богослужения, приуроченные к обретению мощей святого благоверного князя Дмитрия Донского.</b><br/><br/><tg-emoji emoji-id=\"5449396879588614682\"><i class=\"emoji\" style=\"background-image:url('//telegram.org/img/emoji/40/F09F938D.png')\"><b>📍</b></i></tg-emoji> <i>город Моздок</i><br/><br/>Молебен прошел в храме-часовне на территории отдельного соединения разведки Южного военного округа. Военнослужащие помолились перед иконой святого князя за здравие и благополучие своих близких.<br/><br/><tg-emoji emoji-id=\"5269510734265483362\"><i class=\"emoji\" style=\"background-image:url('//telegram.org/img/emoji/40/F09F94B9.png')\"><b>🔹</b></i></tg-emoji> <a href=\"https://max.ru/morf\" target=\"_blank\" rel=\"noopener\" onclick=\"return confirm('Open this link?\\n\\n'+this.href);\">Канал Минобороны России в MAКС – только для своих&#33;</a>"}},{"type":"Feature","geometry":null,"properties":{"source":"ru_mod","source_name":"Ministry of Defence of Russia","group":"official_ru","id":67740,"posted_utc":"2026-09-29T08:57:29+00:00","link":"https://t.me/mod_russia/67740","text":"⚡️ Подразделения группировки войск «Север» в Харьковской области продолжают сжимать кольцо окружения и расширять внешнюю зону контроля.\n🚩 Освобожден населенный пункт Крейдянка Харьковской области.\n🔹 MAКС – территория СВОих","links":["https://max.ru/morf"],"original_html":"<i class=\"emoji\" style=\"background-image:url('//telegram.org/img/emoji/40/E29AA1.png')\"><b>⚡️</b></i> Подразделения группировки войск «Север» в Харьковской области <b>продолжают сжимать кольцо окружения</b> и расширять внешнюю зону контроля. <br/><br/><tg-emoji emoji-id=\"5447466081335670917\"><i class=\"emoji\" style=\"background-image:url('//telegram.org/img/emoji/40/F09F9AA9.png')\"><b>🚩</b></i></tg-emoji> <b>Освобожден населенный пункт Крейдянка Харьковской области.</b><br/><br/><tg-emoji emoji-id=\"5269510734265483362\"><i class=\"emoji\" style=\"background-image:url('//telegram.org/img/emoji/40/F09F94B9.png')\"><b>🔹</b></i></tg-emoji> <a href=\"https://max.ru/morf\" target=\"_blank\" rel=\"noopener\" onclick=\"return confirm('Open this link?\\n\\n'+this.href);\">MAКС – территория СВОих</a>"}},{"type":"Feature","geometry":null,"properties":{"source":"ru_mod","source_name":"Ministry of Defence of Russia","group":"official_ru","id":67741,"posted_utc":"2026-09-29T08:57:38+00:00","link":"https://t.me/mod_russia/67741","text":"⚡️ Подразделения группировки войск «Центр» освободили населенный пункт Веселое Поле Донецкой Народной Республики.\nПодробнее об успехах наших войск ➡️ в MAКС","links":["https://max.ru/morf/AaDsa7G0Ves"],"original_html":"<i class=\"emoji\" style=\"background-image:url('//telegram.org/img/emoji/40/E29AA1.png')\"><b>⚡️</b></i> Подразделения группировки войск «Центр» <b>освободили населенный пункт Веселое Поле</b> Донецкой Народной Республики. <br/><br/>Подробнее об успехах наших войск <tg-emoji emoji-id=\"5469902676957357453\"><i class=\"emoji\" style=\"background-image:url('//telegram.org/img/emoji/40/E29EA1.png')\"><b>➡️</b></i></tg-emoji> <a href=\"https://max.ru/morf/AaDsa7G0Ves\" target=\"_blank\" rel=\"noopener\" onclick=\"return confirm('Open this link?\\n\\n'+this.href);\">в MAКС</a>"}},{"type":"Feature","geometry":null,"properties":{"source":"ru_mod","source_name":"Ministry of Defence of Russia","group":"official_ru","id":67742,"posted_utc":"2026-09-29T09:59:20+00:00","link":"https://t.me/mod_russia/67742","text":"Спасаем жизни и даем надежду\n👨‍👩‍👧‍👦 Военнослужащие 5‑го отдельного гвардейского комендантского полка 51‑й общевойсковой армии группировки «Центр» эвакуировали мирных жителей из города Белицкое ДНР.\n❗️ Сначала люди в сопровождении наших бойцов шли пешком. Затем эвакуированных, включая несовершеннолетнюю девочку, пересадили в автомобили и отвезли в безопасный район.\n▫️ Благодаря чуткости и слаженным действиям парней мирные жители Белицкого сейчас в безопасности. С эвакуированными уже работают специалисты, оказывают им необходимую помощь и психологическую поддержку.\n💬 О том, как проходила эвакуация, рассказал заместитель военного коменданта с позывным «Якут». А жительница Белицкого, Ангелина Карэк, поделилась тем, какие испытания пришлось пройти людям в городе и какими долгими были для них минуты на пути к мирной жизни.\n❤️  Своих не бросаем. Гордимся мужеством наших воинов!\n🔹 MAКС – территория СВОих","links":["https://max.ru/morf"],"original_html":"<b>Спасаем жизни и даем надежду</b><br/><br/><tg-emoji emoji-id=\"5472106231403405332\"><i class=\"emoji\" style=\"background-image:url('//telegram.org/img/emoji/40/F09F91A8E2808DF09F91A9E2808DF09F91A7E2808DF09F91A6.png')\"><b>👨‍👩‍👧‍👦</b></i></tg-emoji> Военнослужащие 5‑го отдельного гвардейского комендантского полка 51‑й общевойсковой армии группировки «Центр» <b>эвакуировали мирных жителей из города Белицкое</b> ДНР.<br/><br/><tg-emoji emoji-id=\"5447116342148753425\"><i class=\"emoji\" style=\"background-image:url('//telegram.org/img/emoji/40/E29D97.png')\"><b>❗️</b></i></tg-emoji> Сначала люди в сопровождении наших бойцов шли пешком. Затем эвакуированных, включая несовершеннолетнюю девочку, пересадили в автомобили и отвезли в безопасный район.<br/><br/><tg-emoji emoji-id=\"5264712598665850592\"><i class=\"emoji\" style=\"background-image:url('//telegram.org/img/emoji/40/E296AB.png')\"><b>▫️</b></i></tg-emoji> Благодаря чуткости и слаженным действиям парней мирные жители Белицкого сейчас в безопасности. С эвакуированными уже работают специалисты, оказывают им необходимую помощь и психологическую поддержку.<br/><br/><tg-emoji emoji-id=\"5447486370761176298\"><i class=\"emoji\" style=\"background-image:url('//telegram.org/img/emoji/40/F09F92AC.png')\"><b>💬</b></i></tg-emoji> <b>О том, как проходила эвакуация</b>, рассказал заместитель военного коменданта с позывным «Якут». А жительница Белицкого, Ангелина Карэк, поделилась тем, <b>какие испытания пришлось пройти людям</b> в городе и какими долгими были для них минуты на пути к мирной жизни.<br/><br/><tg-emoji emoji-id=\"5449505950283078474\"><i class=\"emoji\" style=\"background-image:url('//telegram.org/img/emoji/40/E29DA4.png')\"><b>❤️</b></i></tg-emoji>  <b>Своих не бросаем. Гордимся мужеством наших воинов&#33;</b><br/><br/><tg-emoji emoji-id=\"5269510734265483362\"><i class=\"emoji\" style=\"background-image:url('//telegram.org/img/emoji/40/F09F94B9.png')\"><b>🔹</b></i></tg-emoji> <a href=\"https://max.ru/morf\" target=\"_blank\" rel=\"noopener\" onclick=\"return confirm('Open this link?\\n\\n'+this.href);\">MAКС – территория СВОих</a>"}},{"type":"Feature","geometry":null,"properties":{"source":"ru_mod","source_name":"Ministry of Defence of Russia","group":"official_ru","id":67757,"posted_utc":"2026-09-29T21:11:33+00:00","link":"https://t.me/mod_russia/67757","text":"Посмотрите наш новый проект о строительстве и использовании электризованных заграждений в ходе оборонительного этапа битвы за Москву.  📑 Рассекреченные приказы, схемы и донесения покажут, как командиры Красной армии вместе с гражданскими инженерами справлялись…","links":[],"original_html":"Посмотрите наш новый проект о строительстве и использовании электризованных заграждений в ходе оборонительного этапа битвы за Москву.  <tg-emoji emoji-id=\"5449382637477063656\"><i class=\"emoji\" style=\"background-image:url('//telegram.org/img/emoji/40/F09F9391.png')\"><b>📑</b></i></tg-emoji> Рассекреченные приказы, схемы и донесения покажут, как командиры Красной армии вместе с гражданскими инженерами справлялись…"}},{"type":"Feature","geometry":null,"properties":{"source":"ru_mod","source_name":"Ministry of Defence of Russia","group":"official_ru","id":67763,"posted_utc":"2026-09-29T21:17:21+00:00","link":"https://t.me/mod_russia/67763","text":"Посмотрите наш новый проект о строительстве и использовании электризованных заграждений в ходе оборонительного этапа битвы за Москву.  📑 Рассекреченные приказы, схемы и донесения покажут, как командиры Красной армии вместе с гражданскими инженерами справлялись…","links":[],"original_html":"Посмотрите наш новый проект о строительстве и использовании электризованных заграждений в ходе оборонительного этапа битвы за Москву.  <tg-emoji emoji-id=\"5449382637477063656\"><i class=\"emoji\" style=\"background-image:url('//telegram.org/img/emoji/40/F09F9391.png')\"><b>📑</b></i></tg-emoji> Рассекреченные приказы, схемы и донесения покажут, как командиры Красной армии вместе с гражданскими инженерами справлялись…"}},{"type":"Feature","geometry":null,"properties":{"source":"ru_mod","source_name":"Ministry of Defence of Russia","group":"official_ru","id":67764,"posted_utc":"2026-09-29T21:25:23+00:00","link":"https://t.me/mod_russia/67764","text":"Посмотрите наш новый проект о строительстве и использовании электризованных заграждений в ходе оборонительного этапа битвы за Москву.  📑 Рассекреченные приказы, схемы и донесения покажут, как командиры Красной армии вместе с гражданскими инженерами справлялись…","links":[],"original_html":"Посмотрите наш новый проект о строительстве и использовании электризованных заграждений в ходе оборонительного этапа битвы за Москву.  <tg-emoji emoji-id=\"5449382637477063656\"><i class=\"emoji\" style=\"background-image:url('//telegram.org/img/emoji/40/F09F9391.png')\"><b>📑</b></i></tg-emoji> Рассекреченные приказы, схемы и донесения покажут, как командиры Красной армии вместе с гражданскими инженерами справлялись…"}},{"type":"Feature","geometry":null,"properties":{"source":"ru_mod","source_name":"Ministry of Defence of Russia","group":"official_ru","id":67743,"posted_utc":"2026-09-29T11:30:58+00:00","link":"https://t.me/mod_russia/67743","text":"Он только на словах «Малыш»\nРасчёт дрона-перехватчика «Малыш» группировки «Центр» за сутки уничтожил более десяти беспилотных летательных аппаратов самолётного типа противника на Добропольском направлении.\n#ВойскаБПС\n▫️ Канал Минобороны России в MAКС – источник мощных новостей","links":["https://max.ru/morf"],"original_html":"<b>Он только на словах «Малыш»</b><br/><br/>Расчёт дрона-перехватчика «Малыш» группировки «Центр» за сутки <b>уничтожил более десяти беспилотных летательных аппаратов самолётного типа противника</b> на Добропольском направлении.<br/><br/><a href=\"?q=%23%D0%92%D0%BE%D0%B9%D1%81%D0%BA%D0%B0%D0%91%D0%9F%D0%A1\">#ВойскаБПС</a><br/><tg-emoji emoji-id=\"5352532894478793783\"><i class=\"emoji\" style=\"background-image:url('//telegram.org/img/emoji/40/E296AB.png')\"><b>▫️</b></i></tg-emoji> <a href=\"https://max.ru/morf\" target=\"_blank\" rel=\"noopener\" onclick=\"return confirm('Open this link?\\n\\n'+this.href);\">Канал Минобороны России в MAКС – источник мощных новостей</a>"}},{"type":"Feature","geometry":null,"properties":{"source":"ru_mod","source_name":"Ministry of Defence of Russia","group":"official_ru","id":67744,"posted_utc":"2026-09-29T13:03:35+00:00","link":"https://t.me/mod_russia/67744","text":"🌪  Накрываем с силой смерча\n💥  «Торнадо-С» группировки «Запад» накрывают огнем склады боеприпасов подразделений ВСУ на Харьковском направлении.\n🔹 Канал Минобороны России в MAКС – боевая работа 24/7","links":["https://max.ru/morf"],"original_html":"<i class=\"emoji\" style=\"background-image:url('//telegram.org/img/emoji/40/F09F8CAA.png')\"><b>🌪</b></i>  <b>Накрываем с силой смерча</b><br/><br/><tg-emoji emoji-id=\"5449682610877918293\"><i class=\"emoji\" style=\"background-image:url('//telegram.org/img/emoji/40/F09F92A5.png')\"><b>💥</b></i></tg-emoji>  «Торнадо-С» группировки «Запад»<b> накрывают огнем склады боеприпасов подразделений ВСУ</b> на Харьковском направлении.<br/><br/><tg-emoji emoji-id=\"5269510734265483362\"><i class=\"emoji\" style=\"background-image:url('//telegram.org/img/emoji/40/F09F94B9.png')\"><b>🔹</b></i></tg-emoji> <a href=\"https://max.ru/morf\" target=\"_blank\" rel=\"noopener\" onclick=\"return confirm('Open this link?\\n\\n'+this.href);\">Канал Минобороны России в MAКС – боевая работа 24/7</a>"}},{"type":"Feature","geometry":null,"properties":{"source":"ru_mod","source_name":"Ministry of Defence of Russia","group":"official_ru","id":67745,"posted_utc":"2026-09-29T14:21:31+00:00","link":"https://t.me/mod_russia/67745","text":"Разгром под ключ: работают бойцы «Востока» 🔥\nВ Запорожской области операторы ударных БПЛА сожгли опорники и укрепы ВСУ в лесополосах, а артиллеристы разобрали пункты управления вражескими «птицами», уничтожив их вместе с дроноводами и подготовленными к применению гексакоптерами.\n▫️ Канал Минобороны России в MAКС – источник мощных новостей","links":["https://max.ru/morf"],"original_html":"<b>Разгром под ключ: работают бойцы «Востока»</b> <tg-emoji emoji-id=\"5449590921916082144\"><i class=\"emoji\" style=\"background-image:url('//telegram.org/img/emoji/40/F09F94A5.png')\"><b>🔥</b></i></tg-emoji><br/><br/>В Запорожской области операторы ударных БПЛА <b>сожгли опорники и укрепы ВСУ</b> в лесополосах, а артиллеристы <b>разобрали пункты управления вражескими «птицами»</b>, уничтожив их вместе с дроноводами и подготовленными к применению гексакоптерами.<br/><br/><tg-emoji emoji-id=\"5352532894478793783\"><i class=\"emoji\" style=\"background-image:url('//telegram.org/img/emoji/40/E296AB.png')\"><b>▫️</b></i></tg-emoji> <a href=\"https://max.ru/morf\" target=\"_blank\" rel=\"noopener\" onclick=\"return confirm('Open this link?\\n\\n'+this.href);\">Канал Минобороны России в MAКС – источник мощных новостей</a>"}},{"type":"Feature","geometry":null,"properties":{"source":"ru_mod","source_name":"Ministry of Defence of Russia","group":"official_ru","id":67746,"posted_utc":"2026-09-29T15:31:22+00:00","link":"https://t.me/mod_russia/67746","text":"❗️ Вооруженные Силы Российской Федерации продолжают наносить удары по морским судам, задействованным в интересах ВСУ.\n💥 Сегодня днем в результате удара беспилотными летательными аппаратами в северо-западной части Черного моря поражено морское судно типа «сухогруз» с военным имуществом для ВСУ.\n🔹 Канал Минобороны России в MAКС – боевая работа 24/7","links":["https://max.ru/morf"],"original_html":"<i class=\"emoji\" style=\"background-image:url('//telegram.org/img/emoji/40/E29D97.png')\"><b>❗️</b></i> Вооруженные Силы Российской Федерации <b>продолжают наносить удары по морским судам, задействованным в интересах ВСУ</b>.<br/><br/><i class=\"emoji\" style=\"background-image:url('//telegram.org/img/emoji/40/F09F92A5.png')\"><b>💥</b></i> Сегодня днем в результате удара беспилотными летательными аппаратами в северо-западной части Черного моря <b>поражено морское судно типа «сухогруз»</b> с военным имуществом для ВСУ.<br/><br/><tg-emoji emoji-id=\"5269510734265483362\"><i class=\"emoji\" style=\"background-image:url('//telegram.org/img/emoji/40/F09F94B9.png')\"><b>🔹</b></i></tg-emoji> <a href=\"https://max.ru/morf\" target=\"_blank\" rel=\"noopener\" onclick=\"return confirm('Open this link?\\n\\n'+this.href);\">Канал Минобороны России в MAКС – боевая работа 24/7</a>"}},{"type":"Feature","geometry":null,"properties":{"source":"ru_mod","source_name":"Ministry of Defence of Russia","group":"official_ru","id":67747,"posted_utc":"2026-09-29T15:57:10+00:00","link":"https://t.me/mod_russia/67747","text":"Единый кулак ОДКБ: союзные силы переходят от слов к делу\n📍 полигон Чебаркульский\nКоллективные силы оперативного реагирования (КСОР) ОДКБ в рамках учения «Взаимодействие-2026» приступили к подготовке совместной операции по локализации приграничного вооруженного конфликта.\n💬 Командующий КСОР полковник Алексей Сгибнев доложил Решение, в котором определены:\n🔹направления сосредоточения основных усилий в ходе совместной операции;\n🔹задачи воинским контингентам и формированиям сил специального назначения;\n🔹основные вопросы управления, взаимодействия и всестороннего обеспечения.\n✅ После утверждения Решения органы управления КСОР ОДКБ приступили к планированию операции.\n➡️ Подчиненным соединениям, воинским частям и подразделениям были отданы боевые распоряжения на подготовку и ведение боевых (специальных) действий.\n📊 В учениях ОДКБ на полигоне «Чебаркульский» принимают участие контингенты Войск (Коллективных сил) ОДКБ Республики Беларусь, Республики Казахстан, Кыргызской Республики, Российской Федерации и Республики Таджикистан. Всего задействовано около 2000 военнослужащих и 350 единиц вооружения, военной и специальной техники.\n#ученияОДКБ\n🔹 MAКС – территория СВОих","links":["https://t.me/mod_russia/67677","https://max.ru/morf"],"original_html":"<b>Единый кулак ОДКБ: союзные силы переходят от слов к делу</b><br/><br/><tg-emoji emoji-id=\"5449396879588614682\"><i class=\"emoji\" style=\"background-image:url('//telegram.org/img/emoji/40/F09F938D.png')\"><b>📍</b></i></tg-emoji> <i>полигон Чебаркульский</i><br/><br/>Коллективные силы оперативного реагирования (КСОР) ОДКБ <b>в рамках учения «Взаимодействие-2026» приступили к подготовке совместной операции</b> по локализации приграничного вооруженного конфликта.<br/><br/><tg-emoji emoji-id=\"5447486370761176298\"><i class=\"emoji\" style=\"background-image:url('//telegram.org/img/emoji/40/F09F92AC.png')\"><b>💬</b></i></tg-emoji> Командующий КСОР полковник Алексей Сгибнев <b>доложил Решение, в котором определены</b>:<br/><br/><tg-emoji emoji-id=\"5470000692406023380\"><i class=\"emoji\" style=\"background-image:url('//telegram.org/img/emoji/40/F09F94B9.png')\"><b>🔹</b></i></tg-emoji>направления сосредоточения основных усилий в ходе совместной операции;<br/><tg-emoji emoji-id=\"5470000692406023380\"><i class=\"emoji\" style=\"background-image:url('//telegram.org/img/emoji/40/F09F94B9.png')\"><b>🔹</b></i></tg-emoji>задачи воинским контингентам и формированиям сил специального назначения;<br/><tg-emoji emoji-id=\"5470000692406023380\"><i class=\"emoji\" style=\"background-image:url('//telegram.org/img/emoji/40/F09F94B9.png')\"><b>🔹</b></i></tg-emoji>основные вопросы управления, взаимодействия и всестороннего обеспечения.<br/><br/><tg-emoji emoji-id=\"5469909785128234267\"><i class=\"emoji\" style=\"background-image:url('//telegram.org/img/emoji/40/E29C85.png')\"><b>✅</b></i></tg-emoji> После утверждения Решения органы управления КСОР ОДКБ <b>приступили к планированию операции</b>.<br/><br/><tg-emoji emoji-id=\"5469902676957357453\"><i class=\"emoji\" style=\"background-image:url('//telegram.org/img/emoji/40/E29EA1.png')\"><b>➡️</b></i></tg-emoji> Подчиненным соединениям, воинским частям и подразделениям были <b>отданы боевые распоряжения на подготовку и ведение боевых (специальных) действий</b>.<br/><br/><tg-emoji emoji-id=\"5471887681992551719\"><i class=\"emoji\" style=\"background-image:url('//telegram.org/img/emoji/40/F09F938A.png')\"><b>📊</b></i></tg-emoji> <a href=\"https://t.me/mod_russia/67677\" target=\"_blank\" rel=\"noopener\" onclick=\"return confirm('Open this link?\\n\\n'+this.href);\"><i>В учениях ОДКБ</i></a><i> на полигоне «Чебаркульский» принимают участие контингенты Войск (Коллективных сил) ОДКБ Республики Беларусь, Республики Казахстан, Кыргызской Республики, Российской Федерации и Республики Таджикистан. Всего задействовано около 2000 военнослужащих и 350 единиц вооружения, военной и специальной техники.</i><br/><br/><a href=\"?q=%23%D1%83%D1%87%D0%B5%D0%BD%D0%B8%D1%8F%D0%9E%D0%94%D0%9A%D0%91\">#ученияОДКБ</a><br/><tg-emoji emoji-id=\"5269510734265483362\"><i class=\"emoji\" style=\"background-image:url('//telegram.org/img/emoji/40/F09F94B9.png')\"><b>🔹</b></i></tg-emoji> <a href=\"https://max.ru/morf\" target=\"_blank\" rel=\"noopener\" onclick=\"return confirm('Open this link?\\n\\n'+this.href);\">MAКС – территория СВОих</a>"}},{"type":"Feature","geometry":null,"properties":{"source":"ru_mod","source_name":"Ministry of Defence of Russia","group":"official_ru","id":67750,"posted_utc":"2026-09-29T17:22:38+00:00","link":"https://t.me/mod_russia/67750","text":"👊 Всыпали стальных «аргументов»\nЭкипаж танка Т-80БВМ группировки «Центр» уничтожил пункт управления беспилотниками ВСУ на Добропольском направлении.\n💥 Канал Минобороны России в MAКС – боевая работа 24/7. Присоединяйся!","links":["https://max.ru/morf"],"original_html":"<i class=\"emoji\" style=\"background-image:url('//telegram.org/img/emoji/40/F09F918A.png')\"><b>👊</b></i> <b>Всыпали стальных «аргументов»</b><br/><br/>Экипаж танка Т-80БВМ группировки «Центр» уничтожил пункт управления беспилотниками ВСУ на Добропольском направлении.<br/><br/><tg-emoji emoji-id=\"5447408202356389121\"><i class=\"emoji\" style=\"background-image:url('//telegram.org/img/emoji/40/F09F92A5.png')\"><b>💥</b></i></tg-emoji> <a href=\"https://max.ru/morf\" target=\"_blank\" rel=\"noopener\" onclick=\"return confirm('Open this link?\\n\\n'+this.href);\">Канал Минобороны России в MAКС – боевая работа 24/7. Присоединяйся&#33;</a>"}},{"type":"Feature","geometry":null,"properties":{"source":"ru_mod","source_name":"Ministry of Defence of Russia","group":"official_ru","id":67751,"posted_utc":"2026-09-29T18:02:38+00:00","link":"https://t.me/mod_russia/67751","text":"⚡️ В течение дня, с 8.00 до 20.00 мск, дежурными силами ПВО уничтожен 21 украинский беспилотный летательный аппарат самолетного типа над территориями Белгородской, Курской областей и над акваторией Черного моря.\n🔹 Минобороны России","links":["https://max.ru/morf"],"original_html":"<i class=\"emoji\" style=\"background-image:url('//telegram.org/img/emoji/40/E29AA1.png')\"><b>⚡️</b></i> В течение дня, с 8.00 до 20.00 мск, дежурными силами ПВО <b>уничтожен 21 украинский беспилотный летательный аппарат самолетного типа</b> над территориями Белгородской, Курской областей и над акваторией Черного моря.<br/><br/><tg-emoji emoji-id=\"5269510734265483362\"><i class=\"emoji\" style=\"background-image:url('//telegram.org/img/emoji/40/F09F94B9.png')\"><b>🔹</b></i></tg-emoji> <a href=\"https://max.ru/morf\" target=\"_blank\" rel=\"noopener\" onclick=\"return confirm('Open this link?\\n\\n'+this.href);\">Минобороны России</a>"}},{"type":"Feature","geometry":null,"properties":{"source":"ru_mod","source_name":"Ministry of Defence of Russia","group":"official_ru","id":67752,"posted_utc":"2026-09-29T18:11:53+00:00","link":"https://t.me/mod_russia/67752","text":"Штурмуем, молодцом, ребята! ▫️\n#СобытиеДня\n🔹 MAКС – территория СВОих","links":["https://max.ru/morf"],"original_html":"<b>Штурмуем, молодцом, ребята&#33;</b> <tg-emoji emoji-id=\"5352532894478793783\"><i class=\"emoji\" style=\"background-image:url('//telegram.org/img/emoji/40/E296AB.png')\"><b>▫️</b></i></tg-emoji><br/><br/><a href=\"?q=%23%D0%A1%D0%BE%D0%B1%D1%8B%D1%82%D0%B8%D0%B5%D0%94%D0%BD%D1%8F\">#СобытиеДня</a><br/><tg-emoji emoji-id=\"5269510734265483362\"><i class=\"emoji\" style=\"background-image:url('//telegram.org/img/emoji/40/F09F94B9.png')\"><b>🔹</b></i></tg-emoji> <a href=\"https://max.ru/morf\" target=\"_blank\" rel=\"noopener\" onclick=\"return confirm('Open this link?\\n\\n'+this.href);\">MAКС – территория СВОих</a>"}},{"type":"Feature","geometry":null,"properties":{"source":"ru_mod","source_name":"Ministry of Defence of Russia","group":"official_ru","id":67753,"posted_utc":"2026-09-29T18:29:32+00:00","link":"https://t.me/mod_russia/67753","text":"📆 Главное за день\n🚩 Накатываем и не даем противнику отдышаться: российские войска освободили населенные пункты Крейдянка в Харьковской области и Веселое Поле в Донецкой Народной Республике.\n💥 Работаем с огоньком: нанесли групповой удар высокоточным оружием наземного базирования и БПЛА по логистическим центрам, объектам портовой, транспортной инфраструктуры и морским судам, задействованным в интересах ВСУ.\n📍 Позиции держим: обстановка в населенных пунктах Редкодуб, Ямполь, Новомихайловка и Новое в Краматорском районе – под нашим контролем.\n👨‍👩‍👧‍👦 Спасаем жизни и даем надежду: военнослужащие группировки «Центр» эвакуировали мирных жителей из города Белицкое в ДНР.\n☦️ Под покровительством Дмитрия Донского: в Республике Северная Осетия – Алания прошли богослужения, приуроченные к обретению мощей святого благоверного князя Дмитрия Донского.\n🤝 Военный сплав проходит закалку: замминистра обороны РФ Василий Осьмаков провел серию переговоров с руководством оборонного ведомства Монголии.\n⚓️ Делаем красиво: впервые в истории ВМФ России корабли Северного флота прошли проливом Шокальского.\nНа день ближе к Победе!\n#ИтогиДня\n🔹 Канал Минобороны России в MAКС – только для своих!","links":["https://t.me/mod_russia/67740","https://t.me/mod_russia/67741","https://t.me/mod_russia/67735","https://t.me/mod_russia/67731","https://t.me/mod_russia/67732","https://t.me/mod_russia/67733","https://t.me/mod_russia/67734","https://t.me/mod_russia/67742","https://t.me/mod_russia/67739","https://t.me/mod_russia/67725","https://t.me/mod_russia/67737","https://max.ru/morf"],"original_html":"<tg-emoji emoji-id=\"5472282252048104170\"><i class=\"emoji\" style=\"background-image:url('//telegram.org/img/emoji/40/F09F9386.png')\"><b>📆</b></i></tg-emoji> <b>Главное за день</b><br/><br/><tg-emoji emoji-id=\"5447466081335670917\"><i class=\"emoji\" style=\"background-image:url('//telegram.org/img/emoji/40/F09F9AA9.png')\"><b>🚩</b></i></tg-emoji> <b>Накатываем и не даем противнику отдышаться</b>: российские войска освободили населенные пункты <a href=\"https://t.me/mod_russia/67740\" target=\"_blank\" rel=\"noopener\" onclick=\"return confirm('Open this link?\\n\\n'+this.href);\">Крейдянка</a> в Харьковской области и <a href=\"https://t.me/mod_russia/67741\" target=\"_blank\" rel=\"noopener\" onclick=\"return confirm('Open this link?\\n\\n'+this.href);\">Веселое Поле</a> в Донецкой Народной Республике. <br/><br/><tg-emoji emoji-id=\"5449682610877918293\"><i class=\"emoji\" style=\"background-image:url('//telegram.org/img/emoji/40/F09F92A5.png')\"><b>💥</b></i></tg-emoji> <b>Работаем с огоньком</b>: <a href=\"https://t.me/mod_russia/67735\" target=\"_blank\" rel=\"noopener\" onclick=\"return confirm('Open this link?\\n\\n'+this.href);\">нанесли групповой удар</a> высокоточным оружием наземного базирования и БПЛА по логистическим центрам, объектам портовой, транспортной инфраструктуры и морским судам, задействованным в интересах ВСУ.<br/><br/><tg-emoji emoji-id=\"5449396879588614682\"><i class=\"emoji\" style=\"background-image:url('//telegram.org/img/emoji/40/F09F938D.png')\"><b>📍</b></i></tg-emoji> <b>Позиции держим</b>: обстановка в населенных пунктах <a href=\"https://t.me/mod_russia/67731\" target=\"_blank\" rel=\"noopener\" onclick=\"return confirm('Open this link?\\n\\n'+this.href);\">Редкодуб</a>, <a href=\"https://t.me/mod_russia/67732\" target=\"_blank\" rel=\"noopener\" onclick=\"return confirm('Open this link?\\n\\n'+this.href);\">Ямполь</a>, <a href=\"https://t.me/mod_russia/67733\" target=\"_blank\" rel=\"noopener\" onclick=\"return confirm('Open this link?\\n\\n'+this.href);\">Новомихайловка</a> и <a href=\"https://t.me/mod_russia/67734\" target=\"_blank\" rel=\"noopener\" onclick=\"return confirm('Open this link?\\n\\n'+this.href);\">Новое</a> в Краматорском районе – под нашим контролем.<br/><br/><tg-emoji emoji-id=\"5472106231403405332\"><i class=\"emoji\" style=\"background-image:url('//telegram.org/img/emoji/40/F09F91A8E2808DF09F91A9E2808DF09F91A7E2808DF09F91A6.png')\"><b>👨‍👩‍👧‍👦</b></i></tg-emoji> <b>Спасаем жизни и даем надежду</b>: военнослужащие группировки «Центр» <a href=\"https://t.me/mod_russia/67742\" target=\"_blank\" rel=\"noopener\" onclick=\"return confirm('Open this link?\\n\\n'+this.href);\">эвакуировали</a> мирных жителей из города Белицкое в ДНР.<br/><br/><i class=\"emoji\" style=\"background-image:url('//telegram.org/img/emoji/40/E298A6.png')\"><b>☦️</b></i> <b>Под покровительством Дмитрия Донского</b>: в Республике Северная Осетия – Алания <a href=\"https://t.me/mod_russia/67739\" target=\"_blank\" rel=\"noopener\" onclick=\"return confirm('Open this link?\\n\\n'+this.href);\">прошли</a> богослужения, приуроченные к обретению мощей святого благоверного князя Дмитрия Донского.<br/><br/><tg-emoji emoji-id=\"5447324252925620983\"><i class=\"emoji\" style=\"background-image:url('//telegram.org/img/emoji/40/F09FA49D.png')\"><b>🤝</b></i></tg-emoji> <b>Военный сплав проходит закалку</b>: замминистра обороны РФ Василий Осьмаков <a href=\"https://t.me/mod_russia/67725\" target=\"_blank\" rel=\"noopener\" onclick=\"return confirm('Open this link?\\n\\n'+this.href);\">провел</a> серию переговоров с руководством оборонного ведомства Монголии.<br/><br/><tg-emoji emoji-id=\"5469905455801198241\"><i class=\"emoji\" style=\"background-image:url('//telegram.org/img/emoji/40/E29A93.png')\"><b>⚓️</b></i></tg-emoji> <b>Делаем красиво</b>: впервые в истории ВМФ России корабли Северного флота <a href=\"https://t.me/mod_russia/67737\" target=\"_blank\" rel=\"noopener\" onclick=\"return confirm('Open this link?\\n\\n'+this.href);\">прошли</a> проливом Шокальского.<br/><br/><b>На день ближе к Победе&#33;</b><br/><br/><a href=\"?q=%23%D0%98%D1%82%D0%BE%D0%B3%D0%B8%D0%94%D0%BD%D1%8F\">#ИтогиДня</a><br/><tg-emoji emoji-id=\"5269510734265483362\"><i class=\"emoji\" style=\"background-image:url('//telegram.org/img/emoji/40/F09F94B9.png')\"><b>🔹</b></i></tg-emoji> <a href=\"https://max.ru/morf\" target=\"_blank\" rel=\"noopener\" onclick=\"return confirm('Open this link?\\n\\n'+this.href);\">Канал Минобороны России в MAКС – только для своих&#33;</a>"}},{"type":"Feature","geometry":null,"properties":{"source":"ru_mod","source_name":"Ministry of Defence of Russia","group":"official_ru","id":67754,"posted_utc":"2026-09-29T19:04:41+00:00","link":"https://t.me/mod_russia/67754","text":"С ночи до зари 🔥\nТриста тридцать три!\n🔹 Минобороны России","links":["https://max.ru/morf"],"original_html":"<b>С ночи до зари </b><b><tg-emoji emoji-id=\"5449590921916082144\"><i class=\"emoji\" style=\"background-image:url('//telegram.org/img/emoji/40/F09F94A5.png')\"><b>🔥</b></i></tg-emoji></b><b><br/><br/>Триста тридцать три&#33;</b><br/><br/> <tg-emoji emoji-id=\"5269510734265483362\"><i class=\"emoji\" style=\"background-image:url('//telegram.org/img/emoji/40/F09F94B9.png')\"><b>🔹</b></i></tg-emoji> <a href=\"https://max.ru/morf\" target=\"_blank\" rel=\"noopener\" onclick=\"return confirm('Open this link?\\n\\n'+this.href);\">Минобороны России</a>"}},{"type":"Feature","geometry":null,"properties":{"source":"ru_mod","source_name":"Ministry of Defence of Russia","group":"official_ru","id":67755,"posted_utc":"2026-09-29T21:00:01+00:00","link":"https://t.me/mod_russia/67755","text":"Посмотрите наш новый проект о строительстве и использовании электризованных заграждений в ходе оборонительного этапа битвы за Москву.\n📑 Рассекреченные приказы, схемы и донесения покажут, как командиры Красной армии вместе с гражданскими инженерами справлялись с этой сложнейшей задачей. Переходите по ссылке, чтобы оценить грандиозный масштаб строительства «электрического щита», прикоснуться к судьбам воинов-электриков и еще раз поблагодарить героев за их бессмертный подвиг.\n#АрхивыПомнят\n🔹 Канал Минобороны России в MAКС – только для своих!","links":["https://electro-oborona.mil.ru/","https://max.ru/morf"],"original_html":"<b>Посмотрите наш новый проект о строительстве и использовании электризованных заграждений в ходе оборонительного этапа битвы за Москву.</b><br/><br/><tg-emoji emoji-id=\"5449382637477063656\"><i class=\"emoji\" style=\"background-image:url('//telegram.org/img/emoji/40/F09F9391.png')\"><b>📑</b></i></tg-emoji> Рассекреченные приказы, схемы и донесения<b> покажут, как командиры Красной армии вместе с гражданскими инженерами справлялись с этой сложнейшей задачей</b>. <a href=\"https://electro-oborona.mil.ru/\" target=\"_blank\" rel=\"noopener\" onclick=\"return confirm('Open this link?\\n\\n'+this.href);\">Переходите по ссылке</a>, чтобы оценить грандиозный масштаб строительства «электрического щита», прикоснуться к судьбам воинов-электриков и еще раз поблагодарить героев за их бессмертный подвиг.<br/><br/><a href=\"?q=%23%D0%90%D1%80%D1%85%D0%B8%D0%B2%D1%8B%D0%9F%D0%BE%D0%BC%D0%BD%D1%8F%D1%82\">#АрхивыПомнят</a><br/><tg-emoji emoji-id=\"5269510734265483362\"><i class=\"emoji\" style=\"background-image:url('//telegram.org/img/emoji/40/F09F94B9.png')\"><b>🔹</b></i></tg-emoji> <a href=\"https://max.ru/morf\" target=\"_blank\" rel=\"noopener\" onclick=\"return confirm('Open this link?\\n\\n'+this.href);\">Канал Минобороны России в MAКС – только для своих&#33;</a>"}},{"type":"Feature","geometry":null,"properties":{"source":"ru_mod","source_name":"Ministry of Defence of Russia","group":"official_ru","id":67756,"posted_utc":"2026-09-29T21:06:22+00:00","link":"https://t.me/mod_russia/67756","text":"Посмотрите наш новый проект о строительстве и использовании электризованных заграждений в ходе оборонительного этапа битвы за Москву.  📑 Рассекреченные приказы, схемы и донесения покажут, как командиры Красной армии вместе с гражданскими инженерами справлялись…","links":[],"original_html":"Посмотрите наш новый проект о строительстве и использовании электризованных заграждений в ходе оборонительного этапа битвы за Москву.  <tg-emoji emoji-id=\"5449382637477063656\"><i class=\"emoji\" style=\"background-image:url('//telegram.org/img/emoji/40/F09F9391.png')\"><b>📑</b></i></tg-emoji> Рассекреченные приказы, схемы и донесения покажут, как командиры Красной армии вместе с гражданскими инженерами справлялись…"}}]}