{"type":"FeatureCollection","features":[{"type":"Feature","geometry":{"type":"Polygon","coordinates":[[[37.81839,48.55827],[37.81391,48.56694],[37.81937,48.57173],[37.81583,48.5755],[37.81963,48.58246],[37.81441,48.58816],[37.81814,48.59059],[37.82111,48.58816],[37.82066,48.58473],[37.82467,48.58157],[37.82868,48.57718],[37.83037,48.57154],[37.82237,48.56485],[37.82884,48.56166],[37.83615,48.55242],[37.82243,48.54611],[37.81839,48.55827]]]},"properties":{"source":"deepstate","source_name":"DeepStateMap","source_url":"https://deepstatemap.live/en","category":"gained","category_label":"Newly Russian-occupied","period":"1d","compared_with":"2026-08-25","snapshot_time":"2026-08-26","area_km2_approx":3.5}}]}