{"type":"FeatureCollection","features":[{"type":"Feature","geometry":{"type":"Point","coordinates":[30.637011,46.3122]},"properties":{"original":{"Date":"2026-10-02","Name":"02 OCT 2026","Faction":"Russia","Origin":"UAV","Latitude":"46.3122","Longitude":"30.637011","PlusCode":"8GRG8J6P+VR Chornomorsk, Odesa Oblast, Ukraine","Description":"0:00-0:06 - A strike by a \"Geran-4\" loitering munition hit \"Nova Poshta\" warehouses in Chornomorske, Odesa","Source":"https://x.com/Brokenarrow42/status/2106009365396214025, https://t.me/milinfolive/180673, ","Geolocation":"https://x.com/Brokenarrow42/status/2106009325999186341","Equipment":"","EquipmentItems":"","Units":"","OrbatUnits":"","Id":"f68c5d40-250c-424f-b037-00635bc23fd4","icon":"/api/icons/E00000/False/template/181.png"},"source":"geoconfirmed","source_name":"GeoConfirmed","source_url":"https://geoconfirmed.org/map/ukraine","id":"f68c5d40-250c-424f-b037-00635bc23fd4","date":"2026-10-02","link":"https://geoconfirmed.org/map/ukraine/f68c5d40-250c-424f-b037-00635bc23fd4","category":"Longe Range (>50km) OWAD (One Way Attack Drone) or Loitering munition, mostly fixed wing, Flying OR Attacking a target without knowing the outcome: if something is damaged --> icon of the damaged equipment.","side":"Russia","color":"#E00000","description":"0:00-0:06 - A strike by a \"Geran-4\" loitering munition hit \"Nova Poshta\" warehouses in Chornomorske, Odesa","orbat":[],"geolocation":["https://x.com/Brokenarrow42/status/2106009325999186341"],"sources":["https://x.com/Brokenarrow42/status/2106009365396214025","https://t.me/milinfolive/180673"]}},{"type":"Feature","geometry":{"type":"Point","coordinates":[37.645493,49.652289]},"properties":{"original":{"Date":"2026-10-02","Name":"02 OCT 2026","Faction":"Russia","Origin":"UAV","Latitude":"49.652289","Longitude":"37.645493","PlusCode":"8GXVMJ2W+W5 Kup'yans'k-Vuzlovyi, Kharkiv Oblast, Ukraine","Description":"2:52-2:55 - Two Russian soldiers from the Assault Detachment \"Honey Badger\" are standing at the train station in Kupiansk-Vuzlovyi, Kharkiv Oblast. Based on the damage at the station, this footage is definitely not recent. Russia is known for reusing older footage and/or manipulating footage (AI) to make certain claims.","Source":"https://x.com/Bielitzling/status/2105950678820823149, https://t.me/honeybadger153, , More information:, https://x.com/JulianRoepcke/status/2106026352272867560","Geolocation":"https://x.com/Bielitzling/status/2105950673908965513","Equipment":"","EquipmentItems":"","Units":"","OrbatUnits":"Assault Detachment \"Honey Badger\"","Id":"9c19852e-1efb-4768-96ae-14612b4ac64e","icon":"/api/icons/E00000/False/template/100.png"},"source":"geoconfirmed","source_name":"GeoConfirmed","source_url":"https://geoconfirmed.org/map/ukraine","id":"9c19852e-1efb-4768-96ae-14612b4ac64e","date":"2026-10-02","link":"https://geoconfirmed.org/map/ukraine/9c19852e-1efb-4768-96ae-14612b4ac64e","category":"Civilian or Soldier or Militant (Depending on the colour)","side":"Russia","color":"#E00000","description":"2:52-2:55 - Two Russian soldiers from the Assault Detachment \"Honey Badger\" are standing at the train station in Kupiansk-Vuzlovyi, Kharkiv Oblast. Based on the damage at the station, this footage is definitely not recent. Russia is known for reusing older footage and/or manipulating footage (AI) to make certain claims.","orbat":["Assault Detachment \"Honey Badger\""],"geolocation":["https://x.com/Bielitzling/status/2105950673908965513"],"sources":["https://x.com/Bielitzling/status/2105950678820823149","https://t.me/honeybadger153","https://x.com/JulianRoepcke/status/2106026352272867560"]}},{"type":"Feature","geometry":{"type":"Point","coordinates":[36.16128,47.646414]},"properties":{"original":{"Date":"2026-10-02","Name":"02 OCT 2026","Faction":"Ukraine","Origin":"UAV","Latitude":"47.646414","Longitude":"36.16128","PlusCode":"8GVRJ5W6+HG Zaliznychne, Zaporizhia Oblast, Ukraine","Description":"0:11 - FPV strike on a Russian BMP","Source":"https://x.com/moklasen/status/2106090889919508841, https://t.me/corps7DSHV/1814","Geolocation":"https://x.com/moklasen/status/2106090886203338766","Equipment":"BMP","EquipmentItems":"FPV (First Person View) OWAD (One Way Attack Drone)","Units":"","OrbatUnits":"","Id":"65a49e8d-267c-48d1-b1ca-2bda33e42039","icon":"/api/icons/0051CA/False/template/111.png"},"source":"geoconfirmed","source_name":"GeoConfirmed","source_url":"https://geoconfirmed.org/map/ukraine","id":"65a49e8d-267c-48d1-b1ca-2bda33e42039","date":"2026-10-02","link":"https://geoconfirmed.org/map/ukraine/65a49e8d-267c-48d1-b1ca-2bda33e42039","category":"Short Range (<50km) OWAD (One Way Attack Drone), mostly rotary wing, Flying OR Attacking a target without knowing the outcome: if something is damaged --> icon of the damaged equipment.","side":"Ukraine","color":"#0051CA","description":"0:11 - FPV strike on a Russian BMP","orbat":[],"geolocation":["https://x.com/moklasen/status/2106090886203338766"],"sources":["https://x.com/moklasen/status/2106090889919508841","https://t.me/corps7DSHV/1814"]}},{"type":"Feature","geometry":{"type":"Point","coordinates":[36.138039,47.661294]},"properties":{"original":{"Date":"2026-10-02","Name":"02 OCT 2026","Faction":"Unknown","Origin":"UAV","Latitude":"47.661294","Longitude":"36.138039","PlusCode":"8GVRM46Q+G6 Staroukrainka, Zaporizhia Oblast, Ukraine","Description":"0:42 - Static AFV, presumably damaged/destroyed, visible during an FPV strike.","Source":"https://x.com/moklasen/status/2106090889919508841, https://t.me/corps7DSHV/1814","Geolocation":"https://x.com/klinger66/status/2106884196153332007","Equipment":"","EquipmentItems":"FPV (First Person View) OWAD (One Way Attack Drone) | Armored Personnel Carrier (APC)","Units":"","OrbatUnits":"","Id":"ed3f05a4-4efd-4d2d-a996-385830f3e200","icon":"/api/icons/666666/False/template/173.png"},"source":"geoconfirmed","source_name":"GeoConfirmed","source_url":"https://geoconfirmed.org/map/ukraine","id":"ed3f05a4-4efd-4d2d-a996-385830f3e200","date":"2026-10-02","link":"https://geoconfirmed.org/map/ukraine/ed3f05a4-4efd-4d2d-a996-385830f3e200","category":"Older Destroyed/Damaged APC OR IFV / TRACKED or WHEELED / ARMOURED - Including vehicles like HUMVEE and similar","side":"Unknown","color":"#666666","description":"0:42 - Static AFV, presumably damaged/destroyed, visible during an FPV strike.","orbat":[],"geolocation":["https://x.com/klinger66/status/2106884196153332007"],"sources":["https://x.com/moklasen/status/2106090889919508841","https://t.me/corps7DSHV/1814"]}},{"type":"Feature","geometry":{"type":"Point","coordinates":[36.315451,50.276077]},"properties":{"original":{"Date":"2026-10-02","Name":"02 OCT 2026","Faction":"Russia","Origin":"UAV","Latitude":"50.276077","Longitude":"36.315451","PlusCode":"9G2R78G8+C5 Vysoka Yaruha, Kharkiv Oblast, Ukraine","Description":"0:05-0:24 - Russian soldier from the 18th Motorized Rifle Division showed a flag to a drone in Vysoka Yaruha, Kharkiv Oblast","Source":"https://x.com/RedHibana/status/2105907903861506369, https://t.me/warriorofnorth/22339","Geolocation":"https://x.com/richardzai38580/status/2105734524315537522","Equipment":"","EquipmentItems":"","Units":"","OrbatUnits":"18th Guards Motorized Rifle Division","Id":"405cdcd0-e772-46fb-846f-5fafda7fd296","icon":"/api/icons/E00000/False/template/100.png"},"source":"geoconfirmed","source_name":"GeoConfirmed","source_url":"https://geoconfirmed.org/map/ukraine","id":"405cdcd0-e772-46fb-846f-5fafda7fd296","date":"2026-10-02","link":"https://geoconfirmed.org/map/ukraine/405cdcd0-e772-46fb-846f-5fafda7fd296","category":"Civilian or Soldier or Militant (Depending on the colour)","side":"Russia","color":"#E00000","description":"0:05-0:24 - Russian soldier from the 18th Motorized Rifle Division showed a flag to a drone in Vysoka Yaruha, Kharkiv Oblast","orbat":["18th Guards Motorized Rifle Division"],"geolocation":["https://x.com/richardzai38580/status/2105734524315537522"],"sources":["https://x.com/RedHibana/status/2105907903861506369","https://t.me/warriorofnorth/22339"]}},{"type":"Feature","geometry":{"type":"Point","coordinates":[38.93177,48.497306]},"properties":{"original":{"Date":"2026-10-02","Name":"02 OCT 2026","Faction":"Ukraine","Origin":"UAV","Latitude":"48.497306","Longitude":"38.93177","PlusCode":"8GWWFWWJ+WP Mykhailivka, Luhansk Oblast, Ukraine","Description":"Russian Mobile Fire Team targeted by a Ukrainian hornet drone ","Source":"https://x.com/markito0171/status/2105629752526557222","Geolocation":"https://x.com/neonhandrail/status/2105844979998556591","Equipment":"","EquipmentItems":"Hornet","Units":"","OrbatUnits":"","Id":"00c6bacf-6f7d-485a-9c8d-73b7b9298ba1","icon":"/api/icons/0051CA/False/template/111.png"},"source":"geoconfirmed","source_name":"GeoConfirmed","source_url":"https://geoconfirmed.org/map/ukraine","id":"00c6bacf-6f7d-485a-9c8d-73b7b9298ba1","date":"2026-10-02","link":"https://geoconfirmed.org/map/ukraine/00c6bacf-6f7d-485a-9c8d-73b7b9298ba1","category":"Short Range (<50km) OWAD (One Way Attack Drone), mostly rotary wing, Flying OR Attacking a target without knowing the outcome: if something is damaged --> icon of the damaged equipment.","side":"Ukraine","color":"#0051CA","description":"Russian Mobile Fire Team targeted by a Ukrainian hornet drone","orbat":[],"geolocation":["https://x.com/neonhandrail/status/2105844979998556591"],"sources":["https://x.com/markito0171/status/2105629752526557222"]}},{"type":"Feature","geometry":{"type":"Point","coordinates":[50.327488,53.301603]},"properties":{"original":{"Date":"2026-10-02","Name":"02 OCT 2026","Faction":"Ukraine","Origin":"PIC","Latitude":"53.301603","Longitude":"50.327488","PlusCode":"9H5G882G+JX Samara, Samara Oblast, Russia","Description":"Point of view in southeast direction - Smoke plume in the distance. Reportedly the Samara line production and dispatch station (LPDS) is on fire following a Ukrainian strike.","Source":"https://x.com/Exilenova_plus/status/2105854344688185694, , , More information, https://x.com/GeneralStaffUA/status/2105941680239120590, https://prm.ua/en/drones-attacked-volgograd-and-samara-fires-broke-out-near-the-refinery-and-oil-facility/","Geolocation":"https://x.com/neonhandrail/status/2105863571725070623","Equipment":"","EquipmentItems":"","Units":"","OrbatUnits":"","Id":"16854b1b-dcbd-4516-8a39-dca7e763d5ed","icon":"/api/icons/0051CA/False/template/20.png"},"source":"geoconfirmed","source_name":"GeoConfirmed","source_url":"https://geoconfirmed.org/map/ukraine","id":"16854b1b-dcbd-4516-8a39-dca7e763d5ed","date":"2026-10-02","link":"https://geoconfirmed.org/map/ukraine/16854b1b-dcbd-4516-8a39-dca7e763d5ed","category":"Picture - Always Point of View in description - - In the colour of who is doing the attack or is responsable for the incident in the picture.","side":"Ukraine","color":"#0051CA","description":"Point of view in southeast direction - Smoke plume in the distance. Reportedly the Samara line production and dispatch station (LPDS) is on fire following a Ukrainian strike.","orbat":[],"geolocation":["https://x.com/neonhandrail/status/2105863571725070623"],"sources":["https://x.com/Exilenova_plus/status/2105854344688185694","https://x.com/GeneralStaffUA/status/2105941680239120590","https://prm.ua/en/drones-attacked-volgograd-and-samara-fires-broke-out-near-the-refinery-and-oil-facility/"]}},{"type":"Feature","geometry":{"type":"Point","coordinates":[37.69986,49.660025]},"properties":{"original":{"Date":"2026-10-02","Name":"02 OCT 2026","Faction":"Neutral","Origin":"UAV","Latitude":"49.660025","Longitude":"37.69986","PlusCode":"8GXVMM6X+2W Kurylivka, Kharkiv Oblast, Ukraine","Description":"Fourteen individuals in civilian clothing with white flags were observed moving from Kupiansk-Vuzlovyi through Kurylivka, Kharkiv Oblast, as observed by a drone. A drone hovering near the group is visible (0:03-0:25). Servicemen from the 1st Tank Army of the Guards \"West\" are reportedly evacuating civilians from the village of Kupyansk-Uzlovaya.","Source":"https://x.com/Bielitzling/status/2105978438985437217, https://t.me/operationall_space/13473, ","Geolocation":"https://x.com/GeoConfirmed/status/2106398105797116234, https://x.com/Bielitzling/status/2105978433511755963","Equipment":"","EquipmentItems":"Reconnaissance UAV","Units":"","OrbatUnits":"1st Guards Tank Army","Id":"c5903272-66d3-4374-b017-de5d6249f419","icon":"/api/icons/AC7339/False/template/100.png"},"source":"geoconfirmed","source_name":"GeoConfirmed","source_url":"https://geoconfirmed.org/map/ukraine","id":"c5903272-66d3-4374-b017-de5d6249f419","date":"2026-10-02","link":"https://geoconfirmed.org/map/ukraine/c5903272-66d3-4374-b017-de5d6249f419","category":"Civilian or Soldier or Militant (Depending on the colour)","side":"Neutral","color":"#AC7339","description":"Fourteen individuals in civilian clothing with white flags were observed moving from Kupiansk-Vuzlovyi through Kurylivka, Kharkiv Oblast, as observed by a drone. A drone hovering near the group is visible (0:03-0:25). Servicemen from the 1st Tank Army of the Guards \"West\" are reportedly evacuating civilians from the village of Kupyansk-Uzlovaya.","orbat":["1st Guards Tank Army"],"geolocation":["https://x.com/GeoConfirmed/status/2106398105797116234","https://x.com/Bielitzling/status/2105978433511755963"],"sources":["https://x.com/Bielitzling/status/2105978438985437217","https://t.me/operationall_space/13473"]}},{"type":"Feature","geometry":{"type":"Point","coordinates":[30.628435,50.391142]},"properties":{"original":{"Date":"2026-10-02","Name":"02 OCT 2026","Faction":"Neutral","Origin":"PIC","Latitude":"50.391142","Longitude":"30.628435","PlusCode":"9G2G9JRH+F9 Kyiv, Kyiv city, Ukraine","Description":"A reported Russian Geran struck a residential highrise in Kyiv's Osokorky neighborhood.  Reportedly a woman died, two more people were injured","Source":"https://x.com/giK1893/status/2105947665926361216, https://t.me/dsns_kyiv/5028, https://t.me/kievinfo_kyiv/101433, https://t.me/gunpKyiv/17291","Geolocation":"https://x.com/GeoConfirmed/status/2106398664134381761, https://x.com/giK1893/status/2105947374627569803","Equipment":"","EquipmentItems":"","Units":"","OrbatUnits":"","Id":"61030962-b1cf-4f1c-892f-e7edd00039d8","icon":"/api/icons/AC7339/False/template/192.png"},"source":"geoconfirmed","source_name":"GeoConfirmed","source_url":"https://geoconfirmed.org/map/ukraine","id":"61030962-b1cf-4f1c-892f-e7edd00039d8","date":"2026-10-02","link":"https://geoconfirmed.org/map/ukraine/61030962-b1cf-4f1c-892f-e7edd00039d8","category":"Recently destroyed/Damaged[Visible in footage] or still burning infrastucture","side":"Neutral","color":"#AC7339","description":"A reported Russian Geran struck a residential highrise in Kyiv's Osokorky neighborhood.  Reportedly a woman died, two more people were injured","orbat":[],"geolocation":["https://x.com/GeoConfirmed/status/2106398664134381761","https://x.com/giK1893/status/2105947374627569803"],"sources":["https://x.com/giK1893/status/2105947665926361216","https://t.me/dsns_kyiv/5028","https://t.me/kievinfo_kyiv/101433","https://t.me/gunpKyiv/17291"]}},{"type":"Feature","geometry":{"type":"Point","coordinates":[34.72432,46.26187]},"properties":{"original":{"Date":"2026-10-02","Name":"02 OCT 2026","Faction":"Ukraine","Origin":"UAV","Latitude":"46.26187","Longitude":"34.72432","PlusCode":"8GRP7P6F+PP Oleksiivka, Kherson Oblast, Ukraine","Description":"A Russian R-161-5 'Pole-5' mobile communication station is hit with drones twice by the 1st battalion of 413th unmanned systems regiment 'Reid'. (location of second strike)","Source":"https://bsky.app/profile/noelreports.com/post/3mx4z23sbhs2d, https://x.com/413_raid/status/2107069587254608320, https://x.com/NOELreports/status/2107098675419738455, https://www.facebook.com/reel/1825210481831310, https://www.instagram.com/raid.413/reel/DeHI-KVClKA/, https://t.me/raid_413/1961","Geolocation":"https://bsky.app/profile/blinzka.bsky.social/post/3mx5qgshnas23, https://x.com/blinzka/status/2107202646381580380, regarding date: https://bsky.app/profile/toaster66.bsky.social/post/3mx6ecpeinc2g","Equipment":"Pole-5","EquipmentItems":"Hornet","Units":"","OrbatUnits":"413th Unmanned Systems Regiment \"RAID\" \"РЕЙД\"","Id":"693a0828-a800-40ac-83af-ede373dcb01f","icon":"/api/icons/0051CA/False/template/181.png"},"source":"geoconfirmed","source_name":"GeoConfirmed","source_url":"https://geoconfirmed.org/map/ukraine","id":"693a0828-a800-40ac-83af-ede373dcb01f","date":"2026-10-02","link":"https://geoconfirmed.org/map/ukraine/693a0828-a800-40ac-83af-ede373dcb01f","category":"Longe Range (>50km) OWAD (One Way Attack Drone) or Loitering munition, mostly fixed wing, Flying OR Attacking a target without knowing the outcome: if something is damaged --> icon of the damaged equipment.","side":"Ukraine","color":"#0051CA","description":"A Russian R-161-5 'Pole-5' mobile communication station is hit with drones twice by the 1st battalion of 413th unmanned systems regiment 'Reid'. (location of second strike)","orbat":["413th Unmanned Systems Regiment \"RAID\" \"РЕЙД\""],"geolocation":["https://bsky.app/profile/blinzka.bsky.social/post/3mx5qgshnas23","https://x.com/blinzka/status/2107202646381580380","https://bsky.app/profile/toaster66.bsky.social/post/3mx6ecpeinc2g"],"sources":["https://bsky.app/profile/noelreports.com/post/3mx4z23sbhs2d","https://x.com/413_raid/status/2107069587254608320","https://x.com/NOELreports/status/2107098675419738455","https://www.facebook.com/reel/1825210481831310","https://www.instagram.com/raid.413/reel/DeHI-KVClKA/","https://t.me/raid_413/1961"]}},{"type":"Feature","geometry":{"type":"Point","coordinates":[30.485783,50.392236]},"properties":{"original":{"Date":"2026-10-02","Name":"02 OCT 2026","Faction":"Russia","Origin":"PIC","Latitude":"50.392236","Longitude":"30.485783","PlusCode":"9G2G9FRP+V8 Kyiv, Kyiv city, Ukraine","Description":"Location of the crater - reportedly, a Russian Shahed struck next to a medical facility close to Vasylkivska Metro station in Kyiv.","Source":"(1/3), https://x.com/giK1893/status/2106363823183863931, (1/4), https://t.me/sofiadunaevska/2218, (3/3), https://t.me/suspilne_kyiv/29503","Geolocation":"https://x.com/GeoConfirmed/status/2106427765427765741, Geo:, https://x.com/giK1893/status/2106363823183863931, Proof:, https://x.com/GeoRaccoon/status/2106426795444588699","Equipment":"(Reportedly)","EquipmentItems":"Geran/Shahed UNK Type","Units":"","OrbatUnits":"","Id":"8125745f-8870-47fe-bb49-fb37dff528e9","icon":"/api/icons/E00000/False/template/20.png"},"source":"geoconfirmed","source_name":"GeoConfirmed","source_url":"https://geoconfirmed.org/map/ukraine","id":"8125745f-8870-47fe-bb49-fb37dff528e9","date":"2026-10-02","link":"https://geoconfirmed.org/map/ukraine/8125745f-8870-47fe-bb49-fb37dff528e9","category":"Picture - Always Point of View in description - - In the colour of who is doing the attack or is responsable for the incident in the picture.","side":"Russia","color":"#E00000","description":"Location of the crater - reportedly, a Russian Shahed struck next to a medical facility close to Vasylkivska Metro station in Kyiv.","orbat":[],"geolocation":["https://x.com/GeoConfirmed/status/2106427765427765741","https://x.com/giK1893/status/2106363823183863931","https://x.com/GeoRaccoon/status/2106426795444588699"],"sources":["https://x.com/giK1893/status/2106363823183863931","https://t.me/sofiadunaevska/2218","https://t.me/suspilne_kyiv/29503"]}}]}