{"type":"FeatureCollection","features":[{"type":"Feature","geometry":{"type":"Point","coordinates":[35.263791,51.197134]},"properties":{"original":{"id":46569,"type":"Engineering","model":"'Zemledeliye' remote mine-laying system","status":"Destroyed","lost_by":"Russia","date":"2026-08-19","nearest_location":"Goncharovka, Sudzha raion","geo":"51.197134,35.263791","unit":"Moskva (ex-Western) Military District","tags":null},"source":"warspotting","source_name":"WarSpotting","source_url":"https://ukr.warspotting.net/","id":46569,"date":"2026-08-19","link":"https://ukr.warspotting.net/view/46569/","category":"Engineering","side":"Lost by Russia","color":"#E00000","description":"'Zemledeliye' remote mine-laying system · Destroyed · near Goncharovka, Sudzha raion","orbat":["Moskva (ex-Western) Military District"]}}]}