{"type":"FeatureCollection","features":[{"type":"Feature","geometry":{"type":"Point","coordinates":[30.88412,50.3817]},"properties":{"original":{"Date":"2026-08-27","Name":"27 AUG 2026","Faction":"Neutral","Origin":"VID","Latitude":"50.3817","Longitude":"30.88412","PlusCode":"9G2G9VJM+MJ Velyka Oleksandrivka, Kyiv Oblast, Ukraine","Description":"Area grid - Fire and huge plumes of smoke are coming from a warehouse following a reported Russian strike. Warehouse visible on Low satellite imagery.","Source":"Vid1, (1/2), https://x.com/zarGEOINT/status/2092856392356925831, (2/2), https://t.me/truexanewsua/143306, More information, Vid2, (2/2), https://x.com/zarGEOINT/status/2092856392356925831, https://t.me/kievinfo_kyiv/95214, , SAT, https://x.com/MilitarySummary/status/2093007236628889619, , More information, https://ukrmedia.news/en/viyna/udar-po-skladakh-rozetka-fozzy-kyivshchyna/","Geolocation":"https://x.com/zarGEOINT/status/2092856395418816551","Equipment":"","EquipmentItems":"","Units":"","OrbatUnits":"","Id":"a8055de9-6825-4242-b45d-03d5b5c8d45e","icon":"/api/icons/AC7339/False/template/192.png"},"source":"geoconfirmed","source_name":"GeoConfirmed","source_url":"https://geoconfirmed.org/map/ukraine","id":"a8055de9-6825-4242-b45d-03d5b5c8d45e","date":"2026-08-27","link":"https://geoconfirmed.org/map/ukraine/a8055de9-6825-4242-b45d-03d5b5c8d45e","category":"Recently destroyed/Damaged[Visible in footage] or still burning infrastucture","side":"Neutral","color":"#AC7339","description":"Area grid - Fire and huge plumes of smoke are coming from a warehouse following a reported Russian strike. Warehouse visible on Low satellite imagery.","orbat":[],"geolocation":["https://x.com/zarGEOINT/status/2092856395418816551"],"sources":["https://x.com/zarGEOINT/status/2092856392356925831","https://t.me/truexanewsua/143306","https://x.com/zarGEOINT/status/2092856392356925831","https://t.me/kievinfo_kyiv/95214","https://x.com/MilitarySummary/status/2093007236628889619","https://ukrmedia.news/en/viyna/udar-po-skladakh-rozetka-fozzy-kyivshchyna/"]}},{"type":"Feature","geometry":{"type":"Point","coordinates":[32.612244,46.643354]},"properties":{"original":{"Date":"2026-08-27","Name":"27 AUG 2026","Faction":"Russia","Origin":"VID","Latitude":"46.643354","Longitude":"32.612244","PlusCode":"8GRJJJV6+8V Kherson, Kherson Oblast, Ukraine","Description":"A bus was attacked by Russian drone, reportedly three people were injured., ","Source":"https://x.com/99Dominik_/status/2092926472449130652, https://t.me/yaroslavshanko/6378, , More information, https://www.pravda.com.ua/eng/news/2026/08/27/8050528/, ","Geolocation":"https://x.com/GeoConfirmed/status/2092977768191398082, https://x.com/99Dominik_/status/2092926274490577360","Equipment":"","EquipmentItems":"Bus (Civilian) | FPV (First Person View) OWAD (One Way Attack Drone)","Units":"","OrbatUnits":"","Id":"c7c02390-6718-4abd-b80b-06aaede64734","icon":"/api/icons/E00000/False/template/50.png"},"source":"geoconfirmed","source_name":"GeoConfirmed","source_url":"https://geoconfirmed.org/map/ukraine","id":"c7c02390-6718-4abd-b80b-06aaede64734","date":"2026-08-27","link":"https://geoconfirmed.org/map/ukraine/c7c02390-6718-4abd-b80b-06aaede64734","category":"Killed or wounded civilian. Potential Warcrime. In the colour of who is assessed as doing the attack/killing.","side":"Russia","color":"#E00000","description":"A bus was attacked by Russian drone, reportedly three people were injured.,","orbat":[],"geolocation":["https://x.com/GeoConfirmed/status/2092977768191398082","https://x.com/99Dominik_/status/2092926274490577360"],"sources":["https://x.com/99Dominik_/status/2092926472449130652","https://t.me/yaroslavshanko/6378","https://www.pravda.com.ua/eng/news/2026/08/27/8050528/"]}},{"type":"Feature","geometry":{"type":"Point","coordinates":[36.3148,48.88897]},"properties":{"original":{"Date":"2026-08-27","Name":"27 AUG 2026","Faction":"Russia","Origin":"UAV","Latitude":"48.88897","Longitude":"36.3148","PlusCode":"8GWRV8Q7+HW Lozova, Kharkiv Oblast, Ukraine","Description":"Russian Geran drone attacked a Military Store UARM — Military Equipment Store, claimed  position of Ukrainian 156th OMBR command post - Lozova, Lozova direction, Kharkov region","Source":"Vid, https://x.com/AMK_Mapping_/status/2092890347139698862, https://t.me/The_Wrong_Side/30764","Geolocation":"Geo, https://x.com/AMK_Mapping_/status/2092890347139698862, Proof, https://x.com/franfran2424/status/2092928217661284383","Equipment":"(reported 2 Geran strikes)","EquipmentItems":"Geran-4","Units":"","OrbatUnits":"156th Mechanized Brigade","Id":"0c0f3be5-7052-4a7c-a692-3254390a34a9","icon":"/api/icons/E00000/False/template/181.png"},"source":"geoconfirmed","source_name":"GeoConfirmed","source_url":"https://geoconfirmed.org/map/ukraine","id":"0c0f3be5-7052-4a7c-a692-3254390a34a9","date":"2026-08-27","link":"https://geoconfirmed.org/map/ukraine/0c0f3be5-7052-4a7c-a692-3254390a34a9","category":"Longe Range (>50km) OWAD (One Way Attack Drone) or Loitering munition, mostly fixed wing, Flying OR Attacking a target without knowing the outcome: if something is damaged --> icon of the damaged equipment.","side":"Russia","color":"#E00000","description":"Russian Geran drone attacked a Military Store UARM — Military Equipment Store, claimed  position of Ukrainian 156th OMBR command post - Lozova, Lozova direction, Kharkov region","orbat":["156th Mechanized Brigade"],"geolocation":["https://x.com/AMK_Mapping_/status/2092890347139698862","https://x.com/franfran2424/status/2092928217661284383"],"sources":["https://x.com/AMK_Mapping_/status/2092890347139698862","https://t.me/The_Wrong_Side/30764"]}},{"type":"Feature","geometry":{"type":"Point","coordinates":[37.13399,48.42343]},"properties":{"original":{"Date":"2026-08-27","Name":"27 AUG 2026","Faction":"Russia","Origin":"UAV","Latitude":"48.42343","Longitude":"37.13399","PlusCode":"8GWVC38Q+GQ Krasnopodillya, Donetsk Oblast, Ukraine","Description":"0:57-1:02 - Claimed Ukrainian position hit by a Russian drone of the Center for Advanced Unmanned Aerial Technologies \"Rubicon\"","Source":"https://x.com/meowqai/status/2092985290709152054, https://t.me/icpbtrubicon/2491, ","Geolocation":"(4/4), https://x.com/meowqai/status/2092985062182498744","Equipment":"","EquipmentItems":"FPV (First Person View) OWAD (One Way Attack Drone)","Units":"","OrbatUnits":"Center for Advanced Unmanned Aerial Technologies \"Rubicon\"","Id":"3a39e720-360a-426a-bf0e-49fc862bc015","icon":"/api/icons/E00000/False/template/111.png"},"source":"geoconfirmed","source_name":"GeoConfirmed","source_url":"https://geoconfirmed.org/map/ukraine","id":"3a39e720-360a-426a-bf0e-49fc862bc015","date":"2026-08-27","link":"https://geoconfirmed.org/map/ukraine/3a39e720-360a-426a-bf0e-49fc862bc015","category":"Short Range (<50km) OWAD (One Way Attack Drone), mostly rotary wing, Flying OR Attacking a target without knowing the outcome: if something is damaged --> icon of the damaged equipment.","side":"Russia","color":"#E00000","description":"0:57-1:02 - Claimed Ukrainian position hit by a Russian drone of the Center for Advanced Unmanned Aerial Technologies \"Rubicon\"","orbat":["Center for Advanced Unmanned Aerial Technologies \"Rubicon\""],"geolocation":["https://x.com/meowqai/status/2092985062182498744"],"sources":["https://x.com/meowqai/status/2092985290709152054","https://t.me/icpbtrubicon/2491"]}},{"type":"Feature","geometry":{"type":"Point","coordinates":[30.8806238,50.3747716]},"properties":{"original":{"Date":"2026-08-27","Name":"27 AUG 2026","Faction":"Russia","Origin":"VID","Latitude":"50.3747716","Longitude":"30.8806238","PlusCode":"9G2G9VFJ+W6 Hora, Kyiv Oblast, Ukraine","Description":"Rough location at 0:18 - Point of view looking in a west direction - Fire and huge plumes of smoke are coming from a warehouse following a reported Russian strike","Source":"Vid1, (1/2), https://x.com/zarGEOINT/status/2092856392356925831, (2/2), https://t.me/truexanewsua/143306, More information, https://ukrmedia.news/en/viyna/udar-po-skladakh-rozetka-fozzy-kyivshchyna/","Geolocation":"https://x.com/zarGEOINT/status/2092856395418816551","Equipment":"","EquipmentItems":"","Units":"","OrbatUnits":"","Id":"3227e34f-f336-4350-b4e8-4ec6e4a04df0","icon":"/api/icons/E00000/False/template/30.png"},"source":"geoconfirmed","source_name":"GeoConfirmed","source_url":"https://geoconfirmed.org/map/ukraine","id":"3227e34f-f336-4350-b4e8-4ec6e4a04df0","date":"2026-08-27","link":"https://geoconfirmed.org/map/ukraine/3227e34f-f336-4350-b4e8-4ec6e4a04df0","category":"Video - Always Point of View in description - In the colour of who is doing the attack or is responsable for the incident in the video.","side":"Russia","color":"#E00000","description":"Rough location at 0:18 - Point of view looking in a west direction - Fire and huge plumes of smoke are coming from a warehouse following a reported Russian strike","orbat":[],"geolocation":["https://x.com/zarGEOINT/status/2092856395418816551"],"sources":["https://x.com/zarGEOINT/status/2092856392356925831","https://t.me/truexanewsua/143306","https://ukrmedia.news/en/viyna/udar-po-skladakh-rozetka-fozzy-kyivshchyna/"]}},{"type":"Feature","geometry":{"type":"Point","coordinates":[30.87511,50.387773]},"properties":{"original":{"Date":"2026-08-27","Name":"27 AUG 2026","Faction":"Neutral","Origin":"VID","Latitude":"50.387773","Longitude":"30.87511","PlusCode":"9G2G9VQG+42 Velyka Oleksandrivka, Kyiv Oblast, Ukraine","Description":"Location of the house - A residential building on fire, presumed aftermath of Russian strikes. Debris and a car on fire are visible.","Source":"https://x.com/giK1893/status/2092911129852821758, https://t.me/kievinfo_kyiv/95228","Geolocation":"https://x.com/giK1893/status/2092911132977627476","Equipment":"","EquipmentItems":"","Units":"","OrbatUnits":"","Id":"37d96e8e-839a-4123-8624-4f6e617bab06","icon":"/api/icons/AC7339/False/template/192.png"},"source":"geoconfirmed","source_name":"GeoConfirmed","source_url":"https://geoconfirmed.org/map/ukraine","id":"37d96e8e-839a-4123-8624-4f6e617bab06","date":"2026-08-27","link":"https://geoconfirmed.org/map/ukraine/37d96e8e-839a-4123-8624-4f6e617bab06","category":"Recently destroyed/Damaged[Visible in footage] or still burning infrastucture","side":"Neutral","color":"#AC7339","description":"Location of the house - A residential building on fire, presumed aftermath of Russian strikes. Debris and a car on fire are visible.","orbat":[],"geolocation":["https://x.com/giK1893/status/2092911132977627476"],"sources":["https://x.com/giK1893/status/2092911129852821758","https://t.me/kievinfo_kyiv/95228"]}},{"type":"Feature","geometry":{"type":"Point","coordinates":[35.819642,47.532364]},"properties":{"original":{"Date":"2026-08-27","Name":"27 AUG 2026","Faction":"Russia","Origin":"UAV","Latitude":"47.532364","Longitude":"35.819642","PlusCode":"8GVQGRJ9+WV Novodanylivka, Zaporizhia Oblast, Ukraine","Description":"0:59-1:27 - Russian soldier of 71st Guards Motor Rifle Regiment dropped mine into a Ukrainian position and attacked it with a FPV drone in Novodanylivka,","Source":"https://x.com/Bielitzling/status/2092982406424719535, https://t.me/gv71msp/568","Geolocation":"https://x.com/Bielitzling/status/2092982402511495403","Equipment":"","EquipmentItems":"FPV (First Person View) OWAD (One Way Attack Drone)","Units":"","OrbatUnits":"","Id":"095b7f62-65b5-4ab7-b371-5502d4edd325","icon":"/api/icons/E00000/False/template/100.png"},"source":"geoconfirmed","source_name":"GeoConfirmed","source_url":"https://geoconfirmed.org/map/ukraine","id":"095b7f62-65b5-4ab7-b371-5502d4edd325","date":"2026-08-27","link":"https://geoconfirmed.org/map/ukraine/095b7f62-65b5-4ab7-b371-5502d4edd325","category":"Civilian or Soldier or Militant (Depending on the colour)","side":"Russia","color":"#E00000","description":"0:59-1:27 - Russian soldier of 71st Guards Motor Rifle Regiment dropped mine into a Ukrainian position and attacked it with a FPV drone in Novodanylivka,","orbat":[],"geolocation":["https://x.com/Bielitzling/status/2092982402511495403"],"sources":["https://x.com/Bielitzling/status/2092982406424719535","https://t.me/gv71msp/568"]}},{"type":"Feature","geometry":{"type":"Point","coordinates":[37.616547,48.468458]},"properties":{"original":{"Date":"2026-08-27","Name":"27 AUG 2026","Faction":"Russia","Origin":"UAV","Latitude":"48.468458","Longitude":"37.616547","PlusCode":"8GWVFJ98+9J Stepanivka, Donetsk Oblast, Ukraine","Description":"1:06-1:28 - Ukrainian position in Stepanivka hit by Bobr Sever UAV Unit of the 7th Military Base with a Fibre Optic FPV drone","Source":"https://x.com/AudaxonX/status/2093771911406747752, https://t.me/BOBR_SEVER/98","Geolocation":"https://x.com/AudaxonX/status/2093771850585170393","Equipment":"","EquipmentItems":"Fiber Optic (FO) FPV (First Person View) OWAD (One Way Attack Drone)","Units":"","OrbatUnits":"UAV Unit \"Bobr Sever\"","Id":"78044b4e-9427-4eca-b5d1-5597ec6d80a1","icon":"/api/icons/E00000/False/template/111.png"},"source":"geoconfirmed","source_name":"GeoConfirmed","source_url":"https://geoconfirmed.org/map/ukraine","id":"78044b4e-9427-4eca-b5d1-5597ec6d80a1","date":"2026-08-27","link":"https://geoconfirmed.org/map/ukraine/78044b4e-9427-4eca-b5d1-5597ec6d80a1","category":"Short Range (<50km) OWAD (One Way Attack Drone), mostly rotary wing, Flying OR Attacking a target without knowing the outcome: if something is damaged --> icon of the damaged equipment.","side":"Russia","color":"#E00000","description":"1:06-1:28 - Ukrainian position in Stepanivka hit by Bobr Sever UAV Unit of the 7th Military Base with a Fibre Optic FPV drone","orbat":["UAV Unit \"Bobr Sever\""],"geolocation":["https://x.com/AudaxonX/status/2093771850585170393"],"sources":["https://x.com/AudaxonX/status/2093771911406747752","https://t.me/BOBR_SEVER/98"]}},{"type":"Feature","geometry":{"type":"Point","coordinates":[30.466547,59.732371]},"properties":{"original":{"Date":"2026-08-27","Name":"27 AUG 2026","Faction":"Unknown","Origin":"VID","Latitude":"59.732371","Longitude":"30.466547","PlusCode":"9GFGPFJ8+WJ Pushkinsky District, Saint Petersburg, Russia","Description":"A destroyed car and debris are visible. Two ambulances, firefighters, and policemen are at the scene. Reportedly, an IED detonated inside a car, killing a Russian Armed Forces lieutenant colonel, according to Russian media. Additionally, it was reported that the wife is in intensive care.","Source":"Vid, https://x.com/bayraktar_1love/status/2092900724124381374, https://t.me/astrapress/123448, https://t.me/fontankaspb/109668, Pic, https://x.com/Grimm_Intel/status/2092908031738597750, https://t.me/toporlive/198999, https://t.me/exilenova_plus/29887, , More information, https://tvrain.tv/news/v-peterburge-vzorvalsja-avtomobil-pogib-podpolkovnik-rossijskoj-armii-fontanka-575299/","Geolocation":"https://x.com/GeoConfirmed/status/2092979321572905186, Vid, https://x.com/99Dominik_/status/2092901895287320690, Pic, https://x.com/Grimm_Intel/status/2092908517220827330, https://x.com/LayBay_ish/status/2092905494176256063","Equipment":"(reported)","EquipmentItems":"Car  | Improvised Explosive Device (IED)","Units":"","OrbatUnits":"","Id":"bd23f77d-437c-48fc-8e97-5dd40cb1fafe","icon":"/api/icons/666666/False/template/a8c55b37-7710-40ef-8f00-2a17e58b6f69.png"},"source":"geoconfirmed","source_name":"GeoConfirmed","source_url":"https://geoconfirmed.org/map/ukraine","id":"bd23f77d-437c-48fc-8e97-5dd40cb1fafe","date":"2026-08-27","link":"https://geoconfirmed.org/map/ukraine/bd23f77d-437c-48fc-8e97-5dd40cb1fafe","category":"Recently Destroyed/Damaged[Visible in footage] Car OR PickUp (Soft Skin Vehicle)","side":"Unknown","color":"#666666","description":"A destroyed car and debris are visible. Two ambulances, firefighters, and policemen are at the scene. Reportedly, an IED detonated inside a car, killing a Russian Armed Forces lieutenant colonel, according to Russian media. Additionally, it was reported that the wife is in intensive care.","orbat":[],"geolocation":["https://x.com/GeoConfirmed/status/2092979321572905186","https://x.com/99Dominik_/status/2092901895287320690","https://x.com/Grimm_Intel/status/2092908517220827330","https://x.com/LayBay_ish/status/2092905494176256063"],"sources":["https://x.com/bayraktar_1love/status/2092900724124381374","https://t.me/astrapress/123448","https://t.me/fontankaspb/109668","https://x.com/Grimm_Intel/status/2092908031738597750","https://t.me/toporlive/198999","https://t.me/exilenova_plus/29887","https://tvrain.tv/news/v-peterburge-vzorvalsja-avtomobil-pogib-podpolkovnik-rossijskoj-armii-fontanka-575299/"]}},{"type":"Feature","geometry":{"type":"Point","coordinates":[34.384397,47.568264]},"properties":{"original":{"Date":"2026-08-27","Name":"27 AUG 2026","Faction":"Neutral","Origin":"PIC","Latitude":"47.568264","Longitude":"34.384397","PlusCode":"8GVPH99M+8Q Nikopol, Dnipropetrovsk Oblast, Ukraine","Description":"Russia shelled Nikopol with artillery. One of the hits damaged a multistory building. In total, 8 people were wounded.","Source":"https://t.me/suspilnednipro/69033, , More information: https://suspilne.media/dnipro/1389044-armia-rf-vdarila-po-seredmistu-nikopola-artilerieu-patero-ldej-poraneni/","Geolocation":"https://bsky.app/profile/scaratlas.bsky.social/post/3mu4syupids24","Equipment":"","EquipmentItems":"Artillery","Units":"","OrbatUnits":"","Id":"955469c8-e9d9-4c7c-9e23-5ea193abc405","icon":"/api/icons/AC7339/False/template/192.png"},"source":"geoconfirmed","source_name":"GeoConfirmed","source_url":"https://geoconfirmed.org/map/ukraine","id":"955469c8-e9d9-4c7c-9e23-5ea193abc405","date":"2026-08-27","link":"https://geoconfirmed.org/map/ukraine/955469c8-e9d9-4c7c-9e23-5ea193abc405","category":"Recently destroyed/Damaged[Visible in footage] or still burning infrastucture","side":"Neutral","color":"#AC7339","description":"Russia shelled Nikopol with artillery. One of the hits damaged a multistory building. In total, 8 people were wounded.","orbat":[],"geolocation":["https://bsky.app/profile/scaratlas.bsky.social/post/3mu4syupids24"],"sources":["https://t.me/suspilnednipro/69033","https://suspilne.media/dnipro/1389044-armia-rf-vdarila-po-seredmistu-nikopola-artilerieu-patero-ldej-poraneni/"]}},{"type":"Feature","geometry":{"type":"Point","coordinates":[37.659211,49.660804]},"properties":{"original":{"Date":"2026-08-27","Name":"27 AUG 2026","Faction":"Ukraine","Origin":"UAV","Latitude":"49.660804","Longitude":"37.659211","PlusCode":"8GXVMM65+8M Kup'yans'k-Vuzlovyi, Kharkiv Oblast, Ukraine","Description":"0:26-0:40 - Two Russian soldiers are hit by 424th Battalion “Svarog” in Kup’yans’k-Vuzlovy. ","Source":"https://x.com/PuenteUribarri/status/2093092331293491613, https://t.me/svarog_usf/1022?single","Geolocation":"https://x.com/jimmhelloman555/status/2093187976406647196","Equipment":"(presumed)","EquipmentItems":"FPV (First Person View) OWAD (One Way Attack Drone)","Units":"","OrbatUnits":"424th Unmanned Systems Battalion \"SVAROG\"","Id":"1178bb64-7ca4-4f42-9455-63c3e61285d8","icon":"/api/icons/0051CA/False/template/111.png"},"source":"geoconfirmed","source_name":"GeoConfirmed","source_url":"https://geoconfirmed.org/map/ukraine","id":"1178bb64-7ca4-4f42-9455-63c3e61285d8","date":"2026-08-27","link":"https://geoconfirmed.org/map/ukraine/1178bb64-7ca4-4f42-9455-63c3e61285d8","category":"Short Range (<50km) OWAD (One Way Attack Drone), mostly rotary wing, Flying OR Attacking a target without knowing the outcome: if something is damaged --> icon of the damaged equipment.","side":"Ukraine","color":"#0051CA","description":"0:26-0:40 - Two Russian soldiers are hit by 424th Battalion “Svarog” in Kup’yans’k-Vuzlovy.","orbat":["424th Unmanned Systems Battalion \"SVAROG\""],"geolocation":["https://x.com/jimmhelloman555/status/2093187976406647196"],"sources":["https://x.com/PuenteUribarri/status/2093092331293491613","https://t.me/svarog_usf/1022?single"]}},{"type":"Feature","geometry":{"type":"Point","coordinates":[37.884021,48.592419]},"properties":{"original":{"Date":"2026-08-27","Name":"27 AUG 2026","Faction":"Russia","Origin":"UAV","Latitude":"48.592419","Longitude":"37.884021","PlusCode":"8GWVHVRM+XJ Chasiv Yar, Donetsk Oblast, Ukraine","Description":"Russian pickup hit by Ukrainian Bumblebee drone of the Fire Support Group of the Special Purpose Detachment \"Omega 4\"","Source":"https://x.com/RedHibana/status/2096900210173550596, https://www.instagram.com/fsg_est.2022/reel/DciKoYEOoCL, ","Geolocation":"https://x.com/AudaxonX/status/2096604581719392409","Equipment":"Bumblebee FPV drone","EquipmentItems":"FPV (First Person View) OWAD (One Way Attack Drone)","Units":"","OrbatUnits":"Fire Support Group","Id":"325ddef5-1030-4e80-8931-69500cdadb45","icon":"/api/icons/E00000/False/template/a8c55b37-7710-40ef-8f00-2a17e58b6f69.png"},"source":"geoconfirmed","source_name":"GeoConfirmed","source_url":"https://geoconfirmed.org/map/ukraine","id":"325ddef5-1030-4e80-8931-69500cdadb45","date":"2026-08-27","link":"https://geoconfirmed.org/map/ukraine/325ddef5-1030-4e80-8931-69500cdadb45","category":"Recently Destroyed/Damaged[Visible in footage] Car OR PickUp (Soft Skin Vehicle)","side":"Russia","color":"#E00000","description":"Russian pickup hit by Ukrainian Bumblebee drone of the Fire Support Group of the Special Purpose Detachment \"Omega 4\"","orbat":["Fire Support Group"],"geolocation":["https://x.com/AudaxonX/status/2096604581719392409"],"sources":["https://x.com/RedHibana/status/2096900210173550596","https://www.instagram.com/fsg_est.2022/reel/DciKoYEOoCL"]}},{"type":"Feature","geometry":{"type":"Point","coordinates":[32.597068,46.638688]},"properties":{"original":{"Date":"2026-08-27","Name":"27 AUG 2026","Faction":"Russia","Origin":"VID","Latitude":"46.638688","Longitude":"32.597068","PlusCode":"8GRJJHQW+FR Kherson, Kherson Oblast, Ukraine","Description":"A man riding a bicycle was killed by Russian drone.","Source":"https://x.com/99Dominik_/status/2092869095855104058, https://t.me/kherson_non_fake/33727, , More information, https://www.pravda.com.ua/eng/news/2026/08/27/8050504/","Geolocation":"https://x.com/99Dominik_/status/2092868937289494874","Equipment":"","EquipmentItems":"","Units":"","OrbatUnits":"","Id":"adf528e9-d9c4-490a-91f8-76677047fd3d","icon":"/api/icons/E00000/False/template/50.png"},"source":"geoconfirmed","source_name":"GeoConfirmed","source_url":"https://geoconfirmed.org/map/ukraine","id":"adf528e9-d9c4-490a-91f8-76677047fd3d","date":"2026-08-27","link":"https://geoconfirmed.org/map/ukraine/adf528e9-d9c4-490a-91f8-76677047fd3d","category":"Killed or wounded civilian. Potential Warcrime. In the colour of who is assessed as doing the attack/killing.","side":"Russia","color":"#E00000","description":"A man riding a bicycle was killed by Russian drone.","orbat":[],"geolocation":["https://x.com/99Dominik_/status/2092868937289494874"],"sources":["https://x.com/99Dominik_/status/2092869095855104058","https://t.me/kherson_non_fake/33727","https://www.pravda.com.ua/eng/news/2026/08/27/8050504/"]}},{"type":"Feature","geometry":{"type":"Point","coordinates":[37.789361,49.676858]},"properties":{"original":{"Date":"2026-08-27","Name":"27 AUG 2026","Faction":"Ukraine","Origin":"UAV","Latitude":"49.676858","Longitude":"37.789361","PlusCode":"8GXVMQGQ+PP Petropavlivka, Kharkiv Oblast, Ukraine","Description":"1:16-end - A claimed Russian position was struck by the 424th Battalion of Unmanned Systems \"Svarog\"","Source":"https://x.com/PuenteUribarri/status/2093092331293491613, https://t.me/svarog_usf/1022?single","Geolocation":"https://x.com/jimmhelloman555/status/2093187382182875233","Equipment":"(presumed)","EquipmentItems":"FPV (First Person View) OWAD (One Way Attack Drone)","Units":"","OrbatUnits":"424th Unmanned Systems Battalion \"SVAROG\"","Id":"c93dd46f-edbf-4cee-876b-77d7f47f19b3","icon":"/api/icons/0051CA/False/template/111.png"},"source":"geoconfirmed","source_name":"GeoConfirmed","source_url":"https://geoconfirmed.org/map/ukraine","id":"c93dd46f-edbf-4cee-876b-77d7f47f19b3","date":"2026-08-27","link":"https://geoconfirmed.org/map/ukraine/c93dd46f-edbf-4cee-876b-77d7f47f19b3","category":"Short Range (<50km) OWAD (One Way Attack Drone), mostly rotary wing, Flying OR Attacking a target without knowing the outcome: if something is damaged --> icon of the damaged equipment.","side":"Ukraine","color":"#0051CA","description":"1:16-end - A claimed Russian position was struck by the 424th Battalion of Unmanned Systems \"Svarog\"","orbat":["424th Unmanned Systems Battalion \"SVAROG\""],"geolocation":["https://x.com/jimmhelloman555/status/2093187382182875233"],"sources":["https://x.com/PuenteUribarri/status/2093092331293491613","https://t.me/svarog_usf/1022?single"]}},{"type":"Feature","geometry":{"type":"Point","coordinates":[30.856167,50.393555]},"properties":{"original":{"Date":"2026-08-27","Name":"27 AUG 2026","Faction":"Neutral","Origin":"SAT","Latitude":"50.393555","Longitude":"30.856167","PlusCode":"9G2G9VV4+CF Velyka Oleksandrivka, Kyiv Oblast, Ukraine","Description":"Area grid - Fire and huge plumes of smoke are coming from a warehouse following a reported Russian strike.","Source":"https://x.com/MilitarySummary/status/2093007236628889619","Geolocation":"https://maps.app.goo.gl/WrrjQu8UQ1uYygVP6","Equipment":"","EquipmentItems":"","Units":"","OrbatUnits":"","Id":"96c053b4-abb0-4ab0-a93e-7fe21dc5923d","icon":"/api/icons/AC7339/False/template/192.png"},"source":"geoconfirmed","source_name":"GeoConfirmed","source_url":"https://geoconfirmed.org/map/ukraine","id":"96c053b4-abb0-4ab0-a93e-7fe21dc5923d","date":"2026-08-27","link":"https://geoconfirmed.org/map/ukraine/96c053b4-abb0-4ab0-a93e-7fe21dc5923d","category":"Recently destroyed/Damaged[Visible in footage] or still burning infrastucture","side":"Neutral","color":"#AC7339","description":"Area grid - Fire and huge plumes of smoke are coming from a warehouse following a reported Russian strike.","orbat":[],"geolocation":["https://maps.app.goo.gl/WrrjQu8UQ1uYygVP6"],"sources":["https://x.com/MilitarySummary/status/2093007236628889619"]}},{"type":"Feature","geometry":{"type":"Point","coordinates":[32.7999,46.7242]},"properties":{"original":{"Date":"2026-08-27","Name":"27 AUG 2026","Faction":"Russia","Origin":"UAV","Latitude":"46.7242","Longitude":"32.7999","PlusCode":"8GRJPQFX+MX Mykil's'ke, Kherson Oblast, Ukraine","Description":"A Russian FPV drone of the 215th Recon Battalion of the 98th Division attacks a car.","Source":"https://x.com/franfran2424/status/2094140156118733303, https://t.me/osvedomitell_alex/37273","Geolocation":"https://x.com/franfran2424/status/2094140205401854455","Equipment":"","EquipmentItems":"FPV (First Person View) OWAD (One Way Attack Drone)","Units":"","OrbatUnits":"215th Reconnaissance Battalion","Id":"b29013fe-7e84-4766-928c-81975d9a457a","icon":"/api/icons/E00000/False/template/111.png"},"source":"geoconfirmed","source_name":"GeoConfirmed","source_url":"https://geoconfirmed.org/map/ukraine","id":"b29013fe-7e84-4766-928c-81975d9a457a","date":"2026-08-27","link":"https://geoconfirmed.org/map/ukraine/b29013fe-7e84-4766-928c-81975d9a457a","category":"Short Range (<50km) OWAD (One Way Attack Drone), mostly rotary wing, Flying OR Attacking a target without knowing the outcome: if something is damaged --> icon of the damaged equipment.","side":"Russia","color":"#E00000","description":"A Russian FPV drone of the 215th Recon Battalion of the 98th Division attacks a car.","orbat":["215th Reconnaissance Battalion"],"geolocation":["https://x.com/franfran2424/status/2094140205401854455"],"sources":["https://x.com/franfran2424/status/2094140156118733303","https://t.me/osvedomitell_alex/37273"]}},{"type":"Feature","geometry":{"type":"Point","coordinates":[37.12111,48.48628]},"properties":{"original":{"Date":"2026-08-27","Name":"27 AUG 2026","Faction":"Russia","Origin":"UAV","Latitude":"48.48628","Longitude":"37.12111","PlusCode":"8GWVF4PC+GC Hannivka, Donetsk Oblast, Ukraine","Description":"0:25-0:34 - Claimed Ukrainian position hit by a Russian drone of the Center for Advanced Unmanned Aerial Technologies \"Rubicon\"","Source":"https://x.com/meowqai/status/2092985290709152054, https://t.me/icpbtrubicon/2491, ","Geolocation":"(1/4), https://x.com/meowqai/status/2092985062182498744","Equipment":"","EquipmentItems":"FPV (First Person View) OWAD (One Way Attack Drone)","Units":"","OrbatUnits":"Center for Advanced Unmanned Aerial Technologies \"Rubicon\"","Id":"17b0e732-69c5-4a05-b698-8699bc580a8f","icon":"/api/icons/E00000/False/template/111.png"},"source":"geoconfirmed","source_name":"GeoConfirmed","source_url":"https://geoconfirmed.org/map/ukraine","id":"17b0e732-69c5-4a05-b698-8699bc580a8f","date":"2026-08-27","link":"https://geoconfirmed.org/map/ukraine/17b0e732-69c5-4a05-b698-8699bc580a8f","category":"Short Range (<50km) OWAD (One Way Attack Drone), mostly rotary wing, Flying OR Attacking a target without knowing the outcome: if something is damaged --> icon of the damaged equipment.","side":"Russia","color":"#E00000","description":"0:25-0:34 - Claimed Ukrainian position hit by a Russian drone of the Center for Advanced Unmanned Aerial Technologies \"Rubicon\"","orbat":["Center for Advanced Unmanned Aerial Technologies \"Rubicon\""],"geolocation":["https://x.com/meowqai/status/2092985062182498744"],"sources":["https://x.com/meowqai/status/2092985290709152054","https://t.me/icpbtrubicon/2491"]}},{"type":"Feature","geometry":{"type":"Point","coordinates":[37.856657,49.121838]},"properties":{"original":{"Date":"2026-08-27","Name":"27 AUG 2026","Faction":"Ukraine","Origin":"UAV","Latitude":"49.121838","Longitude":"37.856657","PlusCode":"8GXV4VC4+PM Nove, Donetsk Oblast, Ukraine","Description":"0:34 & 0:37 - Russian soldier targeted by a FPV drone of the Unmanned Systems Battalion \"Mara\" of the 66th Mechanized Brigade","Source":"https://x.com/PuenteUribarri/status/2092987927953363198, https://t.me/ombr66/2975, ","Geolocation":"https://x.com/Kukulkan415/status/2093037557630034069","Equipment":"","EquipmentItems":"","Units":"","OrbatUnits":"Unmanned Systems Battalion \"Mara\"","Id":"5606bd0e-22d9-4e2b-b507-881163e2a476","icon":"/api/icons/0051CA/False/template/111.png"},"source":"geoconfirmed","source_name":"GeoConfirmed","source_url":"https://geoconfirmed.org/map/ukraine","id":"5606bd0e-22d9-4e2b-b507-881163e2a476","date":"2026-08-27","link":"https://geoconfirmed.org/map/ukraine/5606bd0e-22d9-4e2b-b507-881163e2a476","category":"Short Range (<50km) OWAD (One Way Attack Drone), mostly rotary wing, Flying OR Attacking a target without knowing the outcome: if something is damaged --> icon of the damaged equipment.","side":"Ukraine","color":"#0051CA","description":"0:34 & 0:37 - Russian soldier targeted by a FPV drone of the Unmanned Systems Battalion \"Mara\" of the 66th Mechanized Brigade","orbat":["Unmanned Systems Battalion \"Mara\""],"geolocation":["https://x.com/Kukulkan415/status/2093037557630034069"],"sources":["https://x.com/PuenteUribarri/status/2092987927953363198","https://t.me/ombr66/2975"]}},{"type":"Feature","geometry":{"type":"Point","coordinates":[37.15278,48.41716]},"properties":{"original":{"Date":"2026-08-27","Name":"27 AUG 2026","Faction":"Russia","Origin":"UAV","Latitude":"48.41716","Longitude":"37.15278","PlusCode":"8GWVF4PC+GC Hannivka, Donetsk Oblast, Ukraine","Description":"0:35-0:43 - Claimed Ukrainian position hit by Russian drone drops of the Center for Advanced Unmanned Aerial Technologies \"Rubicon\"","Source":"https://x.com/meowqai/status/2092985290709152054, https://t.me/icpbtrubicon/2491, ","Geolocation":"(2/4), https://x.com/meowqai/status/2092985062182498744","Equipment":"","EquipmentItems":"(Multi-Purpose) Bomber UAV","Units":"","OrbatUnits":"Center for Advanced Unmanned Aerial Technologies \"Rubicon\"","Id":"ef7e388f-fc1b-445f-9947-8b1c212f42cf","icon":"/api/icons/E00000/False/template/111.png"},"source":"geoconfirmed","source_name":"GeoConfirmed","source_url":"https://geoconfirmed.org/map/ukraine","id":"ef7e388f-fc1b-445f-9947-8b1c212f42cf","date":"2026-08-27","link":"https://geoconfirmed.org/map/ukraine/ef7e388f-fc1b-445f-9947-8b1c212f42cf","category":"Short Range (<50km) OWAD (One Way Attack Drone), mostly rotary wing, Flying OR Attacking a target without knowing the outcome: if something is damaged --> icon of the damaged equipment.","side":"Russia","color":"#E00000","description":"0:35-0:43 - Claimed Ukrainian position hit by Russian drone drops of the Center for Advanced Unmanned Aerial Technologies \"Rubicon\"","orbat":["Center for Advanced Unmanned Aerial Technologies \"Rubicon\""],"geolocation":["https://x.com/meowqai/status/2092985062182498744"],"sources":["https://x.com/meowqai/status/2092985290709152054","https://t.me/icpbtrubicon/2491"]}},{"type":"Feature","geometry":{"type":"Point","coordinates":[30.889314,50.380897]},"properties":{"original":{"Date":"2026-08-27","Name":"27 AUG 2026","Faction":"Neutral","Origin":"SAT","Latitude":"50.380897","Longitude":"30.889314","PlusCode":"9G2G9VJQ+9P Velyka Oleksandrivka, Kyiv Oblast, Ukraine","Description":"Fire and huge plumes of smoke are coming from a warehouse 'Focus Distribution LLC Warehouse'  following a reported Russian strike.","Source":"https://x.com/MilitarySummary/status/2093007236628889619","Geolocation":"https://maps.app.goo.gl/scAnJLwxE4yjyoad7","Equipment":"","EquipmentItems":"","Units":"","OrbatUnits":"","Id":"75c0f495-2a2e-4e87-8221-9432c21b470b","icon":"/api/icons/AC7339/False/template/192.png"},"source":"geoconfirmed","source_name":"GeoConfirmed","source_url":"https://geoconfirmed.org/map/ukraine","id":"75c0f495-2a2e-4e87-8221-9432c21b470b","date":"2026-08-27","link":"https://geoconfirmed.org/map/ukraine/75c0f495-2a2e-4e87-8221-9432c21b470b","category":"Recently destroyed/Damaged[Visible in footage] or still burning infrastucture","side":"Neutral","color":"#AC7339","description":"Fire and huge plumes of smoke are coming from a warehouse 'Focus Distribution LLC Warehouse'  following a reported Russian strike.","orbat":[],"geolocation":["https://maps.app.goo.gl/scAnJLwxE4yjyoad7"],"sources":["https://x.com/MilitarySummary/status/2093007236628889619"]}},{"type":"Feature","geometry":{"type":"Point","coordinates":[35.898278,47.531731]},"properties":{"original":{"Date":"2026-08-27","Name":"27 AUG 2026","Faction":"Russia","Origin":"UAV","Latitude":"47.531731","Longitude":"35.898278","PlusCode":"8GVQGVJX+M8 Mala Tokmachka, Zaporizhia Oblast, Ukraine","Description":"0:31-0:48 - Russian soldier hit by Ukrainian 118th Mechanized Brigade in Mala Tokmachka","Source":"https://x.com/Bielitzling/status/2092991117914526124, https://t.me/intelligencecompany/254, ","Geolocation":"https://x.com/Bielitzling/status/2092991114013749441","Equipment":"","EquipmentItems":"FPV (First Person View) OWAD (One Way Attack Drone)","Units":"","OrbatUnits":"","Id":"6490a5aa-608e-45d5-bfee-99493379e93f","icon":"/api/icons/E00000/False/template/92.png"},"source":"geoconfirmed","source_name":"GeoConfirmed","source_url":"https://geoconfirmed.org/map/ukraine","id":"6490a5aa-608e-45d5-bfee-99493379e93f","date":"2026-08-27","link":"https://geoconfirmed.org/map/ukraine/6490a5aa-608e-45d5-bfee-99493379e93f","category":"WIA/KIA Soldier/Militant","side":"Russia","color":"#E00000","description":"0:31-0:48 - Russian soldier hit by Ukrainian 118th Mechanized Brigade in Mala Tokmachka","orbat":[],"geolocation":["https://x.com/Bielitzling/status/2092991114013749441"],"sources":["https://x.com/Bielitzling/status/2092991117914526124","https://t.me/intelligencecompany/254"]}},{"type":"Feature","geometry":{"type":"Point","coordinates":[56.03261,55.04124]},"properties":{"original":{"Date":"2026-08-27","Name":"27 AUG 2026","Faction":"Ukraine","Origin":"VID","Latitude":"55.04124","Longitude":"56.03261","PlusCode":"9H7R22RM+F2 Blagoveshchensk, Republic of Bashkortostan, Russia","Description":"Location of the warehouse - moment of a Ukrainian drone attack on the Ozon warehouse in Blagoveshchensk, Republic of Bashkortostan, Russia. ","Source":"https://x.com/front_ukrainian/status/2092905543887192235, https://t.me/exilenova_plus/29886","Geolocation":"https://x.com/GeoConfirmed/status/2092978576865849767, https://x.com/zarGEOINT/status/2092914672391303549","Equipment":"","EquipmentItems":"Fixed Wing OWAD (One Way Attack Drone)","Units":"","OrbatUnits":"","Id":"c78f04a8-1451-4f62-9b18-9c8ba8fb30b7","icon":"/api/icons/0051CA/False/template/181.png"},"source":"geoconfirmed","source_name":"GeoConfirmed","source_url":"https://geoconfirmed.org/map/ukraine","id":"c78f04a8-1451-4f62-9b18-9c8ba8fb30b7","date":"2026-08-27","link":"https://geoconfirmed.org/map/ukraine/c78f04a8-1451-4f62-9b18-9c8ba8fb30b7","category":"Longe Range (>50km) OWAD (One Way Attack Drone) or Loitering munition, mostly fixed wing, Flying OR Attacking a target without knowing the outcome: if something is damaged --> icon of the damaged equipment.","side":"Ukraine","color":"#0051CA","description":"Location of the warehouse - moment of a Ukrainian drone attack on the Ozon warehouse in Blagoveshchensk, Republic of Bashkortostan, Russia.","orbat":[],"geolocation":["https://x.com/GeoConfirmed/status/2092978576865849767","https://x.com/zarGEOINT/status/2092914672391303549"],"sources":["https://x.com/front_ukrainian/status/2092905543887192235","https://t.me/exilenova_plus/29886"]}},{"type":"Feature","geometry":{"type":"Point","coordinates":[30.75906,46.47377]},"properties":{"original":{"Date":"2026-08-27","Name":"27 AUG 2026","Faction":"Neutral","Origin":"PIC","Latitude":"46.47377","Longitude":"30.75906","PlusCode":"8GRGFQF5+GJ Odesa, Odesa Oblast, Ukraine","Description":"A Russian drone struck a residential building in Odesa last night.","Source":"Pic1, https://x.com/CrimeanVoyager/status/2092851322542342382, https://t.me/odessa_infonews/96558, Pic2, https://x.com/giK1893/status/2092907406145544544, (4/5), https://t.me/V_Zelenskiy_official/20612, , , More information, https://censor.net/en/news/4020410/russian-attack-on-odesa-educational-institution-and-house-damaged","Geolocation":"https://x.com/zarGEOINT/status/2092863053440176211","Equipment":"","EquipmentItems":"","Units":"","OrbatUnits":"","Id":"1fdfe39d-13fe-45ea-b572-bd4c74bffed7","icon":"/api/icons/AC7339/False/template/192.png"},"source":"geoconfirmed","source_name":"GeoConfirmed","source_url":"https://geoconfirmed.org/map/ukraine","id":"1fdfe39d-13fe-45ea-b572-bd4c74bffed7","date":"2026-08-27","link":"https://geoconfirmed.org/map/ukraine/1fdfe39d-13fe-45ea-b572-bd4c74bffed7","category":"Recently destroyed/Damaged[Visible in footage] or still burning infrastucture","side":"Neutral","color":"#AC7339","description":"A Russian drone struck a residential building in Odesa last night.","orbat":[],"geolocation":["https://x.com/zarGEOINT/status/2092863053440176211"],"sources":["https://x.com/CrimeanVoyager/status/2092851322542342382","https://t.me/odessa_infonews/96558","https://x.com/giK1893/status/2092907406145544544","https://t.me/V_Zelenskiy_official/20612","https://censor.net/en/news/4020410/russian-attack-on-odesa-educational-institution-and-house-damaged"]}},{"type":"Feature","geometry":{"type":"Point","coordinates":[36.2756,49.90842]},"properties":{"original":{"Date":"2026-08-27","Name":"27 AUG 2026","Faction":"Neutral","Origin":"VID","Latitude":"49.90842","Longitude":"36.2756","PlusCode":"8GXRW75G+96 Kharkiv, Kharkiv Oblast, Ukraine","Description":"Damaged 'Epicentr' building following a reported Russian strike. Reportedly as a result of the strike, one person was killed, and 2 more were injured., ","Source":"https://x.com/zarGEOINT/status/2092945840121782345, https://t.me/kharkivlife/151668, , More information, https://antikor.ua/en/articles/859173-v_harjkove_udar_prishelsja_po_epitsentru_estj_pogibshij_i_postradavshie, https://english.nv.ua/nation/attack-on-shopping-center-in-kharkiv-on-august-27-one-person-killed-four-others-injured-50636210.html","Geolocation":"https://x.com/GeoConfirmed/status/2092978126594736595, https://x.com/zarGEOINT/status/2092948272868413917","Equipment":"","EquipmentItems":"","Units":"","OrbatUnits":"","Id":"5ce025a7-7033-4dc3-92ad-c0c565090509","icon":"/api/icons/AC7339/False/template/192.png"},"source":"geoconfirmed","source_name":"GeoConfirmed","source_url":"https://geoconfirmed.org/map/ukraine","id":"5ce025a7-7033-4dc3-92ad-c0c565090509","date":"2026-08-27","link":"https://geoconfirmed.org/map/ukraine/5ce025a7-7033-4dc3-92ad-c0c565090509","category":"Recently destroyed/Damaged[Visible in footage] or still burning infrastucture","side":"Neutral","color":"#AC7339","description":"Damaged 'Epicentr' building following a reported Russian strike. Reportedly as a result of the strike, one person was killed, and 2 more were injured.,","orbat":[],"geolocation":["https://x.com/GeoConfirmed/status/2092978126594736595","https://x.com/zarGEOINT/status/2092948272868413917"],"sources":["https://x.com/zarGEOINT/status/2092945840121782345","https://t.me/kharkivlife/151668","https://antikor.ua/en/articles/859173-v_harjkove_udar_prishelsja_po_epitsentru_estj_pogibshij_i_postradavshie","https://english.nv.ua/nation/attack-on-shopping-center-in-kharkiv-on-august-27-one-person-killed-four-others-injured-50636210.html"]}},{"type":"Feature","geometry":{"type":"Point","coordinates":[37.764956,48.816132]},"properties":{"original":{"Date":"2026-08-27","Name":"27 AUG 2026","Faction":"Ukraine","Origin":"UAV","Latitude":"48.816132","Longitude":"37.764956","PlusCode":"8GWVRQ87+FX Orikhuvatka, Donetsk Oblast, Ukraine","Description":"123rd Motorized Brigade hits claimed Ukrainian Unmanned Ground Vehicle near Orikhuvatka, Donetsk","Source":"(3/3), https://x.com/ukrgeonews/status/2093031424257319395, https://t.me/shock3OA/8888, ","Geolocation":"(1/3&2/3), https://x.com/ukrgeonews/status/2093031424257319395","Equipment":"","EquipmentItems":"FPV (First Person View) OWAD (One Way Attack Drone) | Unmanned Ground Vehicle (UGV)","Units":"","OrbatUnits":"123rd Separate Guards Motorized Rifle Brigade \"Самарканда\" / \"Samarkand\"","Id":"a3339d0c-ef5f-43d0-9822-c9877ac6d13b","icon":"/api/icons/0051CA/False/template/f0b7a02c-510c-40ef-94db-aa70eb4c3b90.png"},"source":"geoconfirmed","source_name":"GeoConfirmed","source_url":"https://geoconfirmed.org/map/ukraine","id":"a3339d0c-ef5f-43d0-9822-c9877ac6d13b","date":"2026-08-27","link":"https://geoconfirmed.org/map/ukraine/a3339d0c-ef5f-43d0-9822-c9877ac6d13b","category":"Recently Destroyed/Damaged[Visible in footage] Suicide UGV","side":"Ukraine","color":"#0051CA","description":"123rd Motorized Brigade hits claimed Ukrainian Unmanned Ground Vehicle near Orikhuvatka, Donetsk","orbat":["123rd Separate Guards Motorized Rifle Brigade \"Самарканда\" / \"Samarkand\""],"geolocation":["https://x.com/ukrgeonews/status/2093031424257319395"],"sources":["https://x.com/ukrgeonews/status/2093031424257319395","https://t.me/shock3OA/8888"]}},{"type":"Feature","geometry":{"type":"Point","coordinates":[32.792494,46.748693]},"properties":{"original":{"Date":"2026-08-27","Name":"27 AUG 2026","Faction":"Russia","Origin":"VID","Latitude":"46.748693","Longitude":"32.792494","PlusCode":"8GRJPQXR+FX Dar'ivka, Kherson Oblast, Ukraine","Description":"A man, reportedly riding a bicycle, was killed by a Russian drone.","Source":"https://x.com/99Dominik_/status/2093053946814148645, https://www.instagram.com/reel/DcjJu0CICu5/","Geolocation":"https://x.com/99Dominik_/status/2093053699929112788","Equipment":"","EquipmentItems":"","Units":"","OrbatUnits":"","Id":"fff73ecd-6812-4cb6-b067-ee09d0637c42","icon":"/api/icons/E00000/False/template/50.png"},"source":"geoconfirmed","source_name":"GeoConfirmed","source_url":"https://geoconfirmed.org/map/ukraine","id":"fff73ecd-6812-4cb6-b067-ee09d0637c42","date":"2026-08-27","link":"https://geoconfirmed.org/map/ukraine/fff73ecd-6812-4cb6-b067-ee09d0637c42","category":"Killed or wounded civilian. Potential Warcrime. In the colour of who is assessed as doing the attack/killing.","side":"Russia","color":"#E00000","description":"A man, reportedly riding a bicycle, was killed by a Russian drone.","orbat":[],"geolocation":["https://x.com/99Dominik_/status/2093053699929112788"],"sources":["https://x.com/99Dominik_/status/2093053946814148645","https://www.instagram.com/reel/DcjJu0CICu5/"]}},{"type":"Feature","geometry":{"type":"Point","coordinates":[37.08948,48.41629]},"properties":{"original":{"Date":"2026-08-27","Name":"27 AUG 2026","Faction":"Russia","Origin":"UAV","Latitude":"48.41629","Longitude":"37.08948","PlusCode":"8GWVC38Q+GQ Krasnopodillya, Donetsk Oblast, Ukraine","Description":"0:44-0:50 - Claimed Ukrainian position hit by a Russian drone of the Center for Advanced Unmanned Aerial Technologies \"Rubicon\"","Source":"https://x.com/meowqai/status/2092985290709152054, https://t.me/icpbtrubicon/2491, ","Geolocation":"(3/4), https://x.com/meowqai/status/2092985062182498744","Equipment":"","EquipmentItems":"FPV (First Person View) OWAD (One Way Attack Drone)","Units":"","OrbatUnits":"Center for Advanced Unmanned Aerial Technologies \"Rubicon\"","Id":"1b24f198-6a1b-4a0b-b731-f77aa0fd04d9","icon":"/api/icons/E00000/False/template/111.png"},"source":"geoconfirmed","source_name":"GeoConfirmed","source_url":"https://geoconfirmed.org/map/ukraine","id":"1b24f198-6a1b-4a0b-b731-f77aa0fd04d9","date":"2026-08-27","link":"https://geoconfirmed.org/map/ukraine/1b24f198-6a1b-4a0b-b731-f77aa0fd04d9","category":"Short Range (<50km) OWAD (One Way Attack Drone), mostly rotary wing, Flying OR Attacking a target without knowing the outcome: if something is damaged --> icon of the damaged equipment.","side":"Russia","color":"#E00000","description":"0:44-0:50 - Claimed Ukrainian position hit by a Russian drone of the Center for Advanced Unmanned Aerial Technologies \"Rubicon\"","orbat":["Center for Advanced Unmanned Aerial Technologies \"Rubicon\""],"geolocation":["https://x.com/meowqai/status/2092985062182498744"],"sources":["https://x.com/meowqai/status/2092985290709152054","https://t.me/icpbtrubicon/2491"]}},{"type":"Feature","geometry":{"type":"Point","coordinates":[37.695926,49.659168]},"properties":{"original":{"Date":"2026-08-27","Name":"27 AUG 2026","Faction":"Ukraine","Origin":"UAV","Latitude":"49.659168","Longitude":"37.695926","PlusCode":"8GXVMM5W+M9 Kurylivka, Kharkiv Oblast, Ukraine","Description":"Ukrainian 'Caucasian Legion' of the 9th Unmanned Systems Brigade targeted a Russian position with Vampire drone drops","Source":"https://x.com/ZoamSc2/status/2093091170117378330, https://t.me/caucasusLegion/1871","Geolocation":"https://x.com/ZoamSc2/status/2093091167835763057","Equipment":"","EquipmentItems":"Vampire","Units":"Caucasian Legion","OrbatUnits":"9th Unmanned Systems Brigade","Id":"1d109496-2468-4301-a7d7-f85e4e67ab07","icon":"/api/icons/0051CA/False/template/110.png"},"source":"geoconfirmed","source_name":"GeoConfirmed","source_url":"https://geoconfirmed.org/map/ukraine","id":"1d109496-2468-4301-a7d7-f85e4e67ab07","date":"2026-08-27","link":"https://geoconfirmed.org/map/ukraine/1d109496-2468-4301-a7d7-f85e4e67ab07","category":"Multipurpose Bomber Drone, Flying OR Dropping OR bombing a target without knowing the outcome: if something is damaged --> icon of the damaged equipment.","side":"Ukraine","color":"#0051CA","description":"Ukrainian 'Caucasian Legion' of the 9th Unmanned Systems Brigade targeted a Russian position with Vampire drone drops","orbat":["9th Unmanned Systems Brigade"],"geolocation":["https://x.com/ZoamSc2/status/2093091167835763057"],"sources":["https://x.com/ZoamSc2/status/2093091170117378330","https://t.me/caucasusLegion/1871"]}},{"type":"Feature","geometry":{"type":"Point","coordinates":[37.544707,48.598579]},"properties":{"original":{"Date":"2026-08-27","Name":"27 AUG 2026","Faction":"Russia","Origin":"VID","Latitude":"48.598579","Longitude":"37.544707","PlusCode":"8GWVHGXV+CV Druzhkivka, Donetsk Oblast, Ukraine","Description":"An elderly couple were reportedly attacked by Russian FPV drone. The woman was killed and her husband was injured.","Source":"https://x.com/99Dominik_/status/2092894472833011916, https://t.me/Khyzhak_brigade/3262","Geolocation":"https://x.com/99Dominik_/status/2092894111627915754","Equipment":"","EquipmentItems":"FPV (First Person View) OWAD (One Way Attack Drone)","Units":"","OrbatUnits":"Special Purpose Police Brigade \"Khyzhak\" / \"Predator\"","Id":"f165f0b1-8f18-47ca-b9de-f9ca0aeced94","icon":"/api/icons/E00000/False/template/50.png"},"source":"geoconfirmed","source_name":"GeoConfirmed","source_url":"https://geoconfirmed.org/map/ukraine","id":"f165f0b1-8f18-47ca-b9de-f9ca0aeced94","date":"2026-08-27","link":"https://geoconfirmed.org/map/ukraine/f165f0b1-8f18-47ca-b9de-f9ca0aeced94","category":"Killed or wounded civilian. Potential Warcrime. In the colour of who is assessed as doing the attack/killing.","side":"Russia","color":"#E00000","description":"An elderly couple were reportedly attacked by Russian FPV drone. The woman was killed and her husband was injured.","orbat":["Special Purpose Police Brigade \"Khyzhak\" / \"Predator\""],"geolocation":["https://x.com/99Dominik_/status/2092894111627915754"],"sources":["https://x.com/99Dominik_/status/2092894472833011916","https://t.me/Khyzhak_brigade/3262"]}}]}