{"type":"FeatureCollection","features":[{"type":"Feature","geometry":{"type":"Point","coordinates":[35.865514,48.531978]},"properties":{"original":{"Date":"2026-09-18","Name":"18 SEP 2026","Faction":"Ukraine Civilian","Origin":"VID","Latitude":"48.531978","Longitude":"35.865514","PlusCode":"8GWQGVJ8+Q6 Pavlohrad, Dnipropetrovsk Oblast, Ukraine","Description":"Russian strike hit the Hopital No. 1 in Pavlohrad","Source":"https://x.com/giK1893/status/2101070558914117707, https://t.me/dnepr_operativ/114144, https://t.me/Dnipro_meridian/12361, ","Geolocation":"https://x.com/giK1893/status/2101070562931937366","Equipment":"","EquipmentItems":"","Units":"","OrbatUnits":"","Id":"15875589-4297-4fe2-b9ce-0272389e019d","icon":"/api/icons/3184FF/False/template/192.png"},"source":"geoconfirmed","source_name":"GeoConfirmed","source_url":"https://geoconfirmed.org/map/ukraine","id":"15875589-4297-4fe2-b9ce-0272389e019d","date":"2026-09-18","link":"https://geoconfirmed.org/map/ukraine/15875589-4297-4fe2-b9ce-0272389e019d","category":"Recently destroyed/Damaged[Visible in footage] or still burning infrastucture","side":"Ukraine Civilian","color":"#3184FF","description":"Russian strike hit the Hopital No. 1 in Pavlohrad","orbat":[],"geolocation":["https://x.com/giK1893/status/2101070562931937366"],"sources":["https://x.com/giK1893/status/2101070558914117707","https://t.me/dnepr_operativ/114144","https://t.me/Dnipro_meridian/12361"]}},{"type":"Feature","geometry":{"type":"Point","coordinates":[37.59748,49.74194]},"properties":{"original":{"Date":"2026-09-18","Name":"18 SEP 2026","Faction":"Ukraine","Origin":"UAV","Latitude":"49.74194","Longitude":"37.59748","PlusCode":"8GXVPHRW+QX Kup'yans'k, Kharkiv Oblast, Ukraine","Description":"01:10-end  - area grid - 39th Separate Marine Brigade observes an explosion in a forest near Radkivka, Kharkiv Oblast.","Source":"(1/2) https://x.com/meowqai/status/2102819506225656197, https://t.me/Brigade126TDF/1589","Geolocation":"(2/2), https://x.com/meowqai/status/2102819506225656197","Equipment":"","EquipmentItems":"Airstrike","Units":"","OrbatUnits":"39th Coastal Defense Brigade","Id":"1891f802-0151-4045-925d-175214cb391c","icon":"/api/icons/0051CA/False/template/10.png"},"source":"geoconfirmed","source_name":"GeoConfirmed","source_url":"https://geoconfirmed.org/map/ukraine","id":"1891f802-0151-4045-925d-175214cb391c","date":"2026-09-18","link":"https://geoconfirmed.org/map/ukraine/1891f802-0151-4045-925d-175214cb391c","category":"Shelling by artillery or aerial bombings - Location of the shelling, colour of who is shelling; Brown = UXO","side":"Ukraine","color":"#0051CA","description":"01:10-end  - area grid - 39th Separate Marine Brigade observes an explosion in a forest near Radkivka, Kharkiv Oblast.","orbat":["39th Coastal Defense Brigade"],"geolocation":["https://x.com/meowqai/status/2102819506225656197"],"sources":["https://x.com/meowqai/status/2102819506225656197","https://t.me/Brigade126TDF/1589"]}},{"type":"Feature","geometry":{"type":"Point","coordinates":[37.519214,48.618922]},"properties":{"original":{"Date":"2026-09-18","Name":"18 SEP 2026","Faction":"Russia","Origin":"VID","Latitude":"48.618922","Longitude":"37.519214","PlusCode":"8GWVJG99+HM Druzhkivka, Donetsk Oblast, Ukraine","Description":"Rough location - Ukrainian soldiers provided first aid to two men who were reportedly attacked by Russian FPV drone.","Source":"https://x.com/99Dominik_/status/2100892646801633606, https://t.me/Khyzhak_brigade/3319, ","Geolocation":"https://x.com/99Dominik_/status/2100892398431686745","Equipment":"(reported)","EquipmentItems":"FPV (First Person View) OWAD (One Way Attack Drone)","Units":"","OrbatUnits":"Special Purpose Police Brigade \"Khyzhak\" / \"Predator\"","Id":"2976f2d4-27f2-4c18-bfbe-2452445a7c31","icon":"/api/icons/E00000/False/template/50.png"},"source":"geoconfirmed","source_name":"GeoConfirmed","source_url":"https://geoconfirmed.org/map/ukraine","id":"2976f2d4-27f2-4c18-bfbe-2452445a7c31","date":"2026-09-18","link":"https://geoconfirmed.org/map/ukraine/2976f2d4-27f2-4c18-bfbe-2452445a7c31","category":"Killed or wounded civilian. Potential Warcrime. In the colour of who is assessed as doing the attack/killing.","side":"Russia","color":"#E00000","description":"Rough location - Ukrainian soldiers provided first aid to two men who were reportedly attacked by Russian FPV drone.","orbat":["Special Purpose Police Brigade \"Khyzhak\" / \"Predator\""],"geolocation":["https://x.com/99Dominik_/status/2100892398431686745"],"sources":["https://x.com/99Dominik_/status/2100892646801633606","https://t.me/Khyzhak_brigade/3319"]}},{"type":"Feature","geometry":{"type":"Point","coordinates":[37.388199,50.27388]},"properties":{"original":{"Date":"2026-09-18","Name":"18 SEP 2026","Faction":"Russia","Origin":"UAV","Latitude":"50.27388","Longitude":"37.388199","PlusCode":"9G2V79FQ+H7 Buzove, Kharkiv Oblast, Ukraine","Description":"Claimed Ukrainian position hit by Russian FAB airstrike in the village of Buzove","Source":"https://x.com/RedHibana/status/2100997078113566853, https://t.me/warriorofnorth/22037","Geolocation":"https://x.com/RedHibana/status/2100997075169169470","Equipment":"","EquipmentItems":"Fugasnaya Aviatsionnaya Bomba (FAB)","Units":"","OrbatUnits":"","Id":"925f000d-7a56-45cc-a256-2b64c9ef76ee","icon":"/api/icons/E00000/False/template/10.png"},"source":"geoconfirmed","source_name":"GeoConfirmed","source_url":"https://geoconfirmed.org/map/ukraine","id":"925f000d-7a56-45cc-a256-2b64c9ef76ee","date":"2026-09-18","link":"https://geoconfirmed.org/map/ukraine/925f000d-7a56-45cc-a256-2b64c9ef76ee","category":"Shelling by artillery or aerial bombings - Location of the shelling, colour of who is shelling; Brown = UXO","side":"Russia","color":"#E00000","description":"Claimed Ukrainian position hit by Russian FAB airstrike in the village of Buzove","orbat":[],"geolocation":["https://x.com/RedHibana/status/2100997075169169470"],"sources":["https://x.com/RedHibana/status/2100997078113566853","https://t.me/warriorofnorth/22037"]}},{"type":"Feature","geometry":{"type":"Point","coordinates":[35.98961,49.734457]},"properties":{"original":{"Date":"2026-09-18","Name":"18 SEP 2026","Faction":"Neutral","Origin":"PIC","Latitude":"49.734457","Longitude":"35.98961","PlusCode":"8GXQPXMQ+QR Lypkuvativka, Kharkiv Oblast, Ukraine","Description":"Smoke plumes and fire coming from a damaged electrical train following a reported Russian Geran-4 strike. Reportedly one person was killed and six others were injured.","Source":"Pic, (1/3), https://x.com/giK1893/status/2100873171113062430, https://t.me/suspilne_kharkiv/101884, Pic2, (1/2), https://x.com/giK1893/status/2100874083051135297, https://t.me/suspilne_kharkiv/101887, (2/2), https://x.com/giK1893/status/2100873171113062430, https://t.me/suspilne_kharkiv/101885, , More information, https://informator.ua/ru/rossiya-udarila-po-prigorodnomu-poezdu-na-harkovshchine-est-postradavshie","Geolocation":"Pic1, (3//3), https://x.com/giK1893/status/2100873171113062430, Pic2, (2/2), https://x.com/giK1893/status/2100874083051135297","Equipment":"(reported)","EquipmentItems":"Locomotive/Train | Geran-4","Units":"","OrbatUnits":"","Id":"3d18f463-3963-4390-b01b-33a184f096d1","icon":"/api/icons/AC7339/False/template/162.png"},"source":"geoconfirmed","source_name":"GeoConfirmed","source_url":"https://geoconfirmed.org/map/ukraine","id":"3d18f463-3963-4390-b01b-33a184f096d1","date":"2026-09-18","link":"https://geoconfirmed.org/map/ukraine/3d18f463-3963-4390-b01b-33a184f096d1","category":"Recently Destroyed/Damaged[Visible in footage] Train","side":"Neutral","color":"#AC7339","description":"Smoke plumes and fire coming from a damaged electrical train following a reported Russian Geran-4 strike. Reportedly one person was killed and six others were injured.","orbat":[],"geolocation":["https://x.com/giK1893/status/2100873171113062430","https://x.com/giK1893/status/2100874083051135297"],"sources":["https://x.com/giK1893/status/2100873171113062430","https://t.me/suspilne_kharkiv/101884","https://x.com/giK1893/status/2100874083051135297","https://t.me/suspilne_kharkiv/101887","https://x.com/giK1893/status/2100873171113062430","https://t.me/suspilne_kharkiv/101885","https://informator.ua/ru/rossiya-udarila-po-prigorodnomu-poezdu-na-harkovshchine-est-postradavshie"]}},{"type":"Feature","geometry":{"type":"Point","coordinates":[28.953095,47.029202]},"properties":{"original":{"Date":"2026-09-18","Name":"18 SEP 2026","Faction":"Russia","Origin":"PIC","Latitude":"47.029202","Longitude":"28.953095","PlusCode":"8GVC2XH3+M6 Chișinău, Moldova","Description":"Alleged Russian S8000 Banderol cruise missile crashed in Moldova","Source":"https://x.com/99Dominik_/status/2101008386020032807, https://www.facebook.com/politiarepubliciimoldova/posts/pfbid036799i8yBcoEBSintrY7i9TnnsXdhsZU8AT1hLPD7tkVvv82cvEaMhmmxHN6XZJjol, ","Geolocation":"https://x.com/99Dominik_/status/2101004797402816785","Equipment":"(Alleged) S8000 Banderol","EquipmentItems":"","Units":"","OrbatUnits":"","Id":"e003bccc-38de-4513-be64-676b9028cf31","icon":"/api/icons/E00000/False/template/70.png"},"source":"geoconfirmed","source_name":"GeoConfirmed","source_url":"https://geoconfirmed.org/map/ukraine","id":"e003bccc-38de-4513-be64-676b9028cf31","date":"2026-09-18","link":"https://geoconfirmed.org/map/ukraine/e003bccc-38de-4513-be64-676b9028cf31","category":"Controlled Demolition OR explosion of unknown origin OR fire of unknown origin where no other icon fits","side":"Russia","color":"#E00000","description":"Alleged Russian S8000 Banderol cruise missile crashed in Moldova","orbat":[],"geolocation":["https://x.com/99Dominik_/status/2101004797402816785"],"sources":["https://x.com/99Dominik_/status/2101008386020032807","https://www.facebook.com/politiarepubliciimoldova/posts/pfbid036799i8yBcoEBSintrY7i9TnnsXdhsZU8AT1hLPD7tkVvv82cvEaMhmmxHN6XZJjol"]}},{"type":"Feature","geometry":{"type":"Point","coordinates":[37.69052,48.539151]},"properties":{"original":{"Date":"2026-09-18","Name":"18 SEP 2026","Faction":"Russia","Origin":"UAV","Latitude":"48.539151","Longitude":"37.69052","PlusCode":"8GWVGMQR+M6 Kostyantynivka, Donetsk Oblast, Ukraine","Description":"Russian FPV drone strikes empty Ukrainian supply UGV in Kostiantynivka","Source":"https://x.com/Bielitzling/status/2101118694512300397, https://t.me/KykyshkaBpLA/3244, ","Geolocation":"https://x.com/GeoConfirmed/status/2101346121746624834, https://x.com/Bielitzling/status/2101118690796134861","Equipment":"","EquipmentItems":"Unmanned Ground Vehicle (UGV) | FPV (First Person View) OWAD (One Way Attack Drone)","Units":"","OrbatUnits":"","Id":"323876ae-3230-404b-82a2-7589c82aab71","icon":"/api/icons/E00000/False/template/111.png"},"source":"geoconfirmed","source_name":"GeoConfirmed","source_url":"https://geoconfirmed.org/map/ukraine","id":"323876ae-3230-404b-82a2-7589c82aab71","date":"2026-09-18","link":"https://geoconfirmed.org/map/ukraine/323876ae-3230-404b-82a2-7589c82aab71","category":"Short Range (<50km) OWAD (One Way Attack Drone), mostly rotary wing, Flying OR Attacking a target without knowing the outcome: if something is damaged --> icon of the damaged equipment.","side":"Russia","color":"#E00000","description":"Russian FPV drone strikes empty Ukrainian supply UGV in Kostiantynivka","orbat":[],"geolocation":["https://x.com/GeoConfirmed/status/2101346121746624834","https://x.com/Bielitzling/status/2101118690796134861"],"sources":["https://x.com/Bielitzling/status/2101118694512300397","https://t.me/KykyshkaBpLA/3244"]}},{"type":"Feature","geometry":{"type":"Point","coordinates":[33.399774,49.07035]},"properties":{"original":{"Date":"2026-09-18","Name":"18 SEP 2026","Faction":"Neutral","Origin":"VID","Latitude":"49.07035","Longitude":"33.399774","PlusCode":"8GXM39CX+4W Kremenchuk, Poltava Oblast, Ukraine","Description":"0:09 - Damaged building of Private enterprise \"Ilona\" (Kremenchuk) following a reported Russian strike.","Source":"Vid, https://x.com/ua_poltava/status/2100959665995608248, Pic, https://x.com/Zeldamices/status/2101178438652514424, https://t.me/police_polt_obl/18727, , , More information, https://www.ukrinform.net/rubric-ato/4165565-strike-on-poltava-region-damages-buildings-and-business-injures-three-people-who-are-hospitalized.html","Geolocation":"https://x.com/Zeldamices/status/2101176268083343702","Equipment":"","EquipmentItems":"","Units":"","OrbatUnits":"","Id":"07a855c3-2c73-434c-9645-96d9a3c52ca7","icon":"/api/icons/AC7339/False/template/192.png"},"source":"geoconfirmed","source_name":"GeoConfirmed","source_url":"https://geoconfirmed.org/map/ukraine","id":"07a855c3-2c73-434c-9645-96d9a3c52ca7","date":"2026-09-18","link":"https://geoconfirmed.org/map/ukraine/07a855c3-2c73-434c-9645-96d9a3c52ca7","category":"Recently destroyed/Damaged[Visible in footage] or still burning infrastucture","side":"Neutral","color":"#AC7339","description":"0:09 - Damaged building of Private enterprise \"Ilona\" (Kremenchuk) following a reported Russian strike.","orbat":[],"geolocation":["https://x.com/Zeldamices/status/2101176268083343702"],"sources":["https://x.com/ua_poltava/status/2100959665995608248","https://x.com/Zeldamices/status/2101178438652514424","https://t.me/police_polt_obl/18727","https://www.ukrinform.net/rubric-ato/4165565-strike-on-poltava-region-damages-buildings-and-business-injures-three-people-who-are-hospitalized.html"]}},{"type":"Feature","geometry":{"type":"Point","coordinates":[30.826013,50.48523]},"properties":{"original":{"Date":"2026-09-18","Name":"18 SEP 2026","Faction":"Russia","Origin":"UAV","Latitude":"50.48523","Longitude":"30.826013","PlusCode":"9G2GFRPG+3C Brovary, Kyiv Oblast, Ukraine","Description":"0:08-0:21 - area grid - 50th Varyag Brigade's Geran-4 Seeker hit a warehouse, smoke plume visible.","Source":"https://x.com/Zeldamices/status/2101164282146668772, https://t.me/Brigada_VARYAG/248","Geolocation":"https://x.com/ne_kotletka/status/2100995847362064756","Equipment":"","EquipmentItems":"Geran-4 \"Seeker\"","Units":"","OrbatUnits":"50th Separate Unmanned Systems Brigade of the Supreme High Command \"VARYAG\"","Id":"96b93c7e-56d4-42d2-8c99-a1bb02b0bc14","icon":"/api/icons/E00000/False/template/181.png"},"source":"geoconfirmed","source_name":"GeoConfirmed","source_url":"https://geoconfirmed.org/map/ukraine","id":"96b93c7e-56d4-42d2-8c99-a1bb02b0bc14","date":"2026-09-18","link":"https://geoconfirmed.org/map/ukraine/96b93c7e-56d4-42d2-8c99-a1bb02b0bc14","category":"Longe Range (>50km) OWAD (One Way Attack Drone) or Loitering munition, mostly fixed wing, Flying OR Attacking a target without knowing the outcome: if something is damaged --> icon of the damaged equipment.","side":"Russia","color":"#E00000","description":"0:08-0:21 - area grid - 50th Varyag Brigade's Geran-4 Seeker hit a warehouse, smoke plume visible.","orbat":["50th Separate Unmanned Systems Brigade of the Supreme High Command \"VARYAG\""],"geolocation":["https://x.com/ne_kotletka/status/2100995847362064756"],"sources":["https://x.com/Zeldamices/status/2101164282146668772","https://t.me/Brigada_VARYAG/248"]}},{"type":"Feature","geometry":{"type":"Point","coordinates":[30.740356,46.459809]},"properties":{"original":{"Date":"2026-09-18","Name":"18 SEP 2026","Faction":"Russia","Origin":"VID","Latitude":"46.459809","Longitude":"30.740356","PlusCode":"8GRGFP5R+W4 Odesa, Odesa Oblast, Ukraine","Description":"Point of view in a south direction - the moment of a Russian strike, the Computing Center of the Odessa Railway visibly already hit and on fire","Source":"https://x.com/Zeldamices/status/2101197858204443071, https://t.me/kievinform_ua1/28224, , More information, https://www.unian.ua/incidents/rosiyani-atakuvali-budivlyu-ukrzaliznici-v-odesi-ye-poraneni-novini-odesi-13503657.html","Geolocation":"https://x.com/GeoConfirmed/status/2101345876165734907, https://x.com/Zeldamices/status/2101198284597432782","Equipment":"","EquipmentItems":"Geran/Shahed UNK Type","Units":"","OrbatUnits":"","Id":"a7b4082c-e49a-4122-a300-b0ac8a1d5778","icon":"/api/icons/E00000/False/template/30.png"},"source":"geoconfirmed","source_name":"GeoConfirmed","source_url":"https://geoconfirmed.org/map/ukraine","id":"a7b4082c-e49a-4122-a300-b0ac8a1d5778","date":"2026-09-18","link":"https://geoconfirmed.org/map/ukraine/a7b4082c-e49a-4122-a300-b0ac8a1d5778","category":"Video - Always Point of View in description - In the colour of who is doing the attack or is responsable for the incident in the video.","side":"Russia","color":"#E00000","description":"Point of view in a south direction - the moment of a Russian strike, the Computing Center of the Odessa Railway visibly already hit and on fire","orbat":[],"geolocation":["https://x.com/GeoConfirmed/status/2101345876165734907","https://x.com/Zeldamices/status/2101198284597432782"],"sources":["https://x.com/Zeldamices/status/2101197858204443071","https://t.me/kievinform_ua1/28224","https://www.unian.ua/incidents/rosiyani-atakuvali-budivlyu-ukrzaliznici-v-odesi-ye-poraneni-novini-odesi-13503657.html"]}},{"type":"Feature","geometry":{"type":"Point","coordinates":[30.739659,46.457696]},"properties":{"original":{"Date":"2026-09-18","Name":"18 SEP 2026","Faction":"Neutral","Origin":"VID","Latitude":"46.457696","Longitude":"30.739659","PlusCode":"8GRGFP5Q+3V Odesa, Odesa Oblast, Ukraine","Description":"Damaged building of the Information and Computing Center of the Odessa Railway following a Russian strike.","Source":"https://x.com/Zeldamices/status/2101169276681957742, (2/3&3/3), https://t.me/Sila_GO/117517, , More information, https://www.unian.ua/incidents/rosiyani-atakuvali-budivlyu-ukrzaliznici-v-odesi-ye-poraneni-novini-odesi-13503657.html","Geolocation":"https://x.com/ne_kotletka/status/2100940138113081708","Equipment":"","EquipmentItems":"","Units":"","OrbatUnits":"","Id":"08d78076-3628-4cee-bf81-eee9168dcd4f","icon":"/api/icons/AC7339/False/template/192.png"},"source":"geoconfirmed","source_name":"GeoConfirmed","source_url":"https://geoconfirmed.org/map/ukraine","id":"08d78076-3628-4cee-bf81-eee9168dcd4f","date":"2026-09-18","link":"https://geoconfirmed.org/map/ukraine/08d78076-3628-4cee-bf81-eee9168dcd4f","category":"Recently destroyed/Damaged[Visible in footage] or still burning infrastucture","side":"Neutral","color":"#AC7339","description":"Damaged building of the Information and Computing Center of the Odessa Railway following a Russian strike.","orbat":[],"geolocation":["https://x.com/ne_kotletka/status/2100940138113081708"],"sources":["https://x.com/Zeldamices/status/2101169276681957742","https://t.me/Sila_GO/117517","https://www.unian.ua/incidents/rosiyani-atakuvali-budivlyu-ukrzaliznici-v-odesi-ye-poraneni-novini-odesi-13503657.html"]}}]}