{"type":"FeatureCollection","features":[{"type":"Feature","geometry":{"type":"MultiPolygon","coordinates":[[[[37.83141,48.76001],[37.83335,48.76157],[37.83769,48.76383],[37.8419,48.76326],[37.84636,48.76167],[37.8631,48.76199],[37.87951,48.76552],[37.88029,48.76967],[37.87226,48.78197],[37.88022,48.78213],[37.89375,48.77827],[37.90278,48.77065],[37.91985,48.78545],[37.92103,48.79504],[37.93437,48.7966],[37.9312,48.81295],[37.93017,48.81688],[37.93253,48.81976],[37.92883,48.84061],[37.94297,48.84131],[37.95256,48.84105],[37.95595,48.82625],[37.95712,48.82272],[37.95043,48.81614],[37.94893,48.81071],[37.94995,48.8097],[37.95139,48.80674],[37.95213,48.80078],[37.95703,48.79734],[37.9551,48.78803],[37.95033,48.78099],[37.94604,48.7798],[37.93257,48.77446],[37.92556,48.7681],[37.91895,48.76952],[37.91639,48.76956],[37.91236,48.77066],[37.90957,48.77123],[37.90781,48.7697],[37.90338,48.76475],[37.90352,48.76349],[37.90116,48.76153],[37.89073,48.76077],[37.88007,48.75821],[37.86478,48.75559],[37.85675,48.75549],[37.8533,48.75515],[37.84905,48.75436],[37.84687,48.75501],[37.84094,48.75349],[37.83817,48.75306],[37.83453,48.75175],[37.83141,48.76001]]],[[[37.90975,48.86279],[37.90576,48.86282],[37.90486,48.86351],[37.90072,48.86328],[37.8982,48.86265],[37.89587,48.86241],[37.89363,48.86307],[37.89271,48.86406],[37.89271,48.86478],[37.89599,48.86485],[37.90602,48.86697],[37.9064,48.87025],[37.90411,48.87179],[37.89936,48.87583],[37.89915,48.87754],[37.90114,48.87827],[37.90335,48.87745],[37.90475,48.87731],[37.90574,48.87742],[37.90896,48.87836],[37.90966,48.87939],[37.91164,48.87958],[37.91391,48.87899],[37.9163,48.87933],[37.91635,48.87913],[37.91467,48.87841],[37.91385,48.87405],[37.91524,48.87244],[37.91205,48.87018],[37.91002,48.86786],[37.90967,48.86518],[37.90974,48.86373],[37.90975,48.86279]]],[[[37.84543,48.73312],[37.84532,48.73521],[37.85272,48.7394],[37.8565,48.73926],[37.85828,48.73998],[37.8607,48.73981],[37.86638,48.74252],[37.8707,48.74289],[37.87432,48.74291],[37.87786,48.74148],[37.88164,48.74172],[37.88313,48.73868],[37.88197,48.73251],[37.87549,48.72806],[37.87003,48.72565],[37.86375,48.7293],[37.86006,48.72697],[37.85051,48.7276],[37.84397,48.72922],[37.84418,48.73075],[37.84543,48.73312]]],[[[37.85564,48.83199],[37.84569,48.83199],[37.84011,48.83312],[37.84037,48.83718],[37.84886,48.83679],[37.86054,48.8391],[37.87092,48.83868],[37.87144,48.83631],[37.87054,48.83221],[37.86745,48.828],[37.85788,48.82817],[37.85564,48.83199]]],[[[37.80958,48.71169],[37.8075,48.71578],[37.79959,48.72027],[37.79761,48.72273],[37.80803,48.72447],[37.81155,48.72872],[37.811,48.7304],[37.81122,48.73253],[37.81292,48.73448],[37.81723,48.7374],[37.81167,48.73939],[37.81407,48.74233],[37.8216,48.73972],[37.82079,48.73882],[37.8216,48.73797],[37.83302,48.73301],[37.83352,48.73234],[37.8333,48.73113],[37.8313,48.72806],[37.83092,48.72376],[37.83495,48.7224],[37.83602,48.7198],[37.83911,48.71658],[37.84383,48.71431],[37.86328,48.70667],[37.86376,48.70311],[37.84944,48.69362],[37.84781,48.69407],[37.84782,48.69408],[37.84091,48.69606],[37.8356,48.69696],[37.8356,48.69695],[37.83416,48.69721],[37.83167,48.69911],[37.83227,48.70285],[37.8138,48.70991],[37.82005,48.7196],[37.8176,48.72025],[37.81136,48.71084],[37.80958,48.71169]]],[[[37.77003,48.54363],[37.77004,48.54369],[37.78899,48.54633],[37.79606,48.55042],[37.7964,48.56012],[37.79581,48.56412],[37.81094,48.5646],[37.81277,48.56732],[37.81456,48.56953],[37.81667,48.57154],[37.82127,48.57304],[37.81766,48.5776],[37.81967,48.5813],[37.81909,48.58255],[37.81653,48.58402],[37.81529,48.58656],[37.81405,48.5878],[37.81422,48.58878],[37.81633,48.58934],[37.818,48.59052],[37.821,48.59096],[37.82195,48.59034],[37.82251,48.59019],[37.82429,48.59123],[37.82562,48.5917],[37.82694,48.59096],[37.82777,48.59152],[37.83089,48.58972],[37.82906,48.58829],[37.82886,48.58842],[37.82788,48.58787],[37.83146,48.58563],[37.83319,48.58422],[37.83315,48.58363],[37.83431,48.58287],[37.83498,48.58269],[37.83503,48.58197],[37.83372,48.58035],[37.83466,48.57899],[37.83617,48.57925],[37.83717,48.57809],[37.83754,48.57599],[37.83691,48.57216],[37.83729,48.57088],[37.83778,48.57056],[37.83666,48.56774],[37.84038,48.56422],[37.83912,48.56342],[37.83747,48.56187],[37.83734,48.56045],[37.83786,48.55838],[37.8352,48.55665],[37.82868,48.55315],[37.82321,48.54749],[37.82306,48.54577],[37.79816,48.538],[37.7744,48.54263],[37.77003,48.54363]],[[37.82509,48.56311],[37.82953,48.55937],[37.82954,48.55938],[37.82509,48.56311]]],[[[37.79396,48.63926],[37.79191,48.64128],[37.7902,48.64363],[37.78642,48.65157],[37.78706,48.65284],[37.78719,48.655],[37.79178,48.6581],[37.79414,48.65911],[37.79492,48.66044],[37.79672,48.66126],[37.79862,48.66385],[37.81091,48.66559],[37.80966,48.66044],[37.80591,48.65892],[37.80347,48.65712],[37.80293,48.65333],[37.80535,48.64424],[37.79858,48.64018],[37.79396,48.63926]]],[[[37.72705,48.47954],[37.74269,48.4809],[37.74795,48.47871],[37.75456,48.47979],[37.76086,48.48208],[37.76197,48.48336],[37.76946,48.47002],[37.76517,48.46941],[37.76264,48.47045],[37.75912,48.47223],[37.74243,48.47267],[37.72048,48.47133],[37.72005,48.4745],[37.71795,48.48402],[37.72705,48.47954]]],[[[37.74829,49.65505],[37.73405,49.654],[37.72727,49.65199],[37.725,49.64233],[37.71256,49.64208],[37.71325,49.65045],[37.71676,49.65316],[37.71786,49.65642],[37.7157,49.65666],[37.71569,49.65746],[37.71548,49.65813],[37.7129,49.65875],[37.71277,49.66559],[37.71681,49.66587],[37.72715,49.66833],[37.72933,49.67004],[37.73997,49.67027],[37.76728,49.66729],[37.7641,49.6629],[37.76457,49.65984],[37.76801,49.65476],[37.74829,49.65505]]],[[[37.63355,48.47776],[37.62677,48.48177],[37.6217,48.48626],[37.61681,48.48763],[37.61132,48.49258],[37.61261,48.49474],[37.6302,48.49639],[37.62837,48.5067],[37.64252,48.50776],[37.64368,48.50287],[37.66187,48.50463],[37.66516,48.50345],[37.65932,48.49507],[37.66122,48.49008],[37.65918,48.49021],[37.65597,48.48976],[37.6547,48.48976],[37.65233,48.48754],[37.65257,48.48432],[37.65256,48.48432],[37.65259,48.48387],[37.65259,48.47548],[37.64775,48.4682],[37.64745,48.45796],[37.63944,48.45776],[37.6384,48.45762],[37.63355,48.47776]]],[[[37.38061,48.49678],[37.3853,48.49682],[37.41564,48.49342],[37.43616,48.48918],[37.43892,48.48991],[37.44118,48.48711],[37.44628,48.48516],[37.45686,48.48241],[37.45961,48.47792],[37.46313,48.47115],[37.46422,48.46642],[37.47141,48.4659],[37.47385,48.4651],[37.47226,48.46227],[37.47247,48.4609],[37.46972,48.46286],[37.46552,48.46386],[37.45777,48.46432],[37.45729,48.46497],[37.45667,48.4653],[37.45644,48.46706],[37.45599,48.46759],[37.45459,48.46811],[37.45431,48.46854],[37.45369,48.46871],[37.45281,48.46864],[37.45191,48.46908],[37.45039,48.47038],[37.44965,48.47429],[37.44494,48.48087],[37.40746,48.48626],[37.39133,48.48781],[37.38876,48.49133],[37.38386,48.49179],[37.38047,48.4929],[37.37942,48.49403],[37.37774,48.49461],[37.38061,48.49678]]],[[[37.22361,48.41961],[37.21987,48.42936],[37.21987,48.4323],[37.2294,48.43742],[37.22824,48.44317],[37.24064,48.44428],[37.23949,48.45261],[37.24425,48.45557],[37.26298,48.45735],[37.26301,48.45719],[37.25255,48.45288],[37.24953,48.45282],[37.24914,48.45077],[37.2504,48.44246],[37.24719,48.43794],[37.24422,48.4376],[37.24222,48.43335],[37.24271,48.43018],[37.2444,48.42661],[37.22363,48.4255],[37.22516,48.41979],[37.22361,48.41961]]],[[[37.0674,48.35154],[37.0713,48.35219],[37.0753,48.35342],[37.07697,48.35467],[37.07972,48.35593],[37.08263,48.35681],[37.08525,48.35735],[37.08492,48.36281],[37.10325,48.36532],[37.10449,48.35968],[37.14651,48.3643],[37.16221,48.36384],[37.17118,48.36079],[37.18341,48.36136],[37.18344,48.37228],[37.17739,48.37411],[37.17653,48.37861],[37.18855,48.37978],[37.19134,48.38378],[37.18889,48.39327],[37.22928,48.39794],[37.2432,48.39972],[37.24174,48.41143],[37.23559,48.41166],[37.2334,48.41898],[37.2402,48.41832],[37.24651,48.41626],[37.25082,48.41546],[37.25127,48.41434],[37.25525,48.41392],[37.25701,48.41346],[37.25764,48.4102],[37.25007,48.40828],[37.25177,48.39788],[37.24796,48.39289],[37.24409,48.39255],[37.24285,48.38861],[37.23684,48.38559],[37.23659,48.38209],[37.23192,48.38147],[37.20495,48.38062],[37.20038,48.37213],[37.19304,48.37409],[37.19061,48.37121],[37.19012,48.36986],[37.19488,48.36505],[37.19342,48.36166],[37.19432,48.35746],[37.19702,48.35483],[37.19904,48.35344],[37.20103,48.35364],[37.202,48.34958],[37.19871,48.34878],[37.19755,48.34789],[37.18552,48.34683],[37.18421,48.353],[37.16073,48.35098],[37.16181,48.34474],[37.14242,48.34302],[37.13182,48.34696],[37.12539,48.34773],[37.12131,48.34775],[37.11882,48.34869],[37.10526,48.34724],[37.10602,48.34003],[37.10287,48.34137],[37.09758,48.34322],[37.09216,48.34465],[37.0884,48.34552],[37.08195,48.34606],[37.07706,48.34699],[37.07415,48.35067],[37.07093,48.35038],[37.0705,48.34913],[37.07089,48.34626],[37.06701,48.34573],[37.0674,48.35154]]],[[[37.18716,50.35891],[37.18641,50.35348],[37.17315,50.34762],[37.15985,50.34028],[37.1571,50.33524],[37.14466,50.33502],[37.14062,50.3428],[37.14011,50.34932],[37.13819,50.36108],[37.14882,50.356],[37.18315,50.36346],[37.18716,50.35891]]],[[[36.61618,47.92344],[36.61,47.92557],[36.60972,47.92683],[36.62063,47.9256],[36.62271,47.92414],[36.61618,47.92344]]],[[[36.50456,47.84647],[36.50285,47.85211],[36.50199,47.86],[36.51177,47.85873],[36.51976,47.8544],[36.50716,47.84492],[36.50456,47.84647]]],[[[36.16191,47.65173],[36.17016,47.65393],[36.16381,47.66399],[36.16037,47.67053],[36.16654,47.67268],[36.16741,47.67884],[36.17226,47.68081],[36.1681,47.68922],[36.16409,47.69024],[36.16102,47.69316],[36.15355,47.69759],[36.14287,47.70086],[36.14021,47.70401],[36.13604,47.71358],[36.14507,47.71828],[36.14703,47.72315],[36.16368,47.72763],[36.16635,47.72946],[36.16446,47.73506],[36.16352,47.74528],[36.16601,47.74678],[36.17364,47.74718],[36.17347,47.7537],[36.17875,47.75699],[36.19525,47.76077],[36.19609,47.75206],[36.20139,47.74941],[36.20358,47.7381],[36.20263,47.73784],[36.20519,47.7238],[36.2004,47.72317],[36.20039,47.72319],[36.19447,47.72244],[36.19423,47.72236],[36.1942,47.72236],[36.19416,47.72234],[36.19313,47.72202],[36.19316,47.7219],[36.17171,47.71237],[36.17403,47.70832],[36.18176,47.7104],[36.1906,47.7033],[36.20156,47.69347],[36.20602,47.68782],[36.20038,47.68566],[36.2,47.68438],[36.20256,47.6801],[36.19704,47.67801],[36.17064,47.67076],[36.17755,47.66147],[36.18568,47.66349],[36.1898,47.6562],[36.19616,47.65663],[36.19829,47.65293],[36.19986,47.64463],[36.19812,47.64364],[36.19784,47.64056],[36.19587,47.63743],[36.18471,47.63477],[36.17598,47.64499],[36.17265,47.64516],[36.16191,47.65173]]],[[[36.08036,47.58535],[36.08061,47.58787],[36.06871,47.58904],[36.06962,47.59367],[36.07289,47.59458],[36.08916,47.59011],[36.10852,47.58919],[36.10627,47.58431],[36.10235,47.58397],[36.09403,47.58553],[36.09301,47.58428],[36.08036,47.58535]]],[[[36.10852,47.58919],[36.1058,47.59971],[36.10363,47.61264],[36.09999,47.6214],[36.09939,47.62754],[36.1027,47.63041],[36.10471,47.63185],[36.11857,47.63373],[36.12463,47.63665],[36.13854,47.63994],[36.14573,47.64219],[36.14922,47.6477],[36.15456,47.65097],[36.1631,47.64173],[36.13937,47.633],[36.13388,47.62742],[36.13317,47.62457],[36.12718,47.62071],[36.12757,47.61063],[36.12915,47.60336],[36.13108,47.59225],[36.10852,47.58919]]],[[[36.06478,47.55255],[36.07375,47.55101],[36.07465,47.54971],[36.0649,47.52458],[36.05331,47.52589],[36.06478,47.55255]]],[[[35.53682,47.54717],[35.54291,47.55209],[35.56016,47.55336],[35.57802,47.55562],[35.58561,47.55287],[35.58763,47.53929],[35.59038,47.52578],[35.59312,47.51669],[35.60753,47.49912],[35.59161,47.5018],[35.5814,47.50309],[35.57176,47.5103],[35.5688,47.52168],[35.56615,47.53507],[35.56451,47.54203],[35.546,47.53784],[35.53303,47.53369],[35.52655,47.53295],[35.52208,47.53465],[35.52041,47.54001],[35.53682,47.54717]]],[[[35.39767,50.74164],[35.39363,50.75245],[35.39137,50.75494],[35.39148,50.7568],[35.39328,50.76695],[35.39453,50.78303],[35.40474,50.77767],[35.4135,50.76882],[35.41952,50.75918],[35.41935,50.75057],[35.42094,50.74071],[35.41142,50.74071],[35.40893,50.73897],[35.40464,50.7381],[35.39767,50.74164]]],[[[35.38522,50.69207],[35.3852,50.69202],[35.38306,50.6925],[35.37966,50.69234],[35.37695,50.69267],[35.37685,50.69356],[35.37726,50.69441],[35.3798,50.69569],[35.38018,50.69738],[35.37885,50.69932],[35.38466,50.70063],[35.38511,50.70205],[35.38737,50.70157],[35.38783,50.69811],[35.38348,50.69665],[35.3811,50.69482],[35.38522,50.69207]]]]},"properties":{"source":"ukrdaily","source_name":"UkrDailyUpdate","source_url":"https://map.ukrdailyupdate.com/","category":"gained","category_label":"Newly Russian-occupied","period":"30d","compared_with":"2026-08-05","snapshot_time":"2026-09-04","area_km2_approx":187.8}},{"type":"Feature","geometry":{"type":"MultiPolygon","coordinates":[[[[37.773,49.14306],[37.79703,49.14963],[37.78468,49.16014],[37.78096,49.16536],[37.77337,49.16861],[37.76547,49.17268],[37.76448,49.1742],[37.75993,49.17667],[37.76023,49.17961],[37.76161,49.18006],[37.76397,49.17986],[37.77036,49.18073],[37.78264,49.17779],[37.81036,49.17218],[37.81546,49.17156],[37.81774,49.17808],[37.82234,49.1718],[37.83297,49.17659],[37.83502,49.17494],[37.84948,49.1727],[37.84989,49.17108],[37.84925,49.16836],[37.85194,49.16688],[37.85619,49.16566],[37.86114,49.16695],[37.86212,49.16918],[37.85836,49.17657],[37.8562,49.17817],[37.85545,49.18091],[37.85345,49.18115],[37.85128,49.18053],[37.85041,49.18113],[37.84535,49.18247],[37.84451,49.18485],[37.85186,49.18554],[37.8583,49.18476],[37.86264,49.18401],[37.86549,49.18679],[37.86863,49.18804],[37.8709,49.19171],[37.8809,49.19204],[37.88428,49.19355],[37.88614,49.19862],[37.88523,49.20072],[37.88647,49.20394],[37.88934,49.20345],[37.89056,49.20753],[37.88931,49.2135],[37.88944,49.22479],[37.88779,49.22494],[37.88498,49.23045],[37.88678,49.23084],[37.88908,49.22688],[37.89469,49.22585],[37.898,49.22399],[37.92179,49.22658],[37.92235,49.22547],[37.92476,49.22328],[37.92713,49.22217],[37.9282,49.21948],[37.93454,49.21167],[37.93532,49.20074],[37.93403,49.19576],[37.93288,49.1948],[37.9352,49.19214],[37.93034,49.19083],[37.92476,49.18646],[37.92416,49.18068],[37.92545,49.17662],[37.92102,49.165],[37.9261,49.16107],[37.92796,49.15674],[37.92571,49.14342],[37.92569,49.13642],[37.91899,49.12108],[37.91779,49.11734],[37.91562,49.11405],[37.90941,49.11059],[37.89565,49.10675],[37.88782,49.10542],[37.86193,49.10941],[37.851,49.11127],[37.84522,49.11161],[37.8338,49.11798],[37.82045,49.12425],[37.80413,49.12414],[37.80025,49.12439],[37.7948,49.12573],[37.79059,49.12735],[37.78384,49.13253],[37.77615,49.14019],[37.76593,49.14344],[37.76599,49.14371],[37.773,49.14306]]],[[[37.90289,49.08313],[37.89961,49.08315],[37.88738,49.07868],[37.87762,49.07665],[37.8708,49.07296],[37.86989,49.0717],[37.8662,49.07277],[37.86538,49.07173],[37.86377,49.07166],[37.8628,49.07863],[37.86653,49.08643],[37.88293,49.09133],[37.88976,49.09296],[37.89454,49.09228],[37.89935,49.08773],[37.90701,49.08425],[37.90289,49.08313]]],[[[37.79155,48.6332],[37.78949,48.63836],[37.79397,48.63926],[37.79981,48.63737],[37.80045,48.63065],[37.7924,48.62163],[37.79155,48.6332]]],[[[37.61719,49.81083],[37.60707,49.81203],[37.60827,49.81538],[37.60892,49.81893],[37.6103,49.82162],[37.61208,49.82567],[37.62237,49.82441],[37.62444,49.82558],[37.62411,49.82778],[37.6277,49.82942],[37.63,49.83148],[37.6411,49.8326],[37.63902,49.83446],[37.6348,49.83476],[37.63607,49.84008],[37.63619,49.84747],[37.63309,49.85021],[37.63581,49.85195],[37.64271,49.84989],[37.64983,49.85262],[37.64867,49.85482],[37.64397,49.85959],[37.64962,49.86325],[37.65298,49.86327],[37.65442,49.86047],[37.65965,49.86018],[37.65879,49.85728],[37.67095,49.85392],[37.66884,49.84904],[37.6645,49.84708],[37.66751,49.84196],[37.66911,49.83989],[37.66402,49.8375],[37.66749,49.83383],[37.66907,49.82881],[37.66868,49.82063],[37.67049,49.81897],[37.67318,49.81567],[37.67041,49.81255],[37.66588,49.80877],[37.66143,49.80857],[37.65777,49.81318],[37.64751,49.81515],[37.63898,49.8179],[37.63633,49.81994],[37.63536,49.82168],[37.63415,49.82264],[37.63242,49.82342],[37.63014,49.82266],[37.62735,49.82058],[37.62118,49.82055],[37.61968,49.81595],[37.62461,49.81492],[37.62119,49.80987],[37.61719,49.81083]]],[[[36.76912,48.00206],[36.76475,48.00625],[36.75702,48.01108],[36.73197,48.02224],[36.73346,48.03139],[36.73352,48.03567],[36.73551,48.0392],[36.7414,48.03881],[36.74862,48.03682],[36.74939,48.04122],[36.75132,48.04099],[36.75411,48.04302],[36.75648,48.04559],[36.76112,48.04554],[36.76305,48.04516],[36.76615,48.05601],[36.76267,48.05652],[36.76039,48.05571],[36.75632,48.05271],[36.7452,48.05256],[36.74374,48.05329],[36.74267,48.05422],[36.74385,48.0564],[36.74372,48.05772],[36.74732,48.05944],[36.75036,48.0622],[36.74745,48.06487],[36.74136,48.06894],[36.74582,48.07864],[36.76717,48.07477],[36.77815,48.06725],[36.77528,48.06566],[36.77861,48.06022],[36.78692,48.0522],[36.79404,48.05007],[36.77932,48.03355],[36.77271,48.02818],[36.76998,48.01095],[36.76912,48.00206]]],[[[36.69222,47.98434],[36.68973,47.98866],[36.68529,47.99582],[36.70647,48.00275],[36.73425,48.00417],[36.74605,47.99954],[36.75025,47.99138],[36.74562,47.99269],[36.73744,47.99432],[36.73534,47.98958],[36.73686,47.97607],[36.72694,47.97377],[36.70141,47.97055],[36.69222,47.98434]]],[[[36.60264,47.92762],[36.59427,47.93093],[36.5838,47.93301],[36.56785,47.93144],[36.55305,47.93444],[36.55249,47.9273],[36.53962,47.92661],[36.53633,47.93215],[36.53783,47.93459],[36.54267,47.93801],[36.54756,47.93826],[36.55598,47.94285],[36.55763,47.94601],[36.57793,47.94162],[36.58902,47.94123],[36.59831,47.94342],[36.59705,47.95159],[36.6039,47.95255],[36.6181,47.94885],[36.63162,47.95038],[36.63289,47.95075],[36.65291,47.95285],[36.66203,47.95659],[36.67631,47.96356],[36.69355,47.96561],[36.68971,47.95097],[36.6719,47.93957],[36.6556,47.94067],[36.63589,47.93881],[36.60779,47.93534],[36.60972,47.92683],[36.60264,47.92762]]],[[[36.52162,47.8558],[36.52699,47.85467],[36.54699,47.85521],[36.55936,47.85954],[36.5732,47.86052],[36.57766,47.86158],[36.58079,47.86282],[36.57716,47.87107],[36.57514,47.88068],[36.57007,47.88551],[36.5642,47.9081],[36.5759,47.90905],[36.57585,47.90971],[36.57629,47.91232],[36.57672,47.91295],[36.57799,47.91375],[36.57839,47.91434],[36.57796,47.91507],[36.57705,47.91604],[36.57755,47.91664],[36.5788,47.91652],[36.58089,47.91713],[36.58134,47.91847],[36.58547,47.91894],[36.59216,47.91637],[36.60587,47.91325],[36.60507,47.91986],[36.61734,47.91774],[36.6351,47.92006],[36.63463,47.92543],[36.63781,47.92577],[36.64217,47.92514],[36.64832,47.91039],[36.64977,47.90289],[36.64282,47.89829],[36.61011,47.90272],[36.5866,47.90347],[36.58239,47.89475],[36.58299,47.89017],[36.58485,47.88168],[36.58922,47.87374],[36.59067,47.8685],[36.58808,47.86098],[36.58106,47.84841],[36.53896,47.83933],[36.52626,47.84652],[36.52121,47.85361],[36.51976,47.8544],[36.52162,47.8558]]],[[[36.34595,47.79563],[36.34985,47.80655],[36.34538,47.81444],[36.33986,47.8221],[36.33047,47.83147],[36.32729,47.8336],[36.32442,47.83521],[36.32347,47.83651],[36.33111,47.83745],[36.34294,47.83214],[36.35377,47.83163],[36.37628,47.83023],[36.39553,47.82559],[36.40231,47.82334],[36.40497,47.82144],[36.41938,47.81767],[36.4235,47.8147],[36.42659,47.81311],[36.4282,47.81144],[36.43436,47.8096],[36.43825,47.80917],[36.45079,47.80806],[36.46249,47.81614],[36.47073,47.81683],[36.4812,47.81593],[36.49689,47.81799],[36.49893,47.82689],[36.50275,47.82744],[36.49948,47.83885],[36.50574,47.83901],[36.50662,47.84451],[36.50716,47.84492],[36.52068,47.83684],[36.52047,47.83384],[36.51561,47.82769],[36.50612,47.82315],[36.50424,47.823],[36.5061,47.81454],[36.47039,47.81163],[36.46372,47.81121],[36.4605,47.80824],[36.4514,47.80372],[36.43427,47.80187],[36.43312,47.80712],[36.41955,47.80576],[36.41852,47.80888],[36.41698,47.80891],[36.40737,47.80853],[36.39569,47.8072],[36.3975,47.79619],[36.39209,47.79256],[36.38461,47.79099],[36.3805,47.79377],[36.37455,47.79549],[36.37189,47.7947],[36.34498,47.79147],[36.34595,47.79563]]],[[[35.49988,47.54306],[35.51942,47.54499],[35.52041,47.54001],[35.49826,47.5382],[35.48005,47.53788],[35.46975,47.54036],[35.46976,47.54048],[35.49988,47.54306]]]]},"properties":{"source":"ukrdaily","source_name":"UkrDailyUpdate","source_url":"https://map.ukrdailyupdate.com/","category":"lost","category_label":"No longer Russian-occupied","period":"30d","compared_with":"2026-08-05","snapshot_time":"2026-09-04","area_km2_approx":204.8}}]}