{"type":"FeatureCollection","features":[{"type":"Feature","geometry":{"type":"Point","coordinates":[39.603928,48.778948]},"properties":{"original":{"id":47444,"type":"Transport","model":"Unknown truck","status":"Destroyed","lost_by":"Russia","date":"2026-10-05","nearest_location":"Stepove, Shchastia raion","geo":"48.778948,39.603928","unit":null,"tags":"Loitering"},"source":"warspotting","source_name":"WarSpotting","source_url":"https://ukr.warspotting.net/","id":47444,"date":"2026-10-05","link":"https://ukr.warspotting.net/view/47444/","category":"Transport","side":"Lost by Russia","color":"#E00000","description":"Unknown truck · Destroyed · near Stepove, Shchastia raion · tags: Loitering","orbat":[]}}]}