{"type":"FeatureCollection","features":[{"type":"Feature","geometry":{"type":"Point","coordinates":[37.59294,48.58189]},"properties":{"source":"lost_warinua","source_name":"lost_warinua (Telegram)","source_url":"https://t.me/s/lost_warinua","id":140955,"date":"2026-06-26","date_note":null,"posted_utc":"2026-09-23T14:16:30+00:00","link":"https://t.me/lost_warinua/140955","category":"Telegram post","side":"Claimed loss: Ukraine (ВСУ)","color":"#0051CA","description":"Уничтоженный грузовик Renault Midlum ВСУ рядом с н.п. Алексеево-Дружковка Донецкой области.","orbat":[],"sources":["https://vt.tiktok.com/ZSCMu9HFw/"],"original_html":"<div class=\"tgme_widget_message_text js-message_text\" dir=\"auto\">26.06.2026<br/>Уничтоженный грузовик Renault Midlum ВСУ рядом с н.п. Алексеево-Дружковка Донецкой области.<br/>(<code>48.58189, 37.59294</code>)<br/><a href=\"https://vt.tiktok.com/ZSCMu9HFw/\" target=\"_blank\" rel=\"noopener\" onclick=\"return confirm('Open this link?\\n\\n'+this.href);\">Источник</a>"}}]}