{"type":"FeatureCollection","features":[{"type":"Feature","geometry":{"type":"Point","coordinates":[39.641785,47.175063]},"properties":{"original":{"Date":"2026-10-10","Name":"10 OCT 2026","Faction":"Ukraine","Origin":"VID","Latitude":"47.175063","Longitude":"39.641785","PlusCode":"8GVX5JGR+2P Rostov-on-Don, Rostov Oblast, Russia","Description":"Point of view in south direction min 0:09 - Oil product transshipment terminal \"Yug Rusi\" (Rostov-on-Don) on fire following a reported Ukrainian deone attack","Source":"https://x.com/Exilenova_plus/status/2108719059911193006, , More information, https://kyivindependent.com/major-fire-reported-at-oil-terminal-linked-to-russias-novoshakhtinsk-refinery-after-suspected-drone-strike/","Geolocation":"https://x.com/neonhandrail/status/2108778594537484622","Equipment":"","EquipmentItems":"Oil Refinery / Gas processing plant or similar","Units":"","OrbatUnits":"","Id":"f2f12621-8fff-4d4c-a211-1dcd63222619","icon":"/api/icons/0051CA/False/template/30.png"},"source":"geoconfirmed","source_name":"GeoConfirmed","source_url":"https://geoconfirmed.org/map/ukraine","id":"f2f12621-8fff-4d4c-a211-1dcd63222619","date":"2026-10-10","link":"https://geoconfirmed.org/map/ukraine/f2f12621-8fff-4d4c-a211-1dcd63222619","category":"Video - Always Point of View in description - In the colour of who is doing the attack or is responsable for the incident in the video.","side":"Ukraine","color":"#0051CA","description":"Point of view in south direction min 0:09 - Oil product transshipment terminal \"Yug Rusi\" (Rostov-on-Don) on fire following a reported Ukrainian deone attack","orbat":[],"geolocation":["https://x.com/neonhandrail/status/2108778594537484622"],"sources":["https://x.com/Exilenova_plus/status/2108719059911193006","https://kyivindependent.com/major-fire-reported-at-oil-terminal-linked-to-russias-novoshakhtinsk-refinery-after-suspected-drone-strike/"]}},{"type":"Feature","geometry":{"type":"Point","coordinates":[39.643128,47.164919]},"properties":{"original":{"Date":"2026-10-10","Name":"10 OCT 2026","Faction":"Neutral","Origin":"VID","Latitude":"47.164919","Longitude":"39.643128","PlusCode":"8GVX5J7V+X7 Rostov-on-Don, Rostov Oblast, Russia","Description":"Area grid - Several oil tanks on fire at the Oil product transshipment terminal \"Yug Rusi\" (Rostov-on-Don) following a reported Ukrainian deone attack","Source":"https://x.com/Exilenova_plus/status/2108719059911193006, , More information, https://kyivindependent.com/major-fire-reported-at-oil-terminal-linked-to-russias-novoshakhtinsk-refinery-after-suspected-drone-strike/","Geolocation":"https://x.com/neonhandrail/status/2108781563530149948","Equipment":"","EquipmentItems":"Oil Refinery / Gas processing plant or similar","Units":"","OrbatUnits":"","Id":"33329dbd-216a-4077-955c-d7cda2303762","icon":"/api/icons/AC7339/False/template/192.png"},"source":"geoconfirmed","source_name":"GeoConfirmed","source_url":"https://geoconfirmed.org/map/ukraine","id":"33329dbd-216a-4077-955c-d7cda2303762","date":"2026-10-10","link":"https://geoconfirmed.org/map/ukraine/33329dbd-216a-4077-955c-d7cda2303762","category":"Recently destroyed/Damaged[Visible in footage] or still burning infrastucture","side":"Neutral","color":"#AC7339","description":"Area grid - Several oil tanks on fire at the Oil product transshipment terminal \"Yug Rusi\" (Rostov-on-Don) following a reported Ukrainian deone attack","orbat":[],"geolocation":["https://x.com/neonhandrail/status/2108781563530149948"],"sources":["https://x.com/Exilenova_plus/status/2108719059911193006","https://kyivindependent.com/major-fire-reported-at-oil-terminal-linked-to-russias-novoshakhtinsk-refinery-after-suspected-drone-strike/"]}}]}