{"type":"FeatureCollection","features":[{"type":"Feature","geometry":null,"properties":{"source":"ua_mod","source_name":"Ministry of Defence of Ukraine","group":"official_ua","id":16269,"posted_utc":"2026-09-29T09:09:46+00:00","link":"https://t.me/ministry_of_defense_ua/16269","text":"🌊 40 кілометрів сушею і водою: бійці підрозділу Alter Ego в складі 93-ї окремої механізованої бригади провели першу логістичну місію на амфібійному НРК\nЯк це було? Комплекс подолав понад 40 кілометрів маршруту. На суші засіб зберігав високу прохідність наземного НРК, а біля води за секунди переходив у плавальний режим і продовжував рух. Так на позиції успішно доставили боєкомплект і провізію.\nЧому це важливо? Водні перешкоди на фронті — реальна проблема для військової логістики. Цьому виїзду передували кілька місяців тісної роботи розробників і військових, адже НРК адаптували саме під реальний рельєф і щоденні задачі бійців.\nМіноборони спільно з Brave1 продовжують розвивати напрям амфібійних НРК і допомагають масштабувати такі рішення. Робимо логістику гнучкішою, щоб берегти життя наших людей 🇺🇦","links":[]}}]}