{"type":"FeatureCollection","features":[{"type":"Feature","geometry":{"type":"Point","coordinates":[36.87188,48.028679]},"properties":{"original":{"id":47210,"type":"Tanks","model":"T-80BV","status":"Destroyed","lost_by":"Russia","date":"2026-09-21","nearest_location":"Novoukrainka (Velyka Novosilka hromada), Volnovakha raion","geo":"48.028679,36.87188","unit":null,"tags":"Cope cage, Jammer"},"source":"warspotting","source_name":"WarSpotting","source_url":"https://ukr.warspotting.net/","id":47210,"date":"2026-09-21","link":"https://ukr.warspotting.net/view/47210/","category":"Tanks","side":"Lost by Russia","color":"#E00000","description":"T-80BV · Destroyed · near Novoukrainka (Velyka Novosilka hromada), Volnovakha raion · tags: Cope cage, Jammer","orbat":[]}}]}