{"type":"FeatureCollection","features":[{"type":"Feature","geometry":{"type":"Point","coordinates":[35.921293,47.817265]},"properties":{"original":{"Date":"2026-08-23","Name":"23 AUG 2026","Faction":"Russia","Origin":"UAV","Latitude":"47.817265","Longitude":"35.921293","PlusCode":"8GVQRW8C+WG Barvinivka, Zaporizhia Oblast, Ukraine","Description":"3:05-3:07- A Russian FPV strike by the Reconnaissance Company \"Baikal\" on a presumed Ukrainian pick-up in Vozdvyzhivka , Zaporizhzhia Oblast.","Source":"https://x.com/Bielitzling/status/2091572261278904820, https://t.me/Baikal40ob/111","Geolocation":"https://x.com/juss_men/status/2091614438696657280","Equipment":"","EquipmentItems":"FPV (First Person View) OWAD (One Way Attack Drone) | Pick-up","Units":"","OrbatUnits":"Reconnaissance Company \"Baikal\"","Id":"dccd5f16-d4c3-4916-9a8c-093cf283e21a","icon":"/api/icons/E00000/False/template/111.png"},"source":"geoconfirmed","source_name":"GeoConfirmed","source_url":"https://geoconfirmed.org/map/ukraine","id":"dccd5f16-d4c3-4916-9a8c-093cf283e21a","date":"2026-08-23","link":"https://geoconfirmed.org/map/ukraine/dccd5f16-d4c3-4916-9a8c-093cf283e21a","category":"Short Range (<50km) OWAD (One Way Attack Drone), mostly rotary wing, Flying OR Attacking a target without knowing the outcome: if something is damaged --> icon of the damaged equipment.","side":"Russia","color":"#E00000","description":"3:05-3:07- A Russian FPV strike by the Reconnaissance Company \"Baikal\" on a presumed Ukrainian pick-up in Vozdvyzhivka , Zaporizhzhia Oblast.","orbat":["Reconnaissance Company \"Baikal\""],"geolocation":["https://x.com/juss_men/status/2091614438696657280"],"sources":["https://x.com/Bielitzling/status/2091572261278904820","https://t.me/Baikal40ob/111"]}},{"type":"Feature","geometry":{"type":"Point","coordinates":[30.518635,59.745449]},"properties":{"original":{"Date":"2026-08-23","Name":"23 AUG 2026","Faction":"Unknown","Origin":"UAV","Latitude":"59.745449","Longitude":"30.518635","PlusCode":"9GFGPGW9+5F Pushkinsky District, Saint Petersburg, Russia","Description":"Rough location - Fire of unknown origin.","Source":"https://x.com/Exilenova_plus/status/2091326582887743960, https://t.me/exilenova_plus/29461?single","Geolocation":"https://x.com/ElsoTheArgie/status/2091331602181669227","Equipment":"","EquipmentItems":"","Units":"","OrbatUnits":"","Id":"c5f2e3db-c365-4a63-809c-116a61d9dc4c","icon":"/api/icons/666666/False/template/70.png"},"source":"geoconfirmed","source_name":"GeoConfirmed","source_url":"https://geoconfirmed.org/map/ukraine","id":"c5f2e3db-c365-4a63-809c-116a61d9dc4c","date":"2026-08-23","link":"https://geoconfirmed.org/map/ukraine/c5f2e3db-c365-4a63-809c-116a61d9dc4c","category":"Controlled Demolition OR explosion of unknown origin OR fire of unknown origin where no other icon fits","side":"Unknown","color":"#666666","description":"Rough location - Fire of unknown origin.","orbat":[],"geolocation":["https://x.com/ElsoTheArgie/status/2091331602181669227"],"sources":["https://x.com/Exilenova_plus/status/2091326582887743960","https://t.me/exilenova_plus/29461?single"]}},{"type":"Feature","geometry":{"type":"Point","coordinates":[37.336749,45.00055]},"properties":{"original":{"Date":"2026-08-23","Name":"23 AUG 2026","Faction":"Russia","Origin":"UAV","Latitude":"45.00055","Longitude":"37.336749","PlusCode":"8GQV282P+6M Krasnyi Kurgan, Krasnodar Krai, Russia","Description":"0:09-1:00 - Reported Su-33 damaged by FPV.","Source":"https://x.com/414magyarbirds/status/2091487506071961775, https://x.com/414magyarbirds/status/2091508359639822349, https://t.me/robert_magyar/2755, https://www.youtube.com/watch?v=f33zX7dgjSQ","Geolocation":"https://x.com/klinger66/status/2091494637751923161, based on: https://x.com/zarGEOINT/status/2091490409402794004","Equipment":"Su-33 (reported)","EquipmentItems":"Fixed Wing OWAD (One Way Attack Drone)","Units":"","OrbatUnits":"1st Seperate SBS Center","Id":"494ec169-df4d-4605-b6f9-22ecf8a0e9f8","icon":"/api/icons/E00000/False/template/32.png"},"source":"geoconfirmed","source_name":"GeoConfirmed","source_url":"https://geoconfirmed.org/map/ukraine","id":"494ec169-df4d-4605-b6f9-22ecf8a0e9f8","date":"2026-08-23","link":"https://geoconfirmed.org/map/ukraine/494ec169-df4d-4605-b6f9-22ecf8a0e9f8","category":"Recently Destroyed/Damaged[Visible in footage] Fighter Aircraft","side":"Russia","color":"#E00000","description":"0:09-1:00 - Reported Su-33 damaged by FPV.","orbat":["1st Seperate SBS Center"],"geolocation":["https://x.com/klinger66/status/2091494637751923161","https://x.com/zarGEOINT/status/2091490409402794004"],"sources":["https://x.com/414magyarbirds/status/2091487506071961775","https://x.com/414magyarbirds/status/2091508359639822349","https://t.me/robert_magyar/2755","https://www.youtube.com/watch?v=f33zX7dgjSQ"]}},{"type":"Feature","geometry":{"type":"Point","coordinates":[37.856651,49.260538]},"properties":{"original":{"Date":"2026-08-23","Name":"23 AUG 2026","Faction":"Russia","Origin":"UAV","Latitude":"49.260538","Longitude":"37.856651","PlusCode":"8GXV7V64+6M Druzhelyubivka, Kharkiv Oblast, Ukraine","Description":"0:08-0:11 - Russian soldiers show a flag in Ol'hivka.","Source":"https://x.com/Zeldamices/status/2095411778544889891, https://t.me/endspiell/4368","Geolocation":"https://x.com/richardzai38580/status/2095304222161961060","Equipment":"","EquipmentItems":"","Units":"","OrbatUnits":"20th Guards Combined Arms Army","Id":"7ad692b6-634b-4d6e-88f9-2949d1401ca0","icon":"/api/icons/E00000/False/icons/Ukraine/_CIRCLES_RU_56_FLAG.png"},"source":"geoconfirmed","source_name":"GeoConfirmed","source_url":"https://geoconfirmed.org/map/ukraine","id":"7ad692b6-634b-4d6e-88f9-2949d1401ca0","date":"2026-08-23","link":"https://geoconfirmed.org/map/ukraine/7ad692b6-634b-4d6e-88f9-2949d1401ca0","category":"_CIRCLES_RU_56_FLAG","side":"Russia","color":"#E00000","description":"0:08-0:11 - Russian soldiers show a flag in Ol'hivka.","orbat":["20th Guards Combined Arms Army"],"geolocation":["https://x.com/richardzai38580/status/2095304222161961060"],"sources":["https://x.com/Zeldamices/status/2095411778544889891","https://t.me/endspiell/4368"]}},{"type":"Feature","geometry":{"type":"Point","coordinates":[32.613347,46.652333]},"properties":{"original":{"Date":"2026-08-23","Name":"23 AUG 2026","Faction":"Neutral","Origin":"VID","Latitude":"46.652333","Longitude":"32.613347","PlusCode":"8GRJMJ27+W8 Kherson, Kherson Oblast, Ukraine","Description":"Damage to the residential complex \"Tiraspolsky\" in Kherson, which was reportedly targeted by multiple Shahed-type drones, according to the regional administration.","Source":"https://bsky.app/profile/scaratlas.bsky.social/post/3mtr7vyokqs2n, https://t.me/khersonskaODA/65504, ","Geolocation":"https://bsky.app/profile/scaratlas.bsky.social/post/3mtr7vswcbc2n, ","Equipment":"reportedly","EquipmentItems":"Geran/Shahed UNK Type","Units":"","OrbatUnits":"","Id":"1ab499ac-3931-414c-9d08-3194889dc019","icon":"/api/icons/AC7339/False/template/192.png"},"source":"geoconfirmed","source_name":"GeoConfirmed","source_url":"https://geoconfirmed.org/map/ukraine","id":"1ab499ac-3931-414c-9d08-3194889dc019","date":"2026-08-23","link":"https://geoconfirmed.org/map/ukraine/1ab499ac-3931-414c-9d08-3194889dc019","category":"Recently destroyed/Damaged[Visible in footage] or still burning infrastucture","side":"Neutral","color":"#AC7339","description":"Damage to the residential complex \"Tiraspolsky\" in Kherson, which was reportedly targeted by multiple Shahed-type drones, according to the regional administration.","orbat":[],"geolocation":["https://bsky.app/profile/scaratlas.bsky.social/post/3mtr7vswcbc2n"],"sources":["https://bsky.app/profile/scaratlas.bsky.social/post/3mtr7vyokqs2n","https://t.me/khersonskaODA/65504"]}},{"type":"Feature","geometry":{"type":"Point","coordinates":[37.892312,48.923721]},"properties":{"original":{"Date":"2026-08-23","Name":"23 AUG 2026","Faction":"Ukraine","Origin":"UAV","Latitude":"48.923721","Longitude":"37.892312","PlusCode":"8GWVWVFR+FW Dibrova, Donetsk Oblast, Ukraine","Description":"0:06-0:19 - A wounded Ukrainian soldier lying next to what appears to be a drone, attacked by a Russian Fiber Optic FPV drone.","Source":"https://x.com/ZoamSc2/status/2091631120974819481, https://t.me/BV25org/3222","Geolocation":"https://x.com/GeoConfirmed/status/2092274414519812355, https://x.com/ZoamSc2/status/2091631118059790707","Equipment":"","EquipmentItems":"Fiber Optic (FO) FPV (First Person View) OWAD (One Way Attack Drone)","Units":"","OrbatUnits":"25th Combined Arms Army","Id":"586a4db7-2859-458c-a7eb-31d1b0287aae","icon":"/api/icons/0051CA/False/template/92.png"},"source":"geoconfirmed","source_name":"GeoConfirmed","source_url":"https://geoconfirmed.org/map/ukraine","id":"586a4db7-2859-458c-a7eb-31d1b0287aae","date":"2026-08-23","link":"https://geoconfirmed.org/map/ukraine/586a4db7-2859-458c-a7eb-31d1b0287aae","category":"WIA/KIA Soldier/Militant","side":"Ukraine","color":"#0051CA","description":"0:06-0:19 - A wounded Ukrainian soldier lying next to what appears to be a drone, attacked by a Russian Fiber Optic FPV drone.","orbat":["25th Combined Arms Army"],"geolocation":["https://x.com/GeoConfirmed/status/2092274414519812355","https://x.com/ZoamSc2/status/2091631118059790707"],"sources":["https://x.com/ZoamSc2/status/2091631120974819481","https://t.me/BV25org/3222"]}},{"type":"Feature","geometry":{"type":"Point","coordinates":[37.822236,48.838136]},"properties":{"original":{"Date":"2026-08-23","Name":"23 AUG 2026","Faction":"Russia","Origin":"UAV","Latitude":"48.838136","Longitude":"37.822236","PlusCode":"8GWVRRQC+7V Rai-Oleksandrivka, Donetsk Oblast, Ukraine","Description":"1:02 - Russian FPV strike on claimed Ukrainian position","Source":"https://x.com/moklasen/status/2091558518033707482, https://t.me/specnazahmat/2340","Geolocation":"https://x.com/moklasen/status/2091558514124575199","Equipment":"","EquipmentItems":"FPV (First Person View) OWAD (One Way Attack Drone)","Units":"","OrbatUnits":"204th Special Purpose Regiment “Akhmat”","Id":"23cd6df3-2ac5-4fad-8848-31dec6673fb0","icon":"/api/icons/E00000/False/template/111.png"},"source":"geoconfirmed","source_name":"GeoConfirmed","source_url":"https://geoconfirmed.org/map/ukraine","id":"23cd6df3-2ac5-4fad-8848-31dec6673fb0","date":"2026-08-23","link":"https://geoconfirmed.org/map/ukraine/23cd6df3-2ac5-4fad-8848-31dec6673fb0","category":"Short Range (<50km) OWAD (One Way Attack Drone), mostly rotary wing, Flying OR Attacking a target without knowing the outcome: if something is damaged --> icon of the damaged equipment.","side":"Russia","color":"#E00000","description":"1:02 - Russian FPV strike on claimed Ukrainian position","orbat":["204th Special Purpose Regiment “Akhmat”"],"geolocation":["https://x.com/moklasen/status/2091558514124575199"],"sources":["https://x.com/moklasen/status/2091558518033707482","https://t.me/specnazahmat/2340"]}},{"type":"Feature","geometry":{"type":"Point","coordinates":[37.820976,48.83802]},"properties":{"original":{"Date":"2026-08-23","Name":"23 AUG 2026","Faction":"Russia","Origin":"UAV","Latitude":"48.83802","Longitude":"37.820976","PlusCode":"8GWVRRQC+69 Rai-Oleksandrivka, Donetsk Oblast, Ukraine","Description":"0:31 - Russian FPV strike on claimed Ukrainian position","Source":"https://x.com/moklasen/status/2091558518033707482, https://t.me/specnazahmat/2340","Geolocation":"https://x.com/moklasen/status/2091558514124575199","Equipment":"","EquipmentItems":"FPV (First Person View) OWAD (One Way Attack Drone)","Units":"","OrbatUnits":"204th Special Purpose Regiment “Akhmat”","Id":"8695a3fa-a87e-422d-ad4c-3f0e66e6b897","icon":"/api/icons/E00000/False/template/111.png"},"source":"geoconfirmed","source_name":"GeoConfirmed","source_url":"https://geoconfirmed.org/map/ukraine","id":"8695a3fa-a87e-422d-ad4c-3f0e66e6b897","date":"2026-08-23","link":"https://geoconfirmed.org/map/ukraine/8695a3fa-a87e-422d-ad4c-3f0e66e6b897","category":"Short Range (<50km) OWAD (One Way Attack Drone), mostly rotary wing, Flying OR Attacking a target without knowing the outcome: if something is damaged --> icon of the damaged equipment.","side":"Russia","color":"#E00000","description":"0:31 - Russian FPV strike on claimed Ukrainian position","orbat":["204th Special Purpose Regiment “Akhmat”"],"geolocation":["https://x.com/moklasen/status/2091558514124575199"],"sources":["https://x.com/moklasen/status/2091558518033707482","https://t.me/specnazahmat/2340"]}},{"type":"Feature","geometry":{"type":"Point","coordinates":[36.08518,51.49807]},"properties":{"original":{"Date":"2026-08-23","Name":"23 AUG 2026","Faction":"Ukraine","Origin":"VID","Latitude":"51.49807","Longitude":"36.08518","PlusCode":"9G3RF3XP+63 Vysokonskie Dvory, Kursk Oblast, Russia","Description":"(rough location) A video shows the reported aftermath of a Ukrainian strike on the Kursk Linear Product and Metering Station of Gazprom Transgaz Moscow, near the village of Vysokonskiye Dvory., ","Source":"https://x.com/Exilenova_plus/status/2091497477979447672, https://t.me/exilenova_plus/29510","Geolocation":"https://x.com/zarGEOINT/status/2091501859215114596","Equipment":"","EquipmentItems":"","Units":"","OrbatUnits":"","Id":"e28dab93-018f-49c7-ad88-430b39b7060e","icon":"/api/icons/0051CA/False/template/70.png"},"source":"geoconfirmed","source_name":"GeoConfirmed","source_url":"https://geoconfirmed.org/map/ukraine","id":"e28dab93-018f-49c7-ad88-430b39b7060e","date":"2026-08-23","link":"https://geoconfirmed.org/map/ukraine/e28dab93-018f-49c7-ad88-430b39b7060e","category":"Controlled Demolition OR explosion of unknown origin OR fire of unknown origin where no other icon fits","side":"Ukraine","color":"#0051CA","description":"(rough location) A video shows the reported aftermath of a Ukrainian strike on the Kursk Linear Product and Metering Station of Gazprom Transgaz Moscow, near the village of Vysokonskiye Dvory.,","orbat":[],"geolocation":["https://x.com/zarGEOINT/status/2091501859215114596"],"sources":["https://x.com/Exilenova_plus/status/2091497477979447672","https://t.me/exilenova_plus/29510"]}},{"type":"Feature","geometry":{"type":"Point","coordinates":[37.818477,48.837861]},"properties":{"original":{"Date":"2026-08-23","Name":"23 AUG 2026","Faction":"Russia","Origin":"UAV","Latitude":"48.837861","Longitude":"37.818477","PlusCode":"8GWVRRQ9+49 Rai-Oleksandrivka, Donetsk Oblast, Ukraine","Description":"0:11 - Russian FPV strike on claimed Ukrainian position","Source":"https://x.com/moklasen/status/2091558518033707482, https://t.me/specnazahmat/2340","Geolocation":"https://x.com/moklasen/status/2091558514124575199","Equipment":"","EquipmentItems":"FPV (First Person View) OWAD (One Way Attack Drone)","Units":"","OrbatUnits":"204th Special Purpose Regiment “Akhmat”","Id":"c0b408a5-456d-429d-81a9-4bf67b5fecbe","icon":"/api/icons/E00000/False/template/111.png"},"source":"geoconfirmed","source_name":"GeoConfirmed","source_url":"https://geoconfirmed.org/map/ukraine","id":"c0b408a5-456d-429d-81a9-4bf67b5fecbe","date":"2026-08-23","link":"https://geoconfirmed.org/map/ukraine/c0b408a5-456d-429d-81a9-4bf67b5fecbe","category":"Short Range (<50km) OWAD (One Way Attack Drone), mostly rotary wing, Flying OR Attacking a target without knowing the outcome: if something is damaged --> icon of the damaged equipment.","side":"Russia","color":"#E00000","description":"0:11 - Russian FPV strike on claimed Ukrainian position","orbat":["204th Special Purpose Regiment “Akhmat”"],"geolocation":["https://x.com/moklasen/status/2091558514124575199"],"sources":["https://x.com/moklasen/status/2091558518033707482","https://t.me/specnazahmat/2340"]}},{"type":"Feature","geometry":{"type":"Point","coordinates":[34.942933,50.485686]},"properties":{"original":{"Date":"2026-08-23","Name":"23 AUG 2026","Faction":"Neutral","Origin":"PIC","Latitude":"50.485686","Longitude":"34.942933","PlusCode":"9G2PFWPV+75 Trostyanets', Sumy Oblast, Ukraine","Description":"Severely damaged building following reported Russian strikes. The building is located on the premises of the Mondelez Ukraine (PrJSC Mondelis Ukraine), part of Mondelēz International, a world-renowned American multinational corporation.","Source":"(1/4), https://x.com/andrii_sybiha/status/2091540380915266032, https://x.com/suspilne_news/status/2091563505287647448, , More information, https://suspilne.media/sumy/1385782-rf-vdarila-po-fabrici-mondelez-trostanci/, https://kyivindependent.com/russian-strike-damages-us-owned-mondelez-facility-in-sumy-oblast/, https://en.interfax.com.ua/news/economic/189697.html","Geolocation":"https://x.com/GeoConfirmed/status/2092272943552188596, https://x.com/Zeldamices/status/2091847574848254129","Equipment":"","EquipmentItems":"","Units":"","OrbatUnits":"","Id":"550e76c8-eb1d-4b27-8e15-4f111456d50e","icon":"/api/icons/AC7339/False/template/192.png"},"source":"geoconfirmed","source_name":"GeoConfirmed","source_url":"https://geoconfirmed.org/map/ukraine","id":"550e76c8-eb1d-4b27-8e15-4f111456d50e","date":"2026-08-23","link":"https://geoconfirmed.org/map/ukraine/550e76c8-eb1d-4b27-8e15-4f111456d50e","category":"Recently destroyed/Damaged[Visible in footage] or still burning infrastucture","side":"Neutral","color":"#AC7339","description":"Severely damaged building following reported Russian strikes. The building is located on the premises of the Mondelez Ukraine (PrJSC Mondelis Ukraine), part of Mondelēz International, a world-renowned American multinational corporation.","orbat":[],"geolocation":["https://x.com/GeoConfirmed/status/2092272943552188596","https://x.com/Zeldamices/status/2091847574848254129"],"sources":["https://x.com/andrii_sybiha/status/2091540380915266032","https://x.com/suspilne_news/status/2091563505287647448","https://suspilne.media/sumy/1385782-rf-vdarila-po-fabrici-mondelez-trostanci/","https://kyivindependent.com/russian-strike-damages-us-owned-mondelez-facility-in-sumy-oblast/","https://en.interfax.com.ua/news/economic/189697.html"]}},{"type":"Feature","geometry":{"type":"Point","coordinates":[37.61435,48.729832]},"properties":{"original":{"Date":"2026-08-23","Name":"23 AUG 2026","Faction":"Ukraine Civilian","Origin":"UAV","Latitude":"48.729832","Longitude":"37.61435","PlusCode":"8GWVPJH7+WP Kramatorsk, Donetsk Oblast, Ukraine","Description":"An evacuation vehicle was damaged by two Russian FPV drones.","Source":"Vid1, https://x.com/99Dominik_/status/2093028186070147551, https://t.me/yuzhny_front_ZOV/27545, Pic, https://x.com/99Dominik_/status/2093028224565408235, https://t.me/dsns_telegram/72523","Geolocation":"https://x.com/99Dominik_/status/2093027986089873913","Equipment":"","EquipmentItems":"Fiber Optic (FO) FPV (First Person View) OWAD (One Way Attack Drone)","Units":"","OrbatUnits":"Southern Military District","Id":"32e44589-eae0-42e2-adb8-53387c69d596","icon":"/api/icons/3184FF/False/template/62.png"},"source":"geoconfirmed","source_name":"GeoConfirmed","source_url":"https://geoconfirmed.org/map/ukraine","id":"32e44589-eae0-42e2-adb8-53387c69d596","date":"2026-08-23","link":"https://geoconfirmed.org/map/ukraine/32e44589-eae0-42e2-adb8-53387c69d596","category":"Recently Destroyed/Damaged[Visible in footage] Logistical Trucks (Soft skin OR armoured)","side":"Ukraine Civilian","color":"#3184FF","description":"An evacuation vehicle was damaged by two Russian FPV drones.","orbat":["Southern Military District"],"geolocation":["https://x.com/99Dominik_/status/2093027986089873913"],"sources":["https://x.com/99Dominik_/status/2093028186070147551","https://t.me/yuzhny_front_ZOV/27545","https://x.com/99Dominik_/status/2093028224565408235","https://t.me/dsns_telegram/72523"]}},{"type":"Feature","geometry":{"type":"Point","coordinates":[37.905702,49.465679]},"properties":{"original":{"Date":"2026-08-23","Name":"23 AUG 2026","Faction":"Ukraine","Origin":"UAV","Latitude":"49.465679","Longitude":"37.905702","PlusCode":"8GXVFW84+77 Stel'makhivka, Luhansk Oblast, Ukraine","Description":"1:13-end - Fire, presumably a Russian ATV hit by FPV.","Source":"https://x.com/Kukulkan415/status/2091471704413422036, https://t.me/oaembr77/1600","Geolocation":"https://x.com/Kukulkan415/status/2091488772831506535","Equipment":"Quad","EquipmentItems":"FPV (First Person View) OWAD (One Way Attack Drone)","Units":"","OrbatUnits":"77th Airmobile Brigade \"Naddnipryanska\"","Id":"358a2fa3-8547-4cb6-a729-5a8894080fdf","icon":"/api/icons/0051CA/False/template/70.png"},"source":"geoconfirmed","source_name":"GeoConfirmed","source_url":"https://geoconfirmed.org/map/ukraine","id":"358a2fa3-8547-4cb6-a729-5a8894080fdf","date":"2026-08-23","link":"https://geoconfirmed.org/map/ukraine/358a2fa3-8547-4cb6-a729-5a8894080fdf","category":"Controlled Demolition OR explosion of unknown origin OR fire of unknown origin where no other icon fits","side":"Ukraine","color":"#0051CA","description":"1:13-end - Fire, presumably a Russian ATV hit by FPV.","orbat":["77th Airmobile Brigade \"Naddnipryanska\""],"geolocation":["https://x.com/Kukulkan415/status/2091488772831506535"],"sources":["https://x.com/Kukulkan415/status/2091471704413422036","https://t.me/oaembr77/1600"]}},{"type":"Feature","geometry":{"type":"Point","coordinates":[36.37305,45.05973]},"properties":{"original":{"Date":"2026-08-23","Name":"23 AUG 2026","Faction":"Ukraine","Origin":"UAV","Latitude":"45.05973","Longitude":"36.37305","PlusCode":"8GQR395F+V6 Mayak Kyz-Aul'skiy","Description":"0:13-0:15 - A Baltica B coastal radar is attacked with a drone by the Prymary unit of the Main Intelligence Directorate of Ukraine.","Source":"https://bsky.app/profile/noelreports.com/post/3mtraiemrgs2q, https://x.com/NOELreports/status/2091567848845947054, https://x.com/DI_Ukraine/status/2091568345388560619, https://www.facebook.com/reel/1621774512661260, https://www.instagram.com/diukraine/reel/DcY8KQiMhVZ/, https://www.youtube.com/watch?v=uR_vHX4mRNE, https://t.me/DIUkraine/9189","Geolocation":"https://bsky.app/profile/blinzka.bsky.social/post/3mtrshixy4s2u, https://x.com/blinzka/status/2091648789392072777","Equipment":"Baltika-B","EquipmentItems":"Fixed Wing OWAD (One Way Attack Drone)","Units":"","OrbatUnits":"UAS Unit \"Prymary\" / \"Примари\"","Id":"476803a0-27ed-4f8d-9496-5d94ff7d11a2","icon":"/api/icons/0051CA/False/template/181.png"},"source":"geoconfirmed","source_name":"GeoConfirmed","source_url":"https://geoconfirmed.org/map/ukraine","id":"476803a0-27ed-4f8d-9496-5d94ff7d11a2","date":"2026-08-23","link":"https://geoconfirmed.org/map/ukraine/476803a0-27ed-4f8d-9496-5d94ff7d11a2","category":"Longe Range (>50km) OWAD (One Way Attack Drone) or Loitering munition, mostly fixed wing, Flying OR Attacking a target without knowing the outcome: if something is damaged --> icon of the damaged equipment.","side":"Ukraine","color":"#0051CA","description":"0:13-0:15 - A Baltica B coastal radar is attacked with a drone by the Prymary unit of the Main Intelligence Directorate of Ukraine.","orbat":["UAS Unit \"Prymary\" / \"Примари\""],"geolocation":["https://bsky.app/profile/blinzka.bsky.social/post/3mtrshixy4s2u","https://x.com/blinzka/status/2091648789392072777"],"sources":["https://bsky.app/profile/noelreports.com/post/3mtraiemrgs2q","https://x.com/NOELreports/status/2091567848845947054","https://x.com/DI_Ukraine/status/2091568345388560619","https://www.facebook.com/reel/1621774512661260","https://www.instagram.com/diukraine/reel/DcY8KQiMhVZ/","https://www.youtube.com/watch?v=uR_vHX4mRNE","https://t.me/DIUkraine/9189"]}},{"type":"Feature","geometry":{"type":"Point","coordinates":[36.094452,47.748088]},"properties":{"original":{"Date":"2026-08-23","Name":"23 AUG 2026","Faction":"Russia","Origin":"UAV","Latitude":"47.748088","Longitude":"36.094452","PlusCode":"8GVRP3XV+6Q Vozdvyzhivka, Zaporizhia Oblast, Ukraine","Description":"0:23-0:31 - A Russian FPV strike by the Reconnaissance Company \"Baikal\" hits a claimed Ukrainian position in Vozdvyzhivka , Zaporizhzhia Oblast.","Source":"https://x.com/Bielitzling/status/2091572261278904820, https://t.me/Baikal40ob/111","Geolocation":"https://x.com/juss_men/status/2091606671474778375","Equipment":"","EquipmentItems":"FPV (First Person View) OWAD (One Way Attack Drone)","Units":"","OrbatUnits":"Reconnaissance Company \"Baikal\"","Id":"280f1ab4-73bf-47c3-a6ae-5f17efae32bc","icon":"/api/icons/E00000/False/template/111.png"},"source":"geoconfirmed","source_name":"GeoConfirmed","source_url":"https://geoconfirmed.org/map/ukraine","id":"280f1ab4-73bf-47c3-a6ae-5f17efae32bc","date":"2026-08-23","link":"https://geoconfirmed.org/map/ukraine/280f1ab4-73bf-47c3-a6ae-5f17efae32bc","category":"Short Range (<50km) OWAD (One Way Attack Drone), mostly rotary wing, Flying OR Attacking a target without knowing the outcome: if something is damaged --> icon of the damaged equipment.","side":"Russia","color":"#E00000","description":"0:23-0:31 - A Russian FPV strike by the Reconnaissance Company \"Baikal\" hits a claimed Ukrainian position in Vozdvyzhivka , Zaporizhzhia Oblast.","orbat":["Reconnaissance Company \"Baikal\""],"geolocation":["https://x.com/juss_men/status/2091606671474778375"],"sources":["https://x.com/Bielitzling/status/2091572261278904820","https://t.me/Baikal40ob/111"]}},{"type":"Feature","geometry":{"type":"Point","coordinates":[36.10814,47.751523]},"properties":{"original":{"Date":"2026-08-23","Name":"23 AUG 2026","Faction":"Russia","Origin":"UAV","Latitude":"47.751523","Longitude":"36.10814","PlusCode":"8GVRQ425+J7 Vozdvyzhivka, Zaporizhia Oblast, Ukraine","Description":"Russian FPV strike","Source":"https://x.com/moklasen/status/2091262077469933925","Geolocation":"https://x.com/moklasen/status/2091262073703379293","Equipment":"","EquipmentItems":"FPV (First Person View) OWAD (One Way Attack Drone)","Units":"","OrbatUnits":"40th Guards Naval Infantry Brigade","Id":"70e27713-ae5c-404f-b722-69d81b163588","icon":"/api/icons/E00000/False/template/111.png"},"source":"geoconfirmed","source_name":"GeoConfirmed","source_url":"https://geoconfirmed.org/map/ukraine","id":"70e27713-ae5c-404f-b722-69d81b163588","date":"2026-08-23","link":"https://geoconfirmed.org/map/ukraine/70e27713-ae5c-404f-b722-69d81b163588","category":"Short Range (<50km) OWAD (One Way Attack Drone), mostly rotary wing, Flying OR Attacking a target without knowing the outcome: if something is damaged --> icon of the damaged equipment.","side":"Russia","color":"#E00000","description":"Russian FPV strike","orbat":["40th Guards Naval Infantry Brigade"],"geolocation":["https://x.com/moklasen/status/2091262073703379293"],"sources":["https://x.com/moklasen/status/2091262077469933925"]}},{"type":"Feature","geometry":{"type":"Point","coordinates":[38.606911,47.459875]},"properties":{"original":{"Date":"2026-08-23","Name":"23 AUG 2026","Faction":"Ukraine","Origin":"UAV","Latitude":"47.459875","Longitude":"38.606911","PlusCode":"8GVWFJ54+XQ Novomar'evka, Rostov Oblast, Russia","Description":"1:30-1:39 - Kasta-2E2 radar targeted by FPV drone","Source":"https://x.com/414magyarbirds/status/2091487506071961775, https://x.com/414magyarbirds/status/2091508359639822349, https://t.me/robert_magyar/2755, https://www.youtube.com/watch?v=f33zX7dgjSQ","Geolocation":"https://x.com/klinger66/status/2092411797437399527","Equipment":"","EquipmentItems":"Fixed Wing OWAD (One Way Attack Drone) | 39N6E “Kasta 2E2”","Units":"","OrbatUnits":"1st Seperate SBS Center","Id":"e1b82b02-da14-4c29-851b-765d6cd2b241","icon":"/api/icons/0051CA/False/template/181.png"},"source":"geoconfirmed","source_name":"GeoConfirmed","source_url":"https://geoconfirmed.org/map/ukraine","id":"e1b82b02-da14-4c29-851b-765d6cd2b241","date":"2026-08-23","link":"https://geoconfirmed.org/map/ukraine/e1b82b02-da14-4c29-851b-765d6cd2b241","category":"Longe Range (>50km) OWAD (One Way Attack Drone) or Loitering munition, mostly fixed wing, Flying OR Attacking a target without knowing the outcome: if something is damaged --> icon of the damaged equipment.","side":"Ukraine","color":"#0051CA","description":"1:30-1:39 - Kasta-2E2 radar targeted by FPV drone","orbat":["1st Seperate SBS Center"],"geolocation":["https://x.com/klinger66/status/2092411797437399527"],"sources":["https://x.com/414magyarbirds/status/2091487506071961775","https://x.com/414magyarbirds/status/2091508359639822349","https://t.me/robert_magyar/2755","https://www.youtube.com/watch?v=f33zX7dgjSQ"]}},{"type":"Feature","geometry":{"type":"Point","coordinates":[39.3325,46.96639]},"properties":{"original":{"Date":"2026-08-23","Name":"23 AUG 2026","Faction":"Ukraine","Origin":"UAV","Latitude":"46.96639","Longitude":"39.3325","PlusCode":"8GRXX88J+HX Golovatovka, Rostov Oblast, Russia","Description":"2:38 - 2:46 - Podlyot radar targeted on an empty S-400 site near Golovativka","Source":"https://x.com/414magyarbirds/status/2091487506071961775, https://x.com/414magyarbirds/status/2091508359639822349, https://t.me/robert_magyar/2755, https://www.youtube.com/watch?v=f33zX7dgjSQ","Geolocation":"https://x.com/carse_n/status/2092346216080146832","Equipment":"","EquipmentItems":"Fixed Wing OWAD (One Way Attack Drone) | Kronshtadt Orion Systems | 9K330 Tor","Units":"","OrbatUnits":"1st Seperate SBS Center","Id":"da53a079-c411-4fd4-941c-7765ad8d244b","icon":"/api/icons/0051CA/False/template/181.png"},"source":"geoconfirmed","source_name":"GeoConfirmed","source_url":"https://geoconfirmed.org/map/ukraine","id":"da53a079-c411-4fd4-941c-7765ad8d244b","date":"2026-08-23","link":"https://geoconfirmed.org/map/ukraine/da53a079-c411-4fd4-941c-7765ad8d244b","category":"Longe Range (>50km) OWAD (One Way Attack Drone) or Loitering munition, mostly fixed wing, Flying OR Attacking a target without knowing the outcome: if something is damaged --> icon of the damaged equipment.","side":"Ukraine","color":"#0051CA","description":"2:38 - 2:46 - Podlyot radar targeted on an empty S-400 site near Golovativka","orbat":["1st Seperate SBS Center"],"geolocation":["https://x.com/carse_n/status/2092346216080146832"],"sources":["https://x.com/414magyarbirds/status/2091487506071961775","https://x.com/414magyarbirds/status/2091508359639822349","https://t.me/robert_magyar/2755","https://www.youtube.com/watch?v=f33zX7dgjSQ"]}},{"type":"Feature","geometry":{"type":"Point","coordinates":[35.923591,47.750719]},"properties":{"original":{"Date":"2026-08-23","Name":"23 AUG 2026","Faction":"Ukraine","Origin":"UAV","Latitude":"47.750719","Longitude":"35.923591","PlusCode":"8GVQQW2F+7C Novosoloshyne, Zaporizhia Oblast, Ukraine","Description":"2:09 - Ukrainian Flag presented by Soldiers.","Source":"https://x.com/PuenteUribarri/status/2091559564961321129, https://t.me/OSHP_225/5500, https://x.com/franfran2424/status/2093054310980403586","Geolocation":"https://x.com/richardzai38580/status/2091564182479208541, https://x.com/PuenteUribarri/status/2091562841245466675","Equipment":"","EquipmentItems":"","Units":"","OrbatUnits":"225th Assault Regiment","Id":"2dff87c1-6c06-46aa-bf44-83f8349db598","icon":"/api/icons/0051CA/False/template/100.png"},"source":"geoconfirmed","source_name":"GeoConfirmed","source_url":"https://geoconfirmed.org/map/ukraine","id":"2dff87c1-6c06-46aa-bf44-83f8349db598","date":"2026-08-23","link":"https://geoconfirmed.org/map/ukraine/2dff87c1-6c06-46aa-bf44-83f8349db598","category":"Civilian or Soldier or Militant (Depending on the colour)","side":"Ukraine","color":"#0051CA","description":"2:09 - Ukrainian Flag presented by Soldiers.","orbat":["225th Assault Regiment"],"geolocation":["https://x.com/richardzai38580/status/2091564182479208541","https://x.com/PuenteUribarri/status/2091562841245466675"],"sources":["https://x.com/PuenteUribarri/status/2091559564961321129","https://t.me/OSHP_225/5500","https://x.com/franfran2424/status/2093054310980403586"]}},{"type":"Feature","geometry":{"type":"Point","coordinates":[38.36767,47.20966]},"properties":{"original":{"Date":"2026-08-23","Name":"23 AUG 2026","Faction":"Ukraine","Origin":"UAV","Latitude":"47.20966","Longitude":"38.36767","PlusCode":"8GVW6959+V3 Petropavlovskii, Rostov Oblast, Russia","Description":"1:00-1:09 - Reported Tor SAM system attacked by drone.","Source":"https://x.com/414magyarbirds/status/2091487506071961775, https://x.com/414magyarbirds/status/2091508359639822349, https://t.me/robert_magyar/2755, https://www.youtube.com/watch?v=f33zX7dgjSQ","Geolocation":"https://x.com/klinger66/status/2091497620237623794","Equipment":"","EquipmentItems":"Fixed Wing OWAD (One Way Attack Drone) | 9K330 Tor","Units":"","OrbatUnits":"1st Seperate SBS Center","Id":"7239d9bf-dc17-4e11-bd22-84de7e874665","icon":"/api/icons/0051CA/False/template/181.png"},"source":"geoconfirmed","source_name":"GeoConfirmed","source_url":"https://geoconfirmed.org/map/ukraine","id":"7239d9bf-dc17-4e11-bd22-84de7e874665","date":"2026-08-23","link":"https://geoconfirmed.org/map/ukraine/7239d9bf-dc17-4e11-bd22-84de7e874665","category":"Longe Range (>50km) OWAD (One Way Attack Drone) or Loitering munition, mostly fixed wing, Flying OR Attacking a target without knowing the outcome: if something is damaged --> icon of the damaged equipment.","side":"Ukraine","color":"#0051CA","description":"1:00-1:09 - Reported Tor SAM system attacked by drone.","orbat":["1st Seperate SBS Center"],"geolocation":["https://x.com/klinger66/status/2091497620237623794"],"sources":["https://x.com/414magyarbirds/status/2091487506071961775","https://x.com/414magyarbirds/status/2091508359639822349","https://t.me/robert_magyar/2755","https://www.youtube.com/watch?v=f33zX7dgjSQ"]}},{"type":"Feature","geometry":{"type":"Point","coordinates":[37.22724,55.66554]},"properties":{"original":{"Date":"2026-08-23","Name":"23 AUG 2026","Faction":"Unknown","Origin":"VID","Latitude":"55.66554","Longitude":"37.22724","PlusCode":"9G7VM68G+6V Odintsovo, Moscow Oblast, Russia","Description":"A fire of unknown origin broke out in an industrial area in Akulovo, near Moscow, Russia.","Source":"Vid, https://x.com/zarGEOINT/status/2091506067674935749, (2/3), https://t.me/exilenova_plus/29511, https://t.me/Operatyvnyi_Donbas/145899?single, Pic, (1/3&3/3), https://x.com/giK1893/status/2091514098169078073, ","Geolocation":"Vid, https://x.com/zarGEOINT/status/2091507472833912973, Pic, (Based on), https://x.com/giK1893/status/2091514098169078073","Equipment":"","EquipmentItems":"","Units":"","OrbatUnits":"","Id":"3c5efc80-26c7-4f4c-b7f0-85074fd77b3d","icon":"/api/icons/666666/False/template/70.png"},"source":"geoconfirmed","source_name":"GeoConfirmed","source_url":"https://geoconfirmed.org/map/ukraine","id":"3c5efc80-26c7-4f4c-b7f0-85074fd77b3d","date":"2026-08-23","link":"https://geoconfirmed.org/map/ukraine/3c5efc80-26c7-4f4c-b7f0-85074fd77b3d","category":"Controlled Demolition OR explosion of unknown origin OR fire of unknown origin where no other icon fits","side":"Unknown","color":"#666666","description":"A fire of unknown origin broke out in an industrial area in Akulovo, near Moscow, Russia.","orbat":[],"geolocation":["https://x.com/zarGEOINT/status/2091507472833912973","https://x.com/giK1893/status/2091514098169078073"],"sources":["https://x.com/zarGEOINT/status/2091506067674935749","https://t.me/exilenova_plus/29511","https://t.me/Operatyvnyi_Donbas/145899?single","https://x.com/giK1893/status/2091514098169078073"]}},{"type":"Feature","geometry":{"type":"Point","coordinates":[30.518635,59.745449]},"properties":{"original":{"Date":"2026-08-23","Name":"23 AUG 2026","Faction":"Unknown","Origin":"UAV","Latitude":"59.745449","Longitude":"30.518635","PlusCode":"9GFGPGW9+5F Pushkinsky District, Saint Petersburg, Russia","Description":"POV - Fire of unknown origin.","Source":"https://x.com/Exilenova_plus/status/2091326582887743960, https://t.me/exilenova_plus/29461?single","Geolocation":"https://x.com/ElsoTheArgie/status/2091331602181669227","Equipment":"","EquipmentItems":"","Units":"","OrbatUnits":"","Id":"28a8066d-7e62-4fb3-93b5-98a57fcee326","icon":"/api/icons/666666/False/template/30.png"},"source":"geoconfirmed","source_name":"GeoConfirmed","source_url":"https://geoconfirmed.org/map/ukraine","id":"28a8066d-7e62-4fb3-93b5-98a57fcee326","date":"2026-08-23","link":"https://geoconfirmed.org/map/ukraine/28a8066d-7e62-4fb3-93b5-98a57fcee326","category":"Video - Always Point of View in description - In the colour of who is doing the attack or is responsable for the incident in the video.","side":"Unknown","color":"#666666","description":"POV - Fire of unknown origin.","orbat":[],"geolocation":["https://x.com/ElsoTheArgie/status/2091331602181669227"],"sources":["https://x.com/Exilenova_plus/status/2091326582887743960","https://t.me/exilenova_plus/29461?single"]}},{"type":"Feature","geometry":{"type":"Point","coordinates":[40.29056,48.95042]},"properties":{"original":{"Date":"2026-08-23","Name":"23 AUG 2026","Faction":"Ukraine","Origin":"UAV","Latitude":"48.95042","Longitude":"40.29056","PlusCode":"8HW2X72R+56 Dolotinka, Rostov Oblast, Russia","Description":"1:10-1:19 - A Russian Nebo-U radar was attacked with a drone by the 1st Unmanned Systems Center of Ukraine on the premises of the Millerovo air base.","Source":"https://x.com/414magyarbirds/status/2091487506071961775, https://t.me/robert_magyar/2755, ","Geolocation":"https://x.com/blinzka/status/2091662133595435331, https://x.com/MikiValbuena/status/2093014509757583433","Equipment":"Nebo-U","EquipmentItems":"Fixed Wing OWAD (One Way Attack Drone)","Units":"","OrbatUnits":"1st Seperate SBS Center","Id":"1e267a1c-ab6e-4d1e-a593-a3ab77f23ab5","icon":"/api/icons/0051CA/False/template/181.png"},"source":"geoconfirmed","source_name":"GeoConfirmed","source_url":"https://geoconfirmed.org/map/ukraine","id":"1e267a1c-ab6e-4d1e-a593-a3ab77f23ab5","date":"2026-08-23","link":"https://geoconfirmed.org/map/ukraine/1e267a1c-ab6e-4d1e-a593-a3ab77f23ab5","category":"Longe Range (>50km) OWAD (One Way Attack Drone) or Loitering munition, mostly fixed wing, Flying OR Attacking a target without knowing the outcome: if something is damaged --> icon of the damaged equipment.","side":"Ukraine","color":"#0051CA","description":"1:10-1:19 - A Russian Nebo-U radar was attacked with a drone by the 1st Unmanned Systems Center of Ukraine on the premises of the Millerovo air base.","orbat":["1st Seperate SBS Center"],"geolocation":["https://x.com/blinzka/status/2091662133595435331","https://x.com/MikiValbuena/status/2093014509757583433"],"sources":["https://x.com/414magyarbirds/status/2091487506071961775","https://t.me/robert_magyar/2755"]}},{"type":"Feature","geometry":{"type":"Point","coordinates":[35.936144,47.682666]},"properties":{"original":{"Date":"2026-08-23","Name":"23 AUG 2026","Faction":"Ukraine","Origin":"UAV","Latitude":"47.682666","Longitude":"35.936144","PlusCode":"8GVQMWMP+3F Shyroke, Zaporizhia Oblast, Ukraine","Description":"3:26 - Ukrainian Flag hoisted by Soldiers.","Source":"https://x.com/PuenteUribarri/status/2091559564961321129, https://t.me/OSHP_225/5500, https://x.com/franfran2424/status/2093054310980403586","Geolocation":"https://x.com/richardzai38580/status/2091567649071464851","Equipment":"","EquipmentItems":"","Units":"","OrbatUnits":"225th Assault Regiment","Id":"2fee52b3-c0cc-4c5f-a362-a87b3c118dc6","icon":"/api/icons/0051CA/False/template/100.png"},"source":"geoconfirmed","source_name":"GeoConfirmed","source_url":"https://geoconfirmed.org/map/ukraine","id":"2fee52b3-c0cc-4c5f-a362-a87b3c118dc6","date":"2026-08-23","link":"https://geoconfirmed.org/map/ukraine/2fee52b3-c0cc-4c5f-a362-a87b3c118dc6","category":"Civilian or Soldier or Militant (Depending on the colour)","side":"Ukraine","color":"#0051CA","description":"3:26 - Ukrainian Flag hoisted by Soldiers.","orbat":["225th Assault Regiment"],"geolocation":["https://x.com/richardzai38580/status/2091567649071464851"],"sources":["https://x.com/PuenteUribarri/status/2091559564961321129","https://t.me/OSHP_225/5500","https://x.com/franfran2424/status/2093054310980403586"]}},{"type":"Feature","geometry":{"type":"Point","coordinates":[32.570102,46.624392]},"properties":{"original":{"Date":"2026-08-23","Name":"23 AUG 2026","Faction":"Neutral","Origin":"UAV","Latitude":"46.624392","Longitude":"32.570102","PlusCode":"8GRJJHFC+Q2 Kherson, Kherson Oblast, Ukraine","Description":"2:15-3:10 - A Russian drone dropped a grenade on a garage near man walking two dogs.","Source":"https://x.com/99Dominik_/status/2091415555924165082, https://t.me/osvedomitell_alex/37131","Geolocation":"https://x.com/99Dominik_/status/2091414107001929979","Equipment":"","EquipmentItems":"(Multi-Purpose) Bomber UAV","Units":"","OrbatUnits":"","Id":"44549a82-ace6-4183-b527-b1e5f64cfe66","icon":"/api/icons/AC7339/False/template/192.png"},"source":"geoconfirmed","source_name":"GeoConfirmed","source_url":"https://geoconfirmed.org/map/ukraine","id":"44549a82-ace6-4183-b527-b1e5f64cfe66","date":"2026-08-23","link":"https://geoconfirmed.org/map/ukraine/44549a82-ace6-4183-b527-b1e5f64cfe66","category":"Recently destroyed/Damaged[Visible in footage] or still burning infrastucture","side":"Neutral","color":"#AC7339","description":"2:15-3:10 - A Russian drone dropped a grenade on a garage near man walking two dogs.","orbat":[],"geolocation":["https://x.com/99Dominik_/status/2091414107001929979"],"sources":["https://x.com/99Dominik_/status/2091415555924165082","https://t.me/osvedomitell_alex/37131"]}},{"type":"Feature","geometry":{"type":"Point","coordinates":[37.94867,49.415638]},"properties":{"original":{"Date":"2026-08-23","Name":"23 AUG 2026","Faction":"Ukraine","Origin":"UAV","Latitude":"49.415638","Longitude":"37.94867","PlusCode":"8GXVCW8X+7F Dzherelne, Luhansk Oblast, Ukraine","Description":"0:22-0:30 - Fire, presumably a Russian ATV hit by FPV.","Source":"https://x.com/Kukulkan415/status/2091471704413422036, https://t.me/oaembr77/1600","Geolocation":"https://x.com/Kukulkan415/status/2091471704413422036","Equipment":"Quad","EquipmentItems":"FPV (First Person View) OWAD (One Way Attack Drone)","Units":"","OrbatUnits":"77th Airmobile Brigade \"Naddnipryanska\"","Id":"57da6faf-3ee7-44fa-a7c7-b7720838bf97","icon":"/api/icons/0051CA/False/template/70.png"},"source":"geoconfirmed","source_name":"GeoConfirmed","source_url":"https://geoconfirmed.org/map/ukraine","id":"57da6faf-3ee7-44fa-a7c7-b7720838bf97","date":"2026-08-23","link":"https://geoconfirmed.org/map/ukraine/57da6faf-3ee7-44fa-a7c7-b7720838bf97","category":"Controlled Demolition OR explosion of unknown origin OR fire of unknown origin where no other icon fits","side":"Ukraine","color":"#0051CA","description":"0:22-0:30 - Fire, presumably a Russian ATV hit by FPV.","orbat":["77th Airmobile Brigade \"Naddnipryanska\""],"geolocation":["https://x.com/Kukulkan415/status/2091471704413422036"],"sources":["https://x.com/Kukulkan415/status/2091471704413422036","https://t.me/oaembr77/1600"]}},{"type":"Feature","geometry":{"type":"Point","coordinates":[38.023506,45.763877]},"properties":{"original":{"Date":"2026-08-23","Name":"23 AUG 2026","Faction":"Ukraine","Origin":"UAV","Latitude":"45.763877","Longitude":"38.023506","PlusCode":"8GQWQ27F+HC Imeni Lenina, Krasnodar Krai, Russia","Description":"1:40-1:50  - Podlyot radar targeted by FPV drone","Source":"https://x.com/414magyarbirds/status/2091487506071961775, https://x.com/414magyarbirds/status/2091508359639822349, https://t.me/robert_magyar/2755, https://www.youtube.com/watch?v=f33zX7dgjSQ","Geolocation":"https://x.com/klinger66/status/2092421694711267649","Equipment":"Podlyot Radar","EquipmentItems":"Fixed Wing OWAD (One Way Attack Drone)","Units":"","OrbatUnits":"1st Seperate SBS Center","Id":"c0fe57a0-3cc3-4c67-b4d6-b91d0f51c8d6","icon":"/api/icons/0051CA/False/template/181.png"},"source":"geoconfirmed","source_name":"GeoConfirmed","source_url":"https://geoconfirmed.org/map/ukraine","id":"c0fe57a0-3cc3-4c67-b4d6-b91d0f51c8d6","date":"2026-08-23","link":"https://geoconfirmed.org/map/ukraine/c0fe57a0-3cc3-4c67-b4d6-b91d0f51c8d6","category":"Longe Range (>50km) OWAD (One Way Attack Drone) or Loitering munition, mostly fixed wing, Flying OR Attacking a target without knowing the outcome: if something is damaged --> icon of the damaged equipment.","side":"Ukraine","color":"#0051CA","description":"1:40-1:50  - Podlyot radar targeted by FPV drone","orbat":["1st Seperate SBS Center"],"geolocation":["https://x.com/klinger66/status/2092421694711267649"],"sources":["https://x.com/414magyarbirds/status/2091487506071961775","https://x.com/414magyarbirds/status/2091508359639822349","https://t.me/robert_magyar/2755","https://www.youtube.com/watch?v=f33zX7dgjSQ"]}},{"type":"Feature","geometry":{"type":"Point","coordinates":[37.533554,48.659869]},"properties":{"original":{"Date":"2026-08-23","Name":"23 AUG 2026","Faction":"Russia","Origin":"UAV","Latitude":"48.659869","Longitude":"37.533554","PlusCode":"8GWVMG5M+WC Druzhkivka, Donetsk Oblast, Ukraine","Description":"A reported Russian FPV drone killed one civilian and injured another.","Source":"https://x.com/99Dominik_/status/2091454941898412181, https://t.me/Hollander2022/2165","Geolocation":"https://x.com/99Dominik_/status/2091454463202476091","Equipment":"","EquipmentItems":"FPV (First Person View) OWAD (One Way Attack Drone)","Units":"","OrbatUnits":"","Id":"d27c686a-2161-4f0b-b3c1-bf1c1ce461a2","icon":"/api/icons/E00000/False/template/50.png"},"source":"geoconfirmed","source_name":"GeoConfirmed","source_url":"https://geoconfirmed.org/map/ukraine","id":"d27c686a-2161-4f0b-b3c1-bf1c1ce461a2","date":"2026-08-23","link":"https://geoconfirmed.org/map/ukraine/d27c686a-2161-4f0b-b3c1-bf1c1ce461a2","category":"Killed or wounded civilian. Potential Warcrime. In the colour of who is assessed as doing the attack/killing.","side":"Russia","color":"#E00000","description":"A reported Russian FPV drone killed one civilian and injured another.","orbat":[],"geolocation":["https://x.com/99Dominik_/status/2091454463202476091"],"sources":["https://x.com/99Dominik_/status/2091454941898412181","https://t.me/Hollander2022/2165"]}},{"type":"Feature","geometry":{"type":"Point","coordinates":[36.6267,45.36448]},"properties":{"original":{"Date":"2026-08-23","Name":"23 AUG 2026","Faction":"Ukraine","Origin":"UAV","Latitude":"45.36448","Longitude":"36.6267","PlusCode":"8GQR9J7G+QM Port Krym, Kerch","Description":"0:29 - 0:32 - Car ferry Marya hit","Source":"https://bsky.app/profile/noelreports.com/post/3mtraiemrgs2q, https://x.com/NOELreports/status/2091567848845947054, https://x.com/DI_Ukraine/status/2091568345388560619, https://www.facebook.com/reel/1621774512661260, https://www.instagram.com/diukraine/reel/DcY8KQiMhVZ/, https://www.youtube.com/watch?v=uR_vHX4mRNE, https://t.me/DIUkraine/9189","Geolocation":"https://bsky.app/profile/blinzka.bsky.social/post/3mtrshixy4s2u, https://x.com/blinzka/status/2091648789392072777","Equipment":"Baltika-B","EquipmentItems":"Fixed Wing OWAD (One Way Attack Drone)","Units":"","OrbatUnits":"UAS Unit \"Prymary\" / \"Примари\"","Id":"046bf566-fde6-4899-9055-c3c585527820","icon":"/api/icons/0051CA/False/template/181.png"},"source":"geoconfirmed","source_name":"GeoConfirmed","source_url":"https://geoconfirmed.org/map/ukraine","id":"046bf566-fde6-4899-9055-c3c585527820","date":"2026-08-23","link":"https://geoconfirmed.org/map/ukraine/046bf566-fde6-4899-9055-c3c585527820","category":"Longe Range (>50km) OWAD (One Way Attack Drone) or Loitering munition, mostly fixed wing, Flying OR Attacking a target without knowing the outcome: if something is damaged --> icon of the damaged equipment.","side":"Ukraine","color":"#0051CA","description":"0:29 - 0:32 - Car ferry Marya hit","orbat":["UAS Unit \"Prymary\" / \"Примари\""],"geolocation":["https://bsky.app/profile/blinzka.bsky.social/post/3mtrshixy4s2u","https://x.com/blinzka/status/2091648789392072777"],"sources":["https://bsky.app/profile/noelreports.com/post/3mtraiemrgs2q","https://x.com/NOELreports/status/2091567848845947054","https://x.com/DI_Ukraine/status/2091568345388560619","https://www.facebook.com/reel/1621774512661260","https://www.instagram.com/diukraine/reel/DcY8KQiMhVZ/","https://www.youtube.com/watch?v=uR_vHX4mRNE","https://t.me/DIUkraine/9189"]}},{"type":"Feature","geometry":{"type":"Point","coordinates":[35.934566,47.691727]},"properties":{"original":{"Date":"2026-08-23","Name":"23 AUG 2026","Faction":"Russia","Origin":"UAV","Latitude":"47.691727","Longitude":"35.934566","PlusCode":"8GVQMWRM+MR Shyroke, Zaporizhia Oblast, Ukraine","Description":"2:49 - Reported Russian Soldier captured","Source":"https://x.com/PuenteUribarri/status/2091559564961321129, https://t.me/OSHP_225/5500, https://x.com/franfran2424/status/2093054310980403586","Geolocation":"https://x.com/richardzai38580/status/2091567649071464851","Equipment":"","EquipmentItems":"","Units":"","OrbatUnits":"225th Assault Regiment","Id":"926f49cf-85d7-45b0-bf88-cc2d4a8a9825","icon":"/api/icons/E00000/False/template/101.png"},"source":"geoconfirmed","source_name":"GeoConfirmed","source_url":"https://geoconfirmed.org/map/ukraine","id":"926f49cf-85d7-45b0-bf88-cc2d4a8a9825","date":"2026-08-23","link":"https://geoconfirmed.org/map/ukraine/926f49cf-85d7-45b0-bf88-cc2d4a8a9825","category":"POW - Prisinor of War - In the colour of the faction of the POW","side":"Russia","color":"#E00000","description":"2:49 - Reported Russian Soldier captured","orbat":["225th Assault Regiment"],"geolocation":["https://x.com/richardzai38580/status/2091567649071464851"],"sources":["https://x.com/PuenteUribarri/status/2091559564961321129","https://t.me/OSHP_225/5500","https://x.com/franfran2424/status/2093054310980403586"]}},{"type":"Feature","geometry":{"type":"Point","coordinates":[37.336016,45.000025]},"properties":{"original":{"Date":"2026-08-23","Name":"23 AUG 2026","Faction":"Ukraine","Origin":"UAV","Latitude":"45.000025","Longitude":"37.336016","PlusCode":"8GQV282P+2C Krasnyi Kurgan, Krasnodar Krai, Russia","Description":"0:09-1:00 - Reported Orion drone attacked by drone.","Source":"https://x.com/414magyarbirds/status/2091487506071961775, https://x.com/414magyarbirds/status/2091508359639822349, https://t.me/robert_magyar/2755, https://www.youtube.com/watch?v=f33zX7dgjSQ","Geolocation":"https://x.com/klinger66/status/2091496261413154909, based on: https://x.com/zarGEOINT/status/2091490409402794004","Equipment":"","EquipmentItems":"Fixed Wing OWAD (One Way Attack Drone) | Kronshtadt Orion Systems","Units":"","OrbatUnits":"1st Seperate SBS Center","Id":"6b478fff-9a01-46ce-a858-cce4af5241e0","icon":"/api/icons/0051CA/False/template/181.png"},"source":"geoconfirmed","source_name":"GeoConfirmed","source_url":"https://geoconfirmed.org/map/ukraine","id":"6b478fff-9a01-46ce-a858-cce4af5241e0","date":"2026-08-23","link":"https://geoconfirmed.org/map/ukraine/6b478fff-9a01-46ce-a858-cce4af5241e0","category":"Longe Range (>50km) OWAD (One Way Attack Drone) or Loitering munition, mostly fixed wing, Flying OR Attacking a target without knowing the outcome: if something is damaged --> icon of the damaged equipment.","side":"Ukraine","color":"#0051CA","description":"0:09-1:00 - Reported Orion drone attacked by drone.","orbat":["1st Seperate SBS Center"],"geolocation":["https://x.com/klinger66/status/2091496261413154909","https://x.com/zarGEOINT/status/2091490409402794004"],"sources":["https://x.com/414magyarbirds/status/2091487506071961775","https://x.com/414magyarbirds/status/2091508359639822349","https://t.me/robert_magyar/2755","https://www.youtube.com/watch?v=f33zX7dgjSQ"]}},{"type":"Feature","geometry":{"type":"Point","coordinates":[38.052874,50.078152]},"properties":{"original":{"Date":"2026-08-23","Name":"23 AUG 2026","Faction":"Ukraine","Origin":"UAV","Latitude":"50.078152","Longitude":"38.052874","PlusCode":"9G2W33H3+74 Urazovo, Belgorod Oblast, Russia","Description":"FPV attack on a gas station","Source":"https://x.com/MikiValbuena/status/2091462996102934637, https://t.me/kharkivnapriamok/4032","Geolocation":"https://x.com/MikiValbuena/status/2091462990784540791","Equipment":"","EquipmentItems":"FPV (First Person View) OWAD (One Way Attack Drone)","Units":"","OrbatUnits":"","Id":"77ebbecc-0d56-4008-b04d-cf1fe71b743b","icon":"/api/icons/0051CA/False/template/111.png"},"source":"geoconfirmed","source_name":"GeoConfirmed","source_url":"https://geoconfirmed.org/map/ukraine","id":"77ebbecc-0d56-4008-b04d-cf1fe71b743b","date":"2026-08-23","link":"https://geoconfirmed.org/map/ukraine/77ebbecc-0d56-4008-b04d-cf1fe71b743b","category":"Short Range (<50km) OWAD (One Way Attack Drone), mostly rotary wing, Flying OR Attacking a target without knowing the outcome: if something is damaged --> icon of the damaged equipment.","side":"Ukraine","color":"#0051CA","description":"FPV attack on a gas station","orbat":[],"geolocation":["https://x.com/MikiValbuena/status/2091462990784540791"],"sources":["https://x.com/MikiValbuena/status/2091462996102934637","https://t.me/kharkivnapriamok/4032"]}},{"type":"Feature","geometry":{"type":"Point","coordinates":[37.33779,45.000937]},"properties":{"original":{"Date":"2026-08-23","Name":"23 AUG 2026","Faction":"Russia","Origin":"UAV","Latitude":"45.000937","Longitude":"37.33779","PlusCode":"8GQV282Q+94 Krasnyi Kurgan, Krasnodar Krai, Russia","Description":"0:09-1:00 - Reported Mig-29 damaged/destroyed by FPV.","Source":"https://x.com/414magyarbirds/status/2091487506071961775, https://x.com/414magyarbirds/status/2091508359639822349, https://t.me/robert_magyar/2755, https://www.youtube.com/watch?v=f33zX7dgjSQ","Geolocation":"https://x.com/klinger66/status/2091496261413154909, based on: https://x.com/zarGEOINT/status/2091490409402794004","Equipment":"","EquipmentItems":"Fixed Wing OWAD (One Way Attack Drone) | MiG-29","Units":"","OrbatUnits":"1st Seperate SBS Center","Id":"adfeae83-ee45-44eb-86d1-d40f528a5756","icon":"/api/icons/E00000/False/template/32.png"},"source":"geoconfirmed","source_name":"GeoConfirmed","source_url":"https://geoconfirmed.org/map/ukraine","id":"adfeae83-ee45-44eb-86d1-d40f528a5756","date":"2026-08-23","link":"https://geoconfirmed.org/map/ukraine/adfeae83-ee45-44eb-86d1-d40f528a5756","category":"Recently Destroyed/Damaged[Visible in footage] Fighter Aircraft","side":"Russia","color":"#E00000","description":"0:09-1:00 - Reported Mig-29 damaged/destroyed by FPV.","orbat":["1st Seperate SBS Center"],"geolocation":["https://x.com/klinger66/status/2091496261413154909","https://x.com/zarGEOINT/status/2091490409402794004"],"sources":["https://x.com/414magyarbirds/status/2091487506071961775","https://x.com/414magyarbirds/status/2091508359639822349","https://t.me/robert_magyar/2755","https://www.youtube.com/watch?v=f33zX7dgjSQ"]}},{"type":"Feature","geometry":{"type":"Point","coordinates":[37.04412,48.49882]},"properties":{"original":{"Date":"2026-08-23","Name":"23 AUG 2026","Faction":"Russia","Origin":"UAV","Latitude":"48.49882","Longitude":"37.04412","PlusCode":"8GWVF2XV+GJ Svyatohorivka, Donetsk Oblast, Ukraine","Description":"0,05 - Russian Airstrike (area grid)","Source":"https://t.me/The_Wrong_Side/30709, https://x.com/juss_men/status/2091530651803529520","Geolocation":"https://x.com/juss_men/status/2091530216321495435","Equipment":"","EquipmentItems":"Airstrike","Units":"","OrbatUnits":"","Id":"e7db1d63-11a6-4eb9-bb44-d48ee2b5e71f","icon":"/api/icons/E00000/False/template/10.png"},"source":"geoconfirmed","source_name":"GeoConfirmed","source_url":"https://geoconfirmed.org/map/ukraine","id":"e7db1d63-11a6-4eb9-bb44-d48ee2b5e71f","date":"2026-08-23","link":"https://geoconfirmed.org/map/ukraine/e7db1d63-11a6-4eb9-bb44-d48ee2b5e71f","category":"Shelling by artillery or aerial bombings - Location of the shelling, colour of who is shelling; Brown = UXO","side":"Russia","color":"#E00000","description":"0,05 - Russian Airstrike (area grid)","orbat":[],"geolocation":["https://x.com/juss_men/status/2091530216321495435"],"sources":["https://t.me/The_Wrong_Side/30709","https://x.com/juss_men/status/2091530651803529520"]}},{"type":"Feature","geometry":{"type":"Point","coordinates":[38.28403,48.96849]},"properties":{"original":{"Date":"2026-08-23","Name":"23 AUG 2026","Faction":"Ukraine","Origin":"UAV","Latitude":"48.96849","Longitude":"38.28403","PlusCode":"8GWWX79M+9J Shypylivka, Luhansk Oblast, Ukraine","Description":"0:10 - FPV attack on a car.","Source":"https://x.com/meowqai/status/2091459505494102187, https://t.me/apachi_fpv/841","Geolocation":"https://x.com/meowqai/status/2091456258083553661","Equipment":"","EquipmentItems":"FPV (First Person View) OWAD (One Way Attack Drone) | Car ","Units":"","OrbatUnits":"Unmanned Systems Battalion \"Apachi/Апачі Strike Group\"","Id":"21f0f03b-902c-4b74-8b0f-d4c7135088f8","icon":"/api/icons/0051CA/False/template/111.png"},"source":"geoconfirmed","source_name":"GeoConfirmed","source_url":"https://geoconfirmed.org/map/ukraine","id":"21f0f03b-902c-4b74-8b0f-d4c7135088f8","date":"2026-08-23","link":"https://geoconfirmed.org/map/ukraine/21f0f03b-902c-4b74-8b0f-d4c7135088f8","category":"Short Range (<50km) OWAD (One Way Attack Drone), mostly rotary wing, Flying OR Attacking a target without knowing the outcome: if something is damaged --> icon of the damaged equipment.","side":"Ukraine","color":"#0051CA","description":"0:10 - FPV attack on a car.","orbat":["Unmanned Systems Battalion \"Apachi/Апачі Strike Group\""],"geolocation":["https://x.com/meowqai/status/2091456258083553661"],"sources":["https://x.com/meowqai/status/2091459505494102187","https://t.me/apachi_fpv/841"]}},{"type":"Feature","geometry":{"type":"Point","coordinates":[37.623276,48.4589]},"properties":{"original":{"Date":"2026-08-23","Name":"23 AUG 2026","Faction":"Russia","Origin":"UAV","Latitude":"48.4589","Longitude":"37.623276","PlusCode":"8GWVFJ5F+H8 Stepanivka, Donetsk Oblast, Ukraine","Description":"Ukrainian presence in southeastern Stepanivka hit by Russian Molniya-2 drones","Source":"https://x.com/AudaxonX/status/2093306030423781621, https://t.me/RtrDonetsk/37860, ","Geolocation":"https://x.com/AudaxonX/status/2093305973762846764","Equipment":"","EquipmentItems":"Molniya-2","Units":"","OrbatUnits":"","Id":"9b8acdbd-4d1a-4d44-bf96-d748ad896fd3","icon":"/api/icons/E00000/False/template/111.png"},"source":"geoconfirmed","source_name":"GeoConfirmed","source_url":"https://geoconfirmed.org/map/ukraine","id":"9b8acdbd-4d1a-4d44-bf96-d748ad896fd3","date":"2026-08-23","link":"https://geoconfirmed.org/map/ukraine/9b8acdbd-4d1a-4d44-bf96-d748ad896fd3","category":"Short Range (<50km) OWAD (One Way Attack Drone), mostly rotary wing, Flying OR Attacking a target without knowing the outcome: if something is damaged --> icon of the damaged equipment.","side":"Russia","color":"#E00000","description":"Ukrainian presence in southeastern Stepanivka hit by Russian Molniya-2 drones","orbat":[],"geolocation":["https://x.com/AudaxonX/status/2093305973762846764"],"sources":["https://x.com/AudaxonX/status/2093306030423781621","https://t.me/RtrDonetsk/37860"]}},{"type":"Feature","geometry":{"type":"Point","coordinates":[38.97142,61.51337]},"properties":{"original":{"Date":"2026-08-23","Name":"23 AUG 2026","Faction":"Ukraine","Origin":"VID","Latitude":"61.51337","Longitude":"38.97142","PlusCode":"9GHWGX7C+8H Kargopol', Arkhangelsk Oblast, Russia","Description":"Point of view - reportedly, a Ukrainian drone flying north/northwest near Kargopol', Arkhangelsk Oblast, Russia, 1050km from the Ukrainian border.","Source":"(2/2) https://x.com/NOELreports/status/2091507881933697277","Geolocation":"https://x.com/MCantow/status/2091519825105334680","Equipment":"","EquipmentItems":"Fixed Wing OWAD (One Way Attack Drone)","Units":"","OrbatUnits":"","Id":"3231a39a-5b85-45c5-b0c0-ded1346ebd87","icon":"/api/icons/0051CA/False/template/30.png"},"source":"geoconfirmed","source_name":"GeoConfirmed","source_url":"https://geoconfirmed.org/map/ukraine","id":"3231a39a-5b85-45c5-b0c0-ded1346ebd87","date":"2026-08-23","link":"https://geoconfirmed.org/map/ukraine/3231a39a-5b85-45c5-b0c0-ded1346ebd87","category":"Video - Always Point of View in description - In the colour of who is doing the attack or is responsable for the incident in the video.","side":"Ukraine","color":"#0051CA","description":"Point of view - reportedly, a Ukrainian drone flying north/northwest near Kargopol', Arkhangelsk Oblast, Russia, 1050km from the Ukrainian border.","orbat":[],"geolocation":["https://x.com/MCantow/status/2091519825105334680"],"sources":["https://x.com/NOELreports/status/2091507881933697277"]}},{"type":"Feature","geometry":{"type":"Point","coordinates":[36.08518,51.49807]},"properties":{"original":{"Date":"2026-08-23","Name":"23 AUG 2026","Faction":"Ukraine","Origin":"VID","Latitude":"51.49807","Longitude":"36.08518","PlusCode":"9G3RF3XP+63 Vysokonskie Dvory, Kursk Oblast, Russia","Description":"POV - A video shows the reported aftermath of a Ukrainian strike on the Kursk Linear Product and Metering Station of Gazprom Transgaz Moscow, near the village of Vysokonskiye Dvory., ","Source":"https://x.com/Exilenova_plus/status/2091497477979447672, https://t.me/exilenova_plus/29510","Geolocation":"https://x.com/zarGEOINT/status/2091501859215114596","Equipment":"","EquipmentItems":"","Units":"","OrbatUnits":"","Id":"7d1023b1-1023-41b7-baf1-e34e2decc2dd","icon":"/api/icons/0051CA/False/template/30.png"},"source":"geoconfirmed","source_name":"GeoConfirmed","source_url":"https://geoconfirmed.org/map/ukraine","id":"7d1023b1-1023-41b7-baf1-e34e2decc2dd","date":"2026-08-23","link":"https://geoconfirmed.org/map/ukraine/7d1023b1-1023-41b7-baf1-e34e2decc2dd","category":"Video - Always Point of View in description - In the colour of who is doing the attack or is responsable for the incident in the video.","side":"Ukraine","color":"#0051CA","description":"POV - A video shows the reported aftermath of a Ukrainian strike on the Kursk Linear Product and Metering Station of Gazprom Transgaz Moscow, near the village of Vysokonskiye Dvory.,","orbat":[],"geolocation":["https://x.com/zarGEOINT/status/2091501859215114596"],"sources":["https://x.com/Exilenova_plus/status/2091497477979447672","https://t.me/exilenova_plus/29510"]}},{"type":"Feature","geometry":{"type":"Point","coordinates":[36.140661,47.812458]},"properties":{"original":{"Date":"2026-08-23","Name":"23 AUG 2026","Faction":"Russia","Origin":"UAV","Latitude":"47.812458","Longitude":"36.140661","PlusCode":"8GVRR46R+X7 Kosivtseve, Zaporizhia Oblast, Ukraine","Description":"0:32-0:40 - A Russian drone films an FPV strike by the Reconnaissance Company \"Baikal\" that hits a claimed Ukrainian position in Kosivtseve, Zaporizhzhia Oblast.","Source":"https://x.com/Bielitzling/status/2091572261278904820, https://t.me/Baikal40ob/111","Geolocation":"https://x.com/Bielitzling/status/2091572257470529852","Equipment":"","EquipmentItems":"FPV (First Person View) OWAD (One Way Attack Drone)","Units":"","OrbatUnits":"Reconnaissance Company \"Baikal\"","Id":"9f5b677b-ef84-47ed-a9f1-ed754185f374","icon":"/api/icons/E00000/False/template/111.png"},"source":"geoconfirmed","source_name":"GeoConfirmed","source_url":"https://geoconfirmed.org/map/ukraine","id":"9f5b677b-ef84-47ed-a9f1-ed754185f374","date":"2026-08-23","link":"https://geoconfirmed.org/map/ukraine/9f5b677b-ef84-47ed-a9f1-ed754185f374","category":"Short Range (<50km) OWAD (One Way Attack Drone), mostly rotary wing, Flying OR Attacking a target without knowing the outcome: if something is damaged --> icon of the damaged equipment.","side":"Russia","color":"#E00000","description":"0:32-0:40 - A Russian drone films an FPV strike by the Reconnaissance Company \"Baikal\" that hits a claimed Ukrainian position in Kosivtseve, Zaporizhzhia Oblast.","orbat":["Reconnaissance Company \"Baikal\""],"geolocation":["https://x.com/Bielitzling/status/2091572257470529852"],"sources":["https://x.com/Bielitzling/status/2091572261278904820","https://t.me/Baikal40ob/111"]}}]}