{"type":"FeatureCollection","features":[{"type":"Feature","geometry":null,"properties":{"source":"ua_mod","source_name":"Ministry of Defence of Ukraine","group":"official_ua","id":16239,"posted_utc":"2026-09-23T08:11:11+00:00","link":"https://t.me/ministry_of_defense_ua/16239","text":"✅ Понад 500 підрозділів Сил оборони отримали доступ до DOT-Chain Defence — онлайн-магазину зброї, де військові самі обирають і замовляють необхідні засоби.\nЩе рік тому система була доступна лише 12 бригадам ЗСУ. Тепер нею користуються підрозділи ЗСУ, Нацгвардії, Держприкордонслужби, Нацполіції, СБУ, ГУР і ДССТ. До маркетплейсу також приєдналися підрозділи «Лінії дронів» та окремі штурмові полки.\nЩо найчастіше замовляють військові:\n❶ БпЛА — 84% замовлень;\n❷ засоби РЕБ — 8,6%;\n❸ наземні роботизовані комплекси — 7,2%;\n❹ боєприпаси — 0,2%.\nЗагалом за більш ніж рік роботи через DOT-Chain Defence Сили оборони одержали понад 1,3 млн дронів та інших засобів на 85 млрд грн.","links":["https://mod.gov.ua/news/ponad-500-pidrozdiliv-syl-oborony-korystuiutsia-dot-chain-defence?utm_source=mod-telegram&utm_medium=social"],"original_html":"<b><i class=\"emoji\" style=\"background-image:url('//telegram.org/img/emoji/40/E29C85.png')\"><b>✅</b></i></b> <b>Понад 500 підрозділів Сил оборони отримали доступ до DOT-Chain Defence — онлайн-магазину зброї, де військові самі обирають і замовляють необхідні засоби.</b><br/><br/>Ще рік тому система була доступна лише 12 бригадам ЗСУ. Тепер нею користуються підрозділи ЗСУ, Нацгвардії, Держприкордонслужби, Нацполіції, СБУ, ГУР і ДССТ. До маркетплейсу також приєдналися підрозділи «Лінії дронів» та окремі штурмові полки.<br/><br/><u>Що найчастіше замовляють військові:</u><br/>❶ БпЛА — 84% замовлень;<br/>❷ засоби РЕБ — 8,6%;<br/>❸ наземні роботизовані комплекси — 7,2%;<br/>❹ боєприпаси — 0,2%.<br/><br/>Загалом за більш ніж рік роботи через DOT-Chain Defence Сили оборони одержали <a href=\"https://mod.gov.ua/news/ponad-500-pidrozdiliv-syl-oborony-korystuiutsia-dot-chain-defence?utm_source=mod-telegram&amp;amp;utm_medium=social\" target=\"_blank\" rel=\"noopener\" onclick=\"return confirm('Open this link?\\n\\n'+this.href);\">понад 1,3 млн дронів та інших засобів на 85 млрд грн</a>."}},{"type":"Feature","geometry":null,"properties":{"source":"ua_mod","source_name":"Ministry of Defence of Ukraine","group":"official_ua","id":16240,"posted_utc":"2026-09-23T11:22:11+00:00","link":"https://t.me/ministry_of_defense_ua/16240","text":"✍️ Як спростити оформлення посвідок на тимчасове проживання іноземцям – рекомендації Міністерства оборони для військових частин.\nВійськова частина може організувати більшу частину процесу:\n— визначає відповідальну особу;\n— перевіряє строк законного перебування військовослужбовця в Україні;\n— готує та перевіряє пакет документів;\n— узгоджує його з Державною міграційною службою (ДМС);\n— організовує особисте подання документів;\n— за потреби забезпечує супровід військовослужбовця;\n— організовує отримання готової посвідки.\nВійськовослужбовець особисто проходить лише необхідні процедури: фотографування, біометрію, підписання документів.\nВажливо: іноземцям, які уклали контракт до 10 травня 2026 року і ще не мають посвідки чи іншого документа для законного проживання, треба подати документи до 10 листопада 2026 року.\n🔗 Детальні методичні рекомендації","links":["https://mod.gov.ua/news/minoborony-nadalo-rekomendatsii-dlia-oformlennia-posvidok-na-prozhyvannia-inozemnym-viiskovym?utm_source=mod-telegram&utm_medium=social"],"original_html":"<b><i class=\"emoji\" style=\"background-image:url('//telegram.org/img/emoji/40/E29C8D.png')\"><b>✍️</b></i> Як спростити оформлення посвідок на тимчасове проживання іноземцям</b> – рекомендації Міністерства оборони для військових частин.<br/>&nbsp;<br/>Військова частина може організувати більшу частину процесу:<br/>— визначає відповідальну особу;<br/>— перевіряє строк законного перебування військовослужбовця в Україні;<br/>— готує та перевіряє пакет документів;<br/>— узгоджує його з Державною міграційною службою (ДМС);<br/>— організовує особисте подання документів;<br/>— за потреби забезпечує супровід військовослужбовця;<br/>— організовує отримання готової посвідки.<br/>&nbsp;<br/>Військовослужбовець особисто проходить лише необхідні процедури: фотографування, біометрію, підписання документів.<br/>&nbsp;<br/><b>Важливо:</b> іноземцям, які уклали контракт до 10 травня 2026 року і ще не мають посвідки чи іншого документа для законного проживання, треба подати документи до 10 листопада 2026 року.<br/><br/><i class=\"emoji\" style=\"background-image:url('//telegram.org/img/emoji/40/F09F9497.png')\"><b>🔗</b></i> <a href=\"https://mod.gov.ua/news/minoborony-nadalo-rekomendatsii-dlia-oformlennia-posvidok-na-prozhyvannia-inozemnym-viiskovym?utm_source=mod-telegram&amp;amp;utm_medium=social\" target=\"_blank\" rel=\"noopener\" onclick=\"return confirm('Open this link?\\n\\n'+this.href);\">Детальні методичні рекомендації</a>"}},{"type":"Feature","geometry":null,"properties":{"source":"ua_mod","source_name":"Ministry of Defence of Ukraine","group":"official_ua","id":16241,"posted_utc":"2026-09-23T13:59:28+00:00","link":"https://t.me/ministry_of_defense_ua/16241","text":"Зниклий безвісти військовослужбовець: коли виникає цей статус? Які документи потрібні родині, які виплати зберігаються та які гарантії передбачені законом?\nДля набуття статусу не потрібно чекати певний строк, звертатися до суду чи підтверджувати полон або загибель: особа вважається зниклою безвісти вже з моменту подання заяви про зникнення.\nЗа військовослужбовцем зберігається грошове забезпечення та належні гарантії, а родина може отримувати визначену законом частку виплат.\n🔗 Зібрали в роз’ясненні порядок набуття статусу, документи, виплати та механізми захисту прав родини","links":["https://mod.gov.ua/explanation/status-znykloho-bezvisty-viiskovosluzhbovtsia-yak-nabuvaietsia-i-shcho-harantuietsia-rodyni?utm_source=mod-telegram&utm_medium=social"],"original_html":"<div class=\"tgme_widget_message_text js-message_text\" dir=\"auto\"><b>Зниклий безвісти військовослужбовець: коли виникає цей статус? Які документи потрібні родині, які виплати зберігаються та які гарантії передбачені законом?</b><br/>&nbsp;<br/>Для набуття статусу не потрібно чекати певний строк, звертатися до суду чи підтверджувати полон або загибель: особа вважається зниклою безвісти вже з моменту подання заяви про зникнення.<br/><br/>За військовослужбовцем зберігається грошове забезпечення та належні гарантії, а родина може отримувати визначену законом частку виплат.<br/><br/><i class=\"emoji\" style=\"background-image:url('//telegram.org/img/emoji/40/F09F9497.png')\"><b>🔗</b></i> <a href=\"https://mod.gov.ua/explanation/status-znykloho-bezvisty-viiskovosluzhbovtsia-yak-nabuvaietsia-i-shcho-harantuietsia-rodyni?utm_source=mod-telegram&amp;amp;utm_medium=social\" target=\"_blank\" rel=\"noopener\" onclick=\"return confirm('Open this link?\\n\\n'+this.href);\">Зібрали в роз’ясненні</a> порядок набуття статусу, документи, виплати та механізми захисту прав родини"}},{"type":"Feature","geometry":null,"properties":{"source":"ua_mod","source_name":"Ministry of Defence of Ukraine","group":"official_ua","id":16243,"posted_utc":"2026-09-23T16:04:17+00:00","link":"https://t.me/ministry_of_defense_ua/16243","text":"✍️ Підземні виробництва для оборонних підприємств: Міноборони готує механізм залучення приватного капіталу до будівництва.\nПропонується, щоб замовником будівництва підземних виробничих об’єктів та пов’язаної з ними наземної інфраструктури могло бути не лише підприємство ОПК, а й інша юридична особа, зокрема девелопер або інвестор.\nВони зможуть побудувати об’єкт за власні або залучені кошти, а потім передати його оборонному підприємству у власність, оренду або користування.\nЦе дозволить залучати небюджетні ресурси до створення захищеної оборонної інфраструктури.\n🔗 Докладніше про зміни","links":["https://mod.gov.ua/news/do-rozbudovy-pidzemnoho-opk-zaluchat-pryvatnyi-kapital-minoborony-stvoriuie-mekhanizm?utm_source=mod-telegram&utm_medium=social"],"original_html":"<b><i class=\"emoji\" style=\"background-image:url('//telegram.org/img/emoji/40/E29C8D.png')\"><b>✍️</b></i></b> <b>Підземні виробництва для оборонних підприємств: Міноборони готує механізм залучення приватного капіталу до будівництва.<br/></b><br/>Пропонується, щоб замовником будівництва підземних виробничих об’єктів та пов’язаної з ними наземної інфраструктури могло бути не лише підприємство ОПК, а й інша юридична особа, зокрема девелопер або інвестор.<br/><br/>Вони зможуть побудувати об’єкт за власні або залучені кошти, а потім передати його оборонному підприємству у власність, оренду або користування.<br/><br/>Це дозволить залучати небюджетні ресурси до створення захищеної оборонної інфраструктури.  <br/><br/><i class=\"emoji\" style=\"background-image:url('//telegram.org/img/emoji/40/F09F9497.png')\"><b>🔗</b></i> <a href=\"https://mod.gov.ua/news/do-rozbudovy-pidzemnoho-opk-zaluchat-pryvatnyi-kapital-minoborony-stvoriuie-mekhanizm?utm_source=mod-telegram&amp;amp;utm_medium=social\" target=\"_blank\" rel=\"noopener\" onclick=\"return confirm('Open this link?\\n\\n'+this.href);\"><b>Докладніше про зміни</b></a>"}}]}