{"type":"FeatureCollection","features":[{"type":"Feature","geometry":null,"properties":{"source":"ua_mod","source_name":"Ministry of Defence of Ukraine","group":"official_ua","id":16172,"posted_utc":"2026-09-10T06:30:10+00:00","link":"https://t.me/ministry_of_defense_ua/16172","text":"🤝 Україна та Бельгія визначили оборонні пріоритети до кінця 2026 року і працюють над масштабуванням підтримки у наступному році.\nМіністр оборони України Євгеній Хмара провів розмову з Міністром оборони Бельгії Тео Франкеном.\nОчільник Міноборони України подякував за €1 млрд оборонної допомоги у цьому році. Україна вже конвертує цю підтримку в ефективні засоби для Сил оборони на полі бою.\nОбговорили перспективи розширення співпраці у сфері дронів та спільних промислових проєктів. Україна підтримує всі механізми, які посилюють нашу оборону та спроможності союзників.\nОкремо Євгеній Хмара відзначив роль Бельгії у ремонті та постачанні запасних частин до літаків F-16. Також Україна розраховує отримати додаткові авіаційні боєприпаси для протидії реактивним безпілотникам.\nВдячні Бельгії за підтримку та готовність розвивати взаємовигідне оборонне партнерство.","links":[],"original_html":"<i class=\"emoji\" style=\"background-image:url('//telegram.org/img/emoji/40/F09FA49D.png')\"><b>🤝</b></i> <b>Україна та Бельгія визначили оборонні пріоритети до кінця 2026 року і працюють над масштабуванням підтримки у наступному році.</b><br/><br/>Міністр оборони України Євгеній Хмара провів розмову з Міністром оборони Бельгії Тео Франкеном.<br/><br/>Очільник Міноборони України подякував за €1 млрд оборонної допомоги у цьому році. Україна вже конвертує цю підтримку в ефективні засоби для Сил оборони на полі бою.<br/><br/>Обговорили перспективи розширення співпраці у сфері дронів та спільних промислових проєктів. Україна підтримує всі механізми, які посилюють нашу оборону та спроможності союзників.<br/><br/>Окремо Євгеній Хмара відзначив роль Бельгії у ремонті та постачанні запасних частин до літаків F-16. Також Україна розраховує отримати додаткові авіаційні боєприпаси для протидії реактивним безпілотникам.<br/><br/>Вдячні Бельгії за підтримку та готовність розвивати взаємовигідне оборонне партнерство."}},{"type":"Feature","geometry":null,"properties":{"source":"ua_mod","source_name":"Ministry of Defence of Ukraine","group":"official_ua","id":16173,"posted_utc":"2026-09-10T08:10:55+00:00","link":"https://t.me/ministry_of_defense_ua/16173","text":"💥 17 одиниць ППО, понад 30 пунктів управління, понад 20 складів і 6 мостів — результати middle strike Сил оборони у серпні.\nТриває кампанія з ослаблення оперативного тилу та воєнного потенціалу росії.\nЗнищення ППО, радіолокаційних станцій і засобів РЕБ послаблює захист тилу противника та створює можливості для наступних ударів. Удари по мостах і складах ускладнюють постачання. Ураження пунктів управління знижує стійкість командування військами.\nУ серпні Сили оборони били по позиціях С-400, «Панцир», «Тор», «Бук-М3», «Стріла-10», низці російських РЛС і комплексів РЕБ.\nВажливий напрям – інфраструктура ворожих безпілотних систем. Цілями стали місця зберігання та запуску ударних БпЛА, пункти управління й наземні ретранслятори.\n🔗 Докладніше про уражені об’єкти","links":["https://mod.gov.ua/news/urazheno-17-odynyts-ppo-ta-30-punktiv-upravlinnia-pidsumky-middle-strike-u-serpni?utm_source=mod-telegram&utm_medium=social"],"original_html":"<i class=\"emoji\" style=\"background-image:url('//telegram.org/img/emoji/40/F09F92A5.png')\"><b>💥</b></i> <b>17 одиниць ППО, понад 30 пунктів управління, понад 20 складів і 6 мостів — результати middle strike Сил оборони у серпні.</b><br/><br/>Триває кампанія з ослаблення оперативного тилу та воєнного потенціалу росії.<br/><br/>Знищення ППО, радіолокаційних станцій і засобів РЕБ послаблює захист тилу противника та створює можливості для наступних ударів. Удари по мостах і складах ускладнюють постачання. Ураження пунктів управління знижує стійкість командування військами.<br/><br/>У серпні Сили оборони били по позиціях С-400, «Панцир», «Тор», «Бук-М3», «Стріла-10», низці російських РЛС і комплексів РЕБ.<br/><br/>Важливий напрям – інфраструктура ворожих безпілотних систем. Цілями стали місця зберігання та запуску ударних БпЛА, пункти управління й наземні ретранслятори.<br/><br/><a href=\"https://mod.gov.ua/news/urazheno-17-odynyts-ppo-ta-30-punktiv-upravlinnia-pidsumky-middle-strike-u-serpni?utm_source=mod-telegram&amp;amp;utm_medium=social\" target=\"_blank\" rel=\"noopener\" onclick=\"return confirm('Open this link?\\n\\n'+this.href);\"><b> <i class=\"emoji\" style=\"background-image:url('//telegram.org/img/emoji/40/F09F9497.png')\"><b>🔗</b></i> Докладніше про уражені об’єкти</b></a>"}},{"type":"Feature","geometry":null,"properties":{"source":"ua_mod","source_name":"Ministry of Defence of Ukraine","group":"official_ua","id":16174,"posted_utc":"2026-09-10T09:45:48+00:00","link":"https://t.me/ministry_of_defense_ua/16174","text":"✅ Учителі та інші педагогічні працівники закладів загальної середньої освіти тепер можуть оформити відстрочку в застосунку Резерв+\nЗбирати довідки та звертатися до ЦНАП не потрібно. Система автоматично перевіряє дані в АІКОМ та Пенсійному фонді України.\nДля оформлення відстрочки мають бути виконані такі умови:\n➕ заклад освіти є основним місцем роботи;\n➕ педагогічне навантаження – не менше 0,75 ставки;\n➕ посада належить до педагогічних працівників закладу загальної середньої освіти;\n➕ дані про роботодавця в АІКОМ і ПФУ збігаються.\nПодати запит можна в Резерв+: «Сервіси» → «Запит на відстрочку» → «Учителі та інші педагогічні працівники закладів загальної середньої освіти».\nДокументи завантажувати не потрібно. Після перевірки результат надійде в застосунок.\nЯкщо оформити відстрочку не вдалося, насамперед варто перевірити актуальність даних про місце роботи, посаду та навантаження в АІКОМ і ПФУ.\n🔗 Докладніше про оформлення онлайн","links":["https://mod.gov.ua/news/u-rezerv-rozshyryly-perelik-pedahohichnykh-pratsivnykiv-yaki-mozhut-oformyty-vidstrochku-onlain?utm_source=mod-telegram&utm_medium=social"],"original_html":"<i class=\"emoji\" style=\"background-image:url('//telegram.org/img/emoji/40/E29C85.png')\"><b>✅</b></i> <b>Учителі та інші педагогічні працівники закладів загальної середньої освіти тепер можуть оформити відстрочку в застосунку Резерв+</b><br/><br/>Збирати довідки та звертатися до ЦНАП не потрібно. Система автоматично перевіряє дані в АІКОМ та Пенсійному фонді України.<br/><br/><u>Для оформлення відстрочки мають бути виконані такі умови:</u><br/><i class=\"emoji\" style=\"background-image:url('//telegram.org/img/emoji/40/E29E95.png')\"><b>➕</b></i> заклад освіти є основним місцем роботи;<br/><i class=\"emoji\" style=\"background-image:url('//telegram.org/img/emoji/40/E29E95.png')\"><b>➕</b></i> педагогічне навантаження – не менше 0,75 ставки;<br/><i class=\"emoji\" style=\"background-image:url('//telegram.org/img/emoji/40/E29E95.png')\"><b>➕</b></i> посада належить до педагогічних працівників закладу загальної середньої освіти;<br/><i class=\"emoji\" style=\"background-image:url('//telegram.org/img/emoji/40/E29E95.png')\"><b>➕</b></i> дані про роботодавця в АІКОМ і ПФУ збігаються.<br/><br/>Подати запит можна в Резерв+: «Сервіси» → «Запит на відстрочку» → «Учителі та інші педагогічні працівники закладів загальної середньої освіти».<br/><br/>Документи завантажувати не потрібно. Після перевірки результат надійде в застосунок.<br/><br/>Якщо оформити відстрочку не вдалося, насамперед варто перевірити актуальність даних про місце роботи, посаду та навантаження в АІКОМ і ПФУ.<br/><br/><a href=\"https://mod.gov.ua/news/u-rezerv-rozshyryly-perelik-pedahohichnykh-pratsivnykiv-yaki-mozhut-oformyty-vidstrochku-onlain?utm_source=mod-telegram&amp;amp;utm_medium=social\" target=\"_blank\" rel=\"noopener\" onclick=\"return confirm('Open this link?\\n\\n'+this.href);\"><b><i class=\"emoji\" style=\"background-image:url('//telegram.org/img/emoji/40/F09F9497.png')\"><b>🔗</b></i> Докладніше про оформлення онлайн</b></a>"}},{"type":"Feature","geometry":null,"properties":{"source":"ua_mod","source_name":"Ministry of Defence of Ukraine","group":"official_ua","id":16175,"posted_utc":"2026-09-10T12:47:43+00:00","link":"https://t.me/ministry_of_defense_ua/16175","text":"💥 Вивчаємо географію рф за українськими далекобійними санкціями.\nВчора безпілотники уразили газоконденсатні заводи в Ямало-Ненецькому окрузі. Рекорд за глибиною ураження тилу противника належить тепер Силам спеціальних операцій – понад 3000 км.","links":[],"original_html":"<i class=\"emoji\" style=\"background-image:url('//telegram.org/img/emoji/40/F09F92A5.png')\"><b>💥</b></i> <b>Вивчаємо географію рф за українськими далекобійними санкціями. </b><br/><br/>Вчора безпілотники уразили газоконденсатні заводи в Ямало-Ненецькому окрузі. Рекорд за глибиною ураження тилу противника належить тепер Силам спеціальних операцій – понад 3000 км."}},{"type":"Feature","geometry":null,"properties":{"source":"ua_mod","source_name":"Ministry of Defence of Ukraine","group":"official_ua","id":16176,"posted_utc":"2026-09-10T15:29:53+00:00","link":"https://t.me/ministry_of_defense_ua/16176","text":"✅ 260 000 пар напівчеревиків поставлено до ЗСУ. Річну потребу закрито повністю.\nЗагальна вартість законтрактованого взуття становить майже 560 млн грн. Агенція оборонних закупівель ДОТ завершила постачання всього обсягу влітку — тепер напівчеревики видаються у підрозділах.\nВзуття, виготовлене з текстильних матеріалів і нубуку, призначене для носіння за температури від +10 °C. Пара важить близько 900 грамів, має захисні вставки та устілку з ефектом пам’яті.\nПеред постачанням кожна партія проходить випробування, зокрема на міцність і стійкість до проникнення води.","links":[],"original_html":"<b><i class=\"emoji\" style=\"background-image:url('//telegram.org/img/emoji/40/E29C85.png')\"><b>✅</b></i> 260 000 пар напівчеревиків поставлено до ЗСУ. Річну потребу закрито повністю.</b><br/><br/>Загальна вартість законтрактованого взуття становить майже 560 млн грн. Агенція оборонних закупівель ДОТ завершила постачання всього обсягу влітку — тепер напівчеревики видаються у підрозділах.<br/><br/>Взуття, виготовлене з текстильних матеріалів і нубуку, призначене для носіння за температури від +10 °C. Пара важить близько 900 грамів, має захисні вставки та устілку з ефектом пам’яті.<br/><br/>Перед постачанням кожна партія проходить випробування, зокрема на міцність і стійкість до проникнення води."}}]}