{"type":"FeatureCollection","features":[{"type":"Feature","geometry":{"type":"Polygon","coordinates":[[[37.8623,48.82018],[37.85766,48.81964],[37.85788,48.82817],[37.86745,48.828],[37.87054,48.83221],[37.87144,48.83631],[37.87092,48.83868],[37.87426,48.84311],[37.87971,48.83922],[37.88297,48.8273],[37.86692,48.82334],[37.86701,48.82142],[37.8623,48.82018]]]},"properties":{"source":"ukrdaily","source_name":"UkrDailyUpdate","source_url":"https://map.ukrdailyupdate.com/","category":"gained","category_label":"Russian advance: became occupied","period":"1d","compared_with":"2026-07-29","snapshot_time":"2026-07-30","area_km2_approx":2.1}}]}